01/01/2015 00:00:00Z	 SAID31 WIII 010000	METAR WIII 010000Z 24008KT 9000 SCT020 24/23 Q1010 NOSIG=
01/01/2015 00:30:00Z	 SAID31 WIII 010030	METAR WIII 010030Z 24008KT 7000 -RA 24/23 Q1011 TEMPO TL 0130 6000 - RA=
01/01/2015 01:00:00Z	 SAID31 WIII 010100	METAR WIII 010100Z 27006KT 7000 -RA SCT020 BKN090 24/23 Q1011 NOSIG=
01/01/2015 01:30:00Z	 SAID31 WIII 010130	METAR WIII 010130Z 28005KT 7000 FEW020 BKN090 25/24 Q1011 RERA NOSIG=
01/01/2015 02:00:00Z	 SAID31 WIII 010200	METAR WIII 010200Z 28007KT 8000 FEW020 BKN090 26/24 Q1011 NOSIG=
01/01/2015 02:30:00Z	 SAID31 WIII 010230	METAR WIII 010230Z 29007KT 8000 FEW020 BKN090 27/24 Q1011 NOSIG=
01/01/2015 03:00:00Z	 SAID31 WIII 010300	METAR WIII 010300Z 29007KT 8000 FEW020 BKN090 28/24 Q1011 NOSIG=
01/01/2015 03:30:00Z	 SAID31 WIII 010330	METAR WIII 010330Z 27009KT 8000 SCT018 BKN090 28/24 Q1010 NOSIG=
01/01/2015 04:00:00Z	 SAID31 WIII 010400	METAR WIII 010400Z 28011KT 8000 SCT018 BKN090 29/24 Q1010 NOSIG=
01/01/2015 04:30:00Z	 SAID31 WIII 010430	METAR WIII 010430Z 28010KT 8000 SCT018 BKN090 29/24 Q1009 NOSIG=
01/01/2015 05:00:00Z	 SAID31 WIII 010500	METAR WIII 010500Z 28011KT 8000 FEW018 BKN090 28/23 Q1009 NOSIG=
01/01/2015 05:30:00Z	 SAID31 WIII 010530	METAR WIII 010530Z 28010KT 8000 SCT018 BKN090 29/24 Q1009 NOSIG=
01/01/2015 06:00:00Z	 SAID31 WIII 010600	METAR WIII 010600Z 29012KT 9000 SCT018 BKN090 29/24 Q1009 TEMPO -RA=
01/01/2015 06:30:00Z	 SAID31 WIII 010630	METAR WIII 010630Z 29009KT 9000 FEW018 BKN090 29/24 Q1008 NOSIG=
01/01/2015 07:00:00Z	 SAID31 WIII 010700	METAR WIII 010700Z 30009KT 8000 SCT018 BKN090 29/25 Q1008 NOSIG=
01/01/2015 07:30:00Z	 SAID31 WIII 010730	METAR WIII 010730Z 28013KT 5000 -RA SCT017 BKN090 27/24 Q1008 BECMG T L0900 HZ 8000=
01/01/2015 08:00:00Z	 SAID31 WIII 010800	METAR WIII 010800Z 26013KT 5000 -RA SCT017 BKN090 25/23 Q1008 NOSIG=
01/01/2015 08:30:00Z	 SAID31 WIII 010830	METAR WIII 010830Z 26007KT 5000 -RA SCT018 BKN090 25/24 Q1008 NOSIG=
01/01/2015 09:00:00Z	 SAID31 WIII 010900	METAR WIII 010900Z 27006KT 5000 -RA SCT018 BKN090 26/24 Q1008 NOSIG=
01/01/2015 09:30:00Z	 SAID31 WIII 010930	METAR WIII 010930Z 28006KT 6000 -RA FEW018 BKN090 26/24 Q1008 NOSIG=
01/01/2015 10:00:00Z	 SAID31 WIII 011000	METAR WIII 011000Z 27006KT 7000 FEW020 BKN090 26/24 Q1009 RERA NOSIG=
01/01/2015 10:30:00Z	 SAID31 WIII 011030	METAR WIII 011030Z 26007KT 7000 -RA FEW018CB FEW020 BKN090 26/24 Q100 9 NOSIG RMK CB TO NW=
01/01/2015 11:00:00Z	 SAID31 WIII 011100	METAR WIII 011100Z 26007KT 7000 FEW018 BKN090 26/24 Q1009 RERA NOSIG=
01/01/2015 11:30:00Z	 SAID31 WIII 011130	METAR WIII 011130Z 25009KT 7000 FEW018 SCT090 26/24 Q1009 NOSIG=
01/01/2015 12:00:00Z	 SAID31 WIII 011200	METAR WIII 011200Z 26009KT 7000 FEW020CB FEW021 BKN090 26/23 Q1010 NO SIG RMK CB TO N=
01/01/2015 12:30:00Z	 SAID31 WIII 011230	METAR WIII 011230Z 24008KT 5000 HZ SCT018 26/23 Q1010 NOSIG=
01/01/2015 13:00:00Z	 SAID31 WIII 011300	METAR WIII 011300Z 24009KT 5000 HZ SCT018 26/23 Q1011 NOSIG=
01/01/2015 13:30:00Z	 SAID31 WIII 011330	METAR WIII 011330Z 24009KT 5000 HZ SCT020 26/23 Q1011 NOSIG=
01/01/2015 14:00:00Z	 SAID31 WIII 011400	METAR WIII 011400Z 25007KT 5000 HZ SCT020 26/23 Q1012 NOSIG=
01/01/2015 14:30:00Z	 SAID31 WIII 011430	METAR WIII 011430Z 25008KT 5000 HZ SCT020 26/23 Q1012 NOSIG=
01/01/2015 15:00:00Z	 SAID31 WIII 011500	METAR WIII 011500Z 25007KT 4000 -RA SCT020 BKN060 25/24 Q1012 NOSIG=
01/01/2015 15:30:00Z	 SAID31 WIII 011530	METAR WIII 011530Z 26006KT 4000 BR SCT020 BKN060 25/23 Q1012 RERA=
01/01/2015 16:00:00Z	 SAID31 WIII 011600	METAR WIII 011600Z 22008KT 4000 BR SCT020 BKN060 26/23 Q1012 NOSIG=
01/01/2015 16:30:00Z	 SAID31 WIII 011630	METAR WIII 011630Z 23007KT 5000 BR SCT020 BKN090 25/23 Q1011 NOSIG=
01/01/2015 17:00:00Z	 SAID31 WIII 011700	METAR WIII 011700Z 28007KT 3000 -RA FEW020CB SCT020 BKN090 25/23 Q101 1 NOSIG RMK CB TO N AND E=
01/01/2015 17:30:00Z	 SAID31 WIII 011730	METAR WIII 011730Z 26006KT 3500 -RA FEW020CB SCT020 BKN090 25/23 Q101 1 NOSIG RMK CB TO N AND E=
01/01/2015 18:00:00Z	 SAID31 WIII 011800	METAR WIII 011800Z 26006KT 4000 BR SCT020 BKN090 25/23 Q1010 RERA NOS IG=
01/01/2015 18:30:00Z	 SAID31 WIII 011830	METAR WIII 011830Z 27007KT 5000 BR FEW020 BKN090 25/23 Q1010 NOSIG=
01/01/2015 19:00:00Z	 SAID31 WIII 011900	METAR WIII 011900Z 28005KT 6000 FEW020 BKN090 24/22 Q1010 NOSIG=
01/01/2015 19:30:00Z	 SAID31 WIII 011930	METAR WIII 011930Z AUTO 28004KT 9999 24/22 Q1010=
01/01/2015 20:00:00Z	 SAID31 WIII 012000	METAR WIII 012000Z 30003KT 6000 FEW020 BKN090 24/23 Q1010 NOSIG=
01/01/2015 21:00:00Z	 SAID31 WIII 012100	METAR WIII 012100Z 27003KT 5000 BR FEW020 BKN090 24/23 Q1010 NOSIG=
01/01/2015 21:30:00Z	 SAID31 WIII 012130	METAR WIII 012130Z 26004KT 5000 BR FEW020CB FEW020 24/23 Q1010 NOSIG RMK CB TO W=
01/01/2015 22:00:00Z	 SAID31 WIII 012200	METAR WIII 012200Z 25004KT 5000 BR FEW020CB FEW020 24/23 Q1010 NOSIG RMK CB TO W=
01/01/2015 22:30:00Z	 SAID31 WIII 012230	METAR WIII 012230Z 26005KT 5000 BR FEW020 24/23 Q1010 NOSIG=
01/01/2015 23:00:00Z	 SAID31 WIII 012300	METAR WIII 012300Z 26007KT 5000 BR FEW020 24/23 Q1011 NOSIG=
01/01/2015 23:30:00Z	 SAID31 WIII 012330	METAR WIII 012330Z 25008KT 5000 BR FEW020 25/24 Q1011 NOSIG=
02/01/2015 00:00:00Z	 SAID31 WIII 020000	METAR WIII 020000Z 25008KT 5000 BR FEW020 BKN060 25/23 Q1012 NOSIG=
02/01/2015 00:30:00Z	 SAID31 WIII 020030	METAR WIII 020030Z 25008KT 5000 BR FEW020 BKN060 25/23 Q1012 NOSIG=
02/01/2015 01:00:00Z	 SAID31 WIII 020100	METAR WIII 020100Z 26008KT 6000 FEW020 BKN060 26/24 Q1012 NOSIG=
02/01/2015 01:30:00Z	 SAID31 WIII 020130	METAR WIII 020130Z 28008KT 7000 SCT020 27/24 Q1012 NOSIG=
02/01/2015 02:00:00Z	 SAID31 WIII 020200	METAR WIII 020200Z 29009KT 8000 SCT020 BKN100 29/24 Q1012 NOSIG=
02/01/2015 02:30:00Z	 SAID31 WIII 020230	METAR WIII 020230Z 29010KT 8000 SCT020 NKN100 29/25 Q1012 NOSIG=
02/01/2015 03:00:00Z	 SAID31 WIII 020300	METAR WIII 020300Z 29007G17KT 8000 SCT018 OVC090 28/24 Q1011 NOSIG=
02/01/2015 03:30:00Z	 SAID31 WIII 020330	METAR WIII 020330Z 28010KT 8000 SCT020 BKN090 28/24 Q1011 NOSIG=
02/01/2015 04:00:00Z	 SAID31 WIII 020400	METAR WIII 020400Z 29009KT 9999 SCT020 BKN100 31/24 Q1011 NOSIG=
02/01/2015 04:30:00Z	 SAID31 WIII 020430	METAR WIII 020430Z 29008KT 260V330 9999 SCT020 BKN100 31/24 Q1011 NOS IG=
02/01/2015 05:00:00Z	 SAID31 WIII 020500	METAR WIII 020500Z 29008KT 8000 SCT020 BKN100 31/24 Q1010 NOSIG=
02/01/2015 05:30:00Z	 SAID31 WIII 020530	METAR WIII 020530Z AUTO 29008KT 260V330 9999 30/23 Q1010=
02/01/2015 06:00:00Z	 SAID31 WIII 020600	METAR WIII 020600Z 31010KT 280V340 8000 SCT018 BKN090 30/23 Q1010 NOS IG=
02/01/2015 06:30:00Z	 SAID31 WIII 020630	METAR WIII 020630Z 31006G16KT 280V340 8000 SCT018 BKN090 31/24 Q1009 TEMPO FM0630 VCSH FEW018CB=
02/01/2015 07:00:00Z	 SAID31 WIII 020700	METAR WIII 020700Z 30012KT 8000 FEW018CB SCT020 OVC090 30/24 Q1009 NO SIG RMK CB TO S=
02/01/2015 07:30:00Z	 SAID31 WIII 020730	METAR WIII 020730Z 28008KT 8000 FEW018CB SCT018 OVC090 29/24 Q1008 TE MPO FM0745 5000 -RA=
02/01/2015 08:00:00Z	 SAID31 WIII 020800	METAR WIII 020800Z 24010KT 5000 -RA FEW018CB SCT020 BKN090 27/24 Q100 8 NOSIG=
02/01/2015 08:30:00Z	 SAID31 WIII 020830	METAR WIII 020830Z 31008KT 5000 -RA FEW018CB SCT020 BKN090 26/25 Q100 8 RMK CB TO E=
02/01/2015 09:00:00Z	 SAID31 WIII 020900	METAR WIII 020900Z 29008KT 5000 HZ FEW018CB SCT018 BKN090 29/25 Q1008 RERA RMK CB TO SE=
02/01/2015 09:30:00Z	 SAID31 WIII 020930	METAR WIII 020930Z 24009KT 5000 HZ FEW018CB SCT020 BKN090 27/24 Q1008 RMK CB TO E=
02/01/2015 10:00:00Z	 SAID31 WIII 021000	METAR WIII 021000Z 23009KT 6000 SCT020 BKN090 27/24 Q1008 NOSIG=
02/01/2015 10:30:00Z	 SAID31 WIII 021030	METAR WIII 021030Z 23009KT 7000 SCT020 BKN090 27/24 Q1009 NOSIG=
02/01/2015 11:00:00Z	 SAID31 WIII 021100	METAR WIII 021100Z 23009KT 8000 SCT020 BKN090 27/24 Q1010 NOSIG=
02/01/2015 11:30:00Z	 SAID31 WIII 021130	METAR WIII 021130Z 24012G22KT 5000 RA SCT018 OVC090 24/22 Q1010=
02/01/2015 12:30:00Z	 SAID31 WIII 021230	METAR WIII 021230Z 28009G16KT 5000 -RA FEW018CB SCT020 OVC090 24/23 Q 1011 RMK CB TO N=
02/01/2015 13:00:00Z	 SAID31 WIII 021300	METAR WIII 021300Z 27009KT 5000 -RA FEW018CB SCT020 BKN090 24/23 Q101 1 NOSIG RMK CB TO NE AND SW=
02/01/2015 13:30:00Z	 SAID31 WIII 021330	METAR WIII 021330Z 26006KT 5000 -RA FEW018CB SCT020 24/23 Q1011 NOSIG RMK CB TO NE=
02/01/2015 14:00:00Z	 SAID31 WIII 021400	METAR WIII 021400Z 26006KT 5000 -RA FEW018CB SCT020 24/23 Q1012 NOSIG RMK CB TO N=
02/01/2015 14:30:00Z	 SAID31 WIII 021430	METAR WIII 021430Z 22008KT 5000 -RA FEW018CB SCT020 25/23 Q1012 NOSIG RMK CB TO NE=
02/01/2015 15:00:00Z	 SAID31 WIII 021500	METAR WIII 021500Z 22012KT 5000 -RA FEW018CB SCT020 25/23 Q1012 NOSIG RMK CB TO NE=
02/01/2015 15:30:00Z	 SAID31 WIII 021530	METAR WIII 021530Z 25013KT 5000 -RA FEW018CB SCT020 24/23 Q1012 NOSIG RMK CB TO NE=
02/01/2015 16:00:00Z	 SAID31 WIII 021600	METAR WIII 021600Z 26010KT 5000 -RA FEW018CB SCT019 24/23 Q1012 NOSIG RMK CB TO N=
02/01/2015 16:30:00Z	 SAID31 WIII 021630	METAR WIII 021630Z 25007KT 5000 -RA SCT018 BKN090 24/23 Q1012 NOSIG=
02/01/2015 17:00:00Z	 SAID31 WIII 021700	METAR WIII 021700Z 23008KT 5000 -RA FEW018CB SCT019 24/23 Q1011 BECMG TL1730 HZ RMK CB TO N=
02/01/2015 17:30:00Z	 SAID31 WIII 021730	METAR WIII 021730Z 24009KT 5000 -RA FEW018CB SCT019 24/23 Q1011 NOSIG RMK CB TO N=
02/01/2015 18:00:00Z	 SAID31 WIII 021800	METAR WIII 021800Z 25007KT 5000 -RA FEW018CB SCT020 24/23 Q1011 NOSIG RMK CB TO N=
02/01/2015 18:30:00Z	 SAID31 WIII 021830	METAR WIII 021830Z 25008KT 5000 -RA FEW018CB SCT019 24/23 Q1011 NOSIG RMK CB TO N=
02/01/2015 19:00:00Z	 SAID31 WIII 021900	METAR WIII 021900Z 26006KT 5000 -RA SCT018 24/23 Q1011 NOSIG=
02/01/2015 19:30:00Z	 SAID31 WIII 021930	METAR WIII 021930Z 28003KT 5000 -RA SCT018 24/23 Q1011 NOSIG=
02/01/2015 20:00:00Z	 SAID31 WIII 022000	METAR WIII 022000Z 26003KT 5000 -RA FEW018CB SCT020 24/23 Q1011 NOSIG RMK CB TO NW=
02/01/2015 20:30:00Z	 SAID31 WIII 022030	METAR WIII 022030Z 31002KT 5000 -RA SCT020 24/23 Q1010 NOSIG=
02/01/2015 21:00:00Z	 SAID31 WIII 022100	METAR WIII 022100Z 33003KT 5000 -RA SCT019 24/23 Q1010 NOSIG=
02/01/2015 21:30:00Z	 SAID31 WIII 022130	METAR WIII 022130Z 25004KT 3000 -RA FEW018CB SCT019 24/23 Q1010 NOSIG RMK CB TO NE=
02/01/2015 22:00:00Z	 SAID31 WIII 022200	METAR WIII 022200Z 23005KT 3000 BR FEW018CB SCT019 24/23 Q1011 RERA N OSIG RMK CB TO NE=
02/01/2015 22:30:00Z	 SAID31 WIII 022230	METAR WIII 022230Z VRB02KT 3000 BR FEW018CB SCT019 24/23 Q1011 NOSIG RMK CB TO NE=
02/01/2015 23:00:00Z	 SAID31 WIII 022300	METAR WIII 022300Z VRB03KT 3000 BR SCT019 24/23 Q1011 NOSIG=
02/01/2015 23:30:00Z	 SAID31 WIII 022330	METAR WIII 022330Z 25003KT 4000 BR SCT018 25/24 Q1012 NOSIG=
03/01/2015 00:00:00Z	 SAID31 WIII 030000	METAR WIII 030000Z 27003KT 4000 BR SCT018 25/24 Q1012 NOSIG=
03/01/2015 00:30:00Z	 SAID31 WIII 030030	METAR WIII 030030Z VRB03KT 4000 BR SCT020 25/24 Q1012 NOSIG=
03/01/2015 01:00:00Z	 SAID31 WIII 030100	METAR WIII 030100Z 26004KT 5000 HZ SCT020 26/24 Q1012 NOSIG=
03/01/2015 01:30:00Z	 SAID31 WIII 030130	METAR WIII 030130Z 27004KT 6000 SCT020 27/24 Q1012 NOSIG=
03/01/2015 02:00:00Z	 SAID31 WIII 030200	METAR WIII 030200Z 28006KT 250V320 6000 SCT020 28/25 Q1012 NOSIG=
03/01/2015 02:30:00Z	 SAID31 WIII 030230	METAR WIII 030230Z 30008KT 6000 SCT020 29/24 Q1012 NOSIG=
03/01/2015 03:00:00Z	 SAID31 WIII 030300	METAR WIII 030300Z 30008G16KT 8000 BKN019 29/25 Q1012 NOSIG=
03/01/2015 03:30:00Z	 SAID31 WIII 030330	METAR WIII 030330Z 31009KT 9000 BKN020 30/24 Q1011 NOSIG=
03/01/2015 04:00:00Z	 SAID31 WIII 030400	METAR WIII 030400Z 31010KT 9999 SCT020 30/25 Q1011 NOSIG=
03/01/2015 04:30:00Z	 SAID31 WIII 030430	METAR WIII 030430Z 30012KT 9999 SCT020 30/24 Q1011 NOSIG=
03/01/2015 05:00:00Z	 SAID31 WIII 030500	METAR WIII 030500Z 31009KT 280V360 9999 SCT020 30/25 Q1010 NOSIG=
03/01/2015 05:30:00Z	 SAID31 WIII 030530	METAR WIII 030530Z 32009KT 270V340 9999 SCT020 39/25 Q1010 NOSIG=
03/01/2015 06:00:00Z	 SAID31 WIII 030600	METAR WIII 030600Z 30008KT 9999 SCT020 30/25 Q1009 NOSIG=
03/01/2015 06:30:00Z	 SAID31 WIII 030630	METAR WIII 030630Z 30009KT 280V350 9999 SCT020 29/24 Q1009 NOSIG=
03/01/2015 07:00:00Z	 SAID31 WIII 030700	METAR WIII 030700Z 30009KT 9999 SCT020 29/24 Q1008 NOSIG=
03/01/2015 07:30:00Z	 SAID31 WIII 030730	METAR WIII 030730Z 32006KT 280V340 9999 SCT020 29/25 Q1008 NOSIG=
03/01/2015 08:00:00Z	 SAID31 WIII 030800	METAR WIII 030800Z 32006KT 290V360 9000 FEW019CB SCT020 29/25 Q1007 N OSIG RMK CB TO S=
03/01/2015 08:30:00Z	 SAID31 WIII 030830	METAR WIII 030830Z 33008KT 8000 -RA FEW019CB SCT020 29/24 Q1007 NOSIG RMK CB TO S=
03/01/2015 09:00:00Z	 SAID31 WIII 030900	METAR WIII 030900Z 25007KT 230V290 1900 TSRA SCT017CB SCT018 26/25 Q 1008 NOSIG RMK CB TO W=
03/01/2015 09:30:00Z	 SAID31 WIII 030930	METAR WIII 030930Z 23009G19KT 500 TSRA SCT015CB BKN016 25/24 Q1009 NO SIG RMK CB OVER THE FIELDS=
03/01/2015 10:00:00Z	 SAID31 WIII 031000	METAR WIII 031000Z 27009G19KT 250V310 0800 R25R/0700V1200 TSRA SCT015 CB BKN016 25/24 Q1009 NOSIG RMK CB OVER THE FIELDS=
03/01/2015 10:30:00Z	 SAID31 WIII 031030	METAR WIII 031030Z 23008KT 7000 FEW018CB BKN019 25/24 Q1009 RERA NOSI G RMK CB TO E=
03/01/2015 11:00:00Z	 SAID31 WIII 031100	METAR WIII 031100Z 23010KT 7000 VCTS FEW018CB SCT020 25/23 Q1009 NOSI G RMK CB TO E=
03/01/2015 11:30:00Z	 SAID31 WIII 031130	METAR WIII 031130Z 22010KT 7000 FEW018CB SCT020 25/23 Q1010 NOSIG RMK CB TO E=
03/01/2015 12:00:00Z	 SAID31 WIII 031200	METAR WIII 031200Z 23009KT 6000 -RA FEW018CB SCT020 25/23 Q1010 NOSIG RMK CB TO E=
03/01/2015 12:30:00Z	 SAID31 WIII 031230	METAR WIII 031230Z 23010KT 7000 -RA FEW017CB SCT018 25/22 Q1010 NOSIG RMK CB TO E=
03/01/2015 13:00:00Z	 SAID31 WIII 031300	METAR WIII 031300Z 23010KT FEW017CB SCT018 BKN100 25/23 Q1010 TEMPO F M1300 5000 -RA RMK CB TO N=
03/01/2015 13:30:00Z	 SAID31 WIII 031330	METAR WIII 031330Z 22010KT 7000 FEW018CB SCT020 BKN100 25/23 Q1011 RE RA RMK CB TO N AND NE=
03/01/2015 14:00:00Z	 SAID31 WIII 031400	METAR WIII 031400Z 23009KT 7000 FEW018CB SCT020 25/23 Q1011 NOSIG RMK CB TO N=
03/01/2015 14:30:00Z	 SAID31 WIII 031430	METAR WIII 031430Z 26007KT 7000 SCT020 25/23 Q1012 NOSIG=
03/01/2015 15:00:00Z	 SAID31 WIII 031500	METAR WIII 031500Z 25008KT 4000 -RA FEW020CB SCT020 BKN100 25/23 Q101 1 NOSIG RMK CB TO NE=
03/01/2015 15:30:00Z	 SAID31 WIII 031530	METAR WIII 031530Z 26006KT 5000 -RA FEW020CB SCT020 BKN100 25/23 Q101 1 NOSIG RMK CB TO NE=
03/01/2015 16:00:00Z	 SAID31 WIII 031600	METAR WIII 031600Z 25011KT 7000 FEW020CB SCT020 25/23 Q1011 RERA NOSI G RMK CB TO N=
03/01/2015 16:30:00Z	 SAID31 WIII 031630	METAR WIII 031630Z 24009KT 8000 SCT020 24/22 Q1011 NOSIG=
03/01/2015 17:00:00Z	 SAID31 WIII 031700	METAR WIII 031700Z 22008KT 8000 SCT020 24/22 Q1010 NOSIG=
03/01/2015 17:30:00Z	 SAID31 WIII 031730	METAR WIII 031730Z 23007KT 8000 BKN020 24/22 Q1010 NOSIG=
03/01/2015 18:00:00Z	 SAID31 WIII 031800	METAR WIII 031800Z 23010KT 8000 SCT020 24/22 Q1009 NOSIG=
03/01/2015 18:30:00Z	 SAID31 WIII 031830	METAR WIII 031830Z 25010KT 8000 BKN020 24/22 Q1010 NOSIG=
03/01/2015 19:00:00Z	 SAID31 WIII 031900	METAR WIII 031900Z 26009KT 8000 FEW018CB SCT020 24/22 Q1010 NOSIG RMK CB TO N=
03/01/2015 19:30:00Z	 SAID31 WIII 031930	METAR WIII 031930Z 26011KT 7000 FEW020CB BKN020 24/23 Q1009 NOSIG RMK CB TO N=
03/01/2015 20:00:00Z	 SAID31 WIII 032000	METAR WIII 032000Z 25012KT 3500 RA FEW018CB BKN020 24/23 Q1009 RMK CB TO N=
03/01/2015 20:30:00Z	 SAID31 WIII 032030	METAR WIII 032030Z 25011KT 5000 RA FEW018CB BKN020 24/23 Q1009 RMK CB TO N=
03/01/2015 21:00:00Z	 SAID31 WIII 032100	METAR WIII 032100Z 24008G18KT 5000 RA FEW018CB BKN020 24/23 Q1009 RMK CB TO N=
03/01/2015 21:30:00Z	 SAID31 WIII 032130	METAR WIII 032130Z 24012KT 3300 RA FEW018CB BKN020 23/23 Q1009 RMK CB TO N AND NE=
03/01/2015 22:00:00Z	 SAID31 WIII 032200	METAR WIII 032200Z 24012KT 3500 RA FEW018CB BKN020 23/23 Q1009 RMK CB TO N=
03/01/2015 22:30:00Z	 SAID31 WIII 032230	METAR WIII 032230Z 25010KT 4000 RA BKN020 OVC090 23/23 Q1010 BECMG TL 2330 3000 RA=
03/01/2015 23:00:00Z	 SAID31 WIII 032300	METAR WIII 032300Z 24010KT 5000 RA BKN020 OVC090 24/23 Q1010 BECMG TL 2330 3000 RA=
03/01/2015 23:30:00Z	 SAID31 WIII 032330	METAR WIII 032330Z 25008KT 5000 RA BKN020 OVC090 24/23 Q1010 BECMG TL 2330 3000 RA=
04/01/2015 00:00:00Z	 SAID31 WIII 040000	METAR WIII 040000Z 25007KT 3500 RA BKN020 OVC090 24/23 Q1010 NOSIG=
04/01/2015 00:30:00Z	 SAID31 WIII 040030	METAR WIII 040030Z 24007KT 5000 -RA BKN020 OVC090 24/23 Q1011 NOSIG=
04/01/2015 01:00:00Z	 SAID31 WIII 040100	METAR WIII 040100Z 26006KT 5000 -RA SCT020 BKN060 24/23 Q1011 NOSIG=
04/01/2015 01:30:00Z	 SAID31 WIII 040130	METAR WIII 040130Z 22006KT 5000 -RA SCT020 BKN060 25/23 Q1011 NOSIG=
04/01/2015 02:00:00Z	 SAID31 WIII 040200	METAR WIII 040200Z 25006KT 5000 -RA SCT020 BKN060 25/24 Q1011 NOSIG=
04/01/2015 02:30:00Z	 SAID31 WIII 040230	METAR WIII 040230Z 27012G19KT 5000 -RA SCT020 BKN060 25/23 Q1011 NOSI G=
04/01/2015 03:00:00Z	 SAID31 WIII 040300	METAR WIII 040300Z 28010KT 5000 RA SCT020 BKN060 24/23 Q1011 NOSIG=
04/01/2015 03:30:00Z	 SAID31 WIII 040330	METAR WIII 040330Z 27010KT 6000 -RA SCT020 BKN060 24/23 Q1011 NOSIG=
04/01/2015 04:00:00Z	 SAID31 WIII 040400	METAR WIII 040400Z 27012KT 6000 -RA SCT020 BKN060 25/23 Q1011 NOSIG=
04/01/2015 04:30:00Z	 SAID31 WIII 040430	METAR WIII 040430Z 28012G17KT 6000 -RA SCT020 BKN060 25/24 Q1010 NOSI G=
04/01/2015 05:00:00Z	 SAID31 WIII 040500	METAR WIII 040500Z 29012G18KT 7000 -RA SCT020 BKN060 25/23 Q1010 NOSI G=
04/01/2015 05:30:00Z	 SAID31 WIII 040530	METAR WIII 040530Z 28012G18KT 8000 SCT020 27/24 Q1009 RERA=
04/01/2015 06:00:00Z	 SAID31 WIII 040600	METAR WIII 040600Z 28011G18KT 8000 BKN020 27/23 Q1009 NOSIG=
04/01/2015 06:30:00Z	 SAID31 WIII 040630	METAR WIII 040630Z 27011KT 9000 SCT018 26/23 Q1009 NOSIG=
04/01/2015 07:00:00Z	 SAID31 WIII 040700	METAR WIII 040700Z 27015G22KT 9000 BKN020 28/24 Q1008 NOSIG=
04/01/2015 07:30:00Z	 SAID31 WIII 040730	METAR WIII 040730Z 28011KT 9000 BKN020 28/24 Q1008 NOSIG=
04/01/2015 08:00:00Z	 SAID31 WIII 040800	METAR WIII 040800Z 26011G16KT 8000 BKN020 28/23 Q1007 NOSIG=
04/01/2015 08:30:00Z	 SAID31 WIII 040830	METAR WIII 040830Z 25012KT 8000 BKN020 28/23 Q1008 NOSIG=
04/01/2015 09:00:00Z	 SAID31 WIII 040900	METAR WIII 040900Z 28009KT 6000 -RA SCT020 BKN060 26/23 Q1008 NOSIG=
04/01/2015 09:30:00Z	 SAID31 WIII 040930	METAR WIII 040930Z 27007KT 7000 FEW020 BKN060 26/23 Q1008 RERA=
04/01/2015 10:00:00Z	 SAID31 WIII 041000	METAR WIII 041000Z 27008KT 8000 FEW020 BKN060 27/23 Q1008 NOSIG=
04/01/2015 10:30:00Z	 SAID31 WIII 041030	METAR WIII 041030Z 26008KT 8000 FEW020 BKN060 27/23 Q1008 NOSIG=
04/01/2015 11:00:00Z	 SAID31 WIII 041100	METAR WIII 041100Z 25008KT 7000 FEW020 BKN060 26/23 Q1009 NOSIG=
04/01/2015 11:30:00Z	 SAID31 WIII 041130	METAR WIII 041130Z 26008KT 6000 FEW020 BKN060 26/23 Q1009 NOSIG=
04/01/2015 12:00:00Z	 SAID31 WIII 041200	METAR WIII 041200Z 26008KT 6000 FEW020 BKN060 26/23 Q1009 NOSIG=
04/01/2015 12:30:00Z	 SAID31 WIII 041230	METAR WIII 041230Z 23010KT 6000 FEW020 BKN060 26/23 Q1009 NOSIG=
04/01/2015 13:00:00Z	 SAID31 WIII 041300	METAR WIII 041300Z 23010KT 6000 SCT020 27/23 Q1009 NOSIG=
04/01/2015 13:30:00Z	 SAID31 WIII 041330	METAR WIII 041330Z 23009KT 6000 SCT020 27/23 Q1010 NOSIG=
04/01/2015 14:00:00Z	 SAID31 WIII 041400	METAR WIII 041400Z 23011KT 6000 FEW022 26/23 Q1010 NOSIG=
04/01/2015 14:30:00Z	 SAID31 WIII 041430	METAR WIII 041430Z 22011KT 6000 FEW022 26/23 Q1011 NOSIG=
04/01/2015 15:00:00Z	 SAID31 WIII 041500	METAR WIII 041500Z 21009KT 7000 FEW020 26/23 Q1010 NOSIG=
04/01/2015 15:30:00Z	 SAID31 WIII 041530	METAR WIII 041530Z 22010KT 7000 FEW022 26/23 Q1010 NOSIG=
04/01/2015 16:00:00Z	 SAID31 WIII 041600	METAR WIII 041600Z 22007KT 7000 FEW021 25/23 Q1010 NOSIG=
04/01/2015 16:30:00Z	 SAID31 WIII 041630	METAR WIII 041630Z 23006KT 7000 FEW022 25/23 Q1010 NOSIG=
04/01/2015 17:00:00Z	 SAID31 WIII 041700	METAR WIII 041700Z 23007KT 7000 FEW021 25/23 Q1010 NOSIG=
04/01/2015 17:30:00Z	 SAID31 WIII 041730	METAR WIII 041730Z 22006KT 7000 FEW022 25/23 Q1010 NOSIG=
04/01/2015 18:00:00Z	 SAID31 WIII 041800	METAR WIII 041800Z 30007KT 6000 -RA SCT020 25/23 Q1010 NOSIG=
04/01/2015 18:30:00Z	 SAID31 WIII 041830	METAR WIII 041830Z 28009KT 6000 -RA SCT020 25/23 Q1009 NOSIG=
04/01/2015 19:00:00Z	 SAID31 WIII 041900	METAR WIII 041900Z 27009KT 6000 -RA FEW020CB SCT020 25/23 Q1009 NOSIG RMK CB TO S=
04/01/2015 19:30:00Z	 SAID31 WIII 041930	METAR WIII 041930Z 23008KT 6000 SCT020 25/23 Q1009 NOSIG=
04/01/2015 20:00:00Z	 SAID31 WIII 042000	METAR WIII 042000Z 26007KT 6000 SCT020 25423 Q1009 NOSIG=
04/01/2015 20:30:00Z	 SAID31 WIII 042030	METAR WIII 042030Z 23010KT 6000 -RA SCT020 24/23 Q1009 NOSIG=
04/01/2015 21:00:00Z	 SAID31 WIII 042100	METAR WIII 042100Z 23006KT 6000 SCT020 24/23 Q1009 NOSIG=
04/01/2015 21:30:00Z	 SAID31 WIII 042130	METAR WIII 042130Z 21009KT 6000 SCT020 24/23 Q1009 NOSIG=
04/01/2015 22:00:00Z	 SAID31 WIII 042200	METAR WIII 042200Z 22008KT 6000 SCT020 24/23 Q1009 NOSIG=
04/01/2015 22:30:00Z	 SAID31 WIII 042230	METAR WIII 042230Z 22009KT 6000 SGT020 24/23 Q1009 NOSIG=
04/01/2015 23:00:00Z	 SAID31 WIII 042300	METAR WIII 042300Z 24009KT 9000 SCT020 24/23 Q1010 NOSIG=
04/01/2015 23:30:00Z	 SAID31 WIII 042330	METAR WIII 042330Z 25009KT 9000 SCT020 25/23 Q1010 NOSIG=
05/01/2015 00:00:00Z	 SAID31 WIII 050000	METAR WIII 050000Z 24011KT 9999 SCT020 25/23 Q1010 NOSIG=
05/01/2015 00:30:00Z	 SAID31 WIII 050030	METAR WIII 050030Z 24010KT 9999 SCT020 26/23 Q1010 NOSIG=
05/01/2015 01:00:00Z	 SAID31 WIII 050100	METAR WIII 050100Z 23012KT 9000 SCT020 26/23 Q1010 NOSIG=
05/01/2015 01:30:00Z	 SAID31 WIII 050130	METAR WIII 050130Z 24013KT 9000 FEW018 28/24 Q1010 NOSIG=
05/01/2015 02:00:00Z	 SAID31 WIII 050200	METAR WIII 050200Z 22009KT 9000 FEW018 25/23 Q1010 NOSIG=
05/01/2015 02:30:00Z	 SAID31 WIII 050230	METAR WIII 050230Z 23010KT 9000 SCT018 26/23 Q1010 NOSIG=
05/01/2015 03:00:00Z	 SAID31 WIII 050300	METAR WIII 050300Z 24014KT 9000 SCT020 27/23 Q1010 NOSIG=
05/01/2015 03:30:00Z	 SAID31 WIII 050330	METAR WIII 050330Z 25016KT 9000 SCT018 27/22 Q1010 NOSIG=
05/01/2015 04:00:00Z	 SAID31 WIII 050400	METAR WIII 050400Z 24015KT 9000 SCT018 27/23 Q1009 NOSIG=
05/01/2015 04:30:00Z	 SAID31 WIII 050430	METAR WIII 050430Z 25017KT 9000 SCT018 28/22 Q1009 NOSIG=
05/01/2015 05:00:00Z	 SAID31 WIII 050500	METAR WIII 050500Z 27016KT 9000 SCT019 29/23 Q1009 NOSIG=
05/01/2015 05:30:00Z	 SAID31 WIII 050530	METAR WIII 050530Z 27015KT 9000 SCT018 28/23 Q1009 NOSIG=
05/01/2015 06:00:00Z	 SAID31 WIII 050600	METAR WIII 050600Z 27015KT 8000 FEW018CB SCT019 28/23 Q1008 NOSIG RMK CB TO SE=
05/01/2015 06:30:00Z	 SAID31 WIII 050630	METAR WIII 050630Z 27015KT 8000 SCT019 28/23 Q1008 NOSIG=
05/01/2015 07:00:00Z	 SAID31 WIII 050700	METAR WIII 050700Z 25014KT 8000 SCT018 28/23 Q1007 NOSIG=
05/01/2015 07:30:00Z	 SAID31 WIII 050730	METAR WIII 050730Z 24011KT 9000 SCT018 29/23 Q1007 NOSIG=
05/01/2015 08:00:00Z	 SAID31 WIII 050800	METAR WIII 050800Z 25014KT 9000 FEW018CB SCT020 29/23 Q1007 NOSIG RMK CB TO S=
05/01/2015 08:30:00Z	 SAID31 WIII 050830	METAR WIII 050830Z 26014KT 9000 SCT018 29/23 Q1006 NOSIG=
05/01/2015 09:00:00Z	 SAID31 WIII 050900	METAR WIII 050900Z 25012KT 9999 FEW020 28/23 Q1006 NOSIG=
05/01/2015 09:30:00Z	 SAID31 WIII 050930	METAR WIII 050930Z 24015KT 9999 FEW020 28/22 Q1007 NOSIG=
05/01/2015 10:00:00Z	 SAID31 WIII 051000	METAR WIII 051000Z 23013KT 9000 FEW020 30/22 Q1007 NOSIG=
05/01/2015 10:30:00Z	 SAID31 WIII 051030	METAR WIII 051030Z 25011KT 9000 FEW018CB SCT020 28/23 Q1007 NOSIG RMK CB TO N=
05/01/2015 11:00:00Z	 SAID31 WIII 051100	METAR WIII 051100Z 26010KT 8000 FEW018CB SCT020 28/23 Q1008 NOSIG RMK CB TO N=
05/01/2015 11:30:00Z	 SAID31 WIII 051130	METAR WIII 051130Z 26006KT 7000 SCT020 28/24 Q1008 NOSIG=
05/01/2015 12:00:00Z	 SAID31 WIII 051200	METAR WIII 051200Z 27007KT 9000 SCT020 28/24 Q1009 NOSIG=
05/01/2015 12:30:00Z	 SAID31 WIII 051230	METAR WIII 051230Z 27009KT 9000 SCT020 27/24 Q1009 NOSIG=
05/01/2015 13:00:00Z	 SAID31 WIII 051300	METAR WIII 051300Z 27005KT 9000 SCT020 26/23 Q1010 NOSIG=
05/01/2015 13:30:00Z	 SAID31 WIII 051330	METAR WIII 051330Z 27006KT 9000 SCT020 26/23 Q1010 NOSIG=
05/01/2015 14:00:00Z	 SAID31 WIII 051400	METAR WIII 051400Z 25007KT 7000 FEW020 26/23 Q1010 NOSIG=
05/01/2015 14:30:00Z	 SAID31 WIII 051430	METAR WIII 051430Z 24007KT 6000 FEW020 25/23 Q1010 NOSIG=
05/01/2015 15:00:00Z	 SAID31 WIII 051500	METAR WIII 051500Z 24007KT 6000 FEW020 25/23 Q1010 NOSIG=
05/01/2015 15:30:00Z	 SAID31 WIII 051530	METAR WIII 051530Z 24008KT 5000 BR FEW020 25/23 Q1010 NOSIG=
05/01/2015 16:00:00Z	 SAID31 WIII 051600	METAR WIII 051600Z 24008KT 5000 BR FEW020 25/23 Q1010 NOSIG=
05/01/2015 16:30:00Z	 SAID31 WIII 051630	METAR WIII 051630Z 23007KT 5000 BR FEW020 25/23 Q1009 NOSIG=
05/01/2015 17:00:00Z	 SAID31 WIII 051700	METAR WIII 051700Z 22011KT 5000 BR FEW020 26/23 Q1009 NOSIG=
05/01/2015 17:30:00Z	 SAID31 WIII 051730	METAR WIII 051730Z 24008KT 5000 BR FEW020 25/23 Q1009 NOSIG=
05/01/2015 18:00:00Z	 SAID31 WIII 051800	METAR WIII 051800Z AUTO 23013KT 9999 25/23 Q1009=
05/01/2015 18:30:00Z	 SAID31 WIII 051830	METAR WIII 051830Z AUTO 23010KT 9999 25/22 Q1008=
05/01/2015 19:00:00Z	 SAID31 WIII 051900	METAR WIII 051900Z AUTO 24007KT 9999 25/23 Q1008=
05/01/2015 19:30:00Z	 SAID31 WIII 051930	METAR WIII 051930Z AUTO 24008KT 9999 25/23 Q1008=
05/01/2015 20:00:00Z	 SAID31 WIII 052000	METAR WIII 052000Z AUTO 22008KT 9999 25/23 Q1008=
05/01/2015 20:30:00Z	 SAID31 WIII 052030	METAR WIII 052030Z AUTO 24008KT 9999 25/23 Q1008=
05/01/2015 21:00:00Z	 SAID31 WIII 052100	METAR WIII 052100Z AUTO 23009KT 9999 25/23 Q1008=
05/01/2015 21:30:00Z	 SAID31 WIII 052130	METAR WIII 052130Z AUTO 23007KT 9999 24/23 Q1008=
05/01/2015 22:00:00Z	 SAID31 WIII 052200	METAR WIII 052200Z 23007KT 5000 BR FEW020 24/23 Q1009 NOSIG=
05/01/2015 23:00:00Z	 SAID31 WIII 052300	METAR WIII 052300Z 23009KT 5000 BR FEW020 25/23 Q1009 NOSIG=
05/01/2015 23:30:00Z	 SAID31 WIII 052330	METAR WIII 052330Z 22009KT 5000 BR FEW020 25/23 Q1009 NOSIG=
06/01/2015 00:00:00Z	 SAID31 WIII 060000	METAR WIII 060000Z 21009KT 6000 FEW020 26/23 Q1009 NOSIG=
06/01/2015 00:30:00Z	 SAID31 WIII 060030	METAR WIII 060030Z 20009KT 7000 FEW020 27/23 Q1010 NOSIG=
06/01/2015 01:00:00Z	 SAID31 WIII 060100	METAR WIII 060100Z 21011KT 9999 SCT020 27/23 Q1009 NOSIG=
06/01/2015 01:30:00Z	 SAID31 WIII 060130	METAR WIII 060130Z 22012KT 9999 SCT020 29/24 Q1009 NOSIG=
06/01/2015 02:00:00Z	 SAID31 WIII 060200	METAR WIII 060200Z 22014KT 9999 SCT020 29/24 Q1009 NOSIG=
06/01/2015 02:30:00Z	 SAID31 WIII 060230	METAR WIII 060230Z 24010G20KT 9999 SCT020 30/24 Q1009 NOSIG=
06/01/2015 03:00:00Z	 SAID31 WIII 060300	METAR WIII 060300Z 23006G16KT 9999 SCT020 31/24 Q1009 NOSIG=
06/01/2015 03:30:00Z	 SAID31 WIII 060330	METAR WIII 060330Z 25015G20KT 9999 SCT020 28/22 Q1009 NOSIG=
06/01/2015 04:00:00Z	 SAID31 WIII 060400	METAR WIII 060400Z 24010G20KT 9999 SCT020 28/22 Q1009 NOSIG=
06/01/2015 04:30:00Z	 SAID31 WIII 060430	METAR WIII 060430Z 25008G18KT 9999 SCT020 28/23 Q1009 NOSIG=
06/01/2015 05:00:00Z	 SAID31 WIII 060500	METAR WIII 060500Z 27007G17KT 9999 SCT020 29/23 Q1008 NOSIG=
06/01/2015 05:30:00Z	 SAID31 WIII 060530	METAR WIII 060530Z 27015KT 230V310 9999 BKN020 28/22 Q1008 NOSIG=
06/01/2015 05:30:00Z	 SAID31 WIII 060530 CCA	METAR COR WIII 060530Z 27015KT 230V310 9999 FEW020CB BKN020 28/22 Q10 08 NOSIG RMK CB TO SE=
06/01/2015 06:00:00Z	 SAID31 WIII 060600	METAR WIII 060600Z 28007G17KT 9999 FEW020CB BKN020 29/22 Q1007 NOSIG RMK CB TO SE=
06/01/2015 06:30:00Z	 SAID31 WIII 060630	METAR WIII 060630Z 30007G17KT 9999 BKN020 28/22 Q1007 RETS NOSIG=
06/01/2015 07:00:00Z	 SAID31 WIII 060700	METAR WIII 060700Z 30011KT 9999 BKN020 28/22 Q1007 NOSIG=
06/01/2015 07:30:00Z	 SAID31 WIII 060730	METAR WIII 060730Z 30010KT 9999 BKN020 28/23 Q1007 NOSIG=
06/01/2015 08:00:00Z	 SAID31 WIII 060800	METAR WIII 060800Z 29007G17KT 9999 BKN020 28/23 Q1007 NOSIG=
06/01/2015 08:30:00Z	 SAID31 WIII 060830	METAR WIII 060830Z 28009KT 9999 SCT020 28/23 Q1007 NOSIG=
06/01/2015 09:00:00Z	 SAID31 WIII 060900	METAR WIII 060900Z 26008G18KT 9999 FEW020CB SCT020 28/22 Q1007 NOSIG RMK CB TO S AND NW=
06/01/2015 09:30:00Z	 SAID31 WIII 060930	METAR WIII 060930Z 28012KT 9999 SCT020 28/22 Q1007 NOSIG=
06/01/2015 10:00:00Z	 SAID31 WIII 061000	METAR WIII 061000Z 27013KT 9999 SCT020 27/22 Q1007 NOSIG=
06/01/2015 10:30:00Z	 SAID31 WIII 061030	METAR WIII 061030Z 24010KT 9999 SCT020 27/22 Q1007 NOSIG=
06/01/2015 11:00:00Z	 SAID31 WIII 061100	METAR WIII 061100Z 22005G15KT 9999 SCT020 25/22 Q1008 NOSIG=
06/01/2015 11:30:00Z	 SAID31 WIII 061130	METAR WIII 061130Z 23008KT 9999 FEW020CB SCT020 25/22 Q1008 NOSIG RMK CB TO NW=
06/01/2015 12:00:00Z	 SAID31 WIII 061200	METAR WIII 061200Z 22009KT 8000 SCT020 24/22 Q1009 NOSIG=
06/01/2015 12:30:00Z	 SAID31 WIII 061230	METAR WIII 061230Z 23007KT 8000 SCT020 24/21 Q1009 NOSIG=
06/01/2015 13:00:00Z	 SAID31 WIII 061300	METAR WIII 061300Z 23008KT 8000 FEW020 24/22 Q1009 NOSIG=
06/01/2015 13:30:00Z	 SAID31 WIII 061330	METAR WIII 061330Z 23010KT 8000 FEW020 23/22 Q1009 NOSIG=
06/01/2015 14:00:00Z	 SAID31 WIII 061400	METAR WIII 061400Z 24008KT 8000 FEW020 23/22 Q1009 NOSIG=
06/01/2015 14:30:00Z	 SAID31 WIII 061430	METAR WIII 061430Z 24007KT 8000 FEW020 23/22 Q1010 NOSIG=
06/01/2015 15:00:00Z	 SAID31 WIII 061500	METAR WIII 061500Z 24009KT 8000 FEW020 23/22 Q1010 NOSIG=
06/01/2015 15:30:00Z	 SAID31 WIII 061530	METAR WIII 061530Z 24008KT 8000 FEW020 23/22 Q1009 NOSIG=
06/01/2015 16:00:00Z	 SAID31 WIII 061600	METAR WIII 061600Z 23009KT 8000 FEW022 23/22 Q1009 NOSIG=
06/01/2015 16:30:00Z	 SAID31 WIII 061630	METAR WIII 061630Z 24009KT 8000 FEW022 23/22 Q1009 NOSIG=
06/01/2015 17:00:00Z	 SAID31 WIII 061700	METAR WIII 061700Z 23008KT 8000 FEW022 23/22 Q1009 NOSIG=
06/01/2015 17:30:00Z	 SAID31 WIII 061730	METAR WIII 061730Z 24011KT 7000 FEW021 23/22 Q1009 NOSIG=
06/01/2015 18:00:00Z	 SAID31 WIII 061800	METAR WIII 061800Z 24007KT 8000 FEW021 23/21 Q1008 NOSIG=
06/01/2015 18:30:00Z	 SAID31 WIII 061830	METAR WIII 061830Z 22008KT 8000 FEW022 23/21 Q1008 NOSIG=
06/01/2015 19:00:00Z	 SAID31 WIII 061900	METAR WIII 061900Z 22007KT 7000 FEW022 23/21 Q1008 NOSIG=
06/01/2015 19:30:00Z	 SAID31 WIII 061930	METAR WIII 061930Z 22009KT 7000 FEW022 23/21 Q1008 NOSIG=
06/01/2015 20:00:00Z	 SAID31 WIII 062000	METAR WIII 062000Z 23008KT 7000 FEW022 SCT100 23/21 Q1008 NOSIG=
06/01/2015 20:30:00Z	 SAID31 WIII 062030	METAR WIII 062030Z 23009KT 7000 FEW021 SCT100 23/21 Q1008 NOSIG=
06/01/2015 21:00:00Z	 SAID31 WIII 062100	METAR WIII 062100Z 24012KT 7000 FEW022 SCT100 23/21 Q1008 NOSIG=
06/01/2015 21:30:00Z	 SAID31 WIII 062130	METAR WIII 062130Z 23008KT 7000 FEW021 23/21 Q1008 NOSIG=
06/01/2015 22:00:00Z	 SAID31 WIII 062200	METAR WIII 062200Z 23010KT 7000 FEW020 22/21 Q1009 NOSIG=
06/01/2015 22:30:00Z	 SAID31 WIII 062230	METAR WIII 062230Z 22005KT 8000 FEW021 22/21 Q1009 NOSIG=
06/01/2015 23:00:00Z	 SAID31 WIII 062300	METAR WIII 062300Z 21004KT 8000 FEW021 22/21 Q1009 NOSIG=
06/01/2015 23:30:00Z	 SAID31 WIII 062330	METAR WIII 062330Z 22006KT 8000 FEW022 23/21 Q1010 NOSIG=
07/01/2015 00:00:00Z	 SAID31 WIII 070000	METAR WIII 070000Z 22004KT 6000 FEW020 23/22 Q1010 NOSIG=
07/01/2015 00:30:00Z	 SAID31 WIII 070030	METAR WIII 070030Z 22007KT 8000 FEW022 24/22 Q1010 NOSIG=
07/01/2015 01:00:00Z	 SAID31 WIII 070100	METAR WIII 070100Z 23006KT 9000 FEW02 26/23 Q1010 NOSIG=
07/01/2015 01:30:00Z	 SAID31 WIII 070130	METAR WIII 070130Z 23008KT 9999 FEW022 27/23 Q1010 NOSIG=
07/01/2015 02:00:00Z	 SAID31 WIII 070200	METAR WIII 070200Z 23008KT 190V270 9999 FEW022 27/22 Q1010 NOSIG=
07/01/2015 02:30:00Z	 SAID31 WIII 070230	METAR WIII 070230Z 25008G18KT 9999 SCT021 27/22 Q1010 NOSIG=
07/01/2015 03:00:00Z	 SAID31 WIII 070300	METAR WIII 070300Z 26012KT 9999 SCT021 28/22 Q1010 NOSIG=
07/01/2015 03:30:00Z	 SAID31 WIII 070330	METAR WIII 070330Z 27010G20KT 9000 SCT021 28/22 Q1010 NOSIG=
07/01/2015 04:00:00Z	 SAID31 WIII 070400	METAR WIII 070400Z 28014KT 9999 SCT021 29/22 Q1010 NOSIG=
07/01/2015 04:30:00Z	 SAID31 WIII 070430	METAR WIII 070430Z 27011KT 9999 SCT020 29/22 Q1009 NOSIG=
07/01/2015 04:30:00Z	 SAID31 WIII 070430 CCA	METAR COR WIII 070430Z 27011KT 9999 SCT020 31/23 Q1009 NOSIG=
07/01/2015 05:00:00Z	 SAID31 WIII 070500	METAR WIII 070500Z 28010KT 240V320 9999 SCT021 30/23 Q1009 NOSIG=
07/01/2015 05:30:00Z	 SAID31 WIII 070530	METAR WIII 070530Z 27014KT 9999 SCT021 32/23 Q1008 NOSIG=
07/01/2015 06:00:00Z	 SAID31 WIII 070600	METAR WIII 070600Z 29010KT 260V350 9999 SCT021 32/23 Q1008 NOSIG=
07/01/2015 06:30:00Z	 SAID31 WIII 070630	METAR WIII 070630Z 32014KT 9999 SCT021 31/24 Q1008 NOSIG=
07/01/2015 07:00:00Z	 SAID31 WIII 070700	METAR WIII 070700Z 32015KT 9999 SCT020 28/24 Q1007 NOSIG=
07/01/2015 07:30:00Z	 SAID31 WIII 070730	METAR WIII 070730Z 30010KT 260V330 9999 SCT020 31/24 Q1007 NOSIG=
07/01/2015 08:00:00Z	 SAID31 WIII 070800	METAR WIII 070800Z 31010KT 270V330 9999 SCT020 31/24 Q1007 NOSIG=
07/01/2015 08:30:00Z	 SAID31 WIII 070830	METAR WIII 070830Z 31010KT 9999 BKN020 28/23 Q1007 NOSIG=
07/01/2015 09:00:00Z	 SAID31 WIII 070900	METAR WIII 070900Z 28009KT 220V310 9999 SCT020 30/23 Q1007 NOSIG=
07/01/2015 09:30:00Z	 SAID31 WIII 070930	METAR WIII 070930Z 24009KT 9999 SCT020 30/23 Q1007 NOSIG=
07/01/2015 10:00:00Z	 SAID31 WIII 071000	METAR WIII 071000Z 22008KT 9999 FEW019CB SCT020 30/22 Q1008 NOSIG RMK CB TO E AND SW=
07/01/2015 10:30:00Z	 SAID31 WIII 071030	METAR WIII 071030Z 22010KT 9999 FEW019CB SCT020 29/22 Q1008 NOSIG RMK CB TO N AND SW=
07/01/2015 11:00:00Z	 SAID31 WIII 071100	METAR WIII 071100Z 23009KT 23011KT 9999 FEW019CB SCT020 27/22 NOSIG R MK CB TO N=
07/01/2015 11:30:00Z	 SAID31 WIII 071130	METAR WIII 071130Z 23011KT 9000 FEW020CB FEW022 28/23 Q1008 NOSIG RMK CB TO N=
07/01/2015 12:00:00Z	 SAID31 WIII 071200	METAR WIII 071200Z 24007KT 9000 FEW020CB FEW022 27/23 Q1009 NOSIG RMK CB TO N=
07/01/2015 12:30:00Z	 SAID31 WIII 071230	METAR WIII 071230Z 24009KT 9000 FEW020CB FEW022 27/23 Q1009 NOSIG RMK CB TO N=
07/01/2015 13:00:00Z	 SAID31 WIII 071300	METAR WIII 071300Z 23009KT 8000 FEW022 27/23 Q1010 NOSIG=
07/01/2015 13:30:00Z	 SAID31 WIII 071330	METAR WIII 071330Z 21011KT 8000 FEW020CB SCT020 27/22 Q1010 NOSIG RMK CB TO N=
07/01/2015 14:00:00Z	 SAID31 WIII 071400	METAR WIII 071400Z 20010KT 8000 SCT020 27/22 Q1010 NOSIG=
07/01/2015 14:30:00Z	 SAID31 WIII 071430	METAR WIII 071430Z 21010KT 8000 SCT020 26/22 Q1011 NOSIG=
07/01/2015 15:00:00Z	 SAID31 WIII 071500	METAR WIII 071500Z 21009KT 9999 FEW020CB SCT020 26/22 Q1010 NOSIG RMK CB TO NE=
07/01/2015 15:30:00Z	 SAID31 WIII 071530	METAR WIII 071530Z 21007KT 180V250 9999 SCT020 26/22 Q1010 NOSIG=
07/01/2015 16:00:00Z	 SAID31 WIII 071600	METAR WIII 071600Z 21009KT 9999 FEW020CB SCT020 26/22 Q1010 NOSIG=
07/01/2015 16:30:00Z	 SAID31 WIII 071630	METAR WIII 071630Z 21008KT 9999 SCT020 25/22 Q1010 NOSIG=
07/01/2015 17:00:00Z	 SAID31 WIII 071700	METAR WIII 071700Z 24006KT 200V260 4000 BR FEW020CB SCT020 25/22 Q101 0 NOSIG RMK CB TO N=
07/01/2015 17:30:00Z	 SAID31 WIII 071730	METAR WIII 071730Z 22011KT 5000 BR FEW020CB SCT020 25/22 Q1010 NOSIG RMK CB TO N=
07/01/2015 18:00:00Z	 SAID31 WIII 071800	METAR WIII 071800Z 21009KT 6000 SCT020 25/22 Q1009 NOSIG=
07/01/2015 18:30:00Z	 SAID31 WIII 071830	METAR WIII 071830Z 23008KT 6000 SCT020 25/22 Q1009 NOSIG=
07/01/2015 19:00:00Z	 SAID31 WIII 071900	METAR WIII 071900Z 22008KT 6000 SCT020 25/22 Q1009 NOSIG=
07/01/2015 19:30:00Z	 SAID31 WIII 071930	METAR WIII 071930Z 21010KT 6000 SCT020 25/22 Q1009 NOSIG=
07/01/2015 20:00:00Z	 SAID31 WIII 072000	METAR WIII 072000Z 20011KT 7000 SCT020 25/22 Q1009 NOSIG=
07/01/2015 20:30:00Z	 SAID31 WIII 072030	METAR WIII 072030Z 21009KT 6000 FEW020CB SCT022 25/22 Q1009 NOSIG RMK CB TO NE=
07/01/2015 21:00:00Z	 SAID31 WIII 072100	METAR WIII 072100Z 21011KT 7000 SCT022 25/22 Q1009 NOSIG=
07/01/2015 21:30:00Z	 SAID31 WIII 072130	METAR WIII 072130Z 20009KT 7000 SCT020 25/22 Q1009 NOSIG=
07/01/2015 22:00:00Z	 SAID31 WIII 072200	METAR WIII 072200Z 21008KT 8000 FEW020 25/22 Q1010 NOSIG=
07/01/2015 22:30:00Z	 SAID31 WIII 072230	METAR WIII 072230Z 21011KT 8000 SCT020 25/22 Q1010 NOSIG=
07/01/2015 23:00:00Z	 SAID31 WIII 072300	METAR WIII 072300Z 20010KT 9999 SCT020 25/22 Q1010 NOSIG=
07/01/2015 23:30:00Z	 SAID31 WIII 072330	METAR WIII 072330Z 21010KT 9999 SCT020 25/22 Q1011 NOSIG=
08/01/2015 00:00:00Z	 SAID31 WIII 080000	METAR WIII 080000Z 21011KT 9999 SCT020 25/22 Q1011 NOSIG=
08/01/2015 00:30:00Z	 SAID31 WIII 080030	METAR WIII 080030Z 22012KT 9999 SCT020 26/23 Q1011 NOSIG=
08/01/2015 01:00:00Z	 SAID31 WIII 080100	METAR WIII 080100Z 24015KT 9999 SCT020 28/23 Q1011 NOSIG=
08/01/2015 01:30:00Z	 SAID31 WIII 080130	METAR WIII 080130Z 23013KT 9999 SCT022 27/23 Q1011 NOSIG=
08/01/2015 02:00:00Z	 SAID31 WIII 080200	METAR WIII 080200Z 23013KT 9999 SCT022 28/23 Q1011 NOSIG=
08/01/2015 02:30:00Z	 SAID31 WIII 080230	METAR WIII 080230Z 24015G21KT 9999 SCT022 28/23 Q1011 NOSIG=
08/01/2015 03:00:00Z	 SAID31 WIII 080300	METAR WIII 080300Z 24013KT 9999 FEW018CB SCT022 28/23 Q1011 NOSIG RMK CB TO W=
08/01/2015 03:30:00Z	 SAID31 WIII 080330	METAR WIII 080330Z 25012KT 9999 FEW018CB SCT022 28/23 Q1011 NOSIG RMK CB TO W=
08/01/2015 04:00:00Z	 SAID31 WIII 080400	METAR WIII 080400Z 26010KT 9000 SCT022 26/23 Q1011 NOSIG=
08/01/2015 05:00:00Z	 SAID31 WIII 080500	METAR WIII 080500Z 24015KT 9999 SCT020 29/23 Q1010 NOSIG=
08/01/2015 05:30:00Z	 SAID31 WIII 080530	METAR WIII 080530Z 25014G20KT 9999 SCT022 29/23 Q1010 NOSIG=
08/01/2015 06:00:00Z	 SAID31 WIII 080600	METAR WIII 080600Z 25015KT 9999 SCT020 30/23 Q1009 NOSIG=
08/01/2015 06:30:00Z	 SAID31 WIII 080630	METAR WIII 080630Z 25012KT 9000 SCT018 31/23 Q1009 NOSIG=
08/01/2015 07:00:00Z	 SAID31 WIII 080700	METAR WIII 080700Z 27014KT 9000 FEW018CB BKN020 30/23 Q1008 NOSIG RMK CB TO SW=
08/01/2015 07:30:00Z	 SAID31 WIII 080730	METAR WIII 080730Z 25014KT 9000 FEW018CB SCT020 30/24 Q1008 NOSIG RMK CB TO SW=
08/01/2015 08:00:00Z	 SAID31 WIII 080800	METAR WIII 080800Z 25013G19KT 9999 FEW018CB SCT020 30/23 Q1008 NOSIG RMK CB TO SW=
08/01/2015 08:30:00Z	 SAID31 WIII 080830	METAR WIII 080830Z 26011KT 9999 FEW018CB SCT020 30/23 Q1008 NOSIG RMK CB TO SW=
08/01/2015 09:00:00Z	 SAID31 WIII 080900	METAR WIII 080900Z 25014KT 9999 FEW018CB SCT020 30/23 Q1008 NOSIG RMK CB TO SW=
08/01/2015 09:30:00Z	 SAID31 WIII 080930	METAR WIII 080930Z 26013KT 9999 SCT020 29/22 Q1008 NOSIG=
08/01/2015 10:00:00Z	 SAID31 WIII 081000	METAR WIII 081000Z 25011KT 9999 SCT020 28/23 Q1008 NOSIG=
08/01/2015 10:30:00Z	 SAID31 WIII 081030	METAR WIII 081030Z 24012G17KT 9999 SCT022 28/22 Q1009 NOSIG=
08/01/2015 11:00:00Z	 SAID31 WIII 081100	METAR WIII 081100Z 26008KT 9000 SCT022 28/22 Q1009 NOSIG=
08/01/2015 11:30:00Z	 SAID31 WIII 081130	METAR WIII 081130Z 23010KT 8000 FEW018 28/22 Q1009 NOSIG=
08/01/2015 12:00:00Z	 SAID31 WIII 081200	METAR WIII 081200Z 24013KT 8000 FEW020 27/23 Q1009 NOSIG=
08/01/2015 12:30:00Z	 SAID31 WIII 081230	METAR WIII 081230Z 24011KT 7000 FEW020 27/23 Q1010 NOSIG=
08/01/2015 13:00:00Z	 SAID31 WIII 081300	METAR WIII 081300Z 24011KT 7000 FEW020 26/23 Q1010 NOSIG=
08/01/2015 13:30:00Z	 SAID31 WIII 081330	METAR WIII 081330Z 24009KT 9999 FEW022 26/23 Q1010 NOSIG=
08/01/2015 14:00:00Z	 SAID31 WIII 081400	METAR WIII 081400Z 24011KT 9999 FEW022 26/23 Q1011 NOSIG=
08/01/2015 14:30:00Z	 SAID31 WIII 081430	METAR WIII 081430Z 24010KT 7000 FEW022 26/23 Q1011 NOSIG=
08/01/2015 15:00:00Z	 SAID31 WIII 081500	METAR WIII 081500Z 24011KT 7000 SCT021 25/23 Q1011 NOSIG=
08/01/2015 15:30:00Z	 SAID31 WIII 081530	METAR WIII 081530Z 24008KT 7000 SCT021 25/23 Q1011 NOSIG=
08/01/2015 16:00:00Z	 SAID31 WIII 081600	METAR WIII 081600Z 23009KT 7000 FEW022 25/23 Q1011 NOSIG=
08/01/2015 16:30:00Z	 SAID31 WIII 081630	METAR WIII 081630Z 23008KT 7000 FEW021 25/23 Q1011 NOSIG=
08/01/2015 17:00:00Z	 SAID31 WIII 081700	METAR WIII 081700Z 23008KT 6000 FEW022 25/23 Q1011 NOSIG=
08/01/2015 17:30:00Z	 SAID31 WIII 081730	METAR WIII 081730Z 24007KT 6000 FEW022 25/23 Q1011 NOSIG=
08/01/2015 18:00:00Z	 SAID31 WIII 081800	METAR WIII 081800Z 24007KT 5000 HZ SCT022 BKN060 25/23 Q1010 NOSIG=
08/01/2015 18:30:00Z	 SAID31 WIII 081830	METAR WIII 081830Z 23009KT 7000 SCT022 BKN060 25/23 Q1010 NOSIG=
08/01/2015 19:00:00Z	 SAID31 WIII 081900	METAR WIII 081900Z 23009KT 6000 SCT022 BKN060 25/23 Q1010 NOSIG=
08/01/2015 19:30:00Z	 SAID31 WIII 081930	METAR WIII 081930Z AUTO 23009KT 4900 25/23 Q1010=
08/01/2015 20:00:00Z	 SAID31 WIII 082000	METAR WIII 082000Z 24008KT 6000 SCT022 25/23 Q1010 NOSIG=
08/01/2015 20:30:00Z	 SAID31 WIII 082030	METAR WIII 082030Z AUTO 24007KT 6000 25/23 Q1010=
08/01/2015 21:00:00Z	 SAID31 WIII 082100	METAR WIII 082100Z 24007KT 8000 SCT022 25/23 Q1010 NOSIG=
08/01/2015 21:30:00Z	 SAID31 WIII 082130	METAR WIII 082130Z AUTO 24007KT 6000 25/23 Q1010=
08/01/2015 22:00:00Z	 SAID31 WIII 082200	METAR WIII 082200Z 23008KT 5000 FEW022 25/23 Q1011 NOSIG=
08/01/2015 22:30:00Z	 SAID31 WIII 082230	METAR WIII 082230Z 24007KT 7000 FEW022 25/23 Q1011 NOSIG=
08/01/2015 23:00:00Z	 SAID31 WIII 082300	METAR WIII 082300Z 24008KT 8000 FEW022 25/23 Q1011 NOSIG=
08/01/2015 23:30:00Z	 SAID31 WIII 082330	METAR WIII 082330Z 23009KT 8000 FEW022 25/23 Q1011 NOSIG=
09/01/2015 00:00:00Z	 SAID31 WIII 090000	METAR WIII 090000Z 22009KT 9000 FEW022 26/23 Q1011 NOSIG=
09/01/2015 00:30:00Z	 SAID31 WIII 090030	METAR WIII 090030Z 22010KT 9000 SCT022 26/23 Q1011 NOSIG=
09/01/2015 01:00:00Z	 SAID31 WIII 090100	METAR WIII 090100Z 23012KT 9000 SCT022 27/24 Q1012 NOSIG=
09/01/2015 01:30:00Z	 SAID31 WIII 090130	METAR WIII 090130Z 23013KT 9000 SCT022 28/23 Q1011 NOSIG=
09/01/2015 02:00:00Z	 SAID31 WIII 090200	METAR WIII 090200Z 22015KT 9000 SCT022 29/23 Q1011 NOSIG=
09/01/2015 02:30:00Z	 SAID31 WIII 090230	METAR WIII 090230Z 23018KT 8000 SCT022 30/23 Q1011 NOSIG=
09/01/2015 03:00:00Z	 SAID31 WIII 090300	METAR WIII 090300Z 23022KT 8000 SCT020 31/23 Q1010 NOSIG=
09/01/2015 03:30:00Z	 SAID31 WIII 090330	METAR WIII 090330Z 23023KT 9000 SCT019 30/22 Q1010 NOSIG=
09/01/2015 04:00:00Z	 SAID31 WIII 090400	METAR WIII 090400Z 24022KT 9000 SCT019 30/23 Q1010 NOSIG=
09/01/2015 04:30:00Z	 SAID31 WIII 090430	METAR WIII 090430Z 24023KT 9000 SCT019 32/23 Q1009 NOSIG=
09/01/2015 05:00:00Z	 SAID31 WIII 090500	METAR WIII 090500Z 26017KT 9000 SCT019 30/23 Q1009 NOSIG=
09/01/2015 05:30:00Z	 SAID31 WIII 090530	METAR WIII 090530Z 26018KT 9000 SCT019 31/23 Q1009 NOSIG=
09/01/2015 06:00:00Z	 SAID31 WIII 090600	METAR WIII 090600Z 25018KT 9999 SCT019 32/23 Q1009 NOSIG=
09/01/2015 06:30:00Z	 SAID31 WIII 090630	METAR WIII 090630Z 24018KT 9999 SCT019 33/23 Q1008 NOSIG=
09/01/2015 07:00:00Z	 SAID31 WIII 090700	METAR WIII 090700Z 25018KT 9999 SCT019 32/22 Q1008 NOSIG=
09/01/2015 07:30:00Z	 SAID31 WIII 090730	METAR WIII 090730Z 26019KT 9999 SCT019 31/22 Q1008 NOSIG=
09/01/2015 08:00:00Z	 SAID31 WIII 090800	METAR WIII 090800Z 26019KT 9999 SCT019 31/22 Q1007 NOSIG=
09/01/2015 08:30:00Z	 SAID31 WIII 090830	METAR WIII 090830Z 25018KT 9999 SCT020 31/21 Q1007 NOSIG=
09/01/2015 09:00:00Z	 SAID31 WIII 090900	METAR WIII 090900Z 27015KT 9000 SCT020 30/22 Q1007 NOSIG=
09/01/2015 09:30:00Z	 SAID31 WIII 090930	METAR WIII 090930Z 26016KT 8000 BKN020 29/22 Q1008 NOSIG=
09/01/2015 10:00:00Z	 SAID31 WIII 091000	METAR WIII 091000Z 25016KT 220V280 9000 SCT020 29/22 Q1008 NOSIG=
09/01/2015 10:30:00Z	 SAID31 WIII 091030	METAR WIII 091030Z 22016KT 8000 SCT020 28/23 Q1009 NOSIG=
09/01/2015 11:00:00Z	 SAID31 WIII 091100	METAR WIII 091100Z 23013KT 8000 SCT021 27/23 Q1009 NOSIG=
09/01/2015 11:30:00Z	 SAID31 WIII 091130	METAR WIII 091130Z 23012KT 8000 FEW022 SCT090 27/23 Q1009 NOSIG=
09/01/2015 12:00:00Z	 SAID31 WIII 091200	METAR WIII 091200Z 22010KT 8000 FEW022 26/23 Q1010 NOSIG=
09/01/2015 12:30:00Z	 SAID31 WIII 091230	METAR WIII 091230Z 23008KT 8000 FEW022 26/23 Q1010 NOSIG=
09/01/2015 13:00:00Z	 SAID31 WIII 091300	METAR WIII 091300Z 24007KT 7000 FEW020 25/23 Q1010 NOSIG=
09/01/2015 13:30:00Z	 SAID31 WIII 091330	METAR WIII 091330Z 24007KT 6000 FEW020 25/23 Q1010 NOSIG=
09/01/2015 14:00:00Z	 SAID31 WIII 091400	METAR WIII 091400Z 23009KT 5000 BR FEW020 25/23 Q1010 NOSIG=
09/01/2015 14:30:00Z	 SAID31 WIII 091430	METAR WIII 091430Z 22011KT 5000 BR FEW020 26/23 Q1011 NOSIG=
09/01/2015 15:00:00Z	 SAID31 WIII 091500	METAR WIII 091500Z 23011KT 5000 BR FEW020 26/22 Q1011 NOSIG=
09/01/2015 15:30:00Z	 SAID31 WIII 091530	METAR WIII 091530Z 22014KT 5000 BR FEW020 26/22 Q1011 NOSIG=
09/01/2015 16:00:00Z	 SAID31 WIII 091600	METAR WIII 091600Z 21012KT 5000 BR FEW020 26/22 Q1011 NOSIG=
09/01/2015 16:30:00Z	 SAID31 WIII 091630	METAR WIII 091630Z 22010KT 5000 BR FEW020 25/22 Q1010 NOSIG=
09/01/2015 17:00:00Z	 SAID31 WIII 091700	METAR WIII 091700Z 23009KT 5000 BR FEW020 25/23 Q1010 NOSIG=
09/01/2015 17:30:00Z	 SAID31 WIII 091730	METAR WIII 091730Z 23010KT 5000 BR FEW020 25/23 Q1010 NOSIG=
09/01/2015 18:00:00Z	 SAID31 WIII 091800	METAR WIII 091800Z 22010KT 5000 BR FEW020 25/22 Q1009 NOSIG=
09/01/2015 18:30:00Z	 SAID31 WIII 091830	METAR WIII 091830Z AUTO 23008KT 9999 25/22 Q1010=
09/01/2015 19:00:00Z	 SAID31 WIII 091900	METAR WIII 091900Z AUTO 22009KT 9999 25/22 Q1009=
09/01/2015 19:30:00Z	 SAID31 WIII 091930	METAR WIII 091930Z AUTO 22010KT 9999 25/22 Q1009=
09/01/2015 20:00:00Z	 SAID31 WIII 092000	METAR WIII 092000Z AUTO 22008KT 9999 25/23 Q1009=
09/01/2015 20:30:00Z	 SAID31 WIII 092030	METAR WIII 092030Z AUTO 23006KT 9999 24/22 Q1009=
09/01/2015 21:00:00Z	 SAID31 WIII 092100	METAR WIII 092100Z AUTO 22006KT 6000 24/22 Q1009=
09/01/2015 21:30:00Z	 SAID31 WIII 092130	METAR WIII 092130Z AUTO 23006KT 5000 24/22 Q1009=
09/01/2015 22:00:00Z	 SAID31 WIII 092200	METAR WIII 092200Z AUTO 23006KT 5000 24/22 Q1010=
09/01/2015 22:30:00Z	 SAID31 WIII 092230	METAR WIII 092230Z AUTO 23007KT 9999 24/22 Q1010=
09/01/2015 23:00:00Z	 SAID31 WIII 092300	METAR WIII 092300Z AUTO 22011KT 9999 24/22 Q1010=
09/01/2015 23:30:00Z	 SAID31 WIII 092330	METAR WIII 092330Z 22010KT 6000 FEW020 25/22 Q1010 NOSIG=
10/01/2015 00:00:00Z	 SAID31 WIII 100000	METAR WIII 100000Z 22010KT 7000 FEW020 25/22 Q1011 NOSIG=
10/01/2015 00:30:00Z	 SAID31 WIII 100030	METAR WIII 100030Z 23009KT 8000 FEW020 26/22 Q1011 NOSIG=
10/01/2015 01:00:00Z	 SAID31 WIII 100100	METAR WIII 100100Z 24010KT 8000 FEW020 28/23 Q1011 NOSIG=
10/01/2015 01:30:00Z	 SAID31 WIII 100130	METAR WIII 100130Z 24011KT 8000 SCT020 28/22 Q1011 NOSIG=
10/01/2015 02:00:00Z	 SAID31 WIII 100200	METAR WIII 100200Z 23012KT 8000 SCT020 28/23 Q1011 NOSIG=
10/01/2015 02:30:00Z	 SAID31 WIII 100230	METAR WIII 100230Z 23008G18KT 8000 SCT020 29/23 Q1011 NOSIG=
10/01/2015 03:00:00Z	 SAID31 WIII 100300	METAR WIII 100300Z 25012KT 8000 BKN020 28/23 Q1011 NOSIG=
10/01/2015 03:30:00Z	 SAID31 WIII 100330	METAR WIII 100330Z 24013KT 8000 BKN020 28/23 Q1010 NOSIG=
10/01/2015 04:00:00Z	 SAID31 WIII 100400	METAR WIII 100400Z 24008KT 9999 SCT020 29/23 Q1010 NOSIG=
10/01/2015 04:30:00Z	 SAID31 WIII 100430	METAR WIII 100430Z 26009KT 9999 SCT020 31/23 Q1009 NOSIG=
10/01/2015 05:00:00Z	 SAID31 WIII 100500	METAR WIII 100500Z 24005G15KT 9999 SCT020 31/23 Q1009 NOSIG=
10/01/2015 05:30:00Z	 SAID31 WIII 100530	METAR WIII 100530Z 25008G18KT 9999 SCT020 31/23 Q1008 NOSIG=
10/01/2015 06:00:00Z	 SAID31 WIII 100600	METAR WIII 100600Z 25010KT 9999 BKN020 31/22 Q1008 NOSIG=
10/01/2015 06:30:00Z	 SAID31 WIII 100630	METAR WIII 100630Z 24006G16KT 9999 SCT020 31/23 Q1007 NOSIG=
10/01/2015 07:00:00Z	 SAID31 WIII 100700	METAR WIII 100700Z 24008G18KT 9999 SCT020 31/23 Q1007 NOSIG=
10/01/2015 07:30:00Z	 SAID31 WIII 100730	METAR WIII 100730Z 23010G20KT 9999 SCT020 31/23 Q1006 NOSIG=
10/01/2015 08:00:00Z	 SAID31 WIII 100800	METAR WIII 100800Z 25010KT 210V270 9999 SCT020 31/23 Q1006 NOSIG=
10/01/2015 08:30:00Z	 SAID31 WIII 100830	METAR WIII 100830Z 24011KT 9999 SCT020 30/23 Q1006 NOSIG=
10/01/2015 09:00:00Z	 SAID31 WIII 100900	METAR WIII 100900Z 24012KT 9999 SCT020 30/22 Q1007 NOSIG=
10/01/2015 09:30:00Z	 SAID31 WIII 100930	METAR WIII 100930Z 23012KT 9999 SCT020 30/23 Q1007 NOSIG=
10/01/2015 10:00:00Z	 SAID31 WIII 101000	METAR WIII 101000Z 23015KT 9999 SCT020 29/22 Q1007 NOSIG=
10/01/2015 10:30:00Z	 SAID31 WIII 101030	METAR WIII 101030Z 24014KT 9999 SCT020 29/22 Q1008 NOSIG=
10/01/2015 11:00:00Z	 SAID31 WIII 101100	METAR WIII 101100Z 23015KT 9999 SCT020 28/22 Q1008 NOSIG=
10/01/2015 11:30:00Z	 SAID31 WIII 101130	METAR WIII 101130Z 24014KT 9999 SCT020 27/22 Q1008 NOSIG=
10/01/2015 12:00:00Z	 SAID31 WIII 101200	METAR WIII 101200Z 23013KT 8000 SCT020 27/21 Q1009 NOSIG=
10/01/2015 12:30:00Z	 SAID31 WIII 101230	METAR WIII 101230Z 23011KT 8000 SCT020 26/21 Q1009 NOSIG=
10/01/2015 13:00:00Z	 SAID31 WIII 101300	METAR WIII 101300Z 22012KT 8000 FEW020 27/22 Q1009 NOSIG=
10/01/2015 13:30:00Z	 SAID31 WIII 101330	METAR WIII 101330Z 23010KT 8000 FEW020 26/22 Q1010 NOSIG=
10/01/2015 14:00:00Z	 SAID31 WIII 101400	METAR WIII 101400Z 23012KT 8000 FEW020 26/22 Q1010 NOSIG=
10/01/2015 14:30:00Z	 SAID31 WIII 101430	METAR WIII 101430Z 23010KT 8000 FEW022 26/22 Q1010 NOSIG=
10/01/2015 15:00:00Z	 SAID31 WIII 101500	METAR WIII 101500Z 24009KT 8000 FEW022 25/22 Q1010 NOSIG=
10/01/2015 15:30:00Z	 SAID31 WIII 101530	METAR WIII 101530Z 23010KT 8000 FEW022 25/22 Q1010 NOSIG=
10/01/2015 16:00:00Z	 SAID31 WIII 101600	METAR WIII 101600Z 23008KT 7000 FEW022 24/22 Q1010 NOSIG=
10/01/2015 16:30:00Z	 SAID31 WIII 101630	METAR WIII 101630Z 23007KT 7000 FEW022 24/22 Q1010 NOSIG=
10/01/2015 17:00:00Z	 SAID31 WIII 101700	METAR WIII 101700Z 23009KT 7000 FEW022 24/22 Q1010 NOSIG=
10/01/2015 17:30:00Z	 SAID31 WIII 101730	METAR WIII 101730Z 23007KT 7000 FEW021 24/22 Q1010 NOSIG=
10/01/2015 18:00:00Z	 SAID31 WIII 101800	METAR WIII 101800Z 24006KT 7000 FEW021 24/22 Q1009 NOSIG=
10/01/2015 18:30:00Z	 SAID31 WIII 101830	METAR WIII 101830Z 24005KT 7000 FEW022 24/22 Q1009 NOSIG=
10/01/2015 19:00:00Z	 SAID31 WIII 101900	METAR WIII 101900Z 25005KT 6000 FEW020 24/22 Q1009 NOSIG=
10/01/2015 19:30:00Z	 SAID31 WIII 101930	METAR WIII 101930Z 22007KT 6000 FEW022 24/22 Q1009 NOSIG=
10/01/2015 20:00:00Z	 SAID31 WIII 102000	METAR WIII 102000Z 23007KT 6000 FEW022 23/22 Q1009 NOSIG=
10/01/2015 20:30:00Z	 SAID31 WIII 102030	METAR WIII 102030Z 24004KT 6000 FEW022 24/22 Q1009 NOSIG=
10/01/2015 21:00:00Z	 SAID31 WIII 102100	METAR WIII 102100Z 23006KT 6000 FEW022 23/22 Q1009 NOSIG=
10/01/2015 21:30:00Z	 SAID31 WIII 102130	METAR WIII 102130Z 22006KT 6000 FEW022 23/22 Q1009 NOSIG=
10/01/2015 22:00:00Z	 SAID31 WIII 102200	METAR WIII 102200Z 22007KT 6000 FEW022 24/22 Q1009 NOSIG=
10/01/2015 22:30:00Z	 SAID31 WIII 102230	METAR WIII 102230Z 26003KT 7000 FEW022 24/22 Q1010 NOSIG=
10/01/2015 23:00:00Z	 SAID31 WIII 102300	METAR WIII 102300Z 23005KT 8000 FEW022 23/22 Q1010 NOSIG=
10/01/2015 23:30:00Z	 SAID31 WIII 102330	METAR WIII 102330Z 21005KT 6000 FEW021 25/22 Q1011 NOSIG=
11/01/2015 00:00:00Z	 SAID31 WIII 110000	METAR WIII 110000Z 21005KT 6000 FEW021 26/23 Q1011 NOSIG=
11/01/2015 00:30:00Z	 SAID31 WIII 110030	METAR WIII 110030Z 23006KT 7000 FEW021 27/23 Q1011 NOSIG=
11/01/2015 01:00:00Z	 SAID31 WIII 110100	METAR WIII 110100Z 24010KT 8000 FEW022 27/22 Q1011 NOSIG=
11/01/2015 01:30:00Z	 SAID31 WIII 110130	METAR WIII 110130Z 24009KT 8000 FEW022 28/23 Q1011 NOSIG=
11/01/2015 02:00:00Z	 SAID31 WIII 110200	METAR WIII 110200Z 26011KT 9000 FEW022 29/23 Q1011 NOSIG=
11/01/2015 02:30:00Z	 SAID31 WIII 110230	METAR WIII 110230Z 27011KT 9000 FEW022 29/22 Q1011 NOSIG=
11/01/2015 03:00:00Z	 SAID31 WIII 110300	METAR WIII 110300Z 25009G19KT 9000 FEW022 30/22 Q1011 NOSIG=
11/01/2015 03:30:00Z	 SAID31 WIII 110330	METAR WIII 110330Z 28013KT 9000 SCT022 31/23 Q1010 NOSIG=
11/01/2015 04:00:00Z	 SAID31 WIII 110400	METAR WIII 110400Z 31010KT 9999 SCT022 31/23 Q1010 NOSIG=
11/01/2015 04:30:00Z	 SAID31 WIII 110430	METAR WIII 110430Z 31011KT 260V330 9999 SCT022 30/23 Q1010 NOSIG=
11/01/2015 05:00:00Z	 SAID31 WIII 110500	METAR WIII 110500Z 29007G17KT 260V340 9999 SCT022 31/23 Q1009 NOSIG=
11/01/2015 05:30:00Z	 SAID31 WIII 110530	METAR WIII 110530Z 29014KT 260V330 9000 FEW022 31/22 Q1009 NOSIG=
11/01/2015 06:00:00Z	 SAID31 WIII 110600	METAR WIII 110600Z 30013KT 270V340 9999 SCT021 31/23 Q1008 NOSIG=
11/01/2015 06:30:00Z	 SAID31 WIII 110630	METAR WIII 110630Z 30014KT 9999 SCT021 31/23 Q1008 NOSIG=
11/01/2015 07:00:00Z	 SAID31 WIII 110700	METAR WIII 110700Z 30009KT 260V350 9999 SCT021 31/23 Q1007 NOSIG=
11/01/2015 07:30:00Z	 SAID31 WIII 110730	METAR WIII 110730Z 30008KT 280V340 9999 SCT021 31/23 Q1007 NOSIG=
11/01/2015 08:00:00Z	 SAID31 WIII 110800	METAR WIII 110800Z 30008KT 280V010 9999 SCT021 31/23 Q1007 NOSIG=
11/01/2015 08:30:00Z	 SAID31 WIII 110830	METAR WIII 110830Z 31008KT 270V350 9999 SCT021 31/23 Q1006 NOSIG=
11/01/2015 09:00:00Z	 SAID31 WIII 110900	METAR WIII 110900Z 31008KT 280V340 9999 SCT021 31/24 Q1007 NOSIG=
11/01/2015 09:30:00Z	 SAID31 WIII 110930	METAR WIII 110930Z 30007KT 270V350 9999 SCT020 31/23 Q1007 NOSIG=
11/01/2015 10:00:00Z	 SAID31 WIII 111000	METAR WIII 111000Z 30007KT 9999 SCT020 30/23 Q1007 NOSIG=
11/01/2015 10:30:00Z	 SAID31 WIII 111030	METAR WIII 111030Z 30008KT 9999 SCT020 29/23 Q1008 NOSIG=
11/01/2015 11:00:00Z	 SAID31 WIII 111100	METAR WIII 111100Z 30006KT 9999 SCT021 28/23 Q1008 NOSIG=
11/01/2015 11:30:00Z	 SAID31 WIII 111130	METAR WIII 111130Z 29006KT 9000 FEW021 28/23 Q1009 NOSIG=
11/01/2015 12:00:00Z	 SAID31 WIII 111200	METAR WIII 111200Z 27004KT 5000 FEW021 27/23 Q1009 NOSIG=
11/01/2015 12:30:00Z	 SAID31 WIII 111230	METAR WIII 111230Z 25006KT 6000 FEW021 27/21 Q1010 NOSIG=
11/01/2015 13:00:00Z	 SAID31 WIII 111300	METAR WIII 111300Z 24008KT 6000 SCT020 26/22 Q1010 NOSIG=
11/01/2015 13:30:00Z	 SAID31 WIII 111330	METAR WIII 111330Z 25006KT 8000 FEW020 26/22 Q1010 NOSIG=
11/01/2015 14:00:00Z	 SAID31 WIII 111400	METAR WIII 111400Z 23008KT 8000 SCT020 26/22 Q1010 NOSIG=
11/01/2015 14:30:00Z	 SAID31 WIII 111430	METAR WIII 111430Z 24006KT 8000 FEW020CB SCT020 26/22 Q1010 NOSIG=
11/01/2015 15:00:00Z	 SAID31 WIII 111500	METAR WIII 111500Z 23008KT 8000 FEW020CB SCT020 25/22 Q1010 NOSIG RMK CB TO N=
11/01/2015 15:30:00Z	 SAID31 WIII 111530	METAR WIII 111530Z 23008KT 8000 SCT020 26/22 Q1010 NOSIG=
11/01/2015 16:00:00Z	 SAID31 WIII 111600	METAR WIII 111600Z 23007KT 8000 SCT020 26/22 Q1010 NOSIG=
11/01/2015 16:30:00Z	 SAID31 WIII 111630	METAR WIII 111630Z 23008KT 8000 SCT020 26/22 Q1010 NOSIG=
11/01/2015 17:00:00Z	 SAID31 WIII 111700	METAR WIII 111700Z 24005KT 8000 SCT020 25/22 Q1010 NOSIG=
11/01/2015 17:30:00Z	 SAID31 WIII 111730	METAR WIII 111730Z 23007KT 8000 FEW020CB SCT020 25/22 Q1009 NOSIG RMK CB TO N=
11/01/2015 18:00:00Z	 SAID31 WIII 111800	METAR WIII 111800Z 21009KT 9999 FEW020CB FEW020 25/22 Q1009 NOSIG RMK CB TO N=
11/01/2015 18:30:00Z	 SAID31 WIII 111830	METAR WIII 111830Z 22007KT 9999 FEW020CB FEW020 25/22 Q1009 NOSIG RMK CB TO N=
11/01/2015 19:00:00Z	 SAID31 WIII 111900	METAR WIII 111900Z 21008KT 9999 FEW020CB SCT020 25/22 Q1009 NOSIG RMK CB TO N AND NE=
11/01/2015 19:30:00Z	 SAID31 WIII 111930	METAR WIII 111930Z 23006KT 8000 FEW020CB SCT020 24/22 Q1008 NOSIG RM K CB TO NE=
11/01/2015 20:00:00Z	 SAID31 WIII 112000	METAR WIII 112000Z 23005KT 8000 FEW020CB SCT020 24/22 Q1008 NOSIG RMK CB TO NE=
11/01/2015 20:30:00Z	 SAID31 WIII 112030	METAR WIII 112030Z 23007KT 8000 SCT020 24/22 Q1009 NOSIG=
11/01/2015 21:00:00Z	 SAID31 WIII 112100	METAR WIII 112100Z 21008KT 8000 FEW020CB SCT020 25/22 Q1009 NOSIG RMK CB TO SE=
11/01/2015 21:30:00Z	 SAID31 WIII 112130	METAR WIII 112130Z 21008KT 9999 VCTS FEW020CB SCT020 25/22 Q1009 RMK CB TO N AND NE=
11/01/2015 22:00:00Z	 SAID31 WIII 112200	METAR WIII 112200Z 20007KT 8000 FEW020CB SCT020 25/22 Q1009 RETS NOSI G RMK CB TO NE=
11/01/2015 22:30:00Z	 SAID31 WIII 112230	METAR WIII 112230Z 20006KT 8000 VCTS FEW020CB SCT020 25/22 Q1009 RMK CB TO NE AND E=
11/01/2015 23:00:00Z	 SAID31 WIII 112300	METAR WIII 112300Z 20005KT 8000 FEW020CB BKN020 25/21 Q1009 NOSIG RMK CB TO E=
11/01/2015 23:30:00Z	 SAID31 WIII 112330	METAR WIII 112330Z 20008KT 8000 FEW020CB BKN020 26/22 Q1010 NOSIG RMK CB TO N=
12/01/2015 00:00:00Z	 SAID31 WIII 120000	METAR WIII 120000Z 23004KT 5000 BR FEW020CB BKN022 25/22 Q1010 NOSIG RMK CB TO W AND N=
12/01/2015 00:30:00Z	 SAID31 WIII 120030	METAR WIII 120030Z VRB01KT 5000 HZ BKN020 25/22 Q1011 TEMPO FM0100 40 00 RA=
12/01/2015 01:00:00Z	 SAID31 WIII 120100	METAR WIII 120100Z 33011KT 1000 TSRA BKN018CB OVC018 24/22 Q1011 RMK CB ALL RWY=
12/01/2015 01:30:00Z	 SAID31 WIII 120130	METAR WIII 120130Z 04002KT 3000 -TSRA SCT018CB OVC020 24/23 Q1011 NOS IG RMK CB TO N AND E=
12/01/2015 02:00:00Z	 SAID31 WIII 120200	METAR WIII 120200Z VRB02KT 4000 -RA FEW016CB BKN018 24/23 Q1011 TEMPO FM0215 3000 TSRA RMK CB TO W AND E=
12/01/2015 03:00:00Z	 SAID31 WIII 120300	METAR WIII 120300Z 10002KT 4000 TSRA FEW016CB OVC020 24/23 Q1011 NOSI G RMK CB TO NE=
12/01/2015 04:00:00Z	 SAID31 WIII 120400	METAR WIII 120400Z VRB05KT 5000 -RA FEW016CB BKN018 24/23 Q1010 TEMPO FM0415 3000 TSRA RMK CB TO NE AND S=
12/01/2015 04:30:00Z	 SAID31 WIII 120430	METAR WIII 120430Z VRB02KT 3000 TSRA SCT016CB OVC020 24/23 Q1011 NOSI G RMK CB ALL RWY=
12/01/2015 05:00:00Z	 SAID31 WIII 120500	METAR WIII 120500Z 06006KT 3000 TSRA SCT016CB OVC020 23/22 Q1010 NOSI G RMK CB TO E AND SE=
12/01/2015 05:30:00Z	 SAID31 WIII 120530	METAR WIII 120530Z 09006KT 4000 RA FEW016CB OVC020 24/23 Q1010 RETS R MK CB TO SE=
12/01/2015 06:30:00Z	 SAID31 WIII 120630	METAR WIII 120630Z 09004KT 5000 -RA SCT018 BKN030 24/23 Q1009 NOSIG=
12/01/2015 07:00:00Z	 SAID31 WIII 120700	METAR WIII 120700Z 09005KT 6000 SCT020 BKN030 24/23 Q1009 RERA=
12/01/2015 07:30:00Z	 SAID31 WIII 120730	METAR WIII 120730Z VRB03KT 6000 SCT020 BKN060 25/23 Q1008 NOSIG=
12/01/2015 08:00:00Z	 SAID31 WIII 120800	METAR WIII 120800Z AUTO VRB04KT 5000 25/23 Q1008=
12/01/2015 08:30:00Z	 SAID31 WIII 120830	METAR WIII 120830Z VRB04KT 7000 SCT018 25/23 Q1008 NOSIG=
12/01/2015 09:00:00Z	 SAID31 WIII 120900	METAR WIII 120900Z VRB04KT 6000 -RA SCT020 OVC060 25/23 Q1008 NOSIG=
12/01/2015 09:30:00Z	 SAID31 WIII 120930	METAR WIII 120930Z 10005KT 7000 SCT020 OVC060 25/23 Q1008 RERA=
12/01/2015 10:00:00Z	 SAID31 WIII 121000	METAR WIII 121000Z VRB05KT 6000 SCT020 OVC060 25/23 Q1008 NOSIG=
12/01/2015 10:30:00Z	 SAID31 WIII 121030	METAR WIII 121030Z 06005KT 6000 FEW016CB BKN020 25/23 Q1009 TEMPO FM1 200 4000 RA RMK CB TO NW AND N=
12/01/2015 11:00:00Z	 SAID31 WIII 121100	METAR WIII 121100Z 36007KT 320V030 3000 RA FEW016CB OVC018 24/22 Q100 9 NOSIG RMK CB TO NW=
12/01/2015 11:30:00Z	 SAID31 WIII 121130	METAR WIII 121130Z 01005KT 4000 VCTS -RA SCT016CB OVC020 23/22 Q1010 NOSIG RMK CB TO W AND NE=
12/01/2015 12:00:00Z	 SAID31 WIII 121200	METAR WIII 121200Z VRB03KT 4000 -RA FEW018CB OVC022 23/22 Q1010 NOSIG RMK CB TO NE=
12/01/2015 12:30:00Z	 SAID31 WIII 121230	METAR WIII 121230Z VRB02KT 4000 -RA SCT018 OVC022 23/22 Q1011 NOSIG=
12/01/2015 13:00:00Z	 SAID31 WIII 121300	METAR WIII 121300Z VRB02KT 4500 -RA SCT020 24/23 Q1011 NOSIG=
12/01/2015 13:30:00Z	 SAID31 WIII 121330	METAR WIII 121330Z VRB02KT 5000 -RA SCT020 23/22 Q1011 NOSIG=
12/01/2015 14:00:00Z	 SAID31 WIII 121400	METAR WIII 121400Z VRB03KT 5000 SCT020 23/22 Q1011 NOSIG=
12/01/2015 14:30:00Z	 SAID31 WIII 121430	METAR WIII 121430Z VRB03KT 5000 SCT020 24/22 Q1011 NOSIG=
12/01/2015 15:00:00Z	 SAID31 WIII 121500	METAR WIII 121500Z 27002KT 4500 BR SCT020 24/23 Q1011 NOSIG=
12/01/2015 15:30:00Z	 SAID31 WIII 121530	METAR WIII 121530Z VRB02KT 4800 BR FEW020 24/23 Q1010 NOSIG=
12/01/2015 16:00:00Z	 SAID31 WIII 121600	METAR WIII 121600Z 31002KT 3800 BR FEW020 24/23 Q1010 NOSIG=
12/01/2015 16:30:00Z	 SAID31 WIII 121630	METAR WIII 121630Z 15002KT 4800 BR FEW020 24/23 Q1010 NOSIG=
12/01/2015 17:00:00Z	 SAID31 WIII 121700	METAR WIII 121700Z 15003KT 3600 BR FEW021 24/23 Q1010 NOSIG=
12/01/2015 17:30:00Z	 SAID31 WIII 121730	METAR WIII 121730Z 15003KT 3600 BR FEW021 24/23 Q1010 NOSIG=
12/01/2015 18:00:00Z	 SAID31 WIII 121800	METAR WIII 121800Z 15003KT 3600 BR FEW021 24/23 Q1010 NOSIG=
12/01/2015 19:00:00Z	 SAID31 WIII 121900	METAR WIII 121900Z 21002KT 4700 BR FEW021 24/23 Q1009 NOSIG=
12/01/2015 19:30:00Z	 SAID31 WIII 121930	METAR WIII 121930Z 24005KT 3700 BR FEW021 24/23 Q1009 NOSIG=
12/01/2015 20:00:00Z	 SAID31 WIII 122000	METAR WIII 122000Z 24005KT 3700 BR FEW021 24/23 Q1009 NOSIG=
12/01/2015 20:30:00Z	 SAID31 WIII 122030	METAR WIII 122030Z 24009KT 0800 R25R/1200V1700 R25L/1700V2000 RA BKN0 18 24/23 Q1009 NOSIG=
12/01/2015 21:00:00Z	 SAID31 WIII 122100	METAR WIII 122100Z 23005KT 1700 R25R/2000 RA BKN018 23/23 Q1009 NOSIG =
12/01/2015 21:30:00Z	 SAID31 WIII 122130	METAR WIII 122130Z 21005KT 2400 -RA 23/23 Q1009 RESHRA NOSIG=
12/01/2015 22:00:00Z	 SAID31 WIII 122200	METAR WIII 122200Z 23005KT 2500 BR SCT020 24/23 Q1010 NOSIG=
12/01/2015 22:30:00Z	 SAID31 WIII 122230	METAR WIII 122230Z 20008KT 3000 -RA SCT020 24/23 Q1010 NOSIG=
12/01/2015 23:00:00Z	 SAID31 WIII 122300	METAR WIII 122300Z 22006KT 4000 SCT020 24/23 Q1010 RERA NOSIG=
12/01/2015 23:30:00Z	 SAID31 WIII 122330	METAR WIII 122330Z 20006KT 5000 -RA BKN020 24/23 Q1011 NOSIG=
13/01/2015 00:00:00Z	 SAID31 WIII 130000	METAR WIII 130000Z 21003KT 5000 -RA BKN020 24/23 Q1011 NOSIG=
13/01/2015 00:30:00Z	 SAID31 WIII 130030	METAR WIII 130030Z 22003KT 6000 -RA BKN020 24/23 Q1011 NOSIG=
13/01/2015 01:00:00Z	 SAID31 WIII 130100	METAR WIII 130100Z VRB04KT 2200 -RA BKN020 24/23 Q1012 NOSIG=
13/01/2015 01:30:00Z	 SAID31 WIII 130130	METAR WIII 130130Z 22005KT 3400 BR BKN022 24/23 Q1012 RERA NOSIG=
13/01/2015 02:00:00Z	 SAID31 WIII 130200	METAR WIII 130200Z 25005KT 6000 BKN022 26/23 Q1012 NOSIG=
13/01/2015 02:30:00Z	 SAID31 WIII 130230	METAR WIII 130230Z 26005KT 5000 HZ BKN022 26/24 Q1012 NOSIG=
13/01/2015 03:00:00Z	 SAID31 WIII 130300	METAR WIII 130300Z 24006KT 6000 BKN021 26/23 Q1012 NOSIG=
13/01/2015 03:30:00Z	 SAID31 WIII 130330	METAR WIII 130330Z 21005KT 4500 HZ BKN021 28/24 Q1011 NOSIG=
13/01/2015 04:00:00Z	 SAID31 WIII 130400	METAR WIII 130400Z 25005KT 5000 HZ BKN022 27/24 Q1011 NOSIG=
13/01/2015 04:30:00Z	 SAID31 WIII 130430	METAR WIII 130430Z 26006KT 6000 BKN022 28/24 Q1011 NOSIG=
13/01/2015 05:00:00Z	 SAID31 WIII 130500	METAR WIII 130500Z 30006KT 240V050 6000 BKN019 28/23 Q1011 NOSIG=
13/01/2015 05:30:00Z	 SAID31 WIII 130530	METAR WIII 130530Z 31007KT 3000 RA BKN019 24/23 Q1010 NOSIG=
13/01/2015 06:00:00Z	 SAID31 WIII 130600	METAR WIII 130600Z 32006KT 7000 SCT022 BKN090 26/24 Q1010 RERA NOSIG=
13/01/2015 06:30:00Z	 SAID31 WIII 130630	METAR WIII 130630Z 29007KT 8000 SCT022 28/24 Q1009 NOSIG=
13/01/2015 07:00:00Z	 SAID31 WIII 130700	METAR WIII 130700Z 30008KT 8000 SCT022 28/24 Q1009 NOSIG=
13/01/2015 07:30:00Z	 SAID31 WIII 130730	METAR WIII 130730Z 31006KT 280V340 8000 SCT022 28/23 Q1009 NOSIG=
13/01/2015 08:00:00Z	 SAID31 WIII 130800	METAR WIII 130800Z 31010KT 280V340 8000 FEW020CB SCT022 28/24 Q1008 N OSIG RMK CB TO SW=
13/01/2015 08:30:00Z	 SAID31 WIII 130830	METAR WIII 130830Z 30008KT 270V330 8000 FEW020CB SCT022 27/24 Q1008 N OSIG RMK CB TO S=
13/01/2015 09:00:00Z	 SAID31 WIII 130900	METAR WIII 130900Z 29009KT 8000 SCT021 27/24 Q1008 NOSIG=
13/01/2015 09:30:00Z	 SAID31 WIII 130930	METAR WIII 130930Z 26006KT 6000 -RA SCT022 26/24 Q1008 NOSIG=
13/01/2015 10:00:00Z	 SAID31 WIII 131000	METAR WIII 131000Z 23008KT 6000 SCT021 25/23 Q1009 NOSIG=
13/01/2015 10:30:00Z	 SAID31 WIII 131030	METAR WIII 131030Z 19008KT 6000 SCT022 BKN100 25/23 Q1009 NOSIG=
13/01/2015 11:00:00Z	 SAID31 WIII 131100	METAR WIII 131100Z 19006KT 150V220 6000 SCT022 BKN100 25/23 Q1010 NOS IG=
13/01/2015 11:30:00Z	 SAID31 WIII 131130	METAR WIII 131130Z VRB03KT 6000 FEW021 SCT090 25/23 Q1011 NOSIG=
13/01/2015 12:00:00Z	 SAID31 WIII 131200	METAR WIII 131200Z 32003KT 4600 HZ SCT022 25/23 Q1011 NOSIG=
13/01/2015 12:30:00Z	 SAID31 WIII 131230	METAR WIII 131230Z VRB02KT 4900 HZ SCT022 25/23 Q1011 NOSIG=
13/01/2015 13:00:00Z	 SAID31 WIII 131300	METAR WIII 131300Z 26004KT 4600 BR SCT022 25/23 Q1011 NOSIG=
13/01/2015 13:30:00Z	 SAID31 WIII 131330	METAR WIII 131330Z 25003KT 4000 BR SCT022 25/23 Q1012 NOSIG=
13/01/2015 14:00:00Z	 SAID31 WIII 131400	METAR WIII 131400Z 24005KT 4000 BR SCT022 25/23 Q1012 NOSIG=
13/01/2015 14:30:00Z	 SAID31 WIII 131430	METAR WIII 131430Z 25005KT 4000 BR SCT022 25/23 Q1012 NOSIG=
13/01/2015 15:00:00Z	 SAID31 WIII 131500	METAR WIII 131500Z 23007KT 4000 BR FEW018 24/23 Q1012 NOSIG=
13/01/2015 15:30:00Z	 SAID31 WIII 131530	METAR WIII 131530Z 24004KT 4000 BR FEW020 24/23 Q1012 NOSIG=
13/01/2015 16:00:00Z	 SAID31 WIII 131600	METAR WIII 131600Z 25004KT 4000 BR FEW020 24/23 Q1012 NOSIG=
13/01/2015 18:30:00Z	 SAID31 WIII 131830	METAR WIII 131830Z 23008KT 4000 BR FEW020 24/22 Q1011 NOSIG=
13/01/2015 19:00:00Z	 SAID31 WIII 131900	METAR WIII 131900Z AUTO 23006KT 5000 24/22 Q1010=
13/01/2015 19:30:00Z	 SAID31 WIII 131930	METAR WIII 131930Z AUTO 23006KT 4000 24/22 Q1010=
13/01/2015 20:00:00Z	 SAID31 WIII 132000	METAR WIII 132000Z AUTO VRB04KT 5000 24/22 Q1010=
13/01/2015 20:30:00Z	 SAID31 WIII 132030	METAR WIII 132030Z AUTO VRB01KT 6000 24/22 Q1010=
13/01/2015 21:00:00Z	 SAID31 WIII 132100	METAR WIII 132100Z AUTO 30003KT 4400 24/22 Q1010=
13/01/2015 21:30:00Z	 SAID31 WIII 132130	METAR WIII 132130Z AUTO 27002KT 6000 24/22 Q1011=
13/01/2015 22:00:00Z	 SAID31 WIII 132200	METAR WIII 132200Z AUTO VRB01KT 5000 24/23 Q1011=
13/01/2015 22:30:00Z	 SAID31 WIII 132230	METAR WIII 132230Z AUTO VRB02KT 3400 24/23 Q1012=
13/01/2015 23:00:00Z	 SAID31 WIII 132300	METAR WIII 132300Z AUTO 25002KT 4900 VCTS 24/23 Q1012=
13/01/2015 23:30:00Z	 SAID31 WIII 132330	METAR WIII 132330Z 24010G20KT 4000 -RA BKN018 24/23 Q1013 NOSIG=
14/01/2015 00:00:00Z	 SAID31 WIII 140000	METAR WIII 140000Z 24010KT 5000 RA SCT018 OVC030 23/22 Q1012 NOSIG=
14/01/2015 00:30:00Z	 SAID31 WIII 140030	METAR WIII 140030Z 23008KT 5000 BR FEW018CB SCT020 BKN060 23/22 Q1012 RERA RMK CB TO NE=
14/01/2015 01:00:00Z	 SAID31 WIII 140100	METAR WIII 140100Z 23006KT 6000 SCT020 24/23 Q1013 NOSIG=
14/01/2015 01:30:00Z	 SAID31 WIII 140130	METAR WIII 140130Z 20007KT 6000 BKN020 25/23 Q1013 NOSIG=
14/01/2015 02:00:00Z	 SAID31 WIII 140200	METAR WIII 140200Z 23005KT 7000 SCT020 BKN100 27/23 Q1013 NOSIG=
14/01/2015 02:30:00Z	 SAID31 WIII 140230	METAR WIII 140230Z VRB05KT 8000 SCT020 27/24 Q1013 NOSIG=
14/01/2015 03:00:00Z	 SAID31 WIII 140300	METAR WIII 140300Z 28007KT 250V320 8000 BKN022 29/24 Q1013 NOSIG=
14/01/2015 03:30:00Z	 SAID31 WIII 140330	METAR WIII 140330Z 27006KT 230V310 8000 SCT020 29/23 Q1012 NOSIG=
14/01/2015 04:00:00Z	 SAID31 WIII 140400	METAR WIII 140400Z 29007KT 240V320 9999 SCT020 29/24 Q1012 NOSIG=
14/01/2015 04:30:00Z	 SAID31 WIII 140430	METAR WIII 140430Z 30008KT 270V350 9999 FEW020CB BKN022 29/24 Q1012 N OSIG RMK CB TO NE=
14/01/2015 05:00:00Z	 SAID31 WIII 140500	METAR WIII 140500Z 31008KT 280V350 9999 SCT020 30/24 Q1012 NOSIG=
14/01/2015 05:30:00Z	 SAID31 WIII 140530	METAR WIII 140530Z 30010KT 8000 VCTS FEW018CB BKN020 29/23 Q1011 NOSI G RMK CB TO SW AND W=
14/01/2015 06:00:00Z	 SAID31 WIII 140600	METAR WIII 140600Z 30007KT 6000 -TSRA SCT018CB OVC020 28/23 Q1011 RMK CB TO E SW AND W=
14/01/2015 06:30:00Z	 SAID31 WIII 140630	METAR WIII 140630Z 22010KT 5000 TSRA FEW018CB OVC020 25/23 Q1011 RMK CB TO W=
14/01/2015 07:00:00Z	 SAID31 WIII 140700	METAR WIII 140700Z VRB02KT 7000 FEW018CB SCT020 28/24 Q1010 RETSRA NO SIG RMK CB TO S=
14/01/2015 07:30:00Z	 SAID31 WIII 140730	METAR WIII 140730Z VRB02KT 7000 SCT020 29/24 Q1010 NOSIG=
14/01/2015 08:00:00Z	 SAID31 WIII 140800	METAR WIII 140800Z 26004KT 7000 BKN020 28/23 Q1009 NOSIG=
14/01/2015 08:30:00Z	 SAID31 WIII 140830	METAR WIII 140830Z 25005KT 7000 BKN020 27/24 Q1010 RERA NOSIG=
14/01/2015 09:00:00Z	 SAID31 WIII 140900	METAR WIII 140900Z 30003KT 8000 SCT020 28/24 Q1010 NOSIG=
14/01/2015 09:30:00Z	 SAID31 WIII 140930	METAR WIII 140930Z 27003KT 9999 SCT020 28/24 Q1010 NOSIG=
14/01/2015 10:00:00Z	 SAID31 WIII 141000	METAR WIII 141000Z 32002KT 9999 SCT020 28/24 Q1010 NOSIG=
14/01/2015 10:30:00Z	 SAID31 WIII 141030	METAR WIII 141030Z VRB03KT 9999 SCT020 28/24 Q1010 NOSIG=
14/01/2015 11:00:00Z	 SAID31 WIII 141100	METAR WIII 141100Z 32004KT 8000 FEW020CB SCT020 27/23 Q1011 NOSIG RMK CB TO NE=
14/01/2015 11:30:00Z	 SAID31 WIII 141130	METAR WIII 141130Z 20005KT 5000 VCTS SCT018CB OVC020 26/23 Q1011 RMK CB ALL RWY=
14/01/2015 12:00:00Z	 SAID31 WIII 141200	METAR WIII 141200Z 15004KT 5000 -TSRA SCT018CB OVC020 25/23 Q1011 RMK CB ALL RWY=
14/01/2015 12:30:00Z	 SAID31 WIII 141230	METAR WIII 141230Z 22003KT 7000 BKN020 26/23 Q1012 NOSIG=
14/01/2015 13:00:00Z	 SAID31 WIII 141300	METAR WIII 141300Z 24002KT 6000 FEW022 26/23 Q1012 NOSIG=
14/01/2015 13:30:00Z	 SAID31 WIII 141330	METAR WIII 141330Z 25004KT 6000 FEW022 26/23 Q1013 NOSIG=
14/01/2015 14:00:00Z	 SAID31 WIII 141400	METAR WIII 141400Z 24008KT 7000 FEW022 26/22 Q1013 NOSIG=
14/01/2015 14:30:00Z	 SAID31 WIII 141430	METAR WIII 141430Z 24007KT 7000 SCT022 26/22 Q1013 NOSIG=
14/01/2015 15:00:00Z	 SAID31 WIII 141500	METAR WIII 141500Z 25006KT 7000 SCT022 26/22 Q1013 NOSIG=
14/01/2015 15:30:00Z	 SAID31 WIII 141530	METAR WIII 141530Z 24007KT 6000 FEW022 25/22 Q1013 NOSIG=
14/01/2015 16:00:00Z	 SAID31 WIII 141600	METAR WIII 141600Z 24008KT 8000 FEW022 25/22 Q1013 NOSIG=
14/01/2015 16:30:00Z	 SAID31 WIII 141630	METAR WIII 141630Z 23008KT 7000 FEW020CB SCT022 25/23 Q1013 NOSIG RMK CB TO N =
14/01/2015 17:00:00Z	 SAID31 WIII 141700	METAR WIII 141700Z 23010KT 6000 FEW020CB SCT022 25/22 Q1012 NOSIG RMK CB TO N=
14/01/2015 17:30:00Z	 SAID31 WIII 141730	METAR WIII 141730Z 24007KT 7000 FEW020CB SCT022 24/22 Q1012 NOSIG RMK CB TO N=
14/01/2015 18:00:00Z	 SAID31 WIII 141800	METAR WIII 141800Z 24007KT 7000 FEW020CB SCT022 24/22 Q1011 NOSIG RMK CB TO N=
14/01/2015 18:30:00Z	 SAID31 WIII 141830	METAR WIII 141830Z 25005KT 7000 FEW020CB SCT022 24/22 Q1012 NOSIG RMK CB TO N=
14/01/2015 19:00:00Z	 SAID31 WIII 141900	METAR WIII 141900Z 24008KT 6000 FEW020CB SCT021 24/22 Q1012 TEMPO FM1 915 TL1940 3000 TSRA RMK CB TO NW=
14/01/2015 19:30:00Z	 SAID31 WIII 141930	METAR WIII 141930Z 25011KT 6000 DZ FEW020CB SCT021 BKN090 24/22 Q1012 NOSIG RMK CB TO N=
14/01/2015 20:00:00Z	 SAID31 WIII 142000	METAR WIII 142000Z 26009KT 7000 SCT022 24/22 Q1011 REDZ NOSIG=
14/01/2015 20:30:00Z	 SAID31 WIII 142030	METAR WIII 142030Z 25010KT 220V290 7000 SCT022 24/22 Q1011 NOSIG=
14/01/2015 21:00:00Z	 SAID31 WIII 142100	METAR WIII 142100Z 25008KT 7000 SCT020 24/22 Q1012 NOSIG=
14/01/2015 21:30:00Z	 SAID31 WIII 142130	METAR WIII 142130Z 23007KT 7000 SCT020 23/22 Q1012 NOSIG=
14/01/2015 22:00:00Z	 SAID31 WIII 142200	METAR WIII 142200Z 22008KT 7000 SCT021 23/22 Q1012 NOSIG=
14/01/2015 22:30:00Z	 SAID31 WIII 142230	METAR WIII 142230Z 21008KT 7000 SCT021 23/22 Q1012 NOSIG=
14/01/2015 23:00:00Z	 SAID31 WIII 142300	METAR WIII 142300Z 19007KT 7000 SCT020 24/22 Q1012 NOSIG=
14/01/2015 23:30:00Z	 SAID31 WIII 142330	METAR WIII 142330Z 20007KT 8000 SCT021 24/22 Q1013 NOSIG=
15/01/2015 00:00:00Z	 SAID31 WIII 150000	METAR WIII 150000Z 20006KT 8000 SCT022 24/22 Q1013 NOSIG=
15/01/2015 00:30:00Z	 SAID31 WIII 150030	METAR WIII 150030Z 21007KT 9000 FEW019CB SCT020 25/23 Q1013 NOSIG RMK CB TO N=
15/01/2015 01:00:00Z	 SAID31 WIII 150100	METAR WIII 150100Z 23007KT 8000 SCT020 27/23 Q1013 NOSIG =
15/01/2015 01:30:00Z	 SAID31 WIII 150130	METAR WIII 150130Z 23009KT 8000 SCT020 27/23 Q1013 NOSIG=
15/01/2015 02:00:00Z	 SAID31 WIII 150200	METAR WIII 150200Z 22010KT 8000 SCT020 26/23 Q1014 NOSIG=
15/01/2015 02:30:00Z	 SAID31 WIII 150230	METAR WIII 150230Z 23012KT 7000 -RA BKN020 26/23 Q1014 NOSIG=
15/01/2015 03:00:00Z	 SAID31 WIII 150300	METAR WIII 150300Z 23015KT 9000 BKN020 27/24 Q1013 NOSIG=
15/01/2015 03:30:00Z	 SAID31 WIII 150330	METAR WIII 150330Z 24007G17KT 9000 BKN020 28/23 Q1012 NOSIG=
15/01/2015 04:00:00Z	 SAID31 WIII 150400	METAR WIII 150400Z 23011KT 9000 SCT020 28/23 Q1012 NOSIG=
15/01/2015 04:30:00Z	 SAID31 WIII 150430	METAR WIII 150430Z 24009KT 220V290 9999 SCT020 29/23 Q1011 NOSIG=
15/01/2015 05:00:00Z	 SAID31 WIII 150500	METAR WIII 150500Z 25010KT 9999 SCT020 30/23 Q1011 NOSIG=
15/01/2015 05:30:00Z	 SAID31 WIII 150530	METAR WIII 150530Z 26009KT 220V280 9999 FEW021 30/23 Q1010 NOSIG=
15/01/2015 06:00:00Z	 SAID31 WIII 150600	METAR WIII 150600Z 26008KT 240V300 9999 FEW022 31/23 Q1010 NOSIG=
15/01/2015 06:30:00Z	 SAID31 WIII 150630	METAR WIII 150630Z 26007KT 220V310 9999 SCT022 32/23 Q1009 NOSIG=
15/01/2015 07:00:00Z	 SAID31 WIII 150700	METAR WIII 150700Z 27009KT 230V330 9999 SCT022 31/24 Q1009 NOSIG=
15/01/2015 07:30:00Z	 SAID31 WIII 150730	METAR WIII 150730Z 28006KT 240V320 9999 SCT022 31/24 Q1008 NOSIG=
15/01/2015 08:00:00Z	 SAID31 WIII 150800	METAR WIII 150800Z 31006KT 280V350 9999 SCT022 28/25 Q1008 NOSIG=
15/01/2015 08:30:00Z	 SAID31 WIII 150830	METAR WIII 150830Z 30009KT 270V340 9999 SCT020 30/24 Q1008 NOSIG=
15/01/2015 09:00:00Z	 SAID31 WIII 150900	METAR WIII 150900Z VRB05KT 9999 SCT020 29/24 Q1008 NOSIG=
15/01/2015 09:30:00Z	 SAID31 WIII 150930	METAR WIII 150930Z 30005KT 9999 FEW020CB SCT020 31/24 Q1008 NOSIG RMK CB TO E=
15/01/2015 10:00:00Z	 SAID31 WIII 151000	METAR WIII 151000Z VRB05KT 8000 FEW020CB SCT020 29/24 Q1008 NOSIG RMK CB TO E=
15/01/2015 10:30:00Z	 SAID31 WIII 151030	METAR WIII 151030Z 24009KT 9999 SCT020 30/22 Q1009 NOSIG=
15/01/2015 11:00:00Z	 SAID31 WIII 151100	METAR WIII 151100Z 24009KT 9000 SCT020 29/22 Q1009 NOSIG=
15/01/2015 11:30:00Z	 SAID31 WIII 151130	METAR WIII 151130Z 23008KT 9000 FEW022 27/22 Q1010 NOSIG=
15/01/2015 12:00:00Z	 SAID31 WIII 151200	METAR WIII 151200Z 24008KT 9999 FEW020CB SCT020 27/22 Q1010 NOSIG RMK CB TO E=
15/01/2015 12:30:00Z	 SAID31 WIII 151230	METAR WIII 151230Z 25005KT 9000 FEW020CB FEW020 27/22 Q1011 NOSIG RMK CB TO E=
15/01/2015 13:00:00Z	 SAID31 WIII 151300	METAR WIII 151300Z 25005KT 9000 FEW020CB FEW020 27/23 Q1011 NOSIG RMK CB TO E=
15/01/2015 13:30:00Z	 SAID31 WIII 151330	METAR WIII 151330Z 27004KT 4400 HZ SCT020 26/23 Q1011 NOSIG=
15/01/2015 14:00:00Z	 SAID31 WIII 151400	METAR WIII 151400Z VRB05KT 5000 HZ SCT020 26/23 Q1012 NOSIG=
15/01/2015 14:30:00Z	 SAID31 WIII 151430	METAR WIII 151430Z 25004KT 5000 HZ FEW020 26/23 Q1012 NOSIG=
15/01/2015 15:00:00Z	 SAID31 WIII 151500	METAR WIII 151500Z 27003KT 4500 HZ FEW022 25/23 Q1012 NOSIG=
15/01/2015 15:30:00Z	 SAID31 WIII 151530	METAR WIII 151530Z 28003KT 5000 HZ FEW020 25/23 Q1012 NOSIG=
15/01/2015 16:00:00Z	 SAID31 WIII 151600	METAR WIII 151600Z VRB02KT 4500 FEW020 25/23 Q1012 NOSIG=
15/01/2015 17:00:00Z	 SAID31 WIII 151700	METAR WIII 151700Z 28003KT 3500 HZ SCT020 24/23 Q1011 NOSIG=
15/01/2015 17:30:00Z	 SAID31 WIII 151730	METAR WIII 151730Z VRB02KT 3500 HZ SCT020 24/23 Q1011 NOSIG=
15/01/2015 18:00:00Z	 SAID31 WIII 151800	METAR WIII 151800Z VRB02KT 3500 SCT020 24/23 Q1011 NOSIG=
15/01/2015 18:30:00Z	 SAID31 WIII 151830	METAR WIII 151830Z VRB03KT 5000 HZ SCT020 24/23 Q1011 NOSIG=
15/01/2015 19:00:00Z	 SAID31 WIII 151900	METAR WIII 151900Z VRB03KT 6000 SCT020 25/23 Q1011 NOSIG=
15/01/2015 19:30:00Z	 SAID31 WIII 151930	METAR WIII 151930Z VRB02KT 6000 SCT020 25/23 Q1010 NOSIG=
15/01/2015 20:00:00Z	 SAID31 WIII 152000	METAR WIII 152000Z VRB01KT 6000 SCT020 25/23 Q1010 NOSIG=
15/01/2015 20:30:00Z	 SAID31 WIII 152030	METAR WIII 152030Z VRB01KT 6000 SCT020 24/23 Q1010 NOSIG=
15/01/2015 21:00:00Z	 SAID31 WIII 152100	METAR WIII 152100Z 22002KT 6000 SCT020 24/23 Q1010 NOSIG=
15/01/2015 21:30:00Z	 SAID31 WIII 152130	METAR WIII 152130Z VRB03KT 5000 BR SCT020 25/23 Q1010 NOSIG=
15/01/2015 22:00:00Z	 SAID31 WIII 152200	METAR WIII 152200Z 27006KT 5000 BR SCT020 24/22 Q1011 NOSIG=
15/01/2015 22:30:00Z	 SAID31 WIII 152230	METAR WIII 152230Z 29005KT 5000 BR SCT020 24/22 Q1011 NOSIG=
15/01/2015 23:00:00Z	 SAID31 WIII 152300	METAR WIII 152300Z 23005KT 6000 BKN020 24/22 Q1011 NOSIG=
15/01/2015 23:30:00Z	 SAID31 WIII 152330	METAR WIII 152330Z VRB04KT 7000 BKN020 24/22 Q1012 NOSIG=
16/01/2015 00:00:00Z	 SAID31 WIII 160000	METAR WIII 160000Z 23003KT 7000 SCT020 24/22 Q1012 NOSIG=
16/01/2015 00:30:00Z	 SAID31 WIII 160030	METAR WIII 160030Z VRB03KT 7000 SCT020 26/23 Q1013 NOSIG=
16/01/2015 01:00:00Z	 SAID31 WIII 160100	METAR WIII 160100Z VRB04KT 6000 -RA FEW016CB BKN018 26/23 Q1013 TEMPO -TSRA RMK CB TO N=
16/01/2015 01:30:00Z	 SAID31 WIII 160130	METAR WIII 160130Z VRB03KT 7000 FEW016CB BKN020 26/23 Q1013 RERA RMK CB TO N=
16/01/2015 02:00:00Z	 SAID31 WIII 160200	METAR WIII 160200Z 29004KT 5000 -RA FEW016CB BKN018 25/23 Q1013 NOSIG RMK CB TO N=
16/01/2015 02:30:00Z	 SAID31 WIII 160230	METAR WIII 160230Z VRB04KT 7000 -RA FEW016CB BKN018 28/24 Q1013 NOSIG RMK CB TO N=
16/01/2015 03:00:00Z	 SAID31 WIII 160300	METAR WIII 160300Z 28010KT 260V320 8000 FEW018CB BKN020 29/24 Q1012 R ERA RMK CB TO NE=
16/01/2015 03:30:00Z	 SAID31 WIII 160330	METAR WIII 160330Z 30007KT 260V330 9999 BKN020 29/24 Q1012 NOSIG=
16/01/2015 04:00:00Z	 SAID31 WIII 160400	METAR WIII 160400Z 30008KT 260V340 9999 SCT018 30/24 Q1012 NOSIG=
16/01/2015 04:30:00Z	 SAID31 WIII 160430	METAR WIII 160430Z 31008KT 250V330 9999 SCT018 30/24 Q1011 NOSIG=
16/01/2015 05:00:00Z	 SAID31 WIII 160500	METAR WIII 160500Z 30009KT 260V320 9999 SCT018 30/24 Q1011 NOSIG=
16/01/2015 05:30:00Z	 SAID31 WIII 160530	METAR WIII 160530Z 32010KT 280V360 9999 SCT018 30/24 Q1011 NOSIG=
16/01/2015 06:00:00Z	 SAID31 WIII 160600	METAR WIII 160600Z 31009KT 9999 SCT018 30/24 Q1010 NOSIG=
16/01/2015 06:30:00Z	 SAID31 WIII 160630	METAR WIII 160630Z 29012KT 9999 SCT018 30/24 Q1010 NOSIG=
16/01/2015 07:00:00Z	 SAID31 WIII 160700	METAR WIII 160700Z 32006KT 280V010 9999 SCT020 30/24 Q1009 NOSIG=
16/01/2015 07:30:00Z	 SAID31 WIII 160730	METAR WIII 160730Z AUTO 32008KT 9999 30/24 Q1009=
16/01/2015 08:00:00Z	 SAID31 WIII 160800	METAR WIII 160800Z AUTO VRB08KT 9999 30/24 Q1008=
16/01/2015 08:30:00Z	 SAID31 WIII 160830	METAR WIII 160830Z 31007KT 280V010 9999 FEW020 30/23 Q1008 NOSIG=
16/01/2015 09:00:00Z	 SAID31 WIII 160900	METAR WIII 160900Z 32006KT 270V350 9999 FEW018 30/23 Q1008 NOSIG=
16/01/2015 09:30:00Z	 SAID31 WIII 160930	METAR WIII 160930Z 30006KT 260V330 9999 FEW020 30/23 Q1008 NOSIG=
16/01/2015 10:00:00Z	 SAID31 WIII 161000	METAR WIII 161000Z VRB04KT 9999 FEW020 30/23 Q1008 NOSIG=
16/01/2015 10:30:00Z	 SAID31 WIII 161030	METAR WIII 161030Z VRB04KT 9999 FEW020 29/24 Q1009 NOSIG=
16/01/2015 11:00:00Z	 SAID31 WIII 161100	METAR WIII 161100Z 35004KT 9000 FEW020 28/23 Q1009 NOSIG=
16/01/2015 11:30:00Z	 SAID31 WIII 161130	METAR WIII 161130Z 01003KT 8000 FEW020 27/24 Q1010 NOSIG=
16/01/2015 12:00:00Z	 SAID31 WIII 161200	METAR WIII 161200Z 02003KT 8000 FEW018 27/24 Q1010 NOSIG=
16/01/2015 12:30:00Z	 SAID31 WIII 161230	METAR WIII 161230Z VRB02KT 7000 FEW018CB FEW020 27/24 Q1011 NOSIG RMK CB TO W=
16/01/2015 13:00:00Z	 SAID31 WIII 161300	METAR WIII 161300Z 05002KT 6000 FEW022 27/24 Q1010 NOSIG=
16/01/2015 13:30:00Z	 SAID31 WIII 161330	METAR WIII 161330Z 21014KT 0750 R25R/1300V1900 R25L/1600VP2000 +TSRA SCT015CB SCT018 23/22 Q1012 NOSIG RMK CB OVER THE FIELDS=
16/01/2015 13:41:00Z	 SAID31 WIII 161341	METAR WIII 161341Z 21013KT 0750 R25R/1300V1900 R25L/1600VP2000 +TSRA SCT015CB BKN018 23/22 Q1012 NOSIG RMK CB OVER THE FIELDS=
16/01/2015 14:00:00Z	 SAID31 WIII 161400	METAR WIII 161400Z 23012KT 1200 R25R/1600VP2000 TSRA SCT015CB SCT018 23/22 Q1012 NOSIG RMK CB TO NW=
16/01/2015 14:30:00Z	 SAID31 WIII 161430	METAR WIII 161430Z 24006KT 5000 -RA SCT019 23/22 Q1012 RETS NOSIG=
16/01/2015 15:00:00Z	 SAID31 WIII 161500	METAR WIII 161500Z 30006KT 5000 -RA FEW018CB BKN020 23/22 Q1012 RERA NOSIG RMK CB TO E=
16/01/2015 15:30:00Z	 SAID31 WIII 161530	METAR WIII 161530Z 29005KT 6000 -RA FEW018CB SCT020 24/22 Q1012 NOSIG RMK CB TO N=
16/01/2015 16:00:00Z	 SAID31 WIII 161600	METAR WIII 161600Z 28003KT 5000 SCT019 24/22 Q1012 RERA NOSIG=
16/01/2015 16:30:00Z	 SAID31 WIII 161630	METAR WIII 161630Z 25007KT 3500 -RA SCT019 BKN060 24/22 Q1012 NOSIG=
16/01/2015 17:00:00Z	 SAID31 WIII 161700	METAR WIII 161700Z 30007KT 5000 SCT019 BKN060 25/21 Q1012 RERA NOSIG=
16/01/2015 17:30:00Z	 SAID31 WIII 161730	METAR WIII 161730Z 30004KT 5000 HZ FEW019CB SCT019 BKN060 25/22 Q1011 NOSIG RMK CB TO NE=
16/01/2015 18:00:00Z	 SAID31 WIII 161800	METAR WIII 161800Z 31004KT 6000 FEW019CB SCT020 25/22 Q1011 NOSIG RMK CB TO NE=
16/01/2015 18:30:00Z	 SAID31 WIII 161830	METAR WIII 161830Z 24003KT 6000 FEW019CB SCT020 BKN060 24/22 Q1010 NO SIG RMK CB TO NE=
16/01/2015 19:00:00Z	 SAID31 WIII 161900	METAR WIII 161900Z 23003KT 5000 FEW019CB SCT019 24/22 Q1010 NOSIG RMK CB TO NE=
16/01/2015 19:30:00Z	 SAID31 WIII 161930	METAR WIII 161930Z VRB02KT 5000 HZ SCT020 BKN060 24/23 Q1010 NOSIG=
16/01/2015 20:00:00Z	 SAID31 WIII 162000	METAR WIII 162000Z 33002KT 9000 SCT020 4/23 Q1010 NOSIG=
16/01/2015 20:30:00Z	 SAID31 WIII 162030	METAR WIII 162030Z VRB02KT 6000 SCT020 25/23 Q1009 NOSIG=
16/01/2015 21:00:00Z	 SAID31 WIII 162100	METAR WIII 162100Z VRB01KT 5000 BR SCT020 24/22 Q1009 NOSIG=
16/01/2015 21:30:00Z	 SAID31 WIII 162130	METAR WIII 162130Z VRB02KT 1200 +RA SCT018 BKN060 24/23 Q1010 NOSIG=
16/01/2015 22:00:00Z	 SAID31 WIII 162200	METAR WIII 162200Z 17003KT 3500 BR SCT019 BKN060 24/23 Q1010 RERA NOS IG=
16/01/2015 22:30:00Z	 SAID31 WIII 162230	METAR WIII 162230Z 18003KT 4700 BR SCT020 24/23 Q1010 RERA NOSIG=
16/01/2015 23:00:00Z	 SAID31 WIII 162300	METAR WIII 162300Z 18005KT 4000 BR SCT020 24/23 Q1011 NOSIG=
16/01/2015 23:30:00Z	 SAID31 WIII 162330	METAR WIII 162330Z 19005KT 3500 FEW021 24/23 Q1011 NOSIG=
17/01/2015 00:00:00Z	 SAID31 WIII 170000	METAR WIII 170000Z 20004KT 4500 HZ SCT020 25/23 Q1011 NOSIG=
17/01/2015 00:30:00Z	 SAID31 WIII 170030	METAR WIII 170030Z 24005KT 4500 HZ BKN020 26/24 Q1012 NOSIG=
17/01/2015 01:00:00Z	 SAID31 WIII 170100	METAR WIII 170100Z 25004KT 3000 -RA BKN020 26/24 Q1012 TEMPO FM0100 4 000 RA=
17/01/2015 01:30:00Z	 SAID31 WIII 170130	METAR WIII 170130Z 26005KT 4000 HZ BKN021 27/24 Q1012 RERA NOSIG=
17/01/2015 02:00:00Z	 SAID31 WIII 170200	METAR WIII 170200Z 29010KT 6000 BKN020 27/23 Q1012 NOSIG=
17/01/2015 02:30:00Z	 SAID31 WIII 170230	METAR WIII 170230Z 29015KT 7000 BKN020 28/24 Q1012 NOSIG=
17/01/2015 03:00:00Z	 SAID31 WIII 170300	METAR WIII 170300Z 29018KT 7000 BKN020 29/24 Q1012 NOSIG=
17/01/2015 03:30:00Z	 SAID31 WIII 170330	METAR WIII 170330Z 30018KT 7000 BKN020 29/24 Q1012 NOSIG=
17/01/2015 04:00:00Z	 SAID31 WIII 170400	METAR WIII 170400Z 30017KT 8000 SCT020 29/24 Q1011 NOSIG=
17/01/2015 04:30:00Z	 SAID31 WIII 170430	METAR WIII 170430Z 30016KT 8000 SCT021 29/23 Q1011 NOSIG=
17/01/2015 05:00:00Z	 SAID31 WIII 170500	METAR WIII 170500Z 30013KT 270V330 8000 SCT020 29/23 Q1010 NOSIG=
17/01/2015 05:30:00Z	 SAID31 WIII 170530	METAR WIII 170530Z 31015KT 270V010 8000 SCT020 30/24 Q1010 NOSIG=
17/01/2015 06:00:00Z	 SAID31 WIII 170600	METAR WIII 170600Z 30016KT 270V340 7000 SCT020 29/24 Q1010 NOSIG=
17/01/2015 06:30:00Z	 SAID31 WIII 170630	METAR WIII 170630Z 31013KT 8000 SCT020 30/24 Q1009 NOSIG=
17/01/2015 07:00:00Z	 SAID31 WIII 170700	METAR WIII 170700Z 29014KT 7000 FEW020CB SCT021 30/23 Q1009 NOSIG RMK CB TO S=
17/01/2015 07:30:00Z	 SAID31 WIII 170730	METAR WIII 170730Z 31010KT 7000 BKN020 29/23 Q1009 NOSIG=
17/01/2015 08:00:00Z	 SAID31 WIII 170800	METAR WIII 170800Z 29016KT 260V340 6000 SCT020 29/23 Q1008 NOSIG=
17/01/2015 08:30:00Z	 SAID31 WIII 170830	METAR WIII 170830Z 35008KT 260V030 3000 R25R/0900VP2000 R25L/1000V200 0 RA BKN020 25/23 Q1008 NOSIG=
17/01/2015 09:00:00Z	 SAID31 WIII 170900	METAR WIII 170900Z VRB03KT 7000 SCT021 27/24 Q1008 RERA NOSIG=
17/01/2015 09:30:00Z	 SAID31 WIII 170930	METAR WIII 170930Z VRB03KT 8000 SCT021 29/24 Q1008 NOSIG=
17/01/2015 10:00:00Z	 SAID31 WIII 171000	METAR WIII 171000Z 33005KT 8000 SCT022 29/24 Q1008 NOSIG=
17/01/2015 10:30:00Z	 SAID31 WIII 171030	METAR WIII 171030Z 31005KT 8000 SCT021 28/24 Q1008 NOSIG=
17/01/2015 11:00:00Z	 SAID31 WIII 171100	METAR WIII 171100Z 31005KT 8000 SCT020 28/23 Q1009 NOSIG=
17/01/2015 11:30:00Z	 SAID31 WIII 171130	METAR WIII 171130Z 31004KT 7000 SCT020 28/24 Q1009 NOSIG=
17/01/2015 12:00:00Z	 SAID31 WIII 171200	METAR WIII 171200Z 27006KT 6000 SCT022 28/24 Q1010 NOSIG=
17/01/2015 12:30:00Z	 SAID31 WIII 171230	METAR WIII 171230Z 24005KT 6000 FEW018 26/24 Q1010 NOSIG=
17/01/2015 13:00:00Z	 SAID31 WIII 171300	METAR WIII 171300Z 21003KT 5000 BR FEW018 27/24 Q1010 NOSIG=
17/01/2015 13:30:00Z	 SAID31 WIII 171330	METAR WIII 171330Z 22004KT 5000 BR FEW020 27/23 Q1010 NOSIG=
17/01/2015 14:00:00Z	 SAID31 WIII 171400	METAR WIII 171400Z 23005KT 5000 BR FEW020 26/23 Q1011 NOSIG=
17/01/2015 14:30:00Z	 SAID31 WIII 171430	METAR WIII 171430Z 24006KT 5000 BR FEW018 26/23 Q1011 NOSIG=
17/01/2015 15:00:00Z	 SAID31 WIII 171500	METAR WIII 171500Z 24005KT 5000 BR FEW018 26/23 Q1011 NOSIG=
17/01/2015 15:30:00Z	 SAID31 WIII 171530	METAR WIII 171530Z VRB03KT 5000 BR SCT020 26/23 Q1012 NOSIG=
17/01/2015 16:00:00Z	 SAID31 WIII 171600	METAR WIII 171600Z 24002KT 5000 BR SCT022 26/23 Q1011 NOSIG=
18/01/2015 01:00:00Z	 SAID31 WIII 180100	METAR WIII 180100Z VRB02KT 6000 SCT018 26/23 Q1012 NOSIG=
18/01/2015 01:30:00Z	 SAID31 WIII 180130	METAR WIII 180130Z 31006KT 270V340 8000 SCT020 28/24 Q1012 NOSIG=
18/01/2015 02:00:00Z	 SAID31 WIII 180200	METAR WIII 180200Z 32009KT 9000 SCT020 29/23 Q1012 NOSIG=
18/01/2015 02:30:00Z	 SAID31 WIII 180230	METAR WIII 180230Z 32012KT 290V350 9000 SCT020 28/22 Q1012 NOSIG=
18/01/2015 03:00:00Z	 SAID31 WIII 180300	METAR WIII 180300Z 32012KT 9000 SCT020 29/23 Q1012 NOSIG=
18/01/2015 03:30:00Z	 SAID31 WIII 180330	METAR WIII 180330Z 31009KT 280V350 9000 SCT020 29/23 Q1012 NOSIG=
18/01/2015 04:00:00Z	 SAID31 WIII 180400	METAR WIII 180400Z 30011KT 9000 SCT020 29/23 Q1012 NOSIG=
18/01/2015 04:30:00Z	 SAID31 WIII 180430	METAR WIII 180430Z 31012KT 280V340 9000 SCT020 29/23 Q1012 NOSIG=
18/01/2015 05:00:00Z	 SAID31 WIII 180500	METAR WIII 180500Z 32010KT 9000 SCT021 29/23 Q1011 NOSIG=
18/01/2015 05:30:00Z	 SAID31 WIII 180530	METAR WIII 180530Z 32012KT 9000 SCT020 30/23 Q1011 NOSIG=
18/01/2015 06:00:00Z	 SAID31 WIII 180600	METAR WIII 180600Z 32012KT 9000 BKN020 30/23 Q1010 NOSIG=
18/01/2015 06:30:00Z	 SAID31 WIII 180630	METAR WIII 180630Z 32010KT 290V360 9999 BKN020 29/23 Q1010 NOSIG=
18/01/2015 07:00:00Z	 SAID31 WIII 180700	METAR WIII 180700Z 32013KT 9999 BKN020 29/23 Q1010 NOSIG=
18/01/2015 07:30:00Z	 SAID31 WIII 180730	METAR WIII 180730Z 31014KT 9999 BKN020 30/23 Q1010 NOSIG=
18/01/2015 08:00:00Z	 SAID31 WIII 180800	METAR WIII 180800Z 30013KT 9999 SCT021 30/23 Q1009 NOSIG=
18/01/2015 08:30:00Z	 SAID31 WIII 180830	METAR WIII 180830Z 32011KT 9999 SCT021 29/23 Q1009 NOSIG=
18/01/2015 09:00:00Z	 SAID31 WIII 180900	METAR WIII 180900Z 32011KT 9999 SCT021 29/22 Q1009 NOSIG=
18/01/2015 09:30:00Z	 SAID31 WIII 180930	METAR WIII 180930Z 32011KT 280V350 9999 SCT021 29/22 Q1009 NOSIG=
18/01/2015 10:00:00Z	 SAID31 WIII 181000	METAR WIII 181000Z 31010KT 9999 SCT021 29/22 Q1009 NOSIG=
18/01/2015 10:30:00Z	 SAID31 WIII 181030	METAR WIII 181030Z 31009KT 9999 SCT020 28/22 Q1010 NOSIG=
18/01/2015 11:00:00Z	 SAID31 WIII 181100	METAR WIII 181100Z 33008KT 9000 SCT020 28/22 Q1010 NOSIG=
18/01/2015 11:30:00Z	 SAID31 WIII 181130	METAR WIII 181130Z 30006KT 8000 SCT020 28/23 Q1010 NOSIG=
18/01/2015 12:00:00Z	 SAID31 WIII 181200	METAR WIII 181200Z 29005KT 8000 FEW022 28/22 Q1011 NOSIG=
18/01/2015 12:30:00Z	 SAID31 WIII 181230	METAR WIII 181230Z 32006KT 290V360 8000 FEW022 28/22 Q1011 NOSIG=
18/01/2015 13:00:00Z	 SAID31 WIII 181300	METAR WIII 181300Z 33007KT 7000 FEW022 SCT100 28/22 Q1011 NOSIG=
18/01/2015 13:30:00Z	 SAID31 WIII 181330	METAR WIII 181330Z 32006KT 280V340 7000 FEW022 SCT100 28/22 Q1012 NOS IG=
18/01/2015 14:00:00Z	 SAID31 WIII 181400	METAR WIII 181400Z VRB05KT 6000 SCT022 27/22 Q1012 NOSIG=
18/01/2015 14:30:00Z	 SAID31 WIII 181430	METAR WIII 181430Z VRB05KT 6000 SCT022 27/22 Q1012 NOSIG=
18/01/2015 15:00:00Z	 SAID31 WIII 181500	METAR WIII 181500Z 33004KT 6000 SCT022 27/23 Q1012 NOSIG=
18/01/2015 15:30:00Z	 SAID31 WIII 181530	METAR WIII 181530Z 34004KT 6000 SCT021 27/23 Q1012 NOSIG=
18/01/2015 16:00:00Z	 SAID31 WIII 181600	METAR WIII 181600Z VRB04KT 6000 SCT021 27/22 Q1012 NOSIG=
18/01/2015 16:30:00Z	 SAID31 WIII 181630	METAR WIII 181630Z VRB04KT 7000 SCT022 27/22 Q1012 NOSIG=
18/01/2015 17:00:00Z	 SAID31 WIII 181700	METAR WIII 181700Z 31004KT 7000 SCT022 27/22 Q1012 NOSIG=
18/01/2015 17:30:00Z	 SAID31 WIII 181730	METAR WIII 181730Z 29005KT 7000 SCT021 28/22 Q1011 NOSIG=
18/01/2015 18:00:00Z	 SAID31 WIII 181800	METAR WIII 181800Z 29003KT 7000 SCT021 27/22 Q1011 NOSIG=
18/01/2015 18:30:00Z	 SAID31 WIII 181830	METAR WIII 181830Z VRB04KT 6000 SCT020 27/23 Q1011 NOSIG=
18/01/2015 19:00:00Z	 SAID31 WIII 181900	METAR WIII 181900Z 25004KT 6000 SCT020 25/23 Q1011 NOSIG=
18/01/2015 19:30:00Z	 SAID31 WIII 181930	METAR WIII 181930Z 23004KT 6000 SCT020 26/23 Q1011 NOSIG=
18/01/2015 20:00:00Z	 SAID31 WIII 182000	METAR WIII 182000Z 23003KT 4500 HZ SCT022 26/23 Q1011 NOSIG=
18/01/2015 20:30:00Z	 SAID31 WIII 182030	METAR WIII 182030Z 24004KT 4000 BR SCT020 25/23 Q1010 RERA NOSIG=
18/01/2015 21:00:00Z	 SAID31 WIII 182100	METAR WIII 182100Z 24005KT 4000 -RA BKN021 25/23 Q1010 NOSIG=
18/01/2015 21:30:00Z	 SAID31 WIII 182130	METAR WIII 182130Z 24003KT 4400 -RA BKN020 25/24 Q1010 NOSIG=
18/01/2015 22:00:00Z	 SAID31 WIII 182200	METAR WIII 182200Z 22003KT 4700 BR SCT020 25/23 Q1011 RERA NOSIG=
18/01/2015 22:30:00Z	 SAID31 WIII 182230	METAR WIII 182230Z 22004KT 4500 BR SCT020 BKN100 25/23 Q1011 RERA NOS IG=
18/01/2015 23:00:00Z	 SAID31 WIII 182300	METAR WIII 182300Z 24003KT 4800 BR BKN022 25/23 Q1011 NOSIG=
18/01/2015 23:30:00Z	 SAID31 WIII 182330	METAR WIII 182330Z 25004KT 6000 -RA BKN022 26/23 Q1012 NOSIG=
19/01/2015 00:00:00Z	 SAID31 WIII 190000	METAR WIII 190000Z 28004KT 4800 -RA SCT022 BKN090 26/23 Q1012 NOSIG=
19/01/2015 00:30:00Z	 SAID31 WIII 190030	METAR WIII 190030Z VRB04KT 6000 -RA SCT022 BKN100 26/23 Q1012 NOSIG=
19/01/2015 01:00:00Z	 SAID31 WIII 190100	METAR WIII 190100Z 26004KT 6000 -RA BKN021 26/23 Q1013 NOSIG=
19/01/2015 01:00:00Z	 SAID31 WIII 190100 CCA	METAR COR WIII 190100Z 26004KT 6000 -RA BKN021 26/23 Q1013 TEMPO TL02 00 4000 RA =
19/01/2015 01:30:00Z	 SAID31 WIII 190130	METAR WIII 190130Z 26007KT 6000 -RA BKN020 25/24 Q1013 NOSIG=
19/01/2015 02:00:00Z	 SAID31 WIII 190200	METAR WIII 190200Z 27007KT 6000 FEW020CB OVC022 26/24 Q1013 NOSIG=
19/01/2015 02:30:00Z	 SAID31 WIII 190230	METAR WIII 190230Z 27008KT 6000 OVC022 26/24 Q1013 NOSIG=
19/01/2015 03:00:00Z	 SAID31 WIII 190300	METAR WIII 190300Z 27008KT 6000 -RA OVC021 27/24 Q1013 NOSIG=
19/01/2015 03:30:00Z	 SAID31 WIII 190330	METAR WIII 190330Z 29010KT 4000 +RA FEW018CB OVC021 26/24 Q1013 TEMPO 4000 RMK CB TO NE=
19/01/2015 04:00:00Z	 SAID31 WIII 190400	METAR WIII 190400Z 27009KT 2000 -TSRA SCT018CB OVC020 23/22 Q1013 TE MPO 2000 TSRA RMK CB TO E SE AND NW=
19/01/2015 04:30:00Z	 SAID31 WIII 190430	METAR WIII 190430Z 25005KT 3000 RA FEW018CB OVC020 23/22 Q1013 RETS N OSIG RMK CB TO SE=
19/01/2015 05:00:00Z	 SAID31 WIII 190500	METAR WIII 190500Z 24005KT 4000 -TSRA FEW018CB OVC020 23/22 Q1013 NOS IG RMK CB TO NE AND SE=
19/01/2015 05:30:00Z	 SAID31 WIII 190530	METAR WIII 190530Z VRB04KT 5000 -RA FEW018CB OVC022 24/22 Q1013 RETS NOSIG RMK CB TO N=
19/01/2015 06:00:00Z	 SAID31 WIII 190600	METAR WIII 190600Z 22005KT 5000 -RA FEW018CB OVC022 24/22 Q1012 NOSIG RMK CB TO N=
19/01/2015 06:30:00Z	 SAID31 WIII 190630	METAR WIII 190630Z 17004KT 5000 -RA OVC22 24/22 Q1012 NOSIG =
19/01/2015 07:00:00Z	 SAID31 WIII 190700	METAR WIII 190700Z 17005KT 5000 -RA OVC022 24/23 Q1012 NOSIG=
19/01/2015 07:30:00Z	 SAID31 WIII 190730	METAR WIII 190730Z VRB02KT 6000 -RA OVC022 24/23 Q1011 NOSIG=
19/01/2015 08:00:00Z	 SAID31 WIII 190800	METAR WIII 190800Z 19002KT 4500 -RA OVC022 25/23 Q1011 NOSIG=
19/01/2015 08:30:00Z	 SAID31 WIII 190830	METAR WIII 190830Z 13002KT 3600 -RA OVC22 25/23 Q1010 NOSIG=
19/01/2015 09:00:00Z	 SAID31 WIII 190900	METAR WIII 190900Z VRB03KT 4400 -RA OVC020 25/23 Q1010 NOSIG=
19/01/2015 09:30:00Z	 SAID31 WIII 190930	METAR WIII 190930Z VRB03KT 3700 -RA OVC020 25/24 Q1010 NOSIG=
19/01/2015 10:00:00Z	 SAID31 WIII 191000	METAR WIII 191000Z VRB02KT 3500 BR BKN020 25/23 Q1010 RERA NOSIG=
19/01/2015 10:30:00Z	 SAID31 WIII 191030	METAR WIII 191030Z 18002KT 3800 BR BKN020 25/23 Q1011 NOSIG=
19/01/2015 11:00:00Z	 SAID31 WIII 191100	METAR WIII 191100Z 22002KT 3500 BR BKN022 25/23 Q1011 NOSIG=
19/01/2015 11:30:00Z	 SAID31 WIII 191130	METAR WIII 191130Z VRB02KT 2500 BR BKN022 25/23 Q1011 NOSIG=
19/01/2015 12:00:00Z	 SAID31 WIII 191200	METAR WIII 191200Z 13003KT 2000 BR BKN022 25/24 Q1012 NOSIG=
19/01/2015 12:30:00Z	 SAID31 WIII 191230	METAR WIII 191230Z 16002KT 2000 BR BKN021 25/23 Q1012 NOSIG=
19/01/2015 13:00:00Z	 SAID31 WIII 191300	METAR WIII 191300Z 13002KT 1500 BR BKN021 25/23 Q1012 NOSIG=
19/01/2015 13:30:00Z	 SAID31 WIII 191330	METAR WIII 191330Z VRB02KT 1500 R25R/1400VP2000 R25L/1600V1700 BR BKN 020 25/23 Q1013 NOSIG=
19/01/2015 14:00:00Z	 SAID31 WIII 191400	METAR WIII 191400Z VRB01KT 1400 R25R/1700V1900 R25L/1500V1600 BR SCT0 20 25/24 Q1013 NOSIG=
19/01/2015 14:30:00Z	 SAID31 WIII 191430	METAR WIII 191430Z 15001KT 1200 R25R/P2000 R25L/1300V1400 BR SCT020 2 5/24 Q1013 NOSIG=
19/01/2015 15:00:00Z	 SAID31 WIII 191500	METAR WIII 191500Z 00000KT 1500 R25R/1200V2000 R25L/1500V1700 BR SCT0 20 25/23 Q1013 NOSIG=
19/01/2015 15:30:00Z	 SAID31 WIII 191530	METAR WIII 191530Z 00000KT 1500 R25R/1500V1900 R25L/1300V1900 BR SCT0 20 24/23 Q1013 NOSIG=
19/01/2015 16:00:00Z	 SAID31 WIII 191600	METAR WIII 191600Z 00000KT 1500 R25R/1900V2000 R25L/1400V1700 BR SCT0 20 25/23 Q1013 NOSIG=
19/01/2015 16:30:00Z	 SAID31 WIII 191630	METAR WIII 191630Z 19001KT 1300 R25R/1400V1700 R25L/1400V1500 BR SCT0 20 24/23 Q1013 NOSIG=
19/01/2015 17:00:00Z	 SAID31 WIII 191700	METAR WIII 191700Z 19002KT 0900 R25R/1400V1600 R25L/1200V1300 BR SCT0 20 25/24 Q1013 NOSIG=
19/01/2015 17:30:00Z	 SAID31 WIII 191730	METAR WIII 191730Z VRB02KT 1000 BR SCT020 24/23 Q1013 NOSIG=
19/01/2015 18:00:00Z	 SAID31 WIII 191800	METAR WIII 191800Z 16002KT 1000 BR SCT020 R25R/1200V1500 R25L/1100V14 00 25/24 Q1013 NOSIG=
19/01/2015 18:30:00Z	 SAID31 WIII 191830	METAR WIII 191830Z VRB01KT 1200 BR SCT020 R25R/1100V1400 R25L/1200V15 00 24/23 Q1013 NOSIG=
19/01/2015 19:00:00Z	 SAID31 WIII 191900	METAR WIII 191900Z 16002KT 1000 BR SCT020 R25R/1000V1300 R25L/1200V14 00 24/24 Q1012 NOSIG=
19/01/2015 19:30:00Z	 SAID31 WIII 191930	METAR WIII 191930Z 15003KT 1200 BR FEW020CB SCT020 R25R/1100V1400 R25 L/1400V1500 24/23 Q1012 NOSIG RMK CB TO N=
19/01/2015 20:00:00Z	 SAID31 WIII 192000	METAR WIII 192000Z 13002KT 1200 BR SCT020 R25R/1300V1500 R25L/1500V17 00 24/23 Q1012 NOSIG=
19/01/2015 20:30:00Z	 SAID31 WIII 192030	METAR WIII 192030Z 15002KT 1400 R25R/1300V1500 R25L/1300V1700 BR SCT0 20 24/23 Q1012 NOSIG=
19/01/2015 21:00:00Z	 SAID31 WIII 192100	METAR WIII 192100Z 18002KT 1400 R25R/1300V1400 R25L/1500V1600 BR SCT0 20 24/23 Q1012 NOSIG=
19/01/2015 21:30:00Z	 SAID31 WIII 192130	METAR WIII 192130Z 17003KT 1500 R25R/1200V1300 R25L/1600V1700 BR SCT0 20 24/23 Q1012 NOSIG=
19/01/2015 22:00:00Z	 SAID31 WIII 192200	METAR WIII 192200Z 17003KT 1500 R25R/1100V1200 R25L/1600 BR FEW022 24 /23 Q1012 NOSIG=
19/01/2015 22:30:00Z	 SAID31 WIII 192230	METAR WIII 192230Z 15003KT 2000 R25R/1100V1700 BR FEW022 24/23 Q1012 NOSIG=
19/01/2015 23:00:00Z	 SAID31 WIII 192300	METAR WIII 192300Z 18002KT 2000 SCT020 24/23 Q1013 NOSIG=
19/01/2015 23:30:00Z	 SAID31 WIII 192330	METAR WIII 192330Z 17002KT 2400 BR FEW022 24/23 Q1013 NOSIG=
20/01/2015 00:00:00Z	 SAID31 WIII 200000	METAR WIII 200000Z VRB02KT 3000 BR FEW022 25/23 Q1013 NOSIG=
20/01/2015 00:30:00Z	 SAID31 WIII 200030	METAR WIII 200030Z VRB02KT 5000 BR FEW020 25/23 Q1013 NOSIG=
20/01/2015 01:00:00Z	 SAID31 WIII 200100	METAR WIII 200100Z 15003KT 5000 BR FEW020 26/23 Q1014 NOSIG=
20/01/2015 01:30:00Z	 SAID31 WIII 200130	METAR WIII 200130Z VRB03KT 7000 FEW020 28/23 Q1014 NOSIG=
20/01/2015 02:00:00Z	 SAID31 WIII 200200	METAR WIII 200200Z VRB04KT 8000 FEW020 28/24 Q1014 NOSIG=
20/01/2015 02:30:00Z	 SAID31 WIII 200230	METAR WIII 200230Z 28006KT 240V350 8000 FEW018 28/24 Q1014 NOSIG=
20/01/2015 03:00:00Z	 SAID31 WIII 200300	METAR WIII 200300Z 28007KT 260V330 9000 SCT020 29/24 Q1014 NOSIG=
20/01/2015 03:30:00Z	 SAID31 WIII 200330	METAR WIII 200330Z 29009KT 9999 SCT020 30/24 Q1013 NOSIG=
20/01/2015 04:00:00Z	 SAID31 WIII 200400	METAR WIII 200400Z 32009KT 9999 SCT020 30/24 Q1013 NOSIG=
20/01/2015 04:30:00Z	 SAID31 WIII 200430	METAR WIII 200430Z 31009KT 9999 SCT020 29/24 Q1013 NOSIG=
20/01/2015 05:00:00Z	 SAID31 WIII 200500	METAR WIII 200500Z 31010KT 9999 FEW018CB SCT020 29/23 Q1013 NOSIG RMK CB TO SW AND W=
20/01/2015 05:30:00Z	 SAID31 WIII 200530	METAR WIII 200530Z 27015KT 6000 VCTS FEW016CB BKN018 26/21 Q1013 TEMP O FM0535 24010G25KT 3000 TSRA RMK CB TO SW AND W=
20/01/2015 06:00:00Z	 SAID31 WIII 200600	METAR WIII 200600Z 25010G25KT 3000 TSRA SCT016CB OVC018 23/22 Q1013 N OSIG RMK CB OVER THE FIELD=
20/01/2015 06:30:00Z	 SAID31 WIII 200630	METAR WIII 200630Z 28010KT 3000 TSRA SCT016CB OVC018 23/22 Q1013 NOSI G RMK CB TO NE AND E=
20/01/2015 07:00:00Z	 SAID31 WIII 200700	METAR WIII 200700Z VRB04KT 4000 VCTS RA FEW016CB OVC020 22/21 Q1013 N OSIG RMK CB TO E AND SW=
20/01/2015 07:30:00Z	 SAID31 WIII 200730	METAR WIII 200730Z 32004KT 4000 VCTS RA FEW016CB OVC030 22/21 Q1013 N OSIG RMK CB TO NE AND SE=
20/01/2015 08:00:00Z	 SAID31 WIII 200800	METAR WIII 200800Z 30004KT 4000 RA FEW016CB OVC030 23/22 Q1012 RETS R MK CB TO E=
20/01/2015 08:30:00Z	 SAID31 WIII 200830	METAR WIII 200830Z 28006KT 5000 RA SCT018 OVC060 23/22 Q1012 NOSIG=
20/01/2015 09:00:00Z	 SAID31 WIII 200900	METAR WIII 200900Z VRB04KT 5000 -RA SCT018 OVC060 23/22 Q1012 NOSIG=
20/01/2015 09:30:00Z	 SAID31 WIII 200930	METAR WIII 200930Z 25005KT 6000 -RA SCT020 OVC060 23/22 Q1012 NOSIG=
20/01/2015 10:00:00Z	 SAID31 WIII 201000	METAR WIII 201000Z 22003KT 5000 -RA SCT020 OVC060 24/22 Q1012 NOSIG=
20/01/2015 10:30:00Z	 SAID31 WIII 201030	METAR WIII 201030Z 25003KT 6000 SCT020 OVC060 24/22 Q1013 RERA=
20/01/2015 11:00:00Z	 SAID31 WIII 201100	METAR WIII 201100Z VRB02KT 5000 BR SCT020 OVC060 24/23 Q1013 NOSIG=
20/01/2015 11:30:00Z	 SAID31 WIII 201130	METAR WIII 201130Z VRB03KT 5000 BR SCT020 OVC060 24/22 Q1014 NOSIG=
20/01/2015 12:00:00Z	 SAID31 WIII 201200	METAR WIII 201200Z VRB04KT 5000 BR SCT020 24/22 Q1014 NOSIG=
20/01/2015 12:30:00Z	 SAID31 WIII 201230	METAR WIII 201230Z VRB02KT 5000 BR SCT020 24/22 Q1015 NOSIG=
20/01/2015 13:00:00Z	 SAID31 WIII 201300	METAR WIII 201300Z VRB02KT 5000 BR SCT020 24/23 Q1015 NOSIG=
20/01/2015 13:30:00Z	 SAID31 WIII 201330	METAR WIII 201330Z VRB02KT 4500 -RA FEW020CB SCT020 24/23 Q1015 NOSIG RMK CB TO S=
20/01/2015 14:00:00Z	 SAID31 WIII 201400	METAR WIII 201400Z VRB02KT 4500 BR FEW020CB SCT020 24/22 Q1015 RERA N OSIG RMK CB TO S=
20/01/2015 14:30:00Z	 SAID31 WIII 201430	METAR WIII 201430Z VRB02KT 3500 BR BKN020 24/23 Q1015 NOSIG=
20/01/2015 15:00:00Z	 SAID31 WIII 201500	METAR WIII 201500Z 21002KT 3000 BR BKN020 23/23 Q1016 NOSIG=
20/01/2015 15:30:00Z	 SAID31 WIII 201530	METAR WIII 201530Z 26002KT 3500 BR BKN020 23/23 Q1016 NOSIG=
20/01/2015 16:00:00Z	 SAID31 WIII 201600	METAR WIII 201600Z 26002KT 2500 BR BKN020 23/23 Q1016 NOSIG=
20/01/2015 16:30:00Z	 SAID31 WIII 201630	METAR WIII 201630Z 22003KT 2000 BR BKN020 23/23 Q1016 NOSIG=
20/01/2015 17:00:00Z	 SAID31 WIII 201700	METAR WIII 201700Z 24002KT 2500 BKN020 24/23 Q1015 NOSIG=
20/01/2015 17:30:00Z	 SAID31 WIII 201730	METAR WIII 201730Z 19003KT 2500 BR BKN020 24/23 Q1015 NOSIG=
20/01/2015 18:00:00Z	 SAID31 WIII 201800	METAR WIII 201800Z 17003KT 2500 BR BKN020 24/23 Q1015 NOSIG=
20/01/2015 18:30:00Z	 SAID31 WIII 201830	METAR WIII 201830Z VRB02KT 2000 BR BKN020 23/22 Q1015 NOSIG=
20/01/2015 19:00:00Z	 SAID31 WIII 201900	METAR WIII 201900Z 15003KT 2000 BR BKN020 23/22 Q1014 NOSIG=
20/01/2015 19:30:00Z	 SAID31 WIII 201930	METAR WIII 201930Z 18002KT 2000 BR BKN020 23/22 Q1014 NOSIG=
20/01/2015 20:00:00Z	 SAID31 WIII 202000	METAR WIII 202000Z 16002KT 2000 BR BKN020 23/22 Q1014 NOSIG=
20/01/2015 20:30:00Z	 SAID31 WIII 202030	METAR WIII 202030Z 15003KT 2500 BR BKN020 23/22 Q1014 NOSIG=
20/01/2015 21:00:00Z	 SAID31 WIII 202100	METAR WIII 202100Z 15003KT 2500 BR BKN020 23/22 Q1014 NOSIG=
20/01/2015 21:30:00Z	 SAID31 WIII 202130	METAR WIII 202130Z 14002KT 2500 BR BKN020 23/22 Q1013 NOSIG=
20/01/2015 22:00:00Z	 SAID31 WIII 202200	METAR WIII 202200Z 13003KT 2500 BR BKN020 23/22 Q1014 NOSIG=
20/01/2015 22:30:00Z	 SAID31 WIII 202230	METAR WIII 202230Z AUTO 17004KT 3300 23/22 Q1014=
20/01/2015 23:00:00Z	 SAID31 WIII 202300	METAR WIII 202300Z 17005KT 4000 BR FEW020CB BKN020 23/22 Q1014 NOSIG RMK CB TO S=
20/01/2015 23:30:00Z	 SAID31 WIII 202330	METAR WIII 202330Z VRB04KT 4500 BR BKN020 24/22 Q1014 NOSIG=
21/01/2015 00:00:00Z	 SAID31 WIII 210000	METAR WIII 210000Z 20004KT 5000 BR SCT020 24/22 Q1014 NOSIG=
21/01/2015 00:30:00Z	 SAID31 WIII 210030	METAR WIII 210030Z 23003KT 4900 HZ SCT021 25/23 Q1015 NOSIG=
21/01/2015 01:00:00Z	 SAID31 WIII 210100	METAR WIII 210100Z 24004KT 5000 HZ SCT021 25/22 Q1015 NOSIG=
21/01/2015 01:30:00Z	 SAID31 WIII 210130	METAR WIII 210130Z 23004KT 6000 SCT021 26/23 Q1015 NOSIG=
21/01/2015 02:00:00Z	 SAID31 WIII 210200	METAR WIII 210200Z 28004KT 6000 SCT022 27/23 Q1015 NOSIG=
21/01/2015 02:30:00Z	 SAID31 WIII 210230	METAR WIII 210230Z 27007KT 6000 SCT022 28/23 Q1015 NOSIG=
21/01/2015 03:00:00Z	 SAID31 WIII 210300	METAR WIII 210300Z 30006KT 270V340 6000 BKN021 28/23 Q1015 NOSIG=
21/01/2015 03:30:00Z	 SAID31 WIII 210330	METAR WIII 210330Z 30009KT 7000 SCT021 27/23 Q1015 NOSIG=
21/01/2015 04:00:00Z	 SAID31 WIII 210400	METAR WIII 210400Z 30009KT 7000 SCT021 BKN100 28/23 Q1015 NOSIG=
21/01/2015 04:30:00Z	 SAID31 WIII 210430	METAR WIII 210430Z 31009KT 270V340 7000 SCT021 BKN100 28/23 Q1014 NOS IG=
21/01/2015 05:00:00Z	 SAID31 WIII 210500	METAR WIII 210500Z 29012KT 8000 SCT020 29/23 Q1014 NOSIG=
21/01/2015 05:30:00Z	 SAID31 WIII 210530	METAR WIII 210530Z 30013KT 8000 BKN020 30/24 Q1014 NOSIG=
21/01/2015 06:00:00Z	 SAID31 WIII 210600	METAR WIII 210600Z 30013KT 260V350 8000 SCT020 30/23 Q1014 NOSIG=
21/01/2015 06:30:00Z	 SAID31 WIII 210630	METAR WIII 210630Z 30012KT 270V330 8000 SCT021 30/23 Q1013 NOSIG=
21/01/2015 07:00:00Z	 SAID31 WIII 210700	METAR WIII 210700Z 30014KT 260V360 8000 FEW019CB SCT020 30/23 Q1013 N OSIG RMK CB TO S=
21/01/2015 07:30:00Z	 SAID31 WIII 210730	METAR WIII 210730Z 31016KT 270V350 8000 FEW019CB SCT020 29/23 Q1012 N OSIG RMK CB TO S=
21/01/2015 08:00:00Z	 SAID31 WIII 210800	METAR WIII 210800Z 32014KT 290V010 8000 FEW019CB SCT020 29/23 Q1012 N OSIG RMK CB TO S=
21/01/2015 08:30:00Z	 SAID31 WIII 210830	METAR WIII 210830Z 33014KT 8000 FEW019CB FEW020 28/22 Q1012 NOSIG RMK CB TO S=
21/01/2015 09:00:00Z	 SAID31 WIII 210900	METAR WIII 210900Z 33016KT 280V360 8000 FEW019CB FEW020 28/23 Q1012 N OSIG RMK CB TO SE=
21/01/2015 09:30:00Z	 SAID31 WIII 210930	METAR WIII 210930Z 33014KT 290V010 8000 FEW018CB SCT020 28/23 Q1012 N OSIG RMK CB TO S=
21/01/2015 10:00:00Z	 SAID31 WIII 211000	METAR WIII 211000Z 33010KT 290V010 8000 FEW019CB FEW021 28/23 Q1013 N OSIG RMK CB TO S=
21/01/2015 10:30:00Z	 SAID31 WIII 211030	METAR WIII 211030Z 34007KT 8000 FEW021 SCT100 27/22 Q1013 NOSIG=
21/01/2015 11:00:00Z	 SAID31 WIII 211100	METAR WIII 211100Z 34006KT 7000 FEW020 SCT100 27/22 Q1013 NOSIG=
21/01/2015 11:30:00Z	 SAID31 WIII 211130	METAR WIII 211130Z VRB04KT 7000 SCT022 27/22 Q1014 NOSIG=
21/01/2015 12:00:00Z	 SAID31 WIII 211200	METAR WIII 211200Z 34005KT 6000 SCT021 27/23 Q1014 TEMPO -RA=
21/01/2015 12:30:00Z	 SAID31 WIII 211230	METAR WIII 211230Z 34003KT 6000 SCT021 26/23 Q1015 NOSIG=
21/01/2015 13:00:00Z	 SAID31 WIII 211300	METAR WIII 211300Z VRB02KT 5000 BR FEW018CB SCT020 26/23 Q1015 NOSIG RMK CB TO SW=
21/01/2015 13:30:00Z	 SAID31 WIII 211330	METAR WIII 211330Z VRB02KT 5000 VCTS BR FEW018CB SCT020 26/23 Q1015 N OSIG RMK CB TO SW=
21/01/2015 14:00:00Z	 SAID31 WIII 211400	METAR WIII 211400Z VRB02KT 5000 BR SCT020 26/23 Q1015 NOSIG=
21/01/2015 14:30:00Z	 SAID31 WIII 211430	METAR WIII 211430Z VRB02KT 5000 -RA BKN020 26/23 Q1015 NOSIG=
21/01/2015 15:00:00Z	 SAID31 WIII 211500	METAR WIII 211500Z 27002KT 5000 BR BKN020 26/23 Q1015 RERA =
21/01/2015 15:30:00Z	 SAID31 WIII 211530	METAR WIII 211530Z 25002KT 5000 BR SCT020 26/23 Q1015 NOSIG=
21/01/2015 16:00:00Z	 SAID31 WIII 211600	METAR WIII 211600Z VRB05KT 5000 BR SCT020 25/23 Q1015 NOSIG=
21/01/2015 16:30:00Z	 SAID31 WIII 211630	METAR WIII 211630Z 17004KT 5000 BR SCT020 25/23 NOSIG=
21/01/2015 17:00:00Z	 SAID31 WIII 211700	METAR WIII 211700Z 32002KT 3000 -RA BKN020 25/23 Q1015 NOSIG=
21/01/2015 17:30:00Z	 SAID31 WIII 211730	METAR WIII 211730Z VRB05KT 3000 -RA BKN020 25/24 Q1014 NOSIG=
21/01/2015 18:00:00Z	 SAID31 WIII 211800	METAR WIII 211800Z VRB03KT 3000 RA OVC020 25/23 Q1014 NOSIG=
21/01/2015 18:30:00Z	 SAID31 WIII 211830	METAR WIII 211830Z 20004KT 3000 -RA OVC022 25/24 Q1014 NOSIG=
21/01/2015 19:00:00Z	 SAID31 WIII 211900	METAR WIII 211900Z 24004KT 3000 VCTS -RA FEW016CB BKN018 25/24 Q1013 NOSIG RMK CB TO E=
21/01/2015 19:30:00Z	 SAID31 WIII 211930	METAR WIII 211930Z 24004KT 4000 BR BKN020 25/24 Q1013 RERA=
21/01/2015 21:00:00Z	 SAID31 WIII 212100	METAR WIII 212100Z 23003KT 4000 BR SCT020 25/23 Q1013 NOSIG=
21/01/2015 21:30:00Z	 SAID31 WIII 212130	METAR WIII 212130Z AUTO VRB02KT 3000 25/24 Q1013=
21/01/2015 22:00:00Z	 SAID31 WIII 212200	METAR WIII 212200Z AUTO 16002KT 2900 24/23 Q1013=
21/01/2015 22:30:00Z	 SAID31 WIII 212230	METAR WIII 212230Z AUTO 19002KT 2900 25/24 Q1013=
21/01/2015 23:00:00Z	 SAID31 WIII 212300	METAR WIII 212300Z AUTO VRB01KT 3900 25/23 Q1013=
21/01/2015 23:34:00Z	 SAID31 WIII 212334	METAR WIII 212334Z 06002KT 5000 BR FEW016CB BKN020 25/24 Q1014 NOSIG RMK CB TO NE AND E=
22/01/2015 00:00:00Z	 SAID31 WIII 220000	METAR WIII 220000Z VRB03KT 4000 -RA FEW016CB OVC018 25/24 Q1014 TEMPO FM0030 2000 RMK CB TO E=
22/01/2015 00:30:00Z	 SAID31 WIII 220030	METAR WIII 220030Z 24004KT 2000 RA FEW016CB OVC018 25/24 Q1015 NOSIG RMK CB TO E=
22/01/2015 01:00:00Z	 SAID31 WIII 220100	METAR WIII 220100Z 27003KT 3000 TSRA FEW018CB OVC018 25/24 Q1015 BECM G FM0100 5000 -RA RMK CB TO E AND SE=
22/01/2015 01:30:00Z	 SAID31 WIII 220130	METAR WIII 220130Z 23004KT 5000 -RA FEW018CB OVC018 25/24 Q1015 RETS NOSIG RMK CB TO E=
22/01/2015 02:00:00Z	 SAID31 WIII 220200	METAR WIII 220200Z 29004KT 4000 -RA FEW018CB OVC018 25/24 Q1015 NOSIG RMK CB TO E=
22/01/2015 02:30:00Z	 SAID31 WIII 220230	METAR WIII 220230Z VRB02KT 4000 -RA FEW018CB OVC018 25/24 Q1015 NOSIG RMK CB TO E=
22/01/2015 03:00:00Z	 SAID31 WIII 220300	METAR WIII 220300Z 29004KT 3500 RA FEW018CB OVC018 25/24 Q1015 NOSIG RMK CB TO NE AND E=
22/01/2015 03:30:00Z	 SAID31 WIII 220330	METAR WIII 220330Z 31004KT 4000 -RA FEW018CB OVC018 25/24 Q1015 NOSIG RMK CB TO E=
22/01/2015 04:00:00Z	 SAID31 WIII 220400	METAR WIII 220400Z 31007KT 2000 RA FEW018CB OVC018 25/23 Q1015 NOSIG RMK CB TO NE AND E=
22/01/2015 04:30:00Z	 SAID31 WIII 220430	METAR WIII 220430Z 24002KT 3000 -RA FEW018CB OVC018 25/24 Q1015 BECMG FM0445 4000 -RA RMK CB TO E AND SE=
22/01/2015 05:00:00Z	 SAID31 WIII 220500	METAR WIII 220500Z 31004KT 4500 -RA FEW018CB OVC018 25/24 Q1014 TEMPO FM0530 3000 RA RMK CB TO NE AND E=
22/01/2015 05:30:00Z	 SAID31 WIII 220530	METAR WIII 220530Z 30006KT 3000 +RA FEW018CB OVC018 25/23 Q1014 NOSIG RMK CB TO N=
22/01/2015 06:00:00Z	 SAID31 WIII 220600	METAR WIII 220600Z 30008KT 5000 -RA FEW018CB OVC018 25/22 Q1013 NOSIG RMK CB TO E=
22/01/2015 06:30:00Z	 SAID31 WIII 220630	METAR WIII 220630Z VRB03KT 5000 -RA FEW018CB OVC018 25/23 Q1013 NOSIG RMK CB TO NE AND E=
22/01/2015 07:00:00Z	 SAID31 WIII 220700	METAR WIII 220700Z VRB02KT 5000 -RA FEW018CB OVC018 26/24 Q1013 NOSIG RMK CB TO S=
22/01/2015 07:30:00Z	 SAID31 WIII 220730	METAR WIII 220730Z VRB02KT 5000 HZ FEW018CB OVC018 26/24 Q1012 BECMG FM0730 24006KT 5000 FEW018CB BKN020 RMK CB TO E AND SE=
22/01/2015 13:30:00Z	 SAID31 WIII 221330	METAR WIII 221330Z 29003KT 6000 SCT020 25/23 Q1013 NOSIG=
22/01/2015 14:00:00Z	 SAID31 WIII 221400	METAR WIII 221400Z 00000KT 7000 SCT020 25/23 Q1014 NOSIG=
22/01/2015 14:30:00Z	 SAID31 WIII 221430	METAR WIII 221430Z 22002KT 7000 SCT021 25/23 Q1014 NOSIG=
22/01/2015 15:00:00Z	 SAID31 WIII 221500	METAR WIII 221500Z 06002KT 4000 BR FEW020 SCT090 24/23 Q1014 NOSIG=
22/01/2015 15:30:00Z	 SAID31 WIII 221530	METAR WIII 221530Z VRB02KT 4000 BR SCT020 25/23 Q1014 NOSIG=
22/01/2015 16:00:00Z	 SAID31 WIII 221600	METAR WIII 221600Z VRB04KT 2500 BR SCT020 25/23 Q1014 NOSIG=
22/01/2015 16:30:00Z	 SAID31 WIII 221630	METAR WIII 221630Z 15006KT 2600 -RA SCT020 R25L/0800V1900 25/24 Q1014 NOSIG=
22/01/2015 17:00:00Z	 SAID31 WIII 221700	METAR WIII 221700Z 15006KT 140V220 2400 BR SCT019 24/23 Q1013 RERA NO SIG=
22/01/2015 17:30:00Z	 SAID31 WIII 221730	METAR WIII 221730Z 16005KT 130V200 2700 VCTS FEW018CB BKN019 25/24 Q1 012 TEMPO 30010KT TSRA RMK CB TO N AND E=
22/01/2015 18:00:00Z	 SAID31 WIII 221800	METAR WIII 221800Z 29008G18KT 0800 R25R/0900V1400 R25L/0375V1200 TSRA SCT018CB BKN019 23/22 Q1013 BECMG TL1900 27005KT -RA RMK CB OVER THE FIELD=
22/01/2015 18:30:00Z	 SAID31 WIII 221830	METAR WIII 221830Z 17008KT 1800 R25R/1500V1800 R25L/0500V1100 TSRA SC T018CB BKN019 23/22 Q1013 BECMG TL1900 20005 4000 -RA RMK CB TO N AND S=
22/01/2015 19:00:00Z	 SAID31 WIII 221900	METAR WIII 221900Z 18008KT 3000 -TSRA FEW018CB SCT019 23/22 Q1012 BEC MG TL1930 5000 -RA RMK CB TO E=
22/01/2015 19:30:00Z	 SAID31 WIII 221930	METAR WIII 221930Z 17007KT 5000 -RA FEW018CB SCT019 BKN090 23/23 Q101 2 RETS BECMG BR RMK CB TO E=
22/01/2015 20:00:00Z	 SAID31 WIII 222000	METAR WIII 222000Z 15006KT 5000 -RA FEW018CB SCT019 23/23 Q1012 BECMG BR RMK CB TO E=
24/01/2015 08:00:00Z	 SAID31 WIII 240800	METAR WIII 240800Z 31008KT 270V340 9999 FEW019CB FEW021 30/24 Q1010 NOSIG RMK CB TO SW=
24/01/2015 08:30:00Z	 SAID31 WIII 240830	METAR WIII 240830Z 31007KT 270V360 9000 SCT021 30/24 Q1009 NOSIG=
24/01/2015 09:00:00Z	 SAID31 WIII 240900	METAR WIII 240900Z 31010KT 270V350 9999 FEW021 30/24 Q1009 NOSIG=
24/01/2015 09:30:00Z	 SAID31 WIII 240930	METAR WIII 240930Z 31007KT 8000 FEW020TCU SCT022 29/24 Q1009 NOSIG=
24/01/2015 10:00:00Z	 SAID31 WIII 241000	METAR WIII 241000Z 29012KT 7000 VCSH FEW020TCU BKN022 28/24 Q1009 NOSIG=
24/01/2015 10:30:00Z	 SAID31 WIII 241030	METAR WIII 241030Z 25009KT 7000 VCSH SCT021 28/23 Q1010 NOSIG=
24/01/2015 11:00:00Z	 SAID31 WIII 241100	METAR WIII 241100Z 24010KT 8000 FEW019CB FEW021 27/22 Q1010 NOSIG RMK CB TO SE=
24/01/2015 11:30:00Z	 SAID31 WIII 241130	METAR WIII 241130Z 24008KT 7000 FEW019CB SCT021 26/22 Q1011 NOSIG RMK CB TO SE=
24/01/2015 12:00:00Z	 SAID31 WIII 241200	METAR WIII 241200Z 23008KT 8000 FEW021 26/22 Q1011 NOSIG=
24/01/2015 12:30:00Z	 SAID31 WIII 241230	METAR WIII 241230Z 23009KT 8000 SCT022 26/23 Q1012 NOSIG=
25/01/2015 13:30:00Z	 SAID31 WIII 251330	METAR WIII 251330Z 29005KT 5000 HZ FEW020CB SCT022 25/23 Q1012 NOSIG RMK CB TO NW=
25/01/2015 14:00:00Z	 SAID31 WIII 251400	METAR WIII 251400Z 29004KT 4800 HZ FEW022 SCT100 25/23 Q1013 NOSIG=
25/01/2015 14:30:00Z	 SAID31 WIII 251430	METAR WIII 251430Z 27005KT 6000 FEW020CB FEW022 SCT100 25/23 Q1013 NOSIG RMK CB TO NW=
25/01/2015 15:00:00Z	 SAID31 WIII 251500	METAR WIII 251500Z VRB03KT 5000 HZ FEW020CB FEW022 SCT100 25/23 Q1013 NOSIG RMK CB TO NW=
25/01/2015 15:30:00Z	 SAID31 WIII 251530	METAR WIII 251530Z VRB03KT 6000 FEW020CB FEW022 SCT100 25/23 Q1013 NOSIG RMK CB TO NW=
25/01/2015 16:00:00Z	 SAID31 WIII 251600	METAR WIII 251600Z 25003KT 6000 FEW022 25/23 Q1013 NOSIG=
25/01/2015 16:30:00Z	 SAID31 WIII 251630	METAR WIII 251630Z 21004KT 5000 HZ FEW019CB SCT021 25/23 Q1013 NOSIG RMK CB TO E=
25/01/2015 17:00:00Z	 SAID31 WIII 251700	METAR WIII 251700Z 18006KT 150V250 6000 FEW019CB SCT021 25/23 Q1013 NOSIG RMK CB TO E=
25/01/2015 17:30:00Z	 SAID31 WIII 251730	METAR WIII 251730Z 17007KT 5000 HZ FEW019CB SCT021 25/23 Q1013 NOSIG RMK CB TO E=
25/01/2015 18:00:00Z	 SAID31 WIII 251800	METAR WIII 251800Z 16007KT 120V200 7000 FEW019CB SCT021 24/23 Q1012 NOSIG RMK CB TO E=
25/01/2015 19:00:00Z	 SAID31 WIII 251900	METAR WIII 251900Z 17004KT 6000 FEW019CB SCT020 24/23 Q1012 NOSIG RMK CB TO E=
25/01/2015 19:30:00Z	 SAID31 WIII 251930	METAR WIII 251930Z 22004KT 6000 FEW020CB SCT022 24/23 Q1012 NOSIG RMK CB TO E=
25/01/2015 20:00:00Z	 SAID31 WIII 252000	METAR WIII 252000Z 24003KT 4000 BR FEW020CB SCT021 24/23 Q1011 NOSIG RMK CB TO E=
25/01/2015 21:00:00Z	 SAID31 WIII 252100	METAR WIII 252100Z 18002KT 3000 VCTS FEW020CB SCT022 24/23 Q1012 NOSIG RMK CB TO NE=
25/01/2015 21:30:00Z	 SAID31 WIII 252130	METAR WIII 252130Z 11003KT 2000 VCTS FEW019CB SCT021 24/23 Q1012 NOSIG RMK CB TO NE=
25/01/2015 22:00:00Z	 SAID31 WIII 252200	METAR WIII 252200Z 15003KT 3000 FEW019CB SCT021 24/22 Q1012 NOSIG RMK CB TO NE=
25/01/2015 22:30:00Z	 SAID31 WIII 252230	METAR WIII 252230Z VRB03KT 2400 BR SCT021 24/23 Q1012 NOSIG=
25/01/2015 23:00:00Z	 SAID31 WIII 252300	METAR WIII 252300Z VRB02KT 2800 BR SCT022 24/23 Q1012 NOSIG=
25/01/2015 23:30:00Z	 SAID31 WIII 252330	METAR WIII 252330Z VRB02KT 1300 R25R/1200V1400 BR FEW022 24/23 Q1012 NOSIG=
26/01/2015 00:00:00Z	 SAID31 WIII 260000	METAR WIII 260000Z 25003KT 1200 R25R/0800V1200 BR FEW022 24/23 Q1013 NOSIG=
26/01/2015 00:30:00Z	 SAID31 WIII 260030	METAR WIII 260030Z 26003KT 1800 R25R/1600V1900 BR SCT022 25/23 Q1013 NOSIG=
26/01/2015 14:00:00Z	 SAID31 WIII 261400	METAR WIII 261400Z VRB02KT 5000 BR FEW020 26/23 Q1012 NOSIG=
26/01/2015 15:30:00Z	 SAID31 WIII 261530	METAR WIII 261530Z VRB02KT 5000 BR FEW020 25/23 Q1012 NOSIG=
28/01/2015 07:00:00Z	 SAID52 WIII 280700	METAR WIII 280700Z 30009KT 9999 FEW018 29/23 Q1008 NOSIG=
28/01/2015 07:30:00Z	 SAID52 WIII 280730	METAR WIII 280730Z 32007KT 290V360 9999 FEW020 29/24 Q1007 NOSIG=
28/01/2015 08:00:00Z	 SAID52 WIII 280800	METAR WIII 280800Z 31008KT 270V360 9999 VCTS FEW018CB FEW020 30/24 Q1006 NOSIG RMK CB TO SW=
28/01/2015 08:30:00Z	 SAID52 WIII 280830	METAR WIII 280830Z 30007KT 9999 SCT020 30/24 Q1006 NOSIG=
28/01/2015 09:00:00Z	 SAID52 WIII 280900	METAR WIII 280900Z 26010G20KT 220V300 7000 FEW016CB BKN018 28/23 Q1007 TEMPO 5000 TSRA RMK CB TO SE AND W=
28/01/2015 09:30:00Z	 SAID52 WIII 280930	METAR WIII 280930Z 24013KT 5000 VCTS -RA FEW016CB BKN018 24/22 Q1008 NOSIG RMK CB TO SE AND W=
29/01/2015 01:00:00Z	 SAID31 WIII 290100	METAR WIII 290100Z 24005KT 4700 HZ FEW020CB FEW021 26/24 Q1011 NOSIG RMK CB TO N=
29/01/2015 01:30:00Z	 SAID31 WIII 290130	METAR WIII 290130Z 24010KT 6000 FEW020CB FEW021 28/23 Q1011 NOSIG RMK CB TO N=
29/01/2015 02:00:00Z	 SAID31 WIII 290200	METAR WIII 290200Z 28008KT 230V320 7000 FEW020CB SCT021 29/24 Q1011 NOSIG RMK CB TO N=
29/01/2015 02:30:00Z	 SAID31 WIII 290230	METAR WIII 290230Z 29008KT 8000 FEW020CB SCT021 29/24 Q1011 NOSIG RMK CB TO N=
29/01/2015 03:00:00Z	 SAID31 WIII 290300	METAR WIII 290300Z 28009KT 230V320 8000 SCT021 30/24 Q1011 NOSIG=
29/01/2015 03:30:00Z	 SAID31 WIII 290330	METAR WIII 290330Z 28011KT 8000 SCT021 30/24 Q1011 NOSIG=
29/01/2015 04:00:00Z	 SAID31 WIII 290400	METAR WIII 290400Z 30008KT 260V340 8000 BKN021 30/24 Q1010 NOSIG=
29/01/2015 05:00:00Z	 SAID31 WIII 290500	METAR WIII 290500Z 32010KT 8000 FEW020CB SCT021 29/24 Q1010 NOSIG RMK CB TO W=
29/01/2015 07:00:00Z	 SAID31 WIII 290700	METAR WIII 290700Z 30009G19KT 8000 FEW020CB SCT021 29/24 Q1008 NOSIG RMK CB TO SW=
29/01/2015 08:30:00Z	 SAID31 WIII 290830	METAR WIII 290830Z 28016KT 8000 FEW020CB FEW022 SCT100 28/23 Q1007 NOSIG RMK CB TO S=
29/01/2015 09:00:00Z	 SAID31 WIII 290900	METAR WIII 290900Z 29013KT 8000 FEW020CB FEW022 SCT100 28/24 Q1007 NOSIG RMK CB TO S=
29/01/2015 09:30:00Z	 SAID31 WIII 290930	METAR WIII 290930Z 29007KT 8000 FEW020CB FEW021 SCT100 28/24 Q1007 NOSIG RMK CB TO SE=
29/01/2015 10:00:00Z	 SAID31 WIII 291000	METAR WIII 291000Z 30008KT 8000 FEW020CB FEW022 SCT100 28/24 Q1007 NOSIG RMK CB TO SE=
29/01/2015 10:30:00Z	 SAID31 WIII 291030	METAR WIII 291030Z 25008KT 8000 FEW022 SCT090 28/24 Q1007 NOSIG=
29/01/2015 11:00:00Z	 SAID31 WIII 291100	METAR WIII 291100Z 24011KT 8000 FEW021 SCT100 28/22 Q1008 NOSIG=
29/01/2015 11:30:00Z	 SAID31 WIII 291130	METAR WIII 291130Z 26008KT 7000 FEW021 SCT100 27/23 Q1009 NOSIG=
29/01/2015 12:00:00Z	 SAID31 WIII 291200	METAR WIII 291200Z 26005KT 6000 FEW019CB FEW021 SCT100 27/23 Q1009 NOSIG RMK CB TO S=
29/01/2015 12:30:00Z	 SAID31 WIII 291230	METAR WIII 291230Z 27005KT 6000 FEW021 SCT090 27/23 Q1009 NOSIG=
30/01/2015 15:00:00Z	 SAID31 WIII 301500	METAR WIII 301500Z 24010KT 7000 FEW020CB SCT022 25/23 Q1012 NOSIG RMK CB TO E AND NW=
30/01/2015 15:30:00Z	 SAID31 WIII 301530	METAR WIII 301530Z 26006KT 7000 FEW020CB SCT022 26/23 Q1012 NOSIG RMK CB TO N=
30/01/2015 16:00:00Z	 SAID31 WIII 301600	METAR WIII 301600Z 26004KT 5000 HZ FEW020CB SCT022 25/23 Q1012 NOSIG RMK CB TO N=
30/01/2015 16:30:00Z	 SAID31 WIII 301630	METAR WIII 301630Z 26005KT 6000 FEW020CB SCT022 25/23 Q1012 NOSIG RMK CB TO NE=
30/01/2015 17:00:00Z	 SAID31 WIII 301700	METAR WIII 301700Z 25005KT 5000 HZ FEW020CB FEW022 25/23 Q1012 NOSIG RMK CB TO N=
30/01/2015 17:30:00Z	 SAID31 WIII 301730	METAR WIII 301730Z 25005KT 4900 HZ FEW020CB FEW022 25/23 Q1012 NOSIG RMK CB TO NE=
30/01/2015 18:00:00Z	 SAID31 WIII 301800	METAR WIII 301800Z 23004KT 4100 HZ FEW020CB FEW022 SCT100 25/23 Q1011 NOSIG RMK CB TO NE=
30/01/2015 18:30:00Z	 SAID31 WIII 301830	METAR WIII 301830Z 26003KT 6000 FEW020CB SCT021 25/23 Q1011 NOSIG RMK CB TO NE=
30/01/2015 19:00:00Z	 SAID31 WIII 301900	METAR WIII 301900Z 28004KT 5000 HZ FEW020CB SCT022 25/23 Q1011 NOSIG RMK CB TO NE=
30/01/2015 19:30:00Z	 SAID31 WIII 301930	METAR WIII 301930Z 28003KT 6000 FEW021 SCT090 25/23 Q1011 NOSIG=
30/01/2015 20:00:00Z	 SAID31 WIII 302000	METAR WIII 302000Z VRB04KT 7000 FEW020CB FEW021 24/23 Q1010 NOSIG RMK CB TO W=
30/01/2015 20:30:00Z	 SAID31 WIII 302030	METAR WIII 302030Z 29004KT 6000 FEW022 24/22 Q1010 NOSIG=
30/01/2015 21:00:00Z	 SAID31 WIII 302100	METAR WIII 302100Z 27006KT 6000 FEW020CB FEW022 SCT090 24/22 Q1010 NOSIG RMK CB TO W=
30/01/2015 21:30:00Z	 SAID31 WIII 302130	METAR WIII 302130Z 27006KT 7000 SCT022 24/22 Q1010 NOSIG=
30/01/2015 22:30:00Z	 SAID31 WIII 302230	METAR WIII 302230Z 28003KT 6000 SCT020 24/23 Q1011 NOSIG=
30/01/2015 23:00:00Z	 SAID31 WIII 302300	METAR WIII 302300Z 23005KT 6000 FEW019CB BKN021 24/23 Q1011 NOSIG RMK CB TO NE=
30/01/2015 23:30:00Z	 SAID31 WIII 302330	METAR WIII 302330Z 25005KT 7000 SCT020 24/23 Q1011 NOSIG=
31/01/2015 00:00:00Z	 SAID31 WIII 310000	METAR WIII 310000Z 27007KT 7000 FEW019CB SCT021 25/23 Q1011 NOSIG RMK CB TO E=
31/01/2015 00:30:00Z	 SAID31 WIII 310030	METAR WIII 310030Z 28006KT 8000 FEW020CB FEW022 26/23 Q1012 NOSIG RMK CB TO E=
