01/04/2018 00:00:00Z	 SAID31 WIII 010000	METAR WIII 010000Z 26007KT 7000 FEW020 27/25 Q1009 NOSIG=
01/04/2018 00:30:00Z	 SAID31 WIII 010030	METAR WIII 010030Z 25010KT 7000 FEW020 28/25 Q1009 NOSIG=
01/04/2018 01:00:00Z	 SAID31 WIII 010100	METAR WIII 010100Z 25010KT 7000 FEW020 30/25 Q1009 NOSIG=
01/04/2018 01:30:00Z	 SAID31 WIII 010130	METAR WIII 010130Z 27011KT 8000 FEW020 30/24 Q1010 NOSIG=
01/04/2018 02:00:00Z	 SAID31 WIII 010200	METAR WIII 010200Z 27008KT 9000 FEW020 31/24 Q1010 NOSIG=
01/04/2018 02:30:00Z	 SAID31 WIII 010230	METAR WIII 010230Z 28008KT 9999 FEW020 32/24 Q1010 NOSIG=
01/04/2018 03:00:00Z	 SAID31 WIII 010300	METAR WIII 010300Z 29008KT 260V330 9999 SCT020 32/24 Q1010 NOSIG=
01/04/2018 03:30:00Z	 SAID31 WIII 010330	METAR WIII 010330Z 31009KT 9999 SCT020 32/24 Q1010 NOSIG=
01/04/2018 04:00:00Z	 SAID31 WIII 010400	METAR WIII 010400Z 31007KT 280V350 9999 SCT020 33/24 Q1009 NOSIG=
01/04/2018 04:30:00Z	 SAID31 WIII 010430	METAR WIII 010430Z 30006KT 230V350 9999 SCT020 32/24 Q1009 NOSIG=
01/04/2018 05:00:00Z	 SAID31 WIII 010500	METAR WIII 010500Z 34010KT 320V040 9999 SCT020 32/25 Q1008 NOSIG=
01/04/2018 05:30:00Z	 SAID31 WIII 010530	METAR WIII 010530Z 33010KT 290V360 5000 RA BKN018 32/24 Q1008 NOSIG=
01/04/2018 06:00:00Z	 SAID31 WIII 010600	METAR WIII 010600Z 21007G17KT 160V230 5000 -TSRA FEW018CB BKN019 29/23 Q1008 RMK CB TO S=
01/04/2018 06:30:00Z	 SAID31 WIII 010630	METAR WIII 010630Z 21006KT 190V280 5000 -TSRA FEW018CB BKN019 31/24 Q1007 NOSIG RMK CB TO E=
01/04/2018 07:00:00Z	 SAID31 WIII 010700	METAR WIII 010700Z 25010KT 6000 -RA BKN019 32/24 Q1007 RETS NOSIG=
01/04/2018 07:30:00Z	 SAID31 WIII 010730	METAR WIII 010730Z 27009KT 6000 BKN020 32/24 Q1006 RERA NOSIG=
01/04/2018 08:00:00Z	 SAID31 WIII 010800	METAR WIII 010800Z 27010KT 6000 BKN020 32/24 Q1006 NOSIG=
01/04/2018 08:30:00Z	 SAID31 WIII 010830	METAR WIII 010830Z 27009KT 6000 BKN020 31/23 Q1006 NOSIG=
01/04/2018 09:00:00Z	 SAID31 WIII 010900	METAR WIII 010900Z VRB05KT 6000 BKN020 31/23 Q1006 NOSIG=
01/04/2018 09:30:00Z	 SAID31 WIII 010930	METAR WIII 010930Z 26007KT 7000 SCT020 32/23 Q1006 NOSIG=
01/04/2018 10:00:00Z	 SAID31 WIII 011000	METAR WIII 011000Z 24009KT 200V260 8000 SCT020 31/24 Q1006 NOSIG=
01/04/2018 10:30:00Z	 SAID31 WIII 011030	METAR WIII 011030Z 26008KT 8000 SCT020 31/24 Q1006 NOSIG=
01/04/2018 11:00:00Z	 SAID31 WIII 011100	METAR WIII 011100Z 26008KT 7000 SCT020 30/24 Q1007 NOSIG=
01/04/2018 11:30:00Z	 SAID31 WIII 011130	METAR WIII 011130Z 25007KT 220V300 7000 SCT020 29/24 Q1007 NOSIG=
01/04/2018 12:00:00Z	 SAID31 WIII 011200	METAR WIII 011200Z 29004KT 6000 FEW020 29/24 Q1008 NOSIG=
01/04/2018 12:30:00Z	 SAID31 WIII 011230	METAR WIII 011230Z VRB03KT 6000 VCTS FEW019CB SCT020 29/24 Q1008 NOSIG RMK CB TO N=
01/04/2018 13:00:00Z	 SAID31 WIII 011300	METAR WIII 011300Z 28007KT 6000 FEW019CB SCT020 28/24 Q1008 NOSIG RMK CB TO NW=
01/04/2018 13:30:00Z	 SAID31 WIII 011330	METAR WIII 011330Z VRB04KT 6000 FEW019CB FEW020 28/24 Q1009 NOSIG RMK CB TO N=
01/04/2018 14:00:00Z	 SAID31 WIII 011400	METAR WIII 011400Z VRB02KT 7000 FEW022 28/24 Q1009 NOSIG=
01/04/2018 14:30:00Z	 SAID31 WIII 011430	METAR WIII 011430Z 30003KT 7000 FEW022 27/24 Q1010 NOSIG=
01/04/2018 15:00:00Z	 SAID31 WIII 011500	METAR WIII 011500Z 31003KT 4700 HZ FEW022 27/24 Q1010 NOSIG=
01/04/2018 15:30:00Z	 SAID31 WIII 011530	METAR WIII 011530Z 30003KT 5000 HZ FEW022 27/24 Q1010 NOSIG=
01/04/2018 16:00:00Z	 SAID31 WIII 011600	METAR WIII 011600Z 30004KT 7000 FEW020 27/25 Q1010 NOSIG=
01/04/2018 16:30:00Z	 SAID31 WIII 011630	METAR WIII 011630Z 28004KT 7000 FEW020 27/25 Q1010 NOSIG=
01/04/2018 17:00:00Z	 SAID31 WIII 011700	METAR WIII 011700Z 26006KT 7000 FEW020 27/24 Q1010 NOSIG=
01/04/2018 17:30:00Z	 SAID31 WIII 011730	METAR WIII 011730Z 28005KT 5000 HZ FEW020 27/24 Q1009 NOSIG=
01/04/2018 18:00:00Z	 SAID31 WIII 011800	METAR WIII 011800Z 29004KT 4300 HZ FEW022 26/24 Q1009 NOSIG=
01/04/2018 18:30:00Z	 SAID31 WIII 011830	METAR WIII 011830Z 28004KT 4100 HZ FEW022 26/24 Q1009 NOSIG=
01/04/2018 19:00:00Z	 SAID31 WIII 011900	METAR WIII 011900Z 27005KT 4100 HZ FEW022 26/25 Q1008 NOSIG=
01/04/2018 19:30:00Z	 SAID31 WIII 011930	METAR WIII 011930Z 27004KT 3300 HZ FEW02226/24 Q1008 NOSIG=
01/04/2018 20:00:00Z	 SAID31 WIII 012000	METAR WIII 012000Z 26005KT 3800 HZ FEW020 26/24 Q1008 NOSIG=
01/04/2018 20:30:00Z	 SAID31 WIII 012030	METAR WIII 012030Z 27005KT 5000 HZ FEW020 26/24 Q1008 NOSIG=
01/04/2018 21:00:00Z	 SAID31 WIII 012100	METAR WIII 012100Z 26005KT 5000 HZ FEW021 26/24 Q1008 NOSIG=
01/04/2018 21:30:00Z	 SAID31 WIII 012130	METAR WIII 012130Z 28005KT 5000 HZ SCT022 26/24 Q1008 NOSIG=
01/04/2018 22:00:00Z	 SAID31 WIII 012200	METAR WIII 012200Z 28004KT 5000 HZ FEW022 26/24 Q1008 NOSIG=
01/04/2018 22:30:00Z	 SAID31 WIII 012230	METAR WIII 012230Z 27005KT 5000 HZ FEW021 26/24 Q1009 NOSIG=
01/04/2018 23:00:00Z	 SAID31 WIII 012300	METAR WIII 012300Z 25007KT 5000 HZ FEW021 26/24 Q1009 NOSIG=
01/04/2018 23:30:00Z	 SAID31 WIII 012330	METAR WIII 012330Z 27006KT 5000 HZ FEW020 26/25 Q1009 NOSIG=
02/04/2018 00:00:00Z	 SAID31 WIII 020000	METAR WIII 020000Z 26005KT 5000 HZ FEW020 28/25 Q1009 NOSIG=
02/04/2018 00:30:00Z	 SAID31 WIII 020030	METAR WIII 020030Z VRB04KT 5000 HZ FEW020 28/25 Q1010 NOSIG=
02/04/2018 01:00:00Z	 SAID31 WIII 020100	METAR WIII 020100Z VRB04KT 5000 HZ FEW020 28/25 Q1010 NOSIG=
02/04/2018 01:30:00Z	 SAID31 WIII 020130	METAR WIII 020130Z 26008G18KT 5000 HZ FEW020 30/24 Q1010 NOSIG=
02/04/2018 02:00:00Z	 SAID31 WIII 020200	METAR WIII 020200Z 28008KT 6000 FEW020 30/24 Q1010 NOSIG=
02/04/2018 02:30:00Z	 SAID31 WIII 020230	METAR WIII 020230Z 29008KT 260V320 8000 FEW020 31/24 Q1010 NOSIG=
02/04/2018 03:00:00Z	 SAID31 WIII 020300	METAR WIII 020300Z 30006KT 240V320 9999 SCT020 31/24 Q1010 NOSIG=
02/04/2018 03:30:00Z	 SAID31 WIII 020330	METAR WIII 020330Z VRB05KT 9999 SCT020 32/24 Q1010 NOSIG=
02/04/2018 04:00:00Z	 SAID31 WIII 020400	METAR WIII 020400Z 33007KT 300V010 9000 SCT020 33/24 Q1010 NOSIG=
02/04/2018 04:30:00Z	 SAID31 WIII 020430	METAR WIII 020430Z 34007KT 9999 SCT020 32/25 Q1009 NOSIG=
02/04/2018 05:00:00Z	 SAID31 WIII 020500	METAR WIII 020500Z 35007KT 310V050 9999 SCT020 32/25 Q1009 NOSIG=
02/04/2018 05:30:00Z	 SAID31 WIII 020530	METAR WIII 020530Z 35007KT 9999 FEW018CB SCT022 31/25 Q1008 NOSIG RMK CB TO SE=
02/04/2018 06:00:00Z	 SAID31 WIII 020600	METAR WIII 020600Z 01007KT 7000 VCTS FEW016CB SCT018 31/24 Q1008 NOSIG RMK CB TO SE=
02/04/2018 06:30:00Z	 SAID31 WIII 020630	METAR WIII 020630Z 36007KT 320V040 8000 FEW018CB SCT020 31/24 Q1008 NOSIG RMK CB TO SE=
02/04/2018 07:00:00Z	 SAID31 WIII 020700	METAR WIII 020700Z 02006KT 350V050 9000 SCT020 31/24 Q1007 NOSIG=
02/04/2018 07:30:00Z	 SAID31 WIII 020730	METAR WIII 020730Z 34006KT 290V040 9000 SCT020 32/24 Q1007 NOSIG=
02/04/2018 08:00:00Z	 SAID31 WIII 020800	METAR WIII 020800Z 33006KT 290V360 7000 FEW016CB SCT018 31/24 Q1007 NOSIG RMK CB TO SW=
02/04/2018 08:30:00Z	 SAID31 WIII 020830	METAR WIII 020830Z 26009KT 7000 FEW016CB BKN020 30/23 Q1007 NOSIG RMK CB TO SW=
02/04/2018 09:00:00Z	 SAID31 WIII 020900	METAR WIII 020900Z 26011KT 8000 SCT020 30/23 Q1007 NOSIG=
02/04/2018 09:30:00Z	 SAID31 WIII 020930	METAR WIII 020930Z 30006KT 9000 FEW018 29/22 Q1007 NOSIG=
02/04/2018 10:00:00Z	 SAID31 WIII 021000	METAR WIII 021000Z 28006KT 9000 FEW018 29/23 Q1007 NOSIG=
02/04/2018 11:00:00Z	 SAID31 WIII 021100	METAR WIII 021100Z 28005KT 8000 FEW018 29/24 Q1008 NOSIG=
02/04/2018 11:30:00Z	 SAID31 WIII 021130	METAR WIII 021130Z 27005KT 7000 FEW018 29/24 Q1009 NOSIG=
02/04/2018 12:00:00Z	 SAID31 WIII 021200	METAR WIII 021200Z 28004KT 7000 FEW018 28/24 Q1009 NOSIG=
02/04/2018 12:30:00Z	 SAID31 WIII 021230	METAR WIII 021230Z VRB04KT 7000 FEW018 28/24 Q1010 NOSIG=
02/04/2018 13:00:00Z	 SAID31 WIII 021300	METAR WIII 021300Z 29003KT 4000 HZ FEW018 28/25 Q1010 NOSIG=
02/04/2018 13:30:00Z	 SAID31 WIII 021330	METAR WIII 021330Z 28004KT 8000 FEW020CB FEW021 28/25 Q1010 NOSIG RMK CB TO NE=
02/04/2018 14:00:00Z	 SAID31 WIII 021400	METAR WIII 021400Z 23005KT 4500 BR FEW020CB FEW021 28/25 Q1010 NOSIG RMK CB TO NE=
02/04/2018 14:30:00Z	 SAID31 WIII 021430	METAR WIII 021430Z VRB03KT 4000 BR FEWCB020 SCT020 28/25 Q1011 NOSIG RMK CB TO W AND NW=
02/04/2018 15:00:00Z	 SAID31 WIII 021500	METAR WIII 021500Z VRB05KT 5000 BR FEW020CB FEW020 27/25 Q1011 NOSIG RMK CB TO NW=
02/04/2018 15:30:00Z	 SAID31 WIII 021530	METAR WIII 021530Z 25006KT 1700 BR FEW020CB FEW021 27/25 Q1011 NOSIG RMK RETS CB TO N=
02/04/2018 16:00:00Z	 SAID31 WIII 021600	METAR WIII 021600Z 30004KT 3000 BR FEW020CB SCT021 27/25 Q1012 NOSIG RMK CB TO N=
02/04/2018 16:30:00Z	 SAID31 WIII 021630	METAR WIII 021630Z 31004KT 4700 BR FEW020CB SCT021 27/25 Q1012 NOSIG RMK CB TO NE=
02/04/2018 17:00:00Z	 SAID31 WIII 021700	METAR WIII 021700Z 34009G17KT 9000 FEW018CB SCT018 BKN023 26/23 Q1012 NOSIG RMK CB TO NE=
02/04/2018 17:30:00Z	 SAID31 WIII 021730	METAR WIII 021730Z VRB04KT 9000 -SHRA FEW017CB BKN020 24/22 Q1011 CB TO NE NOSIG=
02/04/2018 18:00:00Z	 SAID31 WIII 021800	METAR WIII 021800Z VRB02KT 9000 FEW017CB SCT020 24/23 Q1010 NOSIG RMK CB TO NE=
02/04/2018 18:30:00Z	 SAID31 WIII 021830	METAR WIII 021830Z VRB03KT 9000 FEW018CB SCT020 24/23 Q1010 NOSIG RMK CB TO NE=
02/04/2018 19:00:00Z	 SAID31 WIII 021900	METAR WIII 021900Z 30004KT 9000 SCT020 24/23 Q1010 NOSIG=
02/04/2018 19:30:00Z	 SAID31 WIII 021930	METAR WIII 021930Z VRB03KT 8000 SCT020 24/23 Q1010 NOSIG=
02/04/2018 20:00:00Z	 SAID31 WIII 022000	METAR WIII 022000Z VRB03KT 8000 BKN021 25/24 Q1010 NOSIG=
02/04/2018 20:30:00Z	 SAID31 WIII 022030	METAR WIII 022030Z 31003KT 8000 SCT021 25/24 Q1010 NOSIG=
02/04/2018 21:00:00Z	 SAID31 WIII 022100	METAR WIII 022100Z 31004KT 7000 SCT021 25/23 Q1009 NOSIG=
02/04/2018 21:30:00Z	 SAID31 WIII 022130	METAR WIII 022130Z 25004KT 5000 HZ SCT021 25/24 Q1009 NOSIG=
02/04/2018 22:00:00Z	 SAID31 WIII 022200	METAR WIII 022200Z 24005KT 5000 BR SCT021 25/24 Q1009 NOSIG=
02/04/2018 22:30:00Z	 SAID31 WIII 022230	METAR WIII 022230Z 23004KT 8000 FEW020 25/24 Q1010 NOSIG=
02/04/2018 23:00:00Z	 SAID31 WIII 022300	METAR WIII 022300Z 30003KT 3300 BR SCT020 24/23 Q1010 NOSIG=
02/04/2018 23:30:00Z	 SAID31 WIII 022330	METAR WIII 022330Z 29003KT 1500 BR FEW020 25/24 Q1011 NOSIG=
03/04/2018 00:00:00Z	 SAID31 WIII 030000	METAR WIII 030000Z 29003KT 4000 BR FEW020 25/24 Q1011 NOSIG=
03/04/2018 00:30:00Z	 SAID31 WIII 030030	METAR WIII 030030Z 25007KT 4000 HZ FEW020 27/24 Q1011 NOSIG=
03/04/2018 01:00:00Z	 SAID31 WIII 030100	METAR WIII 030100Z 23007KT 6000 FEW020 27/24 Q1011 NOSIG=
03/04/2018 01:30:00Z	 SAID31 WIII 030130	METAR WIII 030130Z 25008KT 7000 FEW020 28/24 Q1012 NOSIG=
03/04/2018 02:00:00Z	 SAID31 WIII 030200	METAR WIII 030200Z 27007KT 8000 FEW020 29/24 Q1012 NOSIG=
03/04/2018 02:30:00Z	 SAID31 WIII 030230	METAR WIII 030230Z 27006KT 9999 FEW021 30/25 Q1012 NOSIG=
03/04/2018 03:00:00Z	 SAID31 WIII 030300	METAR WIII 030300Z 29006KT 9999 FEW021 31/24 Q1011 NOSIG=
03/04/2018 03:30:00Z	 SAID31 WIII 030330	METAR WIII 030330Z 31006KT 9999 FEW021 31/24 Q1011 NOSIG=
03/04/2018 04:00:00Z	 SAID31 WIII 030400	METAR WIII 030400Z 32007KT 9999 SCT020 31/24 Q1011 NOSIG=
03/04/2018 04:30:00Z	 SAID31 WIII 030430	METAR WIII 030430Z 32007KT 290V020 9999 SCT020 31/25 Q1010 NOSIG=
03/04/2018 05:00:00Z	 SAID31 WIII 030500	METAR WIII 030500Z 33008KT 9999 FEW020CB SCT021 32/25 Q1010 NOSIG RMK CB TO W=
03/04/2018 05:30:00Z	 SAID31 WIII 030530	METAR WIII 030530Z 34011KT 9999 FEW020CB SCT021 32/24 Q1009 NOSIG RMK CB TO W=
03/04/2018 06:00:00Z	 SAID31 WIII 030600	METAR WIII 030600Z 32011KT 8000 FEW020CB SCT021 32/24 Q1009 TEMPO 5000 -TSRA RMK CB TO SW=
03/04/2018 06:30:00Z	 SAID31 WIII 030630	METAR WIII 030630Z 28009KT 8000 FEW020CB SCT021 31/23 Q1008 NOSIG RMK CB TO S=
03/04/2018 07:00:00Z	 SAID31 WIII 030700	METAR WIII 030700Z 31006KT 9000 FEW020CB SCT021 31/23 Q1007 NOSIG RMK CB TO S=
03/04/2018 07:30:00Z	 SAID31 WIII 030730	METAR WIII 030730Z VRB03KT 9000 FEW020CB SCT021 32/24 Q1007 NOSIG RMK CB TO S=
03/04/2018 08:00:00Z	 SAID31 WIII 030800	METAR WIII 030800Z 36006KT 9999 SCT020 32/25 Q1007 NOSIG=
03/04/2018 08:30:00Z	 SAID31 WIII 030830	METAR WIII 030830Z 35006KT 9999 SCT020 32/25 Q1007 NOSIG=
03/04/2018 09:00:00Z	 SAID31 WIII 030900	METAR WIII 030900Z 34006KT 9000 FEW020 31/24 Q1007 NOSIG=
03/04/2018 09:30:00Z	 SAID31 WIII 030930	METAR WIII 030930Z 34006KT 9000 FEW020 31/24 Q1007 NOSIG=
03/04/2018 10:00:00Z	 SAID31 WIII 031000	METAR WIII 031000Z VRB04KT 9000 FEW020 31/23 Q1007 NOSIG=
03/04/2018 10:30:00Z	 SAID31 WIII 031030	METAR WIII 031030Z VRB04KT 9000 FEW020CB FEW021 30/24 Q1007 NOSIG RMK CB TO SE=
03/04/2018 11:00:00Z	 SAID31 WIII 031100	METAR WIII 031100Z VRB03KT 8000 FEW020CB FEW021 30/24 Q1008 NOSIG RMK CB TO SE=
03/04/2018 11:30:00Z	 SAID31 WIII 031130	METAR WIII 031130Z 04003KT 6000 FEW020 29/24 Q1008 NOSIG=
03/04/2018 12:00:00Z	 SAID31 WIII 031200	METAR WIII 031200Z 02002KT 6000 FEW020 29/24 Q1009 NOSIG=
03/04/2018 12:30:00Z	 SAID31 WIII 031230	METAR WIII 031230Z 05002KT 6000 FEW020 29/25 Q1009 NOSIG=
03/04/2018 13:00:00Z	 SAID31 WIII 031300	METAR WIII 031300Z 02002KT 6000 FEW018 29/25 Q1009 NOSIG=
03/04/2018 13:30:00Z	 SAID31 WIII 031330	METAR WIII 031330Z 04002KT 6000 FEW018 29/25 Q1010 NOSIG=
03/04/2018 14:00:00Z	 SAID31 WIII 031400	METAR WIII 031400Z 05003KT 5000 HZ SCT020 29/25 Q1010 NOSIG=
03/04/2018 14:30:00Z	 SAID31 WIII 031430	METAR WIII 031430Z 05003KT 5000 HZ SCT020 29/25 Q1010 NOSIG=
03/04/2018 15:00:00Z	 SAID31 WIII 031500	METAR WIII 031500Z 22020G30KT 3000 TSRA SCT016CB OVC018 25/23 Q1011 NOSIG RMK CB OVER THE FIELD=
03/04/2018 15:30:00Z	 SAID31 WIII 031530	METAR WIII 031530Z 21014KT 3000 +TSRA SCT016CB OVC018 24/22 Q1012 NOSIG RMK CB OVER THE FIELD=
03/04/2018 16:00:00Z	 SAID31 WIII 031600	METAR WIII 031600Z VRB03KT 4000 -TSRA FEW016CB OVC020 24/23 Q1011 NOSIG RMK CB OVER THE FIELD=
03/04/2018 16:30:00Z	 SAID31 WIII 031630	METAR WIII 031630Z VRB02KT 4000 -TSRA FEW016CB OVC020 24/23 Q1011 NOSIG RMK CB OVER THE FIELD=
03/04/2018 17:00:00Z	 SAID31 WIII 031700	METAR WIII 031700Z VRB02KT 4000 VCTS RA FEW016CB OVC020 24/23 Q1011 NOSIG RMK CB TO NW AND NE=
03/04/2018 17:30:00Z	 SAID31 WIII 031730	METAR WIII 031730Z 04005KT 4000 VCTS -RA FEW016CB OVC020 24/24 Q1011 NOSIG RMK CB TO NW AND NE=
03/04/2018 18:00:00Z	 SAID31 WIII 031800	METAR WIII 031800Z 01004KT 4000 VCTS -RA FEW016CB OVC020 24/24 Q1010 NOSIG RMK CB TO NW AND NE=
03/04/2018 18:30:00Z	 SAID31 WIII 031830	METAR WIII 031830Z 22005KT 4000 VCTS -RA FEW016CB OVC020 25/24 Q1011 NOSIG RMK CB TO NW AND NE=
03/04/2018 19:00:00Z	 SAID31 WIII 031900	METAR WIII 031900Z 25007KT 6000 SCT020 25/24 Q1011 RERA NOSIG=
03/04/2018 20:00:00Z	 SAID31 WIII 032000	METAR WIII 032000Z 29006KT 4000 RA SCT014CB BKN016 25/24 Q1010 NOSIG RMK CB OVER THE FIELD=
03/04/2018 20:30:00Z	 SAID31 WIII 032030	METAR WIII 032030Z 28008KT 6000 -RA BKN016 75 24/23 Q1010 NOSIG=
03/04/2018 21:00:00Z	 SAID31 WIII 032100	METAR WIII 032100Z 27006KT 6000 -RA BKN020 24/23 Q1010 NOSIG=
03/04/2018 21:30:00Z	 SAID31 WIII 032130	METAR WIII 032130Z VRB03KT 6000 RA BKN019 24/23 Q1010 NOSIG=
03/04/2018 22:00:00Z	 SAID31 WIII 032200	METAR WIII 032200Z 26004KT 6000 RA BKN019 24/23 Q1011 NOSIG=
03/04/2018 22:30:00Z	 SAID31 WIII 032230	METAR WIII 032230Z 29004KT 6000 -RA BKN019 24/23 Q1010 NOSIG=
03/04/2018 23:00:00Z	 SAID31 WIII 032300	METAR WIII 032300Z 29004KT 6000 -RA SCT020 24/23 Q1010 NOSIG=
03/04/2018 23:30:00Z	 SAID31 WIII 032330	METAR WIII 032330Z 25006KT 6000 SCT020 25/24 Q1010 RERA NOSIG=
04/04/2018 00:00:00Z	 SAID31 WIII 040000	METAR WIII 040000Z 19006KT 160V220 6000 SCT022 25/24 Q1011 NOSIG=
04/04/2018 00:30:00Z	 SAID31 WIII 040030	METAR WIII 040030Z 17007KT 140V210 7000 SCT022 26/24 Q1010 NOSIG=
04/04/2018 01:00:00Z	 SAID31 WIII 040100	METAR WIII 040100Z 18007KT 8000 FEW020 27/25 Q1010 NOSIG=
04/04/2018 01:30:00Z	 SAID31 WIII 040130	METAR WIII 040130Z 15008KT 9000 FEW020 27/25 Q1010 NOSIG=
04/04/2018 02:00:00Z	 SAID31 WIII 040200	METAR WIII 040200Z 15007KT 9000 FEW020 29/25 Q1010 NOSIG=
04/04/2018 02:30:00Z	 SAID31 WIII 040230	METAR WIII 040230Z 16006KT 120V200 9999 FEW020 30/25 Q1010 NOSIG=
04/04/2018 03:00:00Z	 SAID31 WIII 040300	METAR WIII 040300Z VRB04KT 9999 FEW020 31/24 Q1010 NOSIG=
04/04/2018 03:30:00Z	 SAID31 WIII 040330	METAR WIII 040330Z VRB03KT 9999 FEW020 32/23 Q1009 NOSIG=
04/04/2018 04:00:00Z	 SAID31 WIII 040400	METAR WIII 040400Z 36007KT 9999 FEW020 31/25 Q1009 NOSIG=
04/04/2018 04:30:00Z	 SAID31 WIII 040430	METAR WIII 040430Z 35008KT 9000 FEW020 31/25 Q1008 NOSIG=
04/04/2018 05:00:00Z	 SAID31 WIII 040500	METAR WIII 040500Z 34009KT 9000 FEW020 31/25 Q1008 NOSIG=
04/04/2018 05:30:00Z	 SAID31 WIII 040530	METAR WIII 040530Z 34010KT 9000 FEW020 31/26 Q1008 NOSIG=
04/04/2018 06:00:00Z	 SAID31 WIII 040600	METAR WIII 040600Z 35008KT 320V020 9999 FEW020 30/25 Q1008 NOSIG=
04/04/2018 06:30:00Z	 SAID31 WIII 040630	METAR WIII 040630Z 33005G15KT 9999 SCT020 30/25 Q1007 NOSIG=
04/04/2018 07:00:00Z	 SAID31 WIII 040700	METAR WIII 040700Z 33008KT 310V020 9999 SCT020 30/25 Q1007 NOSIG=
04/04/2018 07:30:00Z	 SAID31 WIII 040730	METAR WIII 040730Z 33008KT 9999 SCT020 30/24 Q1007 NOSIG=
04/04/2018 08:00:00Z	 SAID31 WIII 040800	METAR WIII 040800Z 34007KT 9999 SCT020 31/24 Q1006 NOSIG=
04/04/2018 08:30:00Z	 SAID31 WIII 040830	METAR WIII 040830Z 31009KT 9999 FEW020 30/23 Q1006 NOSIG=
04/04/2018 09:00:00Z	 SAID31 WIII 040900	METAR WIII 040900Z 30007KT 9999 FEW020 30/24 Q1006 NOSIG=
04/04/2018 09:30:00Z	 SAID31 WIII 040930	METAR WIII 040930Z 32006KT 290V360 9999 FEW020 30/22 Q1006 NOSIG=
04/04/2018 10:00:00Z	 SAID31 WIII 041000	METAR WIII 041000Z 32006KT 8000 FEW020 30/23 Q1006 NOSIG=
04/04/2018 10:30:00Z	 SAID31 WIII 041030	METAR WIII 041030Z VRB02KT 8000 FEW020 30/23 Q1007 NOSIG=
04/04/2018 11:00:00Z	 SAID31 WIII 041100	METAR WIII 041100Z VRB03KT 8000 FEW020 30/23 Q1007 NOSIG=
04/04/2018 11:30:00Z	 SAID31 WIII 041130	METAR WIII 041130Z VRB02KT 8000 FEW020 29/23 Q1007 NOSIG=
04/04/2018 12:00:00Z	 SAID31 WIII 041200	METAR WIII 041200Z 34004KT 5000 HZ FEW020 29/25 Q1008 NOSIG=
04/04/2018 12:30:00Z	 SAID31 WIII 041230	METAR WIII 041230Z VRB02KT 7000 FEW020 28/25 Q1008 NOSIG=
04/04/2018 13:00:00Z	 SAID31 WIII 041300	METAR WIII 041300Z VRB02KT 6000 FEW020 28/26 Q1008 NOSIG=
04/04/2018 13:30:00Z	 SAID31 WIII 041330	METAR WIII 041330Z VRB05KT 6000 FEW020 28/26 Q1009 NOSIG=
04/04/2018 14:00:00Z	 SAID31 WIII 041400	METAR WIII 041400Z VRB03KT 6000 FEW020 28/26 Q1009 NOSIG=
04/04/2018 14:30:00Z	 SAID31 WIII 041430	METAR WIII 041430Z 30003KT 5000 HZ FEW020 27/25 Q1009 NOSIG=
04/04/2018 15:00:00Z	 SAID31 WIII 041500	METAR WIII 041500Z VRB04KT 4800 HZ FEW020 27/25 Q1009 NOSIG=
04/04/2018 15:30:00Z	 SAID31 WIII 041530	METAR WIII 041530Z 29004KT 5000 HZ FEW020 27/25 Q1009 NOSIG=
04/04/2018 16:00:00Z	 SAID31 WIII 041600	METAR WIII 041600Z 29004KT 5000 HZ FEW020 27/25 Q1009 NOSIG=
04/04/2018 16:30:00Z	 SAID31 WIII 041630	METAR WIII 041630Z 24005KT 5000 HZ FEW020 27/24 Q1009 NOSIG=
04/04/2018 17:00:00Z	 SAID31 WIII 041700	METAR WIII 041700Z VRB03KT 5000 HZ FEW020 27/25 Q1009 NOSIG=
04/04/2018 17:30:00Z	 SAID31 WIII 041730	METAR WIII 041730Z 25004KT 5000 HZ FEW020 27/25 Q1009 NOSIG=
04/04/2018 18:00:00Z	 SAID31 WIII 041800	METAR WIII 041800Z 28003KT 5000 HZ FEW020 27/25 Q1008 NOSIG=
04/04/2018 18:30:00Z	 SAID31 WIII 041830	METAR WIII 041830Z 27004KT 5000 HZ FEW021 27/25 Q1008 NOSIG=
04/04/2018 19:00:00Z	 SAID31 WIII 041900	METAR WIII 041900Z 21003KT 5000 HZ FEW021 27/25 Q1008 NOSIG=
04/04/2018 19:30:00Z	 SAID31 WIII 041930	METAR WIII 041930Z 20004KT 5000 HZ FEW021 26/25 Q1008 NOSIG=
04/04/2018 20:00:00Z	 SAID31 WIII 042000	METAR WIII 042000Z 21003KT 5000 BR FEW021 26/25 Q1008 NOSIG=
04/04/2018 20:30:00Z	 SAID31 WIII 042030	METAR WIII 042030Z 21003KT 5000 BR FEW021 26/25 Q1008 NOSIG=
04/04/2018 21:00:00Z	 SAID31 WIII 042100	METAR WIII 042100Z 19003KT 4700 BR FEW021 26/25 Q1007 NOSIG=
04/04/2018 21:30:00Z	 SAID31 WIII 042130	METAR WIII 042130Z VRB03KT 4500 BR FEW021 26/25 Q1007 NOSIG=
04/04/2018 22:00:00Z	 SAID31 WIII 042200	METAR WIII 042200Z 22003KT 3000 BR FEW022 26/25 Q1007 NOSIG=
04/04/2018 22:30:00Z	 SAID31 WIII 042230	METAR WIII 042230Z VRB03KT 3000 BR FEW022 26/25 Q1008 NOSIG=
04/04/2018 23:00:00Z	 SAID31 WIII 042300	METAR WIII 042300Z VRB04KT 3000 BR FEW022 27/25 Q1008 NOSIG=
04/04/2018 23:30:00Z	 SAID31 WIII 042330	METAR WIII 042330Z VRB03KT 3000 BR FEW022 27/25 Q1008 NOSIG=
05/04/2018 00:00:00Z	 SAID31 WIII 050000	METAR WIII 050000Z VRB04KT 3000 BR FEW022 27/25 Q1008 NOSIG=
05/04/2018 00:30:00Z	 SAID31 WIII 050030	METAR WIII 050030Z VRB04KT 3000 HZ FEW022 28/25 Q1009 NOSIG=
05/04/2018 01:00:00Z	 SAID31 WIII 050100	METAR WIII 050100Z VRB04KT 4000 HZ FEW022 29/25 Q1009 NOSIG=
05/04/2018 01:30:00Z	 SAID31 WIII 050130	METAR WIII 050130Z VRB04KT 5000 HZ FEW020 30/23 Q1009 NOSIG=
05/04/2018 02:00:00Z	 SAID31 WIII 050200	METAR WIII 050200Z VRB03KT 6000 FEW020 31/23 Q1009 NOSIG=
05/04/2018 02:30:00Z	 SAID31 WIII 050230	METAR WIII 050230Z VRB03KT 6000 FEW020 31/24 Q1009 NOSIG=
05/04/2018 03:00:00Z	 SAID31 WIII 050300	METAR WIII 050300Z VRB04KT 5000 HZ FEW020 31/24 Q1009 NOSIG=
05/04/2018 03:30:00Z	 SAID31 WIII 050330	METAR WIII 050330Z VRB04KT 5000 HZ SCT020 32/24 Q1008 NOSIG=
05/04/2018 04:00:00Z	 SAID31 WIII 050400	METAR WIII 050400Z VRB05KT 5000 HZ SCT020 32/24 Q1008 NOSIG=
05/04/2018 04:30:00Z	 SAID31 WIII 050430	METAR WIII 050430Z 02006KT 5000 HZ SCT020 32/24 Q1007 NOSIG=
05/04/2018 05:00:00Z	 SAID31 WIII 050500	METAR WIII 050500Z 01006KT 5000 HZ SCT020 32/24 Q1007 NOSIG=
05/04/2018 05:30:00Z	 SAID31 WIII 050530	METAR WIII 050530Z 02007KT 330V050 5000 HZ SCT020 32/24 Q1006 NOSIG=
05/04/2018 06:00:00Z	 SAID31 WIII 050600	METAR WIII 050600Z 02007KT 5000 HZ FEW020 32/25 Q1006 NOSIG=
05/04/2018 06:30:00Z	 SAID31 WIII 050630	METAR WIII 050630Z 01007KT 340V060 5000 HZ FEW020 32/25 Q1006 NOSIG=
05/04/2018 07:00:00Z	 SAID31 WIII 050700	METAR WIII 050700Z 02008KT 340V050 5000 HZ FEW020 32/24 Q1005 NOSIG=
05/04/2018 07:30:00Z	 SAID31 WIII 050730	METAR WIII 050730Z 35007KT 310V040 6000 FEW020 31/25 Q1005 NOSIG=
05/04/2018 08:00:00Z	 SAID31 WIII 050800	METAR WIII 050800Z 36007KT 300V040 7000 FEW020 31/26 Q1005 NOSIG=
05/04/2018 08:30:00Z	 SAID31 WIII 050830	METAR WIII 050830Z 02007KT 330V050 7000 VCTS FEW020CB FEW020 31/25 Q1004 NOSIG RMK CB TO SW=
05/04/2018 09:00:00Z	 SAID31 WIII 050900	METAR WIII 050900Z 02006KT 320V060 7000 FEW020CB FEW020 31/26 Q1004 NOSIG RMK CB TO S=
05/04/2018 09:30:00Z	 SAID31 WIII 050930	METAR WIII 050930Z 36006KT 320V040 7000 FEW020CB FEW020 30/25 Q1005 NOSIG RMK CB TO S=
05/04/2018 10:00:00Z	 SAID31 WIII 051000	METAR WIII 051000Z VRB04KT 6000 FEW020CB SCT020 30/25 Q1005 NOSIG RMK CB TO SE=
05/04/2018 10:30:00Z	 SAID31 WIII 051030	METAR WIII 051030Z VRB04KT 6000 FEW020CB SCT020 30/25 Q1006 NOSIG RMK CB TO S=
05/04/2018 11:00:00Z	 SAID31 WIII 051100	METAR WIII 051100Z VRB03KT 6000 FEW020CB SCT020 30/25 Q1006 NOSIG RMK CB TO S=
05/04/2018 11:30:00Z	 SAID31 WIII 051130	METAR WIII 051130Z VRB02KT 5000 -RA FEW019CB SCT020 29/25 Q1006 NOSIG RMK CB TO S=
05/04/2018 12:00:00Z	 SAID31 WIII 051200	METAR WIII 051200Z 32003KT 6000 SCT020 29/25 Q1007 RERA NOSIG=
05/04/2018 12:30:00Z	 SAID31 WIII 051230	METAR WIII 051230Z VRB02KT 4100 HZ SCT020 29/25 Q1007 NOSIG=
05/04/2018 13:30:00Z	 SAID31 WIII 051330	METAR WIII 051330Z 32003KT 5000 BR FEW020CB BKN020 29/25 Q1007 NOSIG RMK CB TO E=
05/04/2018 14:00:00Z	 SAID31 WIII 051400	METAR WIII 051400Z 13014KT 2500 TSRA BKN015 OVC018 29/26 Q1008 NOSIG RMK CB OVER THE FIELD=
05/04/2018 14:30:00Z	 SAID31 WIII 051430	METAR WIII 051430Z 14009KT 2000 TSRA BKN015CB OVC016 26/26 Q1008 CB OVER THE FIELD NOSIG=
05/04/2018 15:00:00Z	 SAID31 WIII 051500	METAR WIII 051500Z 24008KT 2500 -TSRA BKN015CB OVC016 27/26 Q1009 NOSIG RMK CB OVER THE FIELD=
05/04/2018 15:30:00Z	 SAID31 WIII 051530	METAR WIII 051530Z 31006KT 5000 VCTS SCT016CB OVC018 26/26 Q1009 RERA NOSIG RMK CB OVER THE FIELD=
05/04/2018 17:00:00Z	 SAID31 WIII 051700	METAR WIII 051700Z 30006KT 4900 VCTS SHRA BR SCT017CB BKN018 26/25 Q1008 NOSIG RMK CB TO NW AND SE=
05/04/2018 17:30:00Z	 SAID31 WIII 051730	METAR WIII 051730Z 28004KT 6000 VCTS -RA SCT017CB BKN018 26/25 Q1008 RERA NOSIG RMK CB TO NW=
05/04/2018 18:00:00Z	 SAID31 WIII 051800	METAR WIII 051800Z 28003KT 6000 -SHRA SCT017CB BKN018 26/25 Q1008 RETS NOSIG RMK CB TO SE=
05/04/2018 18:30:00Z	 SAID31 WIII 051830	METAR WIII 051830Z VRB03KT 6000 VCTS -SHRA SCT018CB BKN020 26/25 Q1008 NOSIG RMK CB TO SE=
05/04/2018 19:00:00Z	 SAID31 WIII 051900	METAR WIII 051900Z 21003KT 4600 SCTCB018 SCT020 26/25 Q1008 RETS NOSIG RMK CB TO S=
05/04/2018 20:00:00Z	 SAID31 WIII 052000	METAR WIII 052000Z 19005KT 4000 BR FEW020CB BKN022 26/25 Q1007 NOSIG=
05/04/2018 20:30:00Z	 SAID31 WIII 052030	METAR WIII 052030Z VRB02KT 3500 VCTS BR FEW020CB BKN022 26/25 Q1007 NOSIG RMK CB TO E AND W=
05/04/2018 21:00:00Z	 SAID31 WIII 052100	METAR WIII 052100Z 17004KT 3500 -RA FEW020CB BKN022 26/25 Q1007 NOSIG RMK CB TO N AND S=
05/04/2018 21:30:00Z	 SAID31 WIII 052130	METAR WIII 052130Z VRB03KT 3000 BR SCT016CB OVC020 26/25 Q1008 RERA NOSIG RMK CB OVER THE FIELD=
05/04/2018 22:30:00Z	 SAID31 WIII 052230	METAR WIII 052230Z VRB03KT 3500 BR FEW018CB OVC020 26/25 Q1008 NOSIG RMK CB TO S =
05/04/2018 23:00:00Z	 SAID31 WIII 052300	METAR WIII 052300Z 23007KT 2500 -RA FEW018CB OVC020 26/25 Q1008 RETS NOSIG RMK CB TO S AND SW=
05/04/2018 23:30:00Z	 SAID31 WIII 052330	METAR WIII 052330Z 21006KT 3500 BR FEW018CB BKN022 26/25 Q1009 RERA NOSIG RMK CB TO SE AND SW=
06/04/2018 00:30:00Z	 SAID31 WIII 060030	METAR WIII 060030Z 19006KT 6000 SCT020 28/25 Q1009 NOSIG=
06/04/2018 01:00:00Z	 SAID31 WIII 060100	METAR WIII 060100Z 20007KT 7000 FEW020 28/25 Q1010 NOSIG=
06/04/2018 01:30:00Z	 SAID31 WIII 060130	METAR WIII 060130Z 19006KT 7000 FEW020 29/25 Q1010 NOSIG=
06/04/2018 02:00:00Z	 SAID31 WIII 060200	METAR WIII 060200Z 21004KT 8000 FEW020 29/25 Q1009 NOSIG=
06/04/2018 02:30:00Z	 SAID31 WIII 060230	METAR WIII 060230Z VRB02KT 8000 FEW020 30/25 Q1009 NOSIG=
06/04/2018 03:00:00Z	 SAID31 WIII 060300	METAR WIII 060300Z VRB03KT 8000 FEW020 31/25 Q1009 NOSIG=
06/04/2018 03:30:00Z	 SAID31 WIII 060330	METAR WIII 060330Z 14007KT 8000 SCT020 30/24 Q1009 NOSIG=
06/04/2018 04:00:00Z	 SAID31 WIII 060400	METAR WIII 060400Z 16008KT 7000 FEW020 31/25 Q1009 NOSIG=
06/04/2018 04:30:00Z	 SAID31 WIII 060430	METAR WIII 060430Z VRB03KT 8000 FEW020 32/25 Q1008 NOSIG=
06/04/2018 05:00:00Z	 SAID31 WIII 060500	METAR WIII 060500Z VRB04KT 8000 SCT020 32/25 Q1008 NOSIG=
06/04/2018 05:30:00Z	 SAID31 WIII 060530	METAR WIII 060530Z 01007KT 8000 SCT020 32/25 Q1008 NOSIG=
06/04/2018 06:00:00Z	 SAID31 WIII 060600	METAR WIII 060600Z 02008KT 8000 FEW020 32/26 Q1007 NOSIG=
06/04/2018 06:30:00Z	 SAID31 WIII 060630	METAR WIII 060630Z 05007KT 7000 FEW020 33/26 Q1007 NOSIG=
06/04/2018 07:00:00Z	 SAID31 WIII 060700	METAR WIII 060700Z 04007KT 8000 SCT020 32/24 Q1006 NOSIG=
06/04/2018 07:30:00Z	 SAID31 WIII 060730	METAR WIII 060730Z 02006KT 8000 SCT020 31/25 Q1006 NOSIG=
06/04/2018 08:00:00Z	 SAID31 WIII 060800	METAR WIII 060800Z 03008KT 8000 SCT020 32/26 Q1005 NOSIG=
06/04/2018 08:30:00Z	 SAID31 WIII 060830	METAR WIII 060830Z 03006KT 8000 SCT020 31/25 Q1005 NOSIG=
06/04/2018 09:00:00Z	 SAID31 WIII 060900	METAR WIII 060900Z 03007KT 8000 SCT020 31/25 Q1005 NOSIG=
06/04/2018 09:30:00Z	 SAID31 WIII 060930	METAR WIII 060930Z 03006KT 8000 SCT020 31/25 Q1005 NOSIG=
06/04/2018 10:00:00Z	 SAID31 WIII 061000	METAR WIII 061000Z 02007KT 8000 SCT020 30/25 Q1006 NOSIG=
06/04/2018 10:30:00Z	 SAID31 WIII 061030	METAR WIII 061030Z 02006KT 8000 SCT020 30/24 Q1007 NOSIG=
06/04/2018 11:00:00Z	 SAID31 WIII 061100	METAR WIII 061100Z 03005KT 8000 SCT020 29/24 Q1007 NOSIG=
06/04/2018 11:30:00Z	 SAID31 WIII 061130	METAR WIII 061130Z 03005KT 8000 SCT020 29/24 Q1007 NOSIG=
06/04/2018 12:00:00Z	 SAID31 WIII 061200	METAR WIII 061200Z 03005KT 7000 FEW020 29/24 Q1008 NOSIG=
06/04/2018 12:30:00Z	 SAID31 WIII 061230	METAR WIII 061230Z 04004KT 7000 FEW020 29/24 Q1008 NOSIG=
06/04/2018 13:00:00Z	 SAID31 WIII 061300	METAR WIII 061300Z 04004KT 6000 FEW020 28/24 Q1009 NOSIG=
06/04/2018 13:30:00Z	 SAID31 WIII 061330	METAR WIII 061330Z 06002KT 6000 FEW020 28/24 Q1009 NOSIG=
06/04/2018 14:00:00Z	 SAID31 WIII 061400	METAR WIII 061400Z 04003KT 6000 FEW020 27/24 Q1010 NOSIG=
06/04/2018 14:30:00Z	 SAID31 WIII 061430	METAR WIII 061430Z 06002KT 6000 FEW020 27/24 Q1010 NOSIG=
06/04/2018 15:00:00Z	 SAID31 WIII 061500	METAR WIII 061500Z 20002KT 6000 FEW020 26/24 Q1010 NOSIG=
06/04/2018 15:30:00Z	 SAID31 WIII 061530	METAR WIII 061530Z 24002KT 5000 HZ FEW020 26/24 Q1010 NOSIG=
06/04/2018 16:00:00Z	 SAID31 WIII 061600	METAR WIII 061600Z 20002KT 5000 HZ FEW020 26/24 Q1010 NOSIG=
06/04/2018 16:30:00Z	 SAID31 WIII 061630	METAR WIII 061630Z 19002KT 5000 HZ FEW020 26/24 Q1010 NOSIG=
06/04/2018 17:00:00Z	 SAID31 WIII 061700	METAR WIII 061700Z 20002KT 5000 HZ FEW020 26/24 Q1010 NOSIG=
06/04/2018 17:30:00Z	 SAID31 WIII 061730	METAR WIII 061730Z 19002KT 5000 HZ FEW020 26/24 Q1009 NOSIG=
06/04/2018 18:00:00Z	 SAID31 WIII 061800	METAR WIII 061800Z 20002KT 5000 HZ FEW020 26/24 Q1009 NOSIG=
06/04/2018 18:30:00Z	 SAID31 WIII 061830	METAR WIII 061830Z 19002KT 5000 HZ FEW020 25/23 Q1009 NOSIG=
06/04/2018 19:00:00Z	 SAID31 WIII 061900	METAR WIII 061900Z 24002KT 5000 HZ FEW020 25/24 Q1008 NOSIG=
06/04/2018 19:30:00Z	 SAID31 WIII 061930	METAR WIII 061930Z 23002KT 5000 HZ FEW020 25/24 Q1008 NOSIG=
06/04/2018 20:00:00Z	 SAID31 WIII 062000	METAR WIII 062000Z 24002KT 5000 HZ FEW020 25/24 Q1008 NOSIG=
06/04/2018 20:30:00Z	 SAID31 WIII 062030	METAR WIII 062030Z 24002KT 4000 HZ FEW020 25/24 Q1008 NOSIG=
06/04/2018 21:00:00Z	 SAID31 WIII 062100	METAR WIII 062100Z 21002KT 4000 HZ FEW020 25/24 Q1008 NOSIG=
06/04/2018 21:30:00Z	 SAID31 WIII 062130	METAR WIII 062130Z 18002KT 4000 HZ FEW020 25/24 Q1008 NOSIG=
06/04/2018 22:00:00Z	 SAID31 WIII 062200	METAR WIII 062200Z 20003KT 4000 HZ FEW020 24/23 Q1009 NOSIG=
06/04/2018 22:30:00Z	 SAID31 WIII 062230	METAR WIII 062230Z 21002KT 3500 BR FEW020 25/24 Q1009 NOSIG=
06/04/2018 23:00:00Z	 SAID31 WIII 062300	METAR WIII 062300Z 180002KT 3000 BR FEW020 25/24 Q1009 NOSIG=
07/04/2018 00:00:00Z	 SAID31 WIII 070000	METAR WIII 070000Z 17004KT 5000 HZ FEW020 27/24 Q1010 NOSIG=
07/04/2018 00:30:00Z	 SAID31 WIII 070030	METAR WIII 070030Z 18003KT 5000 HZ FEW020 27/24 Q1010 NOSIG=
07/04/2018 01:00:00Z	 SAID31 WIII 070100	METAR WIII 070100Z 12004KT 5000 HZ FEW020 28/24 Q1010 NOSIG=
07/04/2018 01:30:00Z	 SAID31 WIII 070130	METAR WIII 070130Z 12003KT 6000 FEW020 29/24 Q1010 NOSIG=
07/04/2018 02:00:00Z	 SAID31 WIII 070200	METAR WIII 070200Z 35008KT 6000 SCT020 29/24 Q1010 NOSIG=
07/04/2018 02:30:00Z	 SAID31 WIII 070230	METAR WIII 070230Z 06008KT 6000 SCT020 30/25 Q1010 NOSIG=
07/04/2018 03:00:00Z	 SAID31 WIII 070300	METAR WIII 070300Z 06809KT 7000 SCT020 30/25 Q1010 NOSIG=
07/04/2018 03:30:00Z	 SAID31 WIII 070330	METAR WIII 070330Z 05009KT 7000 SCT020 30/25 Q1010 NOSIG=
07/04/2018 04:00:00Z	 SAID31 WIII 070400	METAR WIII 070400Z 09013KT 7000 SCT020 31/25 Q1009 NOSIG=
07/04/2018 04:30:00Z	 SAID31 WIII 070430	METAR WIII 070430Z 06012KT 8000 FEW018 32/23 Q1008 NOSIG=
07/04/2018 05:00:00Z	 SAID31 WIII 070500	METAR WIII 070500Z 10008KT 8000 FEW018 32/25 Q1008 NOSIG=
07/04/2018 05:30:00Z	 SAID31 WIII 070530	METAR WIII 070530Z 04013KT 9000 FEW020 32/25 Q1008 NOSIG=
07/04/2018 06:00:00Z	 SAID31 WIII 070600	METAR WIII 070600Z 05012KT 9000 FEW020 32/25 Q1008 NOSIG=
07/04/2018 06:30:00Z	 SAID31 WIII 070630	METAR WIII 070630Z 05013KT 9999 FEW018 31/24 Q1007 NOSIG=
07/04/2018 07:00:00Z	 SAID31 WIII 070700	METAR WIII 070700Z 03013KT 9999 FEW018 32/24 Q1006 NOSIG=
07/04/2018 07:30:00Z	 SAID31 WIII 070730	METAR WIII 070730Z 06012KT 9999 FEW020 31/25 Q1006 NOSIG=
07/04/2018 08:00:00Z	 SAID31 WIII 070800	METAR WIII 070800Z 05012KT 9999 FEW020 31/25 Q1006 NOSIG=
07/04/2018 08:30:00Z	 SAID31 WIII 070830	METAR WIII 070830Z 03011KT 9999 FEW020 31/25 Q1006 NOSIG=
07/04/2018 09:00:00Z	 SAID31 WIII 070900	METAR WIII 070900Z 03006KT 9999 FEW020 31/25 Q1006 NOSIG=
07/04/2018 09:30:00Z	 SAID31 WIII 070930	METAR WIII 070930Z 03011KT 9999 FEW018 30/24 Q1007 NOSIG=
07/04/2018 10:00:00Z	 SAID31 WIII 071000	METAR WIII 071000Z 05007KT 8000 SCT020 29/25 Q1007 NOSIG=
07/04/2018 10:30:00Z	 SAID31 WIII 071030	METAR WIII 071030Z 08007KT 7000 SCT020 29/25 Q1007 NOSIG=
07/04/2018 11:00:00Z	 SAID31 WIII 071100	METAR WIII 071100Z 02004KT 7000 FEW019CB SCT020 29/25 Q1008 NOSIG RMK CB TO SW=
07/04/2018 11:30:00Z	 SAID31 WIII 071130	METAR WIII 071130Z 06005KT 7000 FEW019CB SCT020 29/24 Q1008 NOSIG RMK CB TO SW=
07/04/2018 12:00:00Z	 SAID31 WIII 071200	METAR WIII 071200Z 05004KT 7000 FEW019CB SCT020 29/24 Q1009 NOSIG RMK CB TO SW=
07/04/2018 12:30:00Z	 SAID31 WIII 071230	METAR WIII 071230Z 16008KT 7000 FEW019CB SCT020 27/23 Q1009 NOSIG RMK CB TO S=
07/04/2018 13:00:00Z	 SAID31 WIII 071300	METAR WIII 071300Z 16005KT 6000 TS FEW019CB SCT020 27/23 Q1010 NOSIG RMK CB TO S=
07/04/2018 13:30:00Z	 SAID31 WIII 071330	METAR WIII 071330Z 16005KT 6000 FEW019CB SCT020 27/23 Q1010 RETS NOSIG RMK CB TO SE=
07/04/2018 14:00:00Z	 SAID31 WIII 071400	METAR WIII 071400Z 18005KT 6000 -RA FEW019CB SCT020 25/23 Q1010 NOSIG RMK CB TO SE=
07/04/2018 14:30:00Z	 SAID31 WIII 071430	METAR WIII 071430Z 18005KT 6000 SCT020 25/23 Q1010 RERA NOSIG=
07/04/2018 15:00:00Z	 SAID31 WIII 071500	METAR WIII 071500Z 18006KT 6000 SCT020 25/23 Q1011 NOSIG=
07/04/2018 15:30:00Z	 SAID31 WIII 071530	METAR WIII 071530Z 18006KT 6000 SCT020 25/23 Q1011 NOSIG=
07/04/2018 16:00:00Z	 SAID31 WIII 071600	METAR WIII 071600Z 17006KT 6000 SCT020 25/23 Q1011 NOSIG=
07/04/2018 16:30:00Z	 SAID31 WIII 071630	METAR WIII 071630Z 15004KT 6000 SCT020 26/23 Q1010 NOSIG=
07/04/2018 17:00:00Z	 SAID31 WIII 071700	METAR WIII 071700Z 15003KT 5000 HZ SCT020 25/23 Q1010 NOSIG=
07/04/2018 17:30:00Z	 SAID31 WIII 071730	METAR WIII 071730Z 11006KT 6000 SCT020 25/23 Q1010 NOSIG=
07/04/2018 18:00:00Z	 SAID31 WIII 071800	METAR WIII 071800Z 15005KT 6000 FEW021 26/23 Q1010 NOSIG=
07/04/2018 18:30:00Z	 SAID31 WIII 071830	METAR WIII 071830Z 17005KT 6000 FEW021 26/23 Q1009 NOSIG=
07/04/2018 19:00:00Z	 SAID31 WIII 071900	METAR WIII 071900Z 14005KT 6000 FEW021 26/23 Q1009 NOSIG=
07/04/2018 19:30:00Z	 SAID31 WIII 071930	METAR WIII 071930Z 14004KT 6000 FEW020 26/23 Q1009 NOSIG=
07/04/2018 20:00:00Z	 SAID31 WIII 072000	METAR WIII 072000Z 11003KT 6000 FEW021 26/23 Q1008 NOSIG=
07/04/2018 21:00:00Z	 SAID31 WIII 072100	METAR WIII 072100Z 18004KT 6000 SCT020 26/23 Q1008 NOSIG=
07/04/2018 21:30:00Z	 SAID31 WIII 072130	METAR WIII 072130Z 17003KT 6000 SCT020 26/23 Q1008 NOSIG=
07/04/2018 22:00:00Z	 SAID31 WIII 072200	METAR WIII 072200Z 20003KT 6000 SCT020 26/23 Q1008 NOSIG=
07/04/2018 22:30:00Z	 SAID31 WIII 072230	METAR WIII 072230Z 19003KT 6000 SCT020 25/23 Q1008 NOSIG=
07/04/2018 23:00:00Z	 SAID31 WIII 072300	METAR WIII 072300Z VRB03KT 7000 SCT020 26/23 Q1009 NOSIG=
07/04/2018 23:30:00Z	 SAID31 WIII 072330	METAR WIII 072330Z VRB02KT 6000 SCT020 26/24 Q1009 NOSIG=
08/04/2018 00:00:00Z	 SAID31 WIII 080000	METAR WIII 080000Z VRB02KT 7000 SCT020 27/24 Q1010 NOSIG=
08/04/2018 00:30:00Z	 SAID31 WIII 080030	METAR WIII 080030Z VRB04KT 6000 FEW021 28/24 Q1010 NOSIG=
08/04/2018 01:00:00Z	 SAID31 WIII 080100	METAR WIII 080100Z VRB03KT 6000 FEW021 29/24 Q1010 NOSIG=
08/04/2018 01:30:00Z	 SAID31 WIII 080130	METAR WIII 080130Z VRB03KT 6000 FEW021 30/23 Q1010 NOSIG=
08/04/2018 02:00:00Z	 SAID31 WIII 080200	METAR WIII 080200Z 10007KT 7000 FEW020 31/24 Q1011 NOSIG=
08/04/2018 02:30:00Z	 SAID31 WIII 080230	METAR WIII 080230Z 08005G15KT 8000 SCT020 31/24 Q1010 NOSIG=
08/04/2018 03:00:00Z	 SAID31 WIII 080300	METAR WIII 080300Z 09011KT 9000 SCT020 32/25 Q1010 NOSIG=
08/04/2018 03:30:00Z	 SAID31 WIII 080330	METAR WIII 080330Z 07013KT 9999 SCT020 32/25 Q1010 NOSIG=
08/04/2018 04:00:00Z	 SAID31 WIII 080400	METAR WIII 080400Z 08009G19KT 9999 SCT020 32/24 Q1010 NOSIG=
08/04/2018 04:30:00Z	 SAID31 WIII 080430	METAR WIII 080430Z 07010G20KT 9999 SCT020 31/25 Q1009 NOSIG=
08/04/2018 05:00:00Z	 SAID31 WIII 080500	METAR WIII 080500Z 07012KT 9999 FEW019CB SCT020 32/25 Q1009 NOSIG RMK CB TO SW=
08/04/2018 05:30:00Z	 SAID31 WIII 080530	METAR WIII 080530Z 06008G18KT 9999 FEW019CB SCT020 31/24 Q1008 NOSIG RMK CB TO SW=
08/04/2018 06:00:00Z	 SAID31 WIII 080600	METAR WIII 080600Z 06012KT 9999 SCT020 32/25 Q1008 NOSIG=
08/04/2018 06:30:00Z	 SAID31 WIII 080630	METAR WIII 080630Z 03010G20KT 9999 SCT020 29/25 Q1008 NOSIG=
08/04/2018 07:00:00Z	 SAID31 WIII 080700	METAR WIII 080700Z 04011KT 9999 SCT020 29/25 Q1008 NOSIG=
08/04/2018 07:30:00Z	 SAID31 WIII 080730	METAR WIII 080730Z 04013KT 9999 FEW019CB SCT020 30/25 Q1008 NOSIG RMK CB TO S=
08/04/2018 08:00:00Z	 SAID31 WIII 080800	METAR WIII 080800Z 07015KT 9999FEW019CB SCT020 30/24 Q1008 NOSIG RMK CB TO S=
08/04/2018 08:30:00Z	 SAID31 WIII 080830	METAR WIII 080830Z 06009KT 9999 SCT020 30/25 Q1008 NOSIG=
08/04/2018 09:00:00Z	 SAID31 WIII 080900	METAR WIII 080900Z 06008KT 030V090 9999 SCT020 29/25 Q1008 NOSIG=
08/04/2018 09:30:00Z	 SAID31 WIII 080930	METAR WIII 080930Z 06007KT 9999 SCT020 29/25 Q1008 NOSIG=
08/04/2018 10:00:00Z	 SAID31 WIII 081000	METAR WIII 081000Z 07006KT 9999 SCT020 29/25 Q1008 NOSIG=
08/04/2018 10:30:00Z	 SAID31 WIII 081030	METAR WIII 081030Z 08005KT 9999 VCTS FEW018CB SCT020 28/24 Q1008 NOSIG RMK CB TO SW=
08/04/2018 11:00:00Z	 SAID31 WIII 081100	METAR WIII 081100Z 09004KT 9000 VCTS FEW018CB SCT020 28/25 Q1009 NOSIG RMK CB TO SW=
08/04/2018 11:30:00Z	 SAID31 WIII 081130	METAR WIII 081130Z VRB05KT 8000 FEW018CB SCT020 28/24 Q1009 NOSIG RMK CB TO SW=
08/04/2018 12:00:00Z	 SAID31 WIII 081200	METAR WIII 081200Z 07004KT 8000 FEW018CB SCT020 27/24 Q1009 NOSIG RMK CB TO SW=
08/04/2018 12:30:00Z	 SAID31 WIII 081230	METAR WIII 081230Z 06004KT 8000 FEW018CB SCT020 27/24 Q1010 NOSIG RMK CB TO SW=
08/04/2018 13:00:00Z	 SAID31 WIII 081300	METAR WIII 081300Z VRB03KT 7000 FEW020 27/24 Q1010 NOSIG=
08/04/2018 13:30:00Z	 SAID31 WIII 081330	METAR WIII 081330Z VRB04KT 6000 FEW020 27/24 Q1011 NOSIG=
08/04/2018 14:00:00Z	 SAID31 WIII 081400	METAR WIII 081400Z 19006KT 160V230 6000 FEW020 27/24 Q1011 NOSIG=
08/04/2018 14:30:00Z	 SAID31 WIII 081430	METAR WIII 081430Z VRB04KT 6000 FEW020 27/24 Q1011 NOSIG=
08/04/2018 15:00:00Z	 SAID31 WIII 081500	METAR WIII 081500Z VRB04KT 5000 HZ FEW018 27/24 Q1012 NOSIG=
08/04/2018 15:30:00Z	 SAID31 WIII 081530	METAR WIII 081530Z 17006KT 5000 HZ FEW018 27/24 Q1012 NOSIG=
08/04/2018 16:00:00Z	 SAID31 WIII 081600	METAR WIII 081600Z VRB05KT 5000 HZ FEW020 27/24 Q1011 NOSIG=
08/04/2018 16:30:00Z	 SAID31 WIII 081630	METAR WIII 081630Z VRB04KT 5000 HZ FEW020 27/24 Q1011 NOSIG=
08/04/2018 17:00:00Z	 SAID31 WIII 081700	METAR WIII 081700Z 18003KT 5000 HZ FEW020 27/24 Q1011 NOSIG=
08/04/2018 17:30:00Z	 SAID31 WIII 081730	METAR WIII 081730Z 19003KT 5000 HZ FEW020 27/24 Q1011 NOSIG=
08/04/2018 18:00:00Z	 SAID31 WIII 081800	METAR WIII 081800Z 17004KT 5000 HZ FEW018CB FEW020 27/24 Q1010 NOSIG RMK CB TO N=
08/04/2018 18:30:00Z	 SAID31 WIII 081830	METAR WIII 081830Z 17004KT 5000 HZ FEW018CB FEW020 26/24 Q1010 NOSIG RMK CB TO NW=
08/04/2018 19:00:00Z	 SAID31 WIII 081900	METAR WIII 081900Z VRB02KT 4000 VCTS FEW016CB FEW018 26/24 Q1010 NOSIG RMK CB TO NW=
08/04/2018 20:00:00Z	 SAID31 WIII 082000	METAR WIII 082000Z 34006KT 310V010 3500 BR SCT019 25/24 Q1010 NOSIG=
08/04/2018 20:30:00Z	 SAID31 WIII 082030	METAR WIII 082030Z 33003KT 5000 BR SCT020 25/24 Q1010 NOSIG=
08/04/2018 21:00:00Z	 SAID31 WIII 082100	METAR WIII 082100Z VRB02KT 6000 SCT020 25/24 Q1010 NOSIG=
08/04/2018 21:30:00Z	 SAID31 WIII 082130	METAR WIII 082130Z 11004KT 6000 SCT020 24/24 Q1010 NOSIG=
08/04/2018 23:00:00Z	 SAID31 WIII 082300	METAR WIII 082300Z VRB01KT 6000 FEW021 25/24 Q1010 NOSIG=
08/04/2018 23:30:00Z	 SAID31 WIII 082330	METAR WIII 082330Z VRB05KT 6000 FEW018 26/24 Q1011 NOSIG=
09/04/2018 00:00:00Z	 SAID31 WIII 090000	METAR WIII 090000Z VRB03KT 6000 FEW021 26/24 Q1011 NOSIG=
09/04/2018 00:30:00Z	 SAID31 WIII 090030	METAR WIII 090030Z VRB04KT 6000 FEW021 26/24 Q1011 NOSIG=
09/04/2018 01:00:00Z	 SAID31 WIII 090100	METAR WIII 090100Z VRB03KT 6000 FEW021 27/24 Q1012 NOSIG=
09/04/2018 01:30:00Z	 SAID31 WIII 090130	METAR WIII 090130Z 14003KT 8000 FEW020 28/24 Q1012 NOSIG=
09/04/2018 02:00:00Z	 SAID31 WIII 090200	METAR WIII 090200Z VRB03KT 9000 FEW020 29/23 Q1012 NOSIG=
09/04/2018 02:30:00Z	 SAID31 WIII 090230	METAR WIII 090230Z VRB04KT 9000 FEW020 29/23 Q1011 NOSIG=
09/04/2018 03:00:00Z	 SAID31 WIII 090300	METAR WIII 090300Z VRB04KT 9999 FEW020 31/23 Q1011 NOSIG=
09/04/2018 03:30:00Z	 SAID31 WIII 090330	METAR WIII 090330Z 08006KT 060V150 9999 FEW020 31/23 Q1011 NOSIG=
09/04/2018 04:00:00Z	 SAID31 WIII 090400	METAR WIII 090400Z VRB04KT 9999 SCT020 32/23 Q1011 NOSIG=
09/04/2018 04:30:00Z	 SAID31 WIII 090430	METAR WIII 090430Z 04006KT 9999 SCT020 31/23 Q1010 NOSIG=
09/04/2018 05:00:00Z	 SAID31 WIII 090500	METAR WIII 090500Z 03006KT 9999 SCT020 31/23 Q1010 NOSIG=
09/04/2018 05:30:00Z	 SAID31 WIII 090530	METAR WIII 090530Z 03007KT 9999 FEW020 32/23 Q1009 NOSIG=
09/04/2018 06:00:00Z	 SAID31 WIII 090600	METAR WIII 090600Z 02009KT 9999 FEW020 32/23 Q1009 NOSIG=
09/04/2018 06:30:00Z	 SAID31 WIII 090630	METAR WIII 090630Z 02008KT 9999 SCT020 32/23 Q1009 NOSIG=
09/04/2018 07:00:00Z	 SAID31 WIII 090700	METAR WIII 090700Z 03006KT 9999 SCT020 32/23 Q1008 NOSIG=
09/04/2018 07:30:00Z	 SAID31 WIII 090730	METAR WIII 090730Z 02008KT 9999 SCT020 31/23 Q1008 NOSIG=
09/04/2018 08:00:00Z	 SAID31 WIII 090800	METAR WIII 090800Z 04008KT 9999 SCT020 31/23 Q1008 NOSIG=
09/04/2018 08:30:00Z	 SAID31 WIII 090830	METAR WIII 090830Z 03008KT 9999 SCT020 31/24 Q1008 NOSIG=
09/04/2018 09:00:00Z	 SAID31 WIII 090900	METAR WIII 090900Z 02008KT 9999 SCT020 31/24 Q1008 NOSIG=
09/04/2018 09:30:00Z	 SAID31 WIII 090930	METAR WIII 090930Z 03005KT 9999 FEW020 31/23 Q1008 NOSIG=
09/04/2018 10:00:00Z	 SAID31 WIII 091000	METAR WIII 091000Z VRB05KT 9000 FEW020 30/24 Q1008 NOSIG=
09/04/2018 10:30:00Z	 SAID31 WIII 091030	METAR WIII 091030Z 03005KT 8000 FEW020 29/24 Q1009 NOSIG=
09/04/2018 11:00:00Z	 SAID31 WIII 091100	METAR WIII 091100Z 03005KT 7000 FEW020 29/24 Q1009 NOSIG=
09/04/2018 11:30:00Z	 SAID31 WIII 091130	METAR WIII 091130Z 03005KT 7000 FEW018CB FEW020 29/24 Q1009 NOSIG RMK CB TO NW=
09/04/2018 12:00:00Z	 SAID31 WIII 091200	METAR WIII 091200Z 05005KT 5000 FEW018CB FEW020 28/25 Q1010 NOSIG RMK CB TO NW=
09/04/2018 12:30:00Z	 SAID31 WIII 091230	METAR WIII 091230Z 06004KT 5000 FEW018CB FEW020 29/25 Q1010 NOSIG RMK CB TO NW=
09/04/2018 13:00:00Z	 SAID31 WIII 091300	METAR WIII 091300Z 12007KT 7000 FEW018CB SCT020 28/25 Q1011 NOSIG=
09/04/2018 13:30:00Z	 SAID31 WIII 091330	METAR WIII 091330Z 19007KT 130V200 7000 FEW020CB SCT020 28/23 Q1011 NOSIG RMK CB TO SW=
09/04/2018 14:00:00Z	 SAID31 WIII 091400	METAR WIII 091400Z 20006KT 7000 FEW020CB SCT020 27/23 Q1011 NOSIG RMK CB TO SW=
09/04/2018 14:30:00Z	 SAID31 WIII 091430	METAR WIII 091430Z 20007KT 7000 FEW020 27/23 Q1012 NOSIG=
09/04/2018 15:00:00Z	 SAID31 WIII 091500	METAR WIII 091500Z 21007KT 7000 SCT020 27/24 Q1012 NOSIG=
09/04/2018 15:30:00Z	 SAID31 WIII 091530	METAR WIII 091530Z 22007KT 7000 SCT020 26/24 Q1012 NOSIG=
09/04/2018 16:00:00Z	 SAID31 WIII 091600	METAR WIII 091600Z 22005KT 7000 SCT020 26/24 Q1012 NOSIG=
09/04/2018 16:30:00Z	 SAID31 WIII 091630	METAR WIII 091630Z VRB05KT 7000 SCT020 26/24 Q1011 NOSIG=
09/04/2018 17:00:00Z	 SAID31 WIII 091700	METAR WIII 091700Z 17005KT 7000 SCT020 26/24 Q1011 NOSIG=
09/04/2018 17:30:00Z	 SAID31 WIII 091730	METAR WIII 091730Z VRB04KT 7000 SCT020 26/24 Q1011 NOSIG=
09/04/2018 18:00:00Z	 SAID31 WIII 091800	METAR WIII 091800Z 15004KT 7000 SCT020 26/24 Q1010 NOSIG=
09/04/2018 18:30:00Z	 SAID31 WIII 091830	METAR WIII 091830Z 23004KT 5000 HZ SCT020 26/24 Q1010 NOSIG=
09/04/2018 19:00:00Z	 SAID31 WIII 091900	METAR WIII 091900Z 22005KT 6000 FEW020 26/24 Q1010 NOSIG=
09/04/2018 19:30:00Z	 SAID31 WIII 091930	METAR WIII 091930Z 21004KT 6000 FEW020 26/24 Q1010 NOSIG=
09/04/2018 20:00:00Z	 SAID31 WIII 092000	METAR WIII 092000Z VRB02KT 6000 FEW020 26/24 Q1009 NOSIG=
09/04/2018 20:30:00Z	 SAID31 WIII 092030	METAR WIII 092030Z 22003KT 6000 FEW020 26/24 Q1009 NOSIG=
09/04/2018 21:00:00Z	 SAID31 WIII 092100	METAR WIII 092100Z 24002KT 6000 FEW020 26/24 Q1009 NOSIG=
09/04/2018 21:30:00Z	 SAID52 WIII 092130	METAR WIII 092130Z VRB01KT 9000 FEW020 25/24 Q1010 NOSIG=
09/04/2018 22:30:00Z	 SAID31 WIII 092230	METAR WIII 092230Z 23002KT 8000 FEW020 26/24 Q1010 NOSIG=
09/04/2018 23:00:00Z	 SAID31 WIII 092300	METAR WIII 092300Z 22004KT 5000 FEW020 25/24 Q1010 NOSIG=
09/04/2018 23:30:00Z	 SAID31 WIII 092330	METAR WIII 092330Z VRB02KT 5000 HZ FEW020 27/24 Q1010 NOSIG=
10/04/2018 00:00:00Z	 SAID31 WIII 100000	METAR WIII 100000Z VRB02KT 5000 HZ FEW020 27/24 Q1010 NOSIG=
10/04/2018 00:30:00Z	 SAID31 WIII 100030	METAR WIII 100030Z VRB04KT 5000 HZ FEW020 28/25 Q1011 NOSIG=
10/04/2018 01:00:00Z	 SAID31 WIII 100100	METAR WIII 100100Z VRB05KT 5000 HZ FEW020 29/25 Q1011 NOSIG=
10/04/2018 01:30:00Z	 SAID31 WIII 100130	METAR WIII 100130Z VRB05KT 5000 HZ FEW020 30/25 Q1011 NOSIG=
10/04/2018 02:00:00Z	 SAID31 WIII 100200	METAR WIII 100200Z 08006KT 040V110 7000 FEW020 31/25 Q1011 NOSIG=
10/04/2018 02:30:00Z	 SAID31 WIII 100230	METAR WIII 100230Z 10009KT 7000 FEW020 31/24 Q1011 NOSIG=
10/04/2018 03:00:00Z	 SAID31 WIII 100300	METAR WIII 100300Z 08009KT 7000 FEW020 31/24 Q1011 NOSIG=
10/04/2018 03:30:00Z	 SAID31 WIII 100330	METAR WIII 100330Z 07009KT 8000 FEW020 31/24 Q1010 NOSIG=
10/04/2018 04:00:00Z	 SAID31 WIII 100400	METAR WIII 100400Z 08010KT 8000 FEW020 32/24 Q1010 NOSIG=
10/04/2018 04:30:00Z	 SAID31 WIII 100430	METAR WIII 100430Z 09011KT 8000 FEW020 33/24 Q1009 NOSIG=
10/04/2018 05:00:00Z	 SAID31 WIII 100500	METAR WIII 100500Z 08010KT 9000 FEW020 33/24 Q1009 NOSIG=
10/04/2018 05:30:00Z	 SAID31 WIII 100530	METAR WIII 100530Z 07011KT 9000 FEW020 33/23 Q1008 NOSIG=
10/04/2018 06:00:00Z	 SAID31 WIII 100600	METAR WIII 100600Z 07010KT 040V100 9000 FEW020 33/24 Q1008 NOSIG=
10/04/2018 06:30:00Z	 SAID31 WIII 100630	METAR WIII 100630Z 08012G17KT 9000 FEW020 33/22 Q1008 NOSIG=
10/04/2018 07:00:00Z	 SAID31 WIII 100700	METAR WIII 100700Z 07011KT 040V100 9000 FEW018CB FEW020 33/23 Q1008 NOSIG RMK CB TO SW=
10/04/2018 07:30:00Z	 SAID31 WIII 100730	METAR WIII 100730Z 08012KT 9000 FEW018CB FEW020 33/23 Q1007 NOSIG RMK CB TO SW=
10/04/2018 08:00:00Z	 SAID31 WIII 100800	METAR WIII 100800Z 07011KT 9000 FEW018CB SCT020 32/24 Q1007 NOSIG RMK CB TO SW=
10/04/2018 08:30:00Z	 SAID31 WIII 100830	METAR WIII 100830Z 06010KT 9000 SCT020 31/24 Q1007 NOSIG=
10/04/2018 09:00:00Z	 SAID31 WIII 100900	METAR WIII 100900Z 06009KT 9000 SCT020 31/24 Q1007 NOSIG=
10/04/2018 09:30:00Z	 SAID31 WIII 100930	METAR WIII 100930Z 06008KT 9000 SCT020 30/25 Q1007 NOSIG=
10/04/2018 10:00:00Z	 SAID31 WIII 101000	METAR WIII 101000Z 07009KT 9000 SCT020 30/24 Q1007 NOSIG=
10/04/2018 10:30:00Z	 SAID31 WIII 101030	METAR WIII 101030Z 07009KT 9000 SCT020 30/24 Q1007 NOSIG=
10/04/2018 11:00:00Z	 SAID31 WIII 101100	METAR WIII 101100Z 07008KT 9000 SCT020 30/24 Q1008 NOSIG=
10/04/2018 11:30:00Z	 SAID31 WIII 101130	METAR WIII 101130Z 07007KT 9000 SCT020 29/24 Q1008 NOSIG=
10/04/2018 12:00:00Z	 SAID31 WIII 101200	METAR WIII 101200Z 08007KT 9000 FEW020 29/24 Q1009 NOSIG=
10/04/2018 12:30:00Z	 SAID31 WIII 101230	METAR WIII 101230Z 09006KT 8000 FEW020 28/24 Q1009 NOSIG=
10/04/2018 13:00:00Z	 SAID31 WIII 101300	METAR WIII 101300Z 09007KT 7000 FEW018CB FEW020 28/23 Q1010 NOSIG RMK CB S=
10/04/2018 13:30:00Z	 SAID31 WIII 101330	METAR WIII 101330Z 09006KT 7000 FEW018CB FEW020 27/24 Q1010 NOSIG RMK CB TO S=
10/04/2018 14:00:00Z	 SAID31 WIII 101400	METAR WIII 101400Z 10005KT 6000 FEW018CB FEW020 28/24 Q1010 NOSIG RMK CB TO SW=
10/04/2018 14:30:00Z	 SAID31 WIII 101430	METAR WIII 101430Z 10007KT 070V140 6000 FEW018CB FEW020 29/24 Q1011 NOSIG RMK CB TO SW=
10/04/2018 15:00:00Z	 SAID31 WIII 101500	METAR WIII 101500Z 10005KT 6000 FEW018 28/25 Q1011 NOSIG=
10/04/2018 15:30:00Z	 SAID31 WIII 101530	METAR WIII 101530Z VRB04KT 5000 HZ FEW018 29/24 Q1011 NOSIG=
10/04/2018 16:00:00Z	 SAID31 WIII 101600	METAR WIII 101600Z VRB03KT 5000 HZ FEW018 29/24 Q1010 NOSIG=
10/04/2018 16:30:00Z	 SAID31 WIII 101630	METAR WIII 101630Z 09002KT 5000 HZ FEW018 28/24 Q1010 NOSIG=
10/04/2018 17:00:00Z	 SAID31 WIII 101700	METAR WIII 101700Z 11003KT 5000 HZ FEW020 27/24 Q1010 NOSIG=
10/04/2018 17:30:00Z	 SAID31 WIII 101730	METAR WIII 101730Z 21006KT 5000 HZ FEW020 27/24 Q1010 NOSIG=
10/04/2018 18:00:00Z	 SAID31 WIII 101800	METAR WIII 101800Z 20004KT 5000 HZ FEW020 27/23 Q1009 NOSIG=
10/04/2018 18:30:00Z	 SAID31 WIII 101830	METAR WIII 101830Z 20005KT 5000 HZ FEW020 27/23 Q1009 NOSIG=
10/04/2018 19:00:00Z	 SAID31 WIII 101900	METAR WIII 101900Z 20005KT 5000 HZ FEW020 26/23 Q1008 NOSIG=
10/04/2018 19:30:00Z	 SAID31 WIII 101930	METAR WIII 101930Z 19003KT 5000 HZ FEW020 26/24 Q1008 NOSIG=
10/04/2018 20:00:00Z	 SAID31 WIII 102000	METAR WIII 102000Z 20002KT 5000 HZ FEW020 26/23 Q1008 NOSIG=
10/04/2018 20:30:00Z	 SAID31 WIII 102030	METAR WIII 102030Z 19003KT 5000 HZ FEW020 26/23 Q1008 NOSIG=
10/04/2018 21:00:00Z	 SAID31 WIII 102100	METAR WIII 102100Z 19004KT 5000 HZ FEW020 26/23 Q1008 NOSIG=
10/04/2018 21:30:00Z	 SAID31 WIII 102130	METAR WIII 102130Z VRB02KT 5000 HZ FEW020 26/24 Q1008 NOSIG=
10/04/2018 22:00:00Z	 SAID31 WIII 102200	METAR WIII 102200Z VRB03KT 4500 BR FEW020 26/23 Q1008 NOSIG=
10/04/2018 22:30:00Z	 SAID31 WIII 102230	METAR WIII 102230Z 18004KT 4500 BR FEW020 26/24 Q1008 NOSIG=
10/04/2018 23:00:00Z	 SAID31 WIII 102300	METAR WIII 102300Z VRB04KT 5000 BR FEW020 26/24 Q1008 NOSIG=
10/04/2018 23:30:00Z	 SAID31 WIII 102330	METAR WIII 102330Z VRB05KT 5000 BR FEW020 27/24 Q1009 NOSIG=
11/04/2018 00:00:00Z	 SAID31 WIII 110000	METAR WIII 110000Z VRB04KT 5000 HZ FEW020 27/24 Q1009 NOSIG=
11/04/2018 00:30:00Z	 SAID31 WIII 110030	METAR WIII 110030Z VRB04KT 5000 HZ FEW020 28/24 Q1009 NOSIG=
11/04/2018 01:00:00Z	 SAID31 WIII 110100	METAR WIII 110100Z 11004KT 5000 HZ FEW020 30/25 Q1009 NOSIG=
11/04/2018 01:30:00Z	 SAID31 WIII 110130	METAR WIII 110130Z 07007KT 7000 FEW020 30/24 Q1009 NOSIG=
11/04/2018 02:00:00Z	 SAID31 WIII 110200	METAR WIII 110200Z 07009KT 9000 FEW020 31/24 Q1010 NOSIG=
11/04/2018 02:30:00Z	 SAID31 WIII 110230	METAR WIII 110230Z 06010KT 9999 FEW020 31/24 Q1010 NOSIG=
11/04/2018 03:00:00Z	 SAID31 WIII 110300	METAR WIII 110300Z 05009KT 9999 FEW020 32/24 Q1009 NOSIG=
11/04/2018 03:30:00Z	 SAID31 WIII 110330	METAR WIII 110330Z 06008KT 9999 FEW020 32/25 Q1009 NOSIG=
11/04/2018 04:00:00Z	 SAID31 WIII 110400	METAR WIII 110400Z 05009KT 9999 FEW020 32/25 Q1009 NOSIG=
11/04/2018 04:30:00Z	 SAID31 WIII 110430	METAR WIII 110430Z 06014KT 9999 FEW020 32/24 Q1008 NOSIG=
11/04/2018 05:00:00Z	 SAID31 WIII 110500	METAR WIII 110500Z 06014KT 9999 FEW020 33/25 Q1008 NOSIG=
11/04/2018 05:30:00Z	 SAID31 WIII 110530	METAR WIII 110530Z 05014KT 9999 FEW020 32/26 Q1008 NOSIG=
11/04/2018 06:00:00Z	 SAID31 WIII 110600	METAR WIII 110600Z 05012KT 9999 FEW020 32/26 Q1007 NOSIG=
11/04/2018 06:30:00Z	 SAID31 WIII 110630	METAR WIII 110630Z 05013KT 9999 FEW020 33/25 Q1007 NOSIG=
11/04/2018 07:00:00Z	 SAID31 WIII 110700	METAR WIII 110700Z 06014KT 9999 FEW020 32/25 Q1006 NOSIG=
11/04/2018 07:30:00Z	 SAID31 WIII 110730	METAR WIII 110730Z 07017KT 9999 FEW020 33/25 Q1006 NOSIG=
11/04/2018 08:00:00Z	 SAID31 WIII 110800	METAR WIII 110800Z 06011KT 9999 FEW020 32/26 Q1006 NOSIG=
11/04/2018 08:30:00Z	 SAID31 WIII 110830	METAR WIII 110830Z 05015KT 9999 FEW020 31/25 Q1006 NOSIG=
11/04/2018 09:00:00Z	 SAID31 WIII 110900	METAR WIII 110900Z 05014KT 9999 FEW020 31/25 Q1006 NOSIG=
11/04/2018 09:30:00Z	 SAID31 WIII 110930	METAR WIII 110930Z 07010KT 9999 FEW020 31/24 Q1006 NOSIG=
11/04/2018 10:00:00Z	 SAID31 WIII 111000	METAR WIII 111000Z 07009KT 9999 FEW020 30/25 Q1006 NOSIG=
11/04/2018 10:30:00Z	 SAID31 WIII 111030	METAR WIII 111030Z 06012KT 9000 FEW020 30/24 Q1006 NOSIG=
11/04/2018 11:00:00Z	 SAID31 WIII 111100	METAR WIII 111100Z 09009KT 8000 FEW020 30/25 Q1007 NOSIG=
11/04/2018 11:30:00Z	 SAID31 WIII 111130	METAR WIII 111130Z 08007KT 7000 FEW020 29/25 Q1007 NOSIG=
11/04/2018 12:00:00Z	 SAID31 WIII 111200	METAR WIII 111200Z 07008KT 7000 FEW020 29/25 Q1008 NOSIG=
11/04/2018 12:30:00Z	 SAID31 WIII 111230	METAR WIII 111230Z 08009KT 7000 FEW020 29/25 Q1008 NOSIG=
11/04/2018 13:00:00Z	 SAID31 WIII 111300	METAR WIII 111300Z 09008KT 7000 FEW020 29/25 Q1009 NOSIG=
11/04/2018 13:30:00Z	 SAID31 WIII 111330	METAR WIII 111330Z 10006KT 7000 FEW021 28/25 Q1009 NOSIG=
11/04/2018 14:00:00Z	 SAID31 WIII 111400	METAR WIII 111400Z 09006KT 7000 FEW021 29/25 Q1010 NOSIG=
11/04/2018 14:30:00Z	 SAID31 WIII 111430	METAR WIII 111430Z 10008KT 7000 FEW020 29/25 Q1010 NOSIG=
11/04/2018 15:00:00Z	 SAID31 WIII 111500	METAR WIII 111500Z 12006KT 6000 FEW020 28/25 Q1010 NOSIG=
11/04/2018 15:30:00Z	 SAID31 WIII 111530	METAR WIII 111530Z 11006KT 070V130 7000 FEW020 28/25 Q1009 NOSIG=
11/04/2018 16:00:00Z	 SAID31 WIII 111600	METAR WIII 111600Z 12005KT 6000 FEW020 28/25 Q1009 NOSIG=
11/04/2018 16:30:00Z	 SAID31 WIII 111630	METAR WIII 111630Z 13005KT 7000 FEW020 29/25 Q1009 NOSIG=
11/04/2018 17:00:00Z	 SAID31 WIII 111700	METAR WIII 111700Z 13006KT 7000 FEW020 29/25 Q1009 NOSIG=
11/04/2018 17:30:00Z	 SAID31 WIII 111730	METAR WIII 111730Z 13005KT 7000 FEW020 28/25 Q1009 NOSIG=
11/04/2018 18:00:00Z	 SAID31 WIII 111800	METAR WIII 111800Z 13006KT 7000 FEW020 28/25 Q1008 NOSIG=
11/04/2018 18:30:00Z	 SAID31 WIII 111830	METAR WIII 111830Z 12006KT 6000 FEW020 28/25 Q1007 NOSIG=
11/04/2018 19:30:00Z	 SAID31 WIII 111930	METAR WIII 111930Z 12005KT 4100 HZ FEW020 27/25 Q1007 NOSIG=
11/04/2018 20:00:00Z	 SAID31 WIII 112000	METAR WIII 112000Z 14005KT 4600 BR SCT020 28/25 Q1007 NOSIG=
11/04/2018 20:30:00Z	 SAID31 WIII 112030	METAR WIII 112030Z 14006KT 4800 BR FEW020 28/25 Q1007 NOSIG=
11/04/2018 21:00:00Z	 SAID31 WIII 112100	METAR WIII 112100Z 13005KT 4500 BR FEW020 27/25 Q1007 NOSIG=
11/04/2018 21:30:00Z	 SAID31 WIII 112130	METAR WIII 112130Z 12005KT 4500 BR FEW020 27/25 Q1007 NOSIG=
11/04/2018 22:00:00Z	 SAID31 WIII 112200	METAR WIII 112200Z 12004KT 3700 BR FEW021 26/24 Q1007 NOSIG=
11/04/2018 22:30:00Z	 SAID31 WIII 112230	METAR WIII 112230Z 12005KT 4500 BR FEW021 27/24 Q1008 NOSIG=
11/04/2018 23:00:00Z	 SAID31 WIII 112300	METAR WIII 112300Z VRB05KT 4900 HZ FEW021 28/25 Q1008 NOSIG=
11/04/2018 23:30:00Z	 SAID31 WIII 112330	METAR WIII 112330Z VRB03KT 5000 HZ FEW021 28/25 Q1009 NOSIG=
12/04/2018 00:00:00Z	 SAID31 WIII 120000	METAR WIII 120000Z VRB04KT 5000 HZ FEW021 29/25 Q1010 NOSIG=
12/04/2018 00:30:00Z	 SAID31 WIII 120030	METAR WIII 120030Z VRB05KT 6000 FEW021 29/25 Q1010 NOSIG=
12/04/2018 01:00:00Z	 SAID31 WIII 120100	METAR WIII 120100Z 13006KT 8000 FEW020 30/24 Q1010 NOSIG=
12/04/2018 01:30:00Z	 SAID31 WIII 120130	METAR WIII 120130Z 13008KT 9000 FEW020 31/24 Q1010 NOSIG=
12/04/2018 02:00:00Z	 SAID31 WIII 120200	METAR WIII 120200Z 10010KT 9999 FEW020 31/24 Q1010 NOSIG=
12/04/2018 02:30:00Z	 SAID31 WIII 120230	METAR WIII 120230Z 07012KT 9999 SCT020 31/25 Q1010 NOSIG=
12/04/2018 03:00:00Z	 SAID31 WIII 120300	METAR WIII 120300Z 09015KT 9999 FEW020 32/24 Q1010 NOSIG=
12/04/2018 03:30:00Z	 SAID31 WIII 120330	METAR WIII 120330Z 08014KT 9999 FEW020 32/25 Q1010 NOSIG=
12/04/2018 04:00:00Z	 SAID31 WIII 120400	METAR WIII 120400Z 10013KT 9999 FEW020 33/24 Q1009 NOSIG=
12/04/2018 04:30:00Z	 SAID31 WIII 120430	METAR WIII 120430Z 08016KT 9999 FEW020 32/25 Q1009 NOSIG=
12/04/2018 05:00:00Z	 SAID31 WIII 120500	METAR WIII 120500Z 08015KT 9999 FEW020 32/24 Q1009 NOSIG=
12/04/2018 05:30:00Z	 SAID31 WIII 120530	METAR WIII 120530Z 07014KT 9999 FEW020 32/25 Q1008 NOSIG=
12/04/2018 06:00:00Z	 SAID31 WIII 120600	METAR WIII 120600Z 09013KT 9999 FEW020 32/24 Q1008 NOSIG=
12/04/2018 06:30:00Z	 SAID31 WIII 120630	METAR WIII 120630Z 07013KT 9999 SCT020 32/25 Q1007 NOSIG=
12/04/2018 07:00:00Z	 SAID31 WIII 120700	METAR WIII 120700Z 06013KT 9999 SCT020 32/25 Q1007 NOSIG=
12/04/2018 07:30:00Z	 SAID31 WIII 120730	METAR WIII 120730Z 07011KT 9999 FEW020 32/25 Q1007 NOSIG=
12/04/2018 08:00:00Z	 SAID31 WIII 120800	METAR WIII 120800Z 05012KT 9999 FEW020 31/26 Q1006 NOSIG=
12/04/2018 08:30:00Z	 SAID31 WIII 120830	METAR WIII 120830Z 06012KT 9999 FEW020 31/26 Q1006 NOSIG=
12/04/2018 09:00:00Z	 SAID31 WIII 120900	METAR WIII 120900Z 05009KT 9999 SCT020 30/26 Q1006 NOSIG=
12/04/2018 09:30:00Z	 SAID31 WIII 120930	METAR WIII 120930Z 06009KT 9999 SCT020 30/26 Q1007 NOSIG=
12/04/2018 10:00:00Z	 SAID31 WIII 121000	METAR WIII 121000Z 06012KT 9999 SCT020 29/26 Q1007 NOSIG=
12/04/2018 10:30:00Z	 SAID31 WIII 121030	METAR WIII 121030Z 07008KT 8000 SCT020 29/25 Q1007 NOSIG=
12/04/2018 11:00:00Z	 SAID31 WIII 121100	METAR WIII 121100Z 06007KT 8000 SCT020 29/25 Q1008 NOSIG=
12/04/2018 11:30:00Z	 SAID31 WIII 121130	METAR WIII 121130Z 06008KT 8000 SCT020 29/25 Q1008 NOSIG=
12/04/2018 12:00:00Z	 SAID31 WIII 121200	METAR WIII 121200Z 07005KT 8000 FEW020 29/25 Q1008 NOSIG=
12/04/2018 12:30:00Z	 SAID31 WIII 121230	METAR WIII 121230Z 07006KT 8000 FEW020 29/25 Q1009 NOSIG=
12/04/2018 13:00:00Z	 SAID31 WIII 121300	METAR WIII 121300Z 08005KT 7000 FEW020 29/25 Q1009 NOSIG=
12/04/2018 13:30:00Z	 SAID31 WIII 121330	METAR WIII 121330Z 09007KT 7000 SCT020 28/25 Q1009 NOSIG=
12/04/2018 14:00:00Z	 SAID31 WIII 121400	METAR WIII 121400Z 10007KT 9000 SCT020 28/25 Q1009 NOSIG=
12/04/2018 14:30:00Z	 SAID31 WIII 121430	METAR WIII 121430Z 10006KT 070V140 9000 SCT022 29/25 Q1010 NOSIG=
12/04/2018 15:00:00Z	 SAID31 WIII 121500	METAR WIII 121500Z 12007KT 9000 SCT022 28/25 Q1010 NOSIG=
12/04/2018 15:30:00Z	 SAID31 WIII 121530	METAR WIII 121530Z 11006G17KT 050V150 9000 SCT022 29/25 Q1010 NOSIG=
12/04/2018 16:00:00Z	 SAID31 WIII 121600	METAR WIII 121600Z 11006KT 9000 FEW022 28/25 Q1010 NOSIG=
12/04/2018 16:30:00Z	 SAID31 WIII 121630	METAR WIII 121630Z 10005KT 7000 FEW022 28/25 Q1010 NOSIG=
12/04/2018 17:00:00Z	 SAID31 WIII 121700	METAR WIII 121700Z 10005KT 7000 FEW022 28/25 Q1010 NOSIG=
12/04/2018 17:30:00Z	 SAID31 WIII 121730	METAR WIII 121730Z 08003KT 6000 FEW020 28/25 Q1010 NOSIG=
12/04/2018 18:00:00Z	 SAID31 WIII 121800	METAR WIII 121800Z 11005KT 7000 FEW021 27/25 Q1009 NOSIG=
12/04/2018 18:30:00Z	 SAID31 WIII 121830	METAR WIII 121830Z 13004KT 7000 FEW019CB 28/25 Q1009 NOSIG RMK CB TO NW=
12/04/2018 19:00:00Z	 SAID31 WIII 121900	METAR WIII 121900Z 12005KT 9000 FEW019CB FEW020 28/25 Q1009 NOSIG RMK CB TO SW=
12/04/2018 19:30:00Z	 SAID31 WIII 121930	METAR WIII 121930Z 13005KT 6000 FEW019CB FEW020 28/25 Q1009 NOSIG RMK CB TO SW=
12/04/2018 20:00:00Z	 SAID31 WIII 122000	METAR WIII 122000Z 14004KT 6000 FEW020 28/25 Q1008 NOSIG=
12/04/2018 20:30:00Z	 SAID31 WIII 122030	METAR WIII 122030Z 18005KT 6000 SCT020 28/25 Q1008 NOSIG=
12/04/2018 21:00:00Z	 SAID31 WIII 122100	METAR WIII 122100Z 17006KT 5000 HZ FEW021 27/25 Q1008 NOSIG=
12/04/2018 21:30:00Z	 SAID31 WIII 122130	METAR WIII 122130Z 17004KT 5000 HZ FEW021 27/25 Q1008 NOSIG=
12/04/2018 22:00:00Z	 SAID31 WIII 122200	METAR WIII 122200Z 16004KT 5000 HZ FEW021 27/25 Q1008 NOSIG=
12/04/2018 22:30:00Z	 SAID31 WIII 122230	METAR WIII 122230Z 17003KT 5000 HZ FEW021 27/25 Q1009 NOSIG=
12/04/2018 23:00:00Z	 SAID31 WIII 122300	METAR WIII 122300Z VRB04KT 5000 HZ FEW021 28/25 Q1009 NOSIG=
12/04/2018 23:30:00Z	 SAID31 WIII 122330	METAR WIII 122330Z VRB04KT 5000 HZ FEW021 28/25 Q1009 NOSIG=
13/04/2018 00:00:00Z	 SAID31 WIII 130000	METAR WIII 130000Z VRB03KT 5000 HZ FEW021 28/25 Q1010 NOSIG=
13/04/2018 00:30:00Z	 SAID31 WIII 130030	METAR WIII 130030Z VRB03KT 5000 HZ FEW021 29/26 Q1010 NOSIG=
13/04/2018 01:00:00Z	 SAID31 WIII 130100	METAR WIII 130100Z 12007KT 8000 FEW020 30/25 Q1010 NOSIG=
13/04/2018 01:30:00Z	 SAID31 WIII 130130	METAR WIII 130130Z 13005KT 9999 FEW021 31/24 Q1010 NOSIG=
13/04/2018 02:00:00Z	 SAID31 WIII 130200	METAR WIII 130200Z 15006KT 9999 FEW023 32/23 Q1010 NOSIG=
13/04/2018 02:30:00Z	 SAID31 WIII 130230	METAR WIII 130230Z 09006KT 9999 FEW022 32/24 Q1010 NOSIG=
13/04/2018 03:00:00Z	 SAID31 WIII 130300	METAR WIII 130300Z 07009KT 9999 FEW021 33/24 Q1009 NOSIG=
13/04/2018 03:30:00Z	 SAID31 WIII 130330	METAR WIII 130330Z 07010KT 9999 FEW021 33/24 Q1009 NOSIG=
13/04/2018 04:00:00Z	 SAID31 WIII 130400	METAR WIII 130400Z 06010KT 9999 FEW020 33/23 Q1008 NOSIG=
13/04/2018 04:30:00Z	 SAID31 WIII 130430	METAR WIII 130430Z 05012KT 9999 FEW020 33/24 Q1008 NOSIG=
13/04/2018 05:00:00Z	 SAID31 WIII 130500	METAR WIII 130500Z 06011KT 9999 FEW020 33/24 Q1007 NOSIG=
13/04/2018 05:30:00Z	 SAID31 WIII 130530	METAR WIII 130530Z 05014KT 9999 FEW020 33/24 Q1007 NOSIG=
13/04/2018 06:00:00Z	 SAID31 WIII 130600	METAR WIII 130600Z 06014KT 9999 FEW020 32/25 Q1007 NOSIG=
13/04/2018 06:30:00Z	 SAID31 WIII 130630	METAR WIII 130630Z 05013KT 9999 FEW022 32/25 Q1006 NOSIG=
13/04/2018 07:00:00Z	 SAID31 WIII 130700	METAR WIII 130700Z 04013KT 9999 FEW020 33/25 Q1006 NOSIG=
13/04/2018 07:30:00Z	 SAID31 WIII 130730	METAR WIII 130730Z 04015KT 9999 FEW020 32/25 Q1006 NOSIG=
13/04/2018 08:00:00Z	 SAID31 WIII 130800	METAR WIII 130800Z 04014KT 9000 FEW018CB FEW020 32/25 Q1005 NOSIG RMK CB TO SW=
13/04/2018 08:30:00Z	 SAID31 WIII 130830	METAR WIII 130830Z 04014KT 9000 FEW018CB FEW020 31/25 Q1005 NOSIG RMK CB TO S=
13/04/2018 09:00:00Z	 SAID31 WIII 130900	METAR WIII 130900Z 05010KT 9000 FEW020 31/26 Q1005 NOSIG=
13/04/2018 09:30:00Z	 SAID31 WIII 130930	METAR WIII 130930Z 05010KT 9000 FEW021 31/26 Q1005 NOSIG=
13/04/2018 10:00:00Z	 SAID31 WIII 131000	METAR WIII 131000Z 03009KT 9000 SCT020 30/25 Q1006 NOSIG=
13/04/2018 10:30:00Z	 SAID31 WIII 131030	METAR WIII 131030Z 04008KT 9000 SCT020 30/26 Q1006 NOSIG=
13/04/2018 11:00:00Z	 SAID31 WIII 131100	METAR WIII 131100Z 01007KT 8000 BKN020 30/26 Q1007 NOSIG=
13/04/2018 11:30:00Z	 SAID31 WIII 131130	METAR WIII 131130Z 01006KT 5000 HZ BKN020 30/26 Q1007 NOSIG=
13/04/2018 12:00:00Z	 SAID31 WIII 131200	METAR WIII 131200Z VRB03KT 7000 FEW018CB SCT020 30/26 Q1008 NOSIG RMK CB TO SW=
13/04/2018 12:30:00Z	 SAID31 WIII 131230	METAR WIII 131230Z 01002KT 7000 FEW018CB SCT020 30/26 Q1008 NOSIG RMK CB TO SW=
13/04/2018 13:00:00Z	 SAID31 WIII 131300	METAR WIII 131300Z VRB02KT 7000 FEW018CB SCT020 29/26 Q1009 NOSIG RMK CB TO S=
13/04/2018 13:30:00Z	 SAID31 WIII 131330	METAR WIII 131330Z 32002KT 7000 VCTS FEW018CB SCT020 30/26 Q1009 NOSIG RMK CB TO SW=
13/04/2018 14:00:00Z	 SAID31 WIII 131400	METAR WIII 131400Z 25006KT 6000 FEW018CB BKN020 29/25 Q1009 NOSIG RMK CB TO SW=
13/04/2018 14:30:00Z	 SAID31 WIII 131430	METAR WIII 131430Z 21007KT 6000 FEW018CB BKN020 27/24 Q1009 NOSIG RMK CB TO SW=
13/04/2018 15:00:00Z	 SAID31 WIII 131500	METAR WIII 131500Z 20006KT 6000 SCT020 27/24 Q1010 NOSIG=
13/04/2018 15:30:00Z	 SAID31 WIII 131530	METAR WIII 131530Z VRB03KT 6000 SCT020 27/23 Q1010 NOSIG=
13/04/2018 16:00:00Z	 SAID31 WIII 131600	METAR WIII 131600Z VRB03KT 5000 HZ SCT022 27/23 Q1010 NOSIG=
13/04/2018 16:30:00Z	 SAID31 WIII 131630	METAR WIII 131630Z VRB03KT 5000 HZ SCT020 28/23 Q1010 NOSIG=
13/04/2018 17:00:00Z	 SAID31 WIII 131700	METAR WIII 131700Z 21002KT 4000 -RA BKN020 28/23 Q1010 NOSIG=
13/04/2018 17:30:00Z	 SAID31 WIII 131730	METAR WIII 131730Z 22004KT 5000 HZ BKN020 27/24 Q1009 RERA NOSIG=
13/04/2018 18:00:00Z	 SAID31 WIII 131800	METAR WIII 131800Z 26005KT 5000 HZ BKN020 27/25 Q1009 NOSIG=
13/04/2018 18:30:00Z	 SAID31 WIII 131830	METAR WIII 131830Z 26004KT 5000 HZ SCT020 26/25 Q1009 NOSIG=
13/04/2018 19:00:00Z	 SAID31 WIII 131900	METAR WIII 131900Z 24004KT 4000 HZ SCT020 27/24 Q1008 NOSIG=
13/04/2018 19:30:00Z	 SAID31 WIII 131930	METAR WIII 131930Z 21007KT 4000 HZ SCT020 27/24 Q1008 NOSIG-=
13/04/2018 20:00:00Z	 SAID31 WIII 132000	METAR WIII 132000Z 24004KT 4000 HZ FEW018 26/24 Q1008 NOSIG=
13/04/2018 20:30:00Z	 SAID31 WIII 132030	METAR WIII 132030Z 24004KT 5000 FEW019 26/24 Q1008 NOSIG=
13/04/2018 21:00:00Z	 SAID31 WIII 132100	METAR WIII 132030Z 24004KT 5000 FEW019 26/24 Q1008 NOSIG=
13/04/2018 22:00:00Z	 SAID31 WIII 132200	METAR WIII 132200Z VRB01KT 5000 FEW018CB SCT019 26/24 Q1008 NOSIG RMK CB TO NE=
13/04/2018 22:30:00Z	 SAID31 WIII 132230	METAR WIII 132230Z VRB01KT 6000 SCT020 26/24 Q1008 NOSIG=
13/04/2018 23:00:00Z	 SAID31 WIII 132300	METAR WIII 132300Z VRB02KT 3000 BR SCT020 26/25 Q1008 NOSIG=
13/04/2018 23:30:00Z	 SAID31 WIII 132330	METAR WIII 132330Z VRB02KT 3000 BR SCT020 26/25 Q1008 NOSIG=
14/04/2018 00:30:00Z	 SAID31 WIII 140030	METAR WIII 140030Z VRB02KT 5000 SCT022 28/25 Q1008 NOSIG=
14/04/2018 01:00:00Z	 SAID31 WIII 140100	METAR WIII 140100Z 07003KT 3500 BR SCT020 28/26 Q1009 RERA NOSIG=
14/04/2018 01:30:00Z	 SAID31 WIII 140130	METAR WIII 140130Z VRB02KT 5000 HZ SCT022 29/26 Q1009 NOSIG=
14/04/2018 02:00:00Z	 SAID31 WIII 140200	METAR WIII 140200Z VRB02KT 6000 SCT022 29/26 Q1009 NOSIG=
14/04/2018 02:30:00Z	 SAID31 WIII 140230	METAR WIII 140230Z VRB03KT 7000 SCT022 30/27 Q1009 NOSIG=
14/04/2018 03:00:00Z	 SAID31 WIII 140300	METAR WIII 140300Z VRB05KT 8000 SCT020 31/26 Q1009 NOSIG=
14/04/2018 03:30:00Z	 SAID31 WIII 140330	METAR WIII 140330Z 08006KT 8000 FEW020 32/26 Q1009 NOSIG=
14/04/2018 04:00:00Z	 SAID31 WIII 140400	METAR WIII 140400Z 08007KT 050V110 9999 SCT020 32/26 Q1009 NOSIG=
14/04/2018 04:30:00Z	 SAID31 WIII 140430	METAR WIII 140430Z 06008KT 020V090 9999 SCT020 32/26 Q1008 NOSIG=
14/04/2018 05:00:00Z	 SAID31 WIII 140500	METAR WIII 140500Z 07008KT 030V100 9999 SCT020 32/25 Q1008 NOSIG=
14/04/2018 05:30:00Z	 SAID31 WIII 140530	METAR WIII 140530Z 06008KT 9999 FEW018 33/25 Q1007 NOSIG=
14/04/2018 06:30:00Z	 SAID31 WIII 140630	METAR WIII 140630Z 05010KT 9999 FEW018 32/25 Q1006 NOSIG=
14/04/2018 07:00:00Z	 SAID31 WIII 140700	METAR WIII 140700Z 06009KT 9999 FEW020 33/26 Q1006 NOSIG=
14/04/2018 07:30:00Z	 SAID31 WIII 140730	METAR WIII 140730Z 04009KT 9999 FEW020 32/25 Q1005 NOSIG=
14/04/2018 08:00:00Z	 SAID31 WIII 140800	METAR WIII 140800Z 05010KT 9999 FEW020 32/26 Q1005 NOSIG=
14/04/2018 08:30:00Z	 SAID31 WIII 140830	METAR WIII 140830Z 05010KT 9999 FEW020 32/26 Q1005 NOSIG=
14/04/2018 09:00:00Z	 SAID31 WIII 140900	METAR WIII 140900Z 05009KT 9999 FEW020 32/25 Q1005 NOSIG=
14/04/2018 09:30:00Z	 SAID31 WIII 140930	METAR WIII 140930Z 05005G15KT 9999 SCT020 31/26 Q1005 NOSIG=
14/04/2018 10:00:00Z	 SAID31 WIII 141000	METAR WIII 141000Z 05007KT 9000 SCT020 30/26 Q1005 NOSIG=
14/04/2018 10:30:00Z	 SAID31 WIII 141030	METAR WIII 141030Z 05007KT 8000 SCT020 30/26 Q1006 NOSIG=
14/04/2018 11:30:00Z	 SAID31 WIII 141130	METAR WIII 141130Z 06003KT 8000 VCTS FEW018CB SCT022 30/26 Q1007 NOSIG RMK CB TO S AND SW=
14/04/2018 12:00:00Z	 SAID31 WIII 141200	METAR WIII 141200Z VRB02KT 8000 VCTS FEW018CB SCT022 30/26 Q1007 NOSIG RMK CB TO S AND SW=
14/04/2018 12:30:00Z	 SAID31 WIII 141230	METAR WIII 141230Z 24009KT 8000 VCTS FEW018CB SCT020 28/22 Q1007 NOSIG RMK CB TO SW=
14/04/2018 13:00:00Z	 SAID31 WIII 141300	METAR WIII 141300Z 25008KT 8000 FEW018CB BKN021 28/22 Q1008 NOSIG RMK CB TO S AND SW=
14/04/2018 13:30:00Z	 SAID31 WIII 141330	METAR WIII 141330Z 23005KT 8000 FEW018CB BKN020 27/23 Q1008 NOSIG RMK CB TO S AND W=
14/04/2018 14:00:00Z	 SAID31 WIII 141400	METAR WIII 141400Z 21006KT 7000 FEW018CB BKN020 27/23 Q1008 NOSIG RMK CB TO SW=
14/04/2018 14:30:00Z	 SAID31 WIII 141430	METAR WIII 141430Z VRB05KT 7000 FEW018CB SCT020 27/24 Q1009 NOSIG RMK CB TO SW=
14/04/2018 15:00:00Z	 SAID31 WIII 141500	METAR WIII 141500Z 21006KT 7000 FEW018CB SCT020 27/24 Q1009 NOSIG RMK CB TO W=
14/04/2018 15:30:00Z	 SAID31 WIII 141530	METAR WIII 141530Z 20005KT 8000 SCT020 27/24 Q1008 NOSIG=
14/04/2018 16:00:00Z	 SAID31 WIII 141600	METAR WIII 141600Z 19004KT 8000 FEW020 27/24 Q1008 NOSIG =
14/04/2018 16:30:00Z	 SAID31 WIII 141630	METAR WIII 141630Z VRB05KT 8000 SCT022 27/24 Q1009 NOSIG=
14/04/2018 17:00:00Z	 SAID31 WIII 141700	METAR WIII 141700Z VRB05KT 5000 HZ FEW022 27/24 Q1009 NOSIG=
14/04/2018 17:30:00Z	 SAID31 WIII 141730	METAR WIII 141730Z 21005KT 5000 HZ FEW022 27/24 Q1008 NOSIG=
14/04/2018 18:00:00Z	 SAID31 WIII 141800	METAR WIII 141800Z VRB05KT 5000 HZ FEW022 27/24 Q1008 NOSIG=
14/04/2018 18:30:00Z	 SAID31 WIII 141830	METAR WIII 141830Z 20006KT 6000 FEW022 27/24 Q1008 NOSIG=
14/04/2018 19:00:00Z	 SAID31 WIII 141900	METAR WIII 141900Z 23004KT 6000 FEW022 27/24 Q1007 NOSIG=
14/04/2018 19:30:00Z	 SAID31 WIII 141930	METAR WIII 141930Z VRB01KT 7000 FEW022 27/24 Q1007 NOSIG=
14/04/2018 20:00:00Z	 SAID31 WIII 142000	METAR WIII 142000Z VRB02KT 7000 FEW022 26/24 Q1007 NOSIG=
14/04/2018 20:30:00Z	 SAID31 WIII 142030	METAR WIII 142030Z VRB02KT 6000 FEW022 26/24 Q1007 NOSIG=
14/04/2018 21:00:00Z	 SAID31 WIII 142100	METAR WIII 142100Z 26002KT 3500 BR FEW020 26/24 Q1007 NOSIG=
14/04/2018 21:30:00Z	 SAID31 WIII 142130	METAR WIII 142130Z 24004KT 4000 BR FEW020 26/24 Q1007 NOSIG=
14/04/2018 22:00:00Z	 SAID31 WIII 142200	METAR WIII 142200Z 22003KT 4500 BR FEW020 26/24 Q1007 NOSIG=
14/04/2018 22:30:00Z	 SAID31 WIII 142230	METAR WIII 142230Z VRB02KT 3500 BR FEW020 26/24 Q1007 NOSIG=
14/04/2018 23:00:00Z	 SAID31 WIII 142300	METAR WIII 142300Z 25005KT 4500 BR SCT022 26/24 Q1007 NOSIG=
14/04/2018 23:30:00Z	 SAID31 WIII 142330	METAR WIII 142330Z VRB04KT 4000 BR FEW020 26/25 Q1008 NOSIG=
15/04/2018 00:00:00Z	 SAID31 WIII 150000	METAR WIII 150000Z VRB05KT 5000 HZ FEW020 27/25 Q1008 NOSIG=
15/04/2018 00:30:00Z	 SAID31 WIII 150030	METAR WIII 150030Z VRB04KT 5000 HZ FEW020 28/25 Q1009 NOSIG=
15/04/2018 01:00:00Z	 SAID31 WIII 150100	METAR WIII 150100Z 24005KT 5000 HZ FEW020 29/25 Q1009 NOSIG=
15/04/2018 01:30:00Z	 SAID31 WIII 150130	METAR WIII 150130Z 22005KT 6000 FEW020 29/25 Q1009 NOSIG=
15/04/2018 02:00:00Z	 SAID31 WIII 150200	METAR WIII 150200Z VRB03KT 6000 FEW020 30/26 Q1009 NOSIG=
15/04/2018 02:30:00Z	 SAID31 WIII 150230	METAR WIII 150230Z VRB03KT 7000 FEW020 31/25 Q1009 NOSIG=
15/04/2018 03:00:00Z	 SAID31 WIII 150300	METAR WIII 150300Z VRB02KT 8000 SCT020 32/25 Q1009 NOSIG=
15/04/2018 03:30:00Z	 SAID31 WIII 150330	METAR WIII 150330Z VRB03KT 7000 SCT020 32/25 Q1009 NOSIG=
15/04/2018 04:00:00Z	 SAID31 WIII 150400	METAR WIII 150400Z VRB04KT 6000 SCT020 32/25 Q1009 NOSIG=
15/04/2018 04:30:00Z	 SAID31 WIII 150430	METAR WIII 150430Z VRB05KT 7000 SCT020 32/26 Q1008 NOSIG=
15/04/2018 05:00:00Z	 SAID31 WIII 150500	METAR WIII 150500Z VRB05KT 6000 SCT020 32/25 Q1008 NOSIG=
15/04/2018 05:30:00Z	 SAID31 WIII 150530	METAR WIII 150530Z 01006KT 340V060 7000 SCT020 33/25 Q1007 NOSIG=
15/04/2018 06:00:00Z	 SAID31 WIII 150600	METAR WIII 150600Z 04007KT 360V080 7000 SCT020 33/25 Q1007 NOSIG=
15/04/2018 06:30:00Z	 SAID31 WIII 150630	METAR WIII 150630Z 04007KT 350V070 8000 FEW018CB SCT020 32/25 Q1007 NOSIG RMK CB TO SW=
15/04/2018 07:00:00Z	 SAID31 WIII 150700	METAR WIII 150700Z 03008KT 350V060 8000 TS FEW018CB SCT020 32/25 Q1006 NOSIG RMK CB TO SW=
15/04/2018 07:30:00Z	 SAID31 WIII 150730	METAR WIII 150730Z 01006KT 330V050 8000 TS FEW018CB SCT020 31/25 Q1006 NOSIG RMK CB TO SW=
15/04/2018 08:00:00Z	 SAID31 WIII 150800	METAR WIII 150800Z VRB04KT 8000 TS FEW018CB SCT020 31/25 Q1006 NOSIG RMK CB TO SW=
15/04/2018 08:30:00Z	 SAID31 WIII 150830	METAR WIII 150830Z 29007KT 8000 FEW020CB SCT020 31/24 Q1005 NOSIG RMK CB TO S=
15/04/2018 09:00:00Z	 SAID31 WIII 150900	METAR WIII 150900Z 27006KT 8000 FEW020CB SCT020 31/25 Q1006 NOSIG RMK CB TO S=
15/04/2018 09:30:00Z	 SAID31 WIII 150930	METAR WIII 150930Z VRB05KT 8000 SCT020 31/25 Q1006 NOSIG=
15/04/2018 10:00:00Z	 SAID31 WIII 151000	METAR WIII 151000Z VRB05KT 7000 SCT020 31/25 Q1007 NOSIG=
15/04/2018 10:30:00Z	 SAID31 WIII 151030	METAR WIII 151030Z 31004KT 6000 SCT020 30/25 Q1007 NOSIG=
15/04/2018 11:00:00Z	 SAID31 WIII 151100	METAR WIII 151100Z 26006KT 7000 SCT020 29/24 Q1007 NOSIG=
15/04/2018 11:30:00Z	 SAID31 WIII 151130	METAR WIII 151130Z 21007KT 170V240 7000 SCT020 29/24 Q1008 NOSIG=
15/04/2018 12:00:00Z	 SAID31 WIII 151200	METAR WIII 151200Z 20006KT 5000 HZ SCT020 28/24 Q1008 NOSIG=
15/04/2018 12:30:00Z	 SAID31 WIII 151230	METAR WIII 151230Z 20006KT 160V240 5000 HZ SCT020 28/24 Q1008 NOSIG=
15/04/2018 13:00:00Z	 SAID31 WIII 151300	METAR WIII 151300Z 19008KT 5000 HZ SCT020 28/24 Q1009 NOSIG=
15/04/2018 13:30:00Z	 SAID31 WIII 151330	METAR WIII 151330Z 18006KT 150V230 5000 BR FEW020 28/24 Q1009 NOSIG=
15/04/2018 14:00:00Z	 SAID31 WIII 151400	METAR WIII 151400Z VRB05KT 6000 FEW020 28/23 Q1009 NOSIG=
15/04/2018 14:30:00Z	 SAID31 WIII 151430	METAR WIII 151430Z 18006KT 140V230 7000 FEW020 28/23 Q1009 NOSIG=
15/04/2018 15:00:00Z	 SAID31 WIII 151500	METAR WIII 151500Z VRB04KT 7000 FEW021 27/23 Q1009 NOSIG=
15/04/2018 15:30:00Z	 SAID31 WIII 151530	METAR WIII 151530Z VRB04KT 7000 FEW022 28/23 Q1009 NOSIG=
15/04/2018 16:00:00Z	 SAID31 WIII 151600	METAR WIII 151600Z VRB03KT 5000 BR FEW022 27/24 Q1009 NOSIG=
15/04/2018 16:30:00Z	 SAID31 WIII 151630	METAR WIII 151630Z VRB01KT 7000 FEW022 27/24 Q1009 NOSIG=
15/04/2018 17:00:00Z	 SAID31 WIII 151700	METAR WIII 151700Z VRB03KT 5000 BR FEW022 27/24 Q1009 NOSIG=
15/04/2018 17:30:00Z	 SAID31 WIII 151730	METAR WIII 151730Z 21004KT 7000 FEW022 27/24 Q1009 NOSIG=
15/04/2018 18:00:00Z	 SAID31 WIII 151800	METAR WIII 151800Z 21006KT 5000 BR FEW022 27/24 Q1008 NOSIG=
15/04/2018 18:30:00Z	 SAID31 WIII 151830	METAR WIII 151830Z 21005KT 4200 BR FEW022 27/24 Q1008 NOSIG=
15/04/2018 19:00:00Z	 SAID31 WIII 151900	METAR WIII 151900Z VRB02KT 5000 BR FEW022 26/24 Q1008 NOSIG=
15/04/2018 19:30:00Z	 SAID31 WIII 151930	METAR WIII 151930Z 25002KT 6000 FEW022 26/24 Q1007 NOSIG=
15/04/2018 20:00:00Z	 SAID31 WIII 152000	METAR WIII 152000Z VRB02KT 6000 FEW022 26/24 Q1008 NOSIG=
15/04/2018 20:30:00Z	 SAID31 WIII 152030	METAR WIII 152030Z 27003KT 5000 BR FEW020 26/24 Q1008 NOSIG=
15/04/2018 21:00:00Z	 SAID31 WIII 152100	METAR WIII 152100Z VRB02KT 4000 BR SCT020 26/24 Q1008 NOSIG=
15/04/2018 21:30:00Z	 SAID31 WIII 152130	METAR WIII 152130Z 21003KT 5000 BR SCT020 26/24 Q1008 NOSIG=
15/04/2018 22:00:00Z	 SAID31 WIII 152200	METAR WIII 152200Z VRB02KT 5000 BR SCT020 26/24 Q1008 NOSIG=
15/04/2018 22:30:00Z	 SAID31 WIII 152230	METAR WIII 152230Z VRB02KT 5000 BR SCT020 26/24 Q1008 NOSIG=
15/04/2018 23:00:00Z	 SAID31 WIII 152300	METAR WIII 152300Z VRB02KT 3000 BR FEW020 26/24 Q1009 NOSIG=
16/04/2018 00:00:00Z	 SAID31 WIII 160000	METAR WIII 160000Z 20005KT 4000 BR FEW020 27/24 Q1009 NOSIG=
16/04/2018 00:30:00Z	 SAID31 WIII 160030	METAR WIII 160030Z 22004KT 4000 BR FEW020 27/24 Q1010 NOSIG=
16/04/2018 01:00:00Z	 SAID31 WIII 160100	METAR WIII 160100Z 16003KT 6000 FEW020 28/24 Q1010 NOSIG=
16/04/2018 01:30:00Z	 SAID31 WIII 160130	METAR WIII 160130Z 17004KT 7000 FEW020 30/24 Q1011 NOSIG=
16/04/2018 02:00:00Z	 SAID31 WIII 160200	METAR WIII 160200Z 19005KT 8000 FEW020 30/23 Q1011 NOSIG=
16/04/2018 02:30:00Z	 SAID31 WIII 160230	METAR WIII 160230Z VRB03KT 9000 FEW020 31/24 Q1010 NOSIG=
16/04/2018 03:00:00Z	 SAID31 WIII 160300	METAR WIII 160300Z VRB03KT 9999 FEW020 32/24 Q1010 NOSIG=
16/04/2018 03:30:00Z	 SAID31 WIII 160330	METAR WIII 160330Z VRB03KT 9999 FEW020 32/23 Q1010 NOSIG=
16/04/2018 04:00:00Z	 SAID31 WIII 160400	METAR WIII 160400Z VRB04KT 9000 SCT020 32/23 Q1010 NOSIG=
16/04/2018 04:30:00Z	 SAID31 WIII 160430	METAR WIII 160430Z 04007KT 360V090 9000 SCT020 33/22 Q1009 NOSIG=
16/04/2018 05:00:00Z	 SAID31 WIII 160500	METAR WIII 160500Z 02007KT 340V050 9999 FEW020 33/22 Q1009 NOSIG=
16/04/2018 05:30:00Z	 SAID31 WIII 160530	METAR WIII 160530Z 02007KT 330V040 9999 FEW020 33/23 Q1009 NOSIG=
16/04/2018 06:00:00Z	 SAID31 WIII 160600	METAR WIII 160600Z 03008KT 340V050 9999 FEW020 33/23 Q1008 NOSIG=
16/04/2018 06:30:00Z	 SAID31 WIII 160630	METAR WIII 160630Z 01007KT 9999 FEW020 33/24 Q1008 NOSIG=
16/04/2018 07:00:00Z	 SAID31 WIII 160700	METAR WIII 160700Z 02008KT 9999 FEW020 32/24 Q1007 NOSIG=
16/04/2018 07:30:00Z	 SAID31 WIII 160730	METAR WIII 160730Z 02006KT 9999 FEW020 32/23 Q1007 NOSIG=
16/04/2018 08:00:00Z	 SAID31 WIII 160800	METAR WIII 160800Z 02007KT 340V050 9999 FEW020 31/23 Q1007 NOSIG=
16/04/2018 08:30:00Z	 SAID31 WIII 160830	METAR WIII 160830Z 01007KT 340V050 9999 FEW020 31/23 Q1007 NOSIG=
16/04/2018 09:00:00Z	 SAID31 WIII 160900	METAR WIII 160900Z 02006KT 330V040 7000 FEW020 31/24 Q1007 NOSIG=
16/04/2018 09:30:00Z	 SAID31 WIII 160930	METAR WIII 160930Z VRB05KT 6000 FEW020 31/24 Q1007 NOSIG=
16/04/2018 10:00:00Z	 SAID31 WIII 161000	METAR WIII 161000Z 01005KT 340V040 6000 FEW020 31/24 Q1007 NOSIG=
16/04/2018 10:30:00Z	 SAID31 WIII 161030	METAR WIII 161030Z 03005KT 6000 FEW020 30/24 Q1007 NOSIG=
16/04/2018 11:00:00Z	 SAID31 WIII 161100	METAR WIII 161100Z 01005KT 6000 FEW020 30/24 Q1008 NOSIG=
16/04/2018 11:30:00Z	 SAID31 WIII 161130	METAR WIII 161130Z 05003KT 3000 HZ FEW020 30/25 Q1008 NOSIG=
16/04/2018 12:00:00Z	 SAID31 WIII 161200	METAR WIII 161200Z VRB02KT 2100 BR SCT020 29/25 Q1009 NOSIG=
16/04/2018 12:30:00Z	 SAID31 WIII 161230	METAR WIII 161230Z 30003KT 3000 HZ FEW020 29/25 Q1009 NOSIG=
16/04/2018 13:30:00Z	 SAID31 WIII 161330	METAR WIII 161330Z 29002KT 2000 HZ SCT020 29/26 Q1010 NOSIG=
16/04/2018 14:00:00Z	 SAID31 WIII 161400	METAR WIII 161400Z 32002KT 1700 HZ SCT020 29/25 Q1011 NOSIG=
16/04/2018 14:30:00Z	 SAID31 WIII 161430	METAR WIII 161430Z 30003KT 1500 HZ SCT020 29/25 Q1011 NOSIG=
16/04/2018 15:00:00Z	 SAID31 WIII 161500	METAR WIII 161500Z 31003KT 2000 HZ SCT018 29/26 Q1011 NOSIG=
16/04/2018 15:30:00Z	 SAID31 WIII 161530	METAR WIII 161530Z VRB03KT 2300 -RA SCT018 29/26 Q1011 NOSIG=
16/04/2018 16:00:00Z	 SAID31 WIII 161600	METAR WIII 161600Z VRB03KT 3200 -RA SCT020 28/26 Q1011 NOSIG=
16/04/2018 16:30:00Z	 SAID31 WIII 161630	METAR WIII 161630Z 27003KT 5000 HZ SCT020 28/26 Q1011 RERA NOSIG=
16/04/2018 17:00:00Z	 SAID31 WIII 161700	METAR WIII 161700Z VRB03KT 4000 HZ SCT020 28/25 Q1011 NOSIG=
16/04/2018 17:30:00Z	 SAID31 WIII 161730	METAR WIII 161730Z 23006KT 5000 HZ FEW020CB SCT020 28/25 Q1010 NOSIG RMK CB TO S=
16/04/2018 18:00:00Z	 SAID31 WIII 161800	METAR WIII 161800Z VRB03KT 5000 HZ FEW020CB SCT020 27/24 Q1010 NOSIG RMK CB TO S=
16/04/2018 18:30:00Z	 SAID31 WIII 161830	METAR WIII 161830Z VRB03KT 5000 HZ SCT020 27/25 Q1010 NOSIG=
16/04/2018 19:00:00Z	 SAID31 WIII 161900	METAR WIII 161900Z VRB03KT 5000 HZ SCT020 27/24 Q1010 NOSIG=
16/04/2018 19:30:00Z	 SAID31 WIII 161930	METAR WIII 161930Z VRB05KT 5000 HZ SCT020 27/24 Q1010 NOSIG=
16/04/2018 20:00:00Z	 SAID31 WIII 162000	METAR WIII 162000Z VRB03KT 4500 VCTS FEW018CB FEW020 27/25 Q1010 NOSIG RMK CB TO NW=
16/04/2018 20:30:00Z	 SAID31 WIII 162030	METAR WIII 162030Z 32003KT 3000 BR SCT020 27/25 Q1010=
16/04/2018 21:00:00Z	 SAID31 WIII 162100	METAR WIII 162100Z VRB03KT 2600 BR SCT020 26/25 Q1009 NOSIG=
16/04/2018 21:30:00Z	 SAID31 WIII 162130	METAR WIII 162130Z 21005KT 4000 BR SCT020 27/25 Q1010 NOSIG=
16/04/2018 22:00:00Z	 SAID31 WIII 162200	METAR WIII 162200Z 21005KT 5000 FEW021 26/24 Q1010 NOSIG=
16/04/2018 22:30:00Z	 SAID31 WIII 162230	METAR WIII 162230Z 19005KT 5000 FEW021 26/24 Q1010 NOSIG=
16/04/2018 23:00:00Z	 SAID31 WIII 162300	METAR WIII 162300Z 21005KT 5000 HZ SCT020 26/24 Q1010 NOSIG=
16/04/2018 23:30:00Z	 SAID31 WIII 162330	METAR WIII 162330Z VRB04KT 5000 FEW018CB SCT2000FT 27/24 Q1010 NOSIG RMK CB TO NW NOSIG=
17/04/2018 00:00:00Z	 SAID31 WIII 170000	METAR WIII 170000Z VRB03KT 5000 HZ FEW018CB SCT2000FT 27/24 Q1011 NOSIG RMK CB TO NW=
17/04/2018 00:30:00Z	 SAID31 WIII 170030	METAR WIII 170030Z VRB04KT 5000 HZ SCT020 27/24 Q1011 NOSIG=
17/04/2018 01:00:00Z	 SAID31 WIII 170100	METAR WIII 170100Z VRB04KT 6000 SCT020 27/24 Q1011 NOSIG=
17/04/2018 01:30:00Z	 SAID31 WIII 170130	METAR WIII 170130Z VRB02KT 7000 SCT020 29/24 Q1012 NOSIG=
17/04/2018 02:00:00Z	 SAID31 WIII 170200	METAR WIII 170200Z VRB02KT 7000 SCT020 29/24 Q1012 NOSIG=
17/04/2018 02:30:00Z	 SAID31 WIII 170230	METAR WIII 170230Z VRB04KT 5000 HZ SCT020 30/24 Q1012 NOSIG=
17/04/2018 03:00:00Z	 SAID31 WIII 170300	METAR WIII 170300Z VRB05KT 2500 -RA BKN020 27/24 Q1012 NOSIG=
17/04/2018 03:30:00Z	 SAID31 WIII 170330	METAR WIII 170330Z 32005KT 3000 -RA BKN020 29/27 Q1012 NOSIG=
17/04/2018 04:00:00Z	 SAID31 WIII 170400	METAR WIII 170400Z 32006KT 7000 BKN020 29/26 Q1011 NOSIG=
17/04/2018 04:30:00Z	 SAID31 WIII 170430	METAR WIII 170430Z VRB05KT 9000 SCT020 30/25 Q1011 NOSIG=
17/04/2018 05:00:00Z	 SAID31 WIII 170500	METAR WIII 170500Z VRB04KT 9999 FEW020 30/24 Q1010 NOSIG=
17/04/2018 05:30:00Z	 SAID31 WIII 170530	METAR WIII 170530Z VRB05KT 9999 FEW020 31/25 Q1010 NOSIG=
17/04/2018 06:00:00Z	 SAID31 WIII 170600	METAR WIII 170600Z 36008KT 9000 SCT020 31/26 Q1010 NOSIG=
17/04/2018 06:30:00Z	 SAID31 WIII 170630	METAR WIII 170630Z 35006KT 9999 SCT020 31/25 Q1010 NOSIG=
17/04/2018 07:00:00Z	 SAID31 WIII 170700	METAR WIII 170700Z 36007KT 9999 FEW020 30/25 Q1009 NOSIG=
17/04/2018 07:30:00Z	 SAID31 WIII 170730	METAR WIII 170730Z 35007KT 9999 FEW020 31/25 Q1008 NOSIG=
17/04/2018 08:00:00Z	 SAID31 WIII 170800	METAR WIII 170800Z 36006KT 9999 FEW020 31/25 Q1008 NOSIG=
17/04/2018 08:30:00Z	 SAID31 WIII 170830	METAR WIII 170830Z 33007KT 9999 FEW020 31/25 Q1008 NOSIG=
17/04/2018 09:00:00Z	 SAID31 WIII 170900	METAR WIII 170900Z 31005KT 9000 FEW018CB FEW020 30/24 Q1009 NOSIG RMK CB TO S=
17/04/2018 09:30:00Z	 SAID31 WIII 170930	METAR WIII 170930Z 30005KT 9000 FEW018CB FEW020 30/25 Q1009 NOSIG RMK CB TO S=
17/04/2018 10:00:00Z	 SAID31 WIII 171000	METAR WIII 171000Z 27004KT 8000 FEW018CB FEW020 29/25 Q1009 NOSIG RMK CB TO S=
17/04/2018 10:30:00Z	 SAID31 WIII 171030	METAR WIII 171030Z VRB03KT 8000 FEW020 29/24 Q1009 NOSIG=
17/04/2018 11:00:00Z	 SAID31 WIII 171100	METAR WIII 171100Z 23004KT 8000 FEW020 29/24 Q1009 NOSIG=
17/04/2018 11:30:00Z	 SAID31 WIII 171130	METAR WIII 171130Z 20007KT 7000 FEW020 28/24 Q1009 NOSIG=
17/04/2018 12:00:00Z	 SAID31 WIII 171200	METAR WIII 171200Z 17006KT 7000 FEW020 28/24 Q1009 NOSIG=
17/04/2018 12:30:00Z	 SAID31 WIII 171230	METAR WIII 171230Z 20009KT 7000 FEW020 27/24 Q1010 NOSIG=
17/04/2018 13:00:00Z	 SAID31 WIII 171300	METAR WIII 171300Z VRB04KT 8000 FEW020 28/24 Q1010 NOSIG=
17/04/2018 13:30:00Z	 SAID31 WIII 171330	METAR WIII 171330Z 17006KT 8000 FEW020 28/24 Q1011 NOSIG=
17/04/2018 14:30:00Z	 SAID31 WIII 171430	METAR WIII 171430Z VRB02KT 6000 FEW020 27/24 Q1011 NOSIG=
17/04/2018 15:00:00Z	 SAID31 WIII 171500	METAR WIII 171500Z VRB03KT 5000 HZ FEW020 27/24 Q1011 NOSIG=
17/04/2018 15:30:00Z	 SAID31 WIII 171530	METAR WIII 171530Z VRB02KT 3500 BR SCT020 27/24 Q1011 NOSIG=
17/04/2018 16:00:00Z	 SAID31 WIII 171600	METAR WIII 171600Z VRB04KT 5000 BR FEW020 27/24 Q1011 NOSIG=
17/04/2018 16:30:00Z	 SAID31 WIII 171630	METAR WIII 171630Z VRB02KT 5000 BR FEW020 27/24 Q1011 NOSIG=
17/04/2018 17:00:00Z	 SAID31 WIII 171700	METAR WIII 171700Z VRB03KT 4500 FEW020 27/24 Q1011 NOSIG=
17/04/2018 17:30:00Z	 SAID31 WIII 171730	METAR WIII 171730Z VRB02KT 4500 BR FEW020 26/24 Q1011 NOSIG=
17/04/2018 18:00:00Z	 SAID31 WIII 171800	METAR WIII 171800Z 21004KT 5000 BR FEW020 27/24 Q1011 NOSIG=
17/04/2018 18:30:00Z	 SAID31 WIII 171830	METAR WIII 171830Z 00000KT 2900 BR FEW020 26/25 Q1010 NOSIG=
17/04/2018 19:00:00Z	 SAID31 WIII 171900	METAR WIII 171900Z VRB01KT 2700 BR FEW020 26/24 Q1010 NOSIG=
17/04/2018 19:30:00Z	 SAID31 WIII 171930	METAR WIII 171930Z VRB02KT 2500 BR FEW020 26/25 Q1009 NOSIG=
17/04/2018 20:00:00Z	 SAID31 WIII 172000	METAR WIII 172000Z 21004KT 5000 HZ FEW020 26/24 Q1009 NOSIG=
17/04/2018 20:30:00Z	 SAID31 WIII 172030	METAR WIII 172030Z 22004KT 4700 BR FEW020 26/24 Q1009 NOSIG=
17/04/2018 21:00:00Z	 SAID31 WIII 172100	METAR WIII 172100Z 20006KT 4100 BR FEW020 26/24 Q1009 NOSIG=
17/04/2018 21:30:00Z	 SAID31 WIII 172130	METAR WIII 172130Z VRB02KT 3800 BR FEW020 26/24 Q1009 NOSIG=
17/04/2018 22:00:00Z	 SAID31 WIII 172200	METAR WIII 172200Z VRB03KT 3800 BR FEW020 26/24 Q1010 NOSIG=
17/04/2018 23:00:00Z	 SAID31 WIII 172300	METAR WIII 172300Z VRB03KT 3800 BR FEW020 27/24 Q1010 NOSIG=
18/04/2018 00:00:00Z	 SAID31 WIII 180000	METAR WIII 180000Z VRB01KT 4600 BR FEW020 27/24 Q1011 NOSIG=
18/04/2018 00:30:00Z	 SAID31 WIII 180030	METAR WIII 180030Z VRB03KT 5000 HZ FEW020 28/24 Q1011 NOSIG=
18/04/2018 01:00:00Z	 SAID31 WIII 180100	METAR WIII 180100Z VRB05KT 4000 HZ SCT020 28/24 Q1011 NOSIG=
18/04/2018 01:30:00Z	 SAID31 WIII 180130	METAR WIII 180130Z VRB04KT 4200 BR SCT020 29/25 Q1011 NOSIG=
18/04/2018 02:00:00Z	 SAID31 WIII 180200	METAR WIII 180200Z VRB03KT 5000 HZ SCT020 30/25 Q1011 NOSIG=
18/04/2018 02:30:00Z	 SAID31 WIII 180230	METAR WIII 180230Z VRB02KT 5000 SCT020 30/25 Q1011 NOSIG=
18/04/2018 03:00:00Z	 SAID31 WIII 180300	METAR WIII 180300Z VRB04KT 5000 HZ SCT020 31/25 Q1011 NOSIG=
18/04/2018 03:30:00Z	 SAID31 WIII 180330	METAR WIII 180330Z VRB05KT 5000 SCT020 31/25 Q1011 NOSIG=
18/04/2018 04:00:00Z	 SAID31 WIII 180400	METAR WIII 180400Z VRB04KT 6000 SCT020 31/25 Q1011 NOSIG=
18/04/2018 04:30:00Z	 SAID31 WIII 180430	METAR WIII 180430Z VRB04KT 7000 SCT020 BKN035 31/25 Q1010 NOSIG=
18/04/2018 05:00:00Z	 SAID31 WIII 180500	METAR WIII 180500Z 03006KT 350V060 4000 RA FEW018CB BKN020 32/25 Q1010 NOSIG RMK CB TO E=
18/04/2018 05:30:00Z	 SAID31 WIII 180530	METAR WIII 180530Z 03006KT 360V070 6000 VCTS FEW018CB SCT020 32/25 Q1010 RERA NOSIG RMK CB TO E AND SE=
18/04/2018 06:00:00Z	 SAID31 WIII 180600	METAR WIII 180600Z VRB05KT 3000 TSRA FEW018CB SCT020 31/25 Q1009 NOSIG RMK CB TO E=
18/04/2018 06:30:00Z	 SAID31 WIII 180630	METAR WIII 180630Z 02005KT 3000 TSRA FEW018CB SCT020 31/25 Q1009 NOSIG RMK CB TO W=
18/04/2018 07:00:00Z	 SAID31 WIII 180700	METAR WIII 180700Z VRB03KT 4000 RA FEW018CB SCT020 31/24 Q1008 RETS NOSIG RMK CB TO W =
18/04/2018 07:30:00Z	 SAID31 WIII 180730	METAR WIII 180730Z VRB05KT 5000 HZ FEW018CB SCT020 31/25 Q1008 RERA NOSIG RMK CB TO SW=
18/04/2018 08:00:00Z	 SAID31 WIII 180800	METAR WIII 180800Z VRB04KT 6000 SCT020 30/24 Q1007 NOSIG=
18/04/2018 08:30:00Z	 SAID31 WIII 180830	METAR WIII 180830Z VRB04KT 6000 SCT020 31/25 Q1007 NOSIG=
18/04/2018 09:00:00Z	 SAID31 WIII 180900	METAR WIII 180900Z VRB04KT 7000 SCT020 30/24 Q1007 NOSIG=
18/04/2018 09:30:00Z	 SAID31 WIII 180930	METAR WIII 180930Z VRB03KT 7000 SCT020 30/25 Q1008 NOSIG=
18/04/2018 10:00:00Z	 SAID31 WIII 181000	METAR WIII 181000Z VRB03KT 7000 SCT020 30/24 Q1008 NOSIG=
18/04/2018 10:30:00Z	 SAID31 WIII 181030	METAR WIII 181030Z VRB04KT 7000 SCT020 30/24 Q1008 NOSIG=
18/04/2018 11:00:00Z	 SAID31 WIII 181100	METAR WIII 181100Z VRB02KT 6000 SCT020 29/25 Q1008 NOSIG=
18/04/2018 11:30:00Z	 SAID31 WIII 181130	METAR WIII 181130Z 02004KT 3000 BR FEW020 29/25 Q1008 NOSIG=
18/04/2018 12:00:00Z	 SAID31 WIII 181200	METAR WIII 181200Z 01003KT 3000 BR FEW020 28/25 Q1009 NOSIG=
18/04/2018 12:30:00Z	 SAID31 WIII 181230	METAR WIII 181230Z 05002KT 5000 HZ FEW018 28/25 Q1009 NOSIG=
18/04/2018 13:00:00Z	 SAID31 WIII 181300	METAR WIII 181300Z VRB02KT 5000 HZ FEW018 28/26 Q1010 NOSIG=
18/04/2018 13:30:00Z	 SAID31 WIII 181330	METAR WIII 181330Z VRB02KT 5000 HZ SCT018 28/25 Q1010 NOSIG=
18/04/2018 14:00:00Z	 SAID31 WIII 181400	METAR WIII 181400Z VRB05KT 5000 HZ FEW018 29/25 Q1010 NOSIG=
18/04/2018 14:30:00Z	 SAID31 WIII 181430	METAR WIII 181430Z VRB04KT 5000 HZ FEW018 28/25 Q1010 NOSIG=
18/04/2018 15:00:00Z	 SAID31 WIII 181500	METAR WIII 181500Z VRB05KT 5000 HZ FEW018 28/25 Q1010 NOSIG=
18/04/2018 15:30:00Z	 SAID31 WIII 181530	METAR WIII 181530Z VRB03KT 4000 HZ FEW018 28/25 Q1010 NOSIG=
18/04/2018 16:00:00Z	 SAID31 WIII 181600	METAR WIII 181600Z 20005KT 4000 HZ FEW018 28/25 Q1010 NOSIG=
18/04/2018 16:30:00Z	 SAID31 WIII 181630	METAR WIII 181630Z VRB04KT 4000 HZ FEW018 27/25 Q1009 NOSIG=
18/04/2018 17:00:00Z	 SAID31 WIII 181700	METAR WIII 181700Z VRB03KT 4000 HZ FEW018 27/25 Q1009 NOSIG=
18/04/2018 17:30:00Z	 SAID31 WIII 181730	METAR WIII 181730Z 21003KT 4000 HZ FEW018 27/25 Q1009 NOSIG=
18/04/2018 18:00:00Z	 SAID31 WIII 181800	METAR WIII 181800Z 22003KT 4000 HZ FEW018 27/25 Q1009 NOSIG=
18/04/2018 18:30:00Z	 SAID31 WIII 181830	METAR WIII 181830Z 18003KT 3000 BR FEW018 27/25 Q1009 NOSIG=
18/04/2018 19:00:00Z	 SAID31 WIII 181900	METAR WIII 181900Z VRB02KT 3000 BR FEW018 27/25 Q1009 NOSIG=
18/04/2018 19:30:00Z	 SAID31 WIII 181930	METAR WIII 181930Z 17002KT 3000 BR FEW018 27/25 Q1008 NOSIG=
18/04/2018 20:00:00Z	 SAID31 WIII 182000	METAR WIII 182000Z VRB02KT 2500 BR FEW020 27/25 Q1008 NOSIG=
18/04/2018 20:30:00Z	 SAID31 WIII 182030	METAR WIII 182030Z 21004KT 2500 BR FEW020 27/25 Q1008 NOSIG=
18/04/2018 21:00:00Z	 SAID31 WIII 182100	METAR WIII 182100Z 20004KT 2700 BR FEW021 26/25 Q1008 NOSIG=
18/04/2018 21:30:00Z	 SAID31 WIII 182130	METAR WIII 182130Z 20005KT 3300 BR FEW021 26/25 Q1008 NOSIG=
18/04/2018 22:00:00Z	 SAID31 WIII 182200	METAR WIII 182200Z 20004KT 4000 BR FEW021 27/24 Q1009 NOSIG=
18/04/2018 22:30:00Z	 SAID31 WIII 182230	METAR WIII 182230Z VRB02KT 3500 BR FEW021 27/25 Q1009 NOSIG=
18/04/2018 23:00:00Z	 SAID31 WIII 182300	METAR WIII 182300Z VRB03KT 3000 BR FEW021 27/24 Q1009 NOSIG=
18/04/2018 23:30:00Z	 SAID31 WIII 182330	METAR WIII 182330Z VRB02KT 4000 BR FEW020 27/24 Q1010 NOSIG=
19/04/2018 00:00:00Z	 SAID31 WIII 190000	METAR WIII 190000Z 33002KT 2500 HZ FEW021 27/25 Q1010 NOSIG=
19/04/2018 00:30:00Z	 SAID31 WIII 190030	METAR WIII 190030Z 16002KT 3000 HZ FEW020 28/25 Q1010 NOSIG=
19/04/2018 01:00:00Z	 SAID31 WIII 190100	METAR WIII 190100Z VRB03KT 4000 HZ FEW020 29/25 Q1010 NOSIG=
19/04/2018 01:30:00Z	 SAID31 WIII 190130	METAR WIII 190130Z VRB03KT 5000 HZ FEW020 30/25 Q1010 NOSIG=
19/04/2018 02:00:00Z	 SAID31 WIII 190200	METAR WIII 190200Z VRB02KT 4200 HZ FEW020 30/25 Q1011 NOSIG=
19/04/2018 02:30:00Z	 SAID31 WIII 190230	METAR WIII 190230Z VRB02KT 5000 HZ SCT020 31/25 Q1010 NOSIG=
19/04/2018 03:00:00Z	 SAID31 WIII 190300	METAR WIII 190300Z VRB03KT 4000 HZ SCT020 30/25 Q1010 NOSIG=
19/04/2018 03:30:00Z	 SAID31 WIII 190330	METAR WIII 190330Z VRB03KT 4000 HZ SCT020 30/25 Q1010 NOSIG=
19/04/2018 04:00:00Z	 SAID31 WIII 190400	METAR WIII 190400Z 03005KT 5000 HZ SCT020 29/24 Q1009 NOSIG=
19/04/2018 04:30:00Z	 SAID31 WIII 190430	METAR WIII 190430Z 35006KT 3000 HZ SCT020 29/25 Q1009 NOSIG=
19/04/2018 05:00:00Z	 SAID31 WIII 190500	METAR WIII 190500Z VRB04KT 4500 -TSRA FEW018CB BKN020 29/25 Q1008 NOSIG RMK CB TO N=
19/04/2018 05:30:00Z	 SAID31 WIII 190530	METAR WIII 190530Z 31006KT 7000 VCTS FEW018CB SCT020 31/25 Q1008 NOSIG RMK CB TO SW=
19/04/2018 06:00:00Z	 SAID31 WIII 190600	METAR WIII 190600Z VRB05KT 8000 FEW018CB SCT020 32/25 Q1007 RETS NOSIG RMK CB TO S=
19/04/2018 06:30:00Z	 SAID31 WIII 190630	METAR WIII 190630Z 35008KT 9000 SCT020 32/25 Q1007 NOSIG=
19/04/2018 07:00:00Z	 SAID31 WIII 190700	METAR WIII 190700Z 01007KT 9000 TS FEW018CB SCT020 32/25 Q1007 NOSIG RMK CB TO S=
19/04/2018 07:30:00Z	 SAID31 WIII 190730	METAR WIII 190730Z VRB04KT 9000 SCT020 32/25 Q1006 RETS NOSIG=
19/04/2018 08:00:00Z	 SAID31 WIII 190800	METAR WIII 190800Z 02008KT 9000 SCT020 32/25 Q1006 NOSIG=
19/04/2018 08:30:00Z	 SAID31 WIII 190830	METAR WIII 190830Z 02007KT 9000 SCT020 31/24 Q1006 NOSIG=
19/04/2018 09:00:00Z	 SAID31 WIII 190900	METAR WIII 190900Z 36007KT 9000 SCT020 31/24 Q1006 NOSIG=
19/04/2018 09:30:00Z	 SAID31 WIII 190930	METAR WIII 190930Z VRB05KT 9000 SCT020 31/25 Q1006 NOSIG=
19/04/2018 10:00:00Z	 SAID31 WIII 191000	METAR WIII 191000Z VRB05KT 9000 SCT020 31/25 Q1006 NOSIG=
19/04/2018 10:30:00Z	 SAID31 WIII 191030	METAR WIII 191030Z VRB03KT 9000 FEW020 30/25 Q1006 NOSIG=
19/04/2018 11:00:00Z	 SAID31 WIII 191100	METAR WIII 191100Z 03004KT 8000 FEW020 30/25 Q1006 NOSIG=
19/04/2018 11:30:00Z	 SAID31 WIII 191130	METAR WIII 191130Z 36002KT 6000 FEW020 29/25 Q1007 NOSIG=
19/04/2018 12:00:00Z	 SAID31 WIII 191200	METAR WIII 191200Z 03003KT 6000 FEW020 29/25 Q1007 NOSIG=
19/04/2018 12:30:00Z	 SAID31 WIII 191230	METAR WIII 191230Z VRB02KT 5000 HZ FEW020 29/25 Q1007 NOSIG=
19/04/2018 13:00:00Z	 SAID31 WIII 191300	METAR WIII 191300Z 31003KT 4000 BR FEW020 29/26 Q1008 NOSIG=
19/04/2018 13:30:00Z	 SAID31 WIII 191330	METAR WIII 191330Z 00000KT 6000 FEW020 29/25 Q1008 NOSIG=
19/04/2018 14:00:00Z	 SAID31 WIII 191400	METAR WIII 191400Z 32004KT 4000 BR FEW019CB SCT020 29/25 Q1008 NOSIG RMK CB TO S=
19/04/2018 14:30:00Z	 SAID31 WIII 191430	METAR WIII 191430Z 28006KT 3500 BR FEW019CB SCT020 28/25 Q1009 NOSIG=
19/04/2018 15:00:00Z	 SAID31 WIII 191500	METAR WIII 191500Z 25007KT 3900 BR SCT020 28/25 Q1009 NOSIG=
19/04/2018 15:30:00Z	 SAID31 WIII 191530	METAR WIII 191530Z 18006KT 150V240 4000 BR SCT020 28/25 Q1009 NOSIG=
19/04/2018 16:00:00Z	 SAID31 WIII 191600	METAR WIII 191600Z 17006KT 4000 RA FEW018CB SCT020 27/25 Q1009 NOSIG RMK CB TO SW=
19/04/2018 16:30:00Z	 SAID31 WIII 191630	METAR WIII 191630Z VRB02KT 8000 -SHRA SCT020 27/24 Q1009 NOSIG=
19/04/2018 17:00:00Z	 SAID31 WIII 191700	METAR WIII 191700Z VRB02KT 8000 SCT020 27/24 Q1009 NOSIG=
19/04/2018 17:30:00Z	 SAID31 WIII 191730	METAR WIII 191730Z VRB04KT 9000 SCT020 27/24 Q1009 NOSIG=
19/04/2018 18:00:00Z	 SAID31 WIII 191800	METAR WIII 191800Z VRB03KT 5000 VCTS FEW018CB SCT020 27/25 Q1009 NOSIG RMK CB TO SE AND SW=
19/04/2018 18:30:00Z	 SAID31 WIII 191830	METAR WIII 191830Z 22004KT 4300 BR FEW018 SCT020 27/25 Q1008 NOSIG RMK CB TO SE=
19/04/2018 19:00:00Z	 SAID31 WIII 191900	METAR WIII 191900Z VRB01KT 3600 BR FEW018CB SCT020 27/25 Q1008 NOSIG RMK CB TO SE=
19/04/2018 20:00:00Z	 SAID31 WIII 192000	METAR WIII 192000Z 20003KT 3800 BR FEW020 27/24 Q1008 NOSIG=
19/04/2018 20:30:00Z	 SAID31 WIII 192030	METAR WIII 192030Z VRB03KT 3900 BR FEW020 27/24 Q1008 NOSIG=
19/04/2018 21:00:00Z	 SAID31 WIII 192100	METAR WIII 192100Z 19004KT 2900 BR SCT020 26/25 Q1008 NOSIG=
19/04/2018 21:30:00Z	 SAID31 WIII 192130	METAR WIII 192130Z 21006KT 2400 BR FEW020 26/25 Q1008 NOSIG=
19/04/2018 22:00:00Z	 SAID31 WIII 192200	METAR WIII 192200Z 17006KT 2800 BR FEW020 26/25 Q1008 NOSIG=
19/04/2018 22:30:00Z	 SAID31 WIII 192230	METAR WIII 192230Z 16006KT 140V200 4000 BR FEW020 26/25 Q1008 NOSIG=
19/04/2018 23:00:00Z	 SAID31 WIII 192300	METAR WIII 192300Z VRB05KT 5000 HZ 020 26/24 Q1008 NOSIG=
19/04/2018 23:30:00Z	 SAID31 WIII 192330	METAR WIII 192330Z VRB04KT 6000 FEW020 26/24 Q1009 NOSIG=
20/04/2018 00:00:00Z	 SAID31 WIII 200000	METAR WIII 200000Z VRB04KT 9000 FEW020 27/24 Q1009 NOSIG=
20/04/2018 00:30:00Z	 SAID31 WIII 200030	METAR WIII 200030Z 16006KT 130V210 6000 FEW020 28/25 Q1010 NOSIG=
20/04/2018 01:00:00Z	 SAID31 WIII 200100	METAR WIII 200100Z VRB05KT 6000 VCTS FEW020CB FEW021 29/25 Q1010 NOSIG RMK CB TO NE=
20/04/2018 01:30:00Z	 SAID31 WIII 200130	METAR WIII 200130Z VRB05KT 6000 FEW020CB FEW021 30/25 Q1010 NOSIG RMK CB TO NE=
20/04/2018 02:00:00Z	 SAID31 WIII 200200	METAR WIII 200200Z VRB05KT 7000 SCT020 29/25 Q1010 NOSIG=
20/04/2018 02:30:00Z	 SAID31 WIII 200230	METAR WIII 200230Z VRB04KT 7000 SCT020 30/25 Q1010 NOSIG=
20/04/2018 03:00:00Z	 SAID31 WIII 200300	METAR WIII 200300Z VRB03KT 7000 SCT020 31/25 Q1010 NOSIG=
20/04/2018 03:30:00Z	 SAID31 WIII 200330	METAR WIII 200330Z 07006KT 010V120 7000 SCT020 32/25 Q1010 NOSIG=
20/04/2018 04:00:00Z	 SAID31 WIII 200400	METAR WIII 200400Z VRB05KT 8000 SCT020 32/25 Q1009 NOSIG=
20/04/2018 04:30:00Z	 SAID31 WIII 200430	METAR WIII 200430Z 04008KT 9999 SCT020 33/23 Q1009 NOSIG=
20/04/2018 05:00:00Z	 SAID31 WIII 200500	METAR WIII 200500Z 04008KT 010V070 9999 SCT020 32/24 Q1009 NOSIG=
20/04/2018 05:30:00Z	 SAID31 WIII 200530	METAR WIII 200530Z 04007KT 9999 SCT020 33/24 Q1008 NOSIG=
20/04/2018 06:00:00Z	 SAID31 WIII 200600	METAR WIII 200600Z 03007KT 340V070 9999 VCTS FEW020CB FEW020 32/25 Q1008 NOSIG RMK CB TO S=
20/04/2018 06:30:00Z	 SAID31 WIII 200630	METAR WIII 200630Z 02006KT 340V070 9999 FEW020CB FEW020 32/24 Q1007 NOSIG RMK CB TO SE=
20/04/2018 07:00:00Z	 SAID31 WIII 200700	METAR WIII 200700Z 02007KT 350V060 9999 FEW020CB FEW020 33/24 Q1007 NOSIG RMK CB TO S=
20/04/2018 07:30:00Z	 SAID31 WIII 200730	METAR WIII 200730Z 04007KT 010V080 9999 SCT020 32/24 Q1007 NOSIG=
20/04/2018 08:00:00Z	 SAID31 WIII 200800	METAR WIII 200800Z 04006KT 010V080 9999 SCT020 32/25 Q1006 NOSIG=
20/04/2018 08:30:00Z	 SAID31 WIII 200830	METAR WIII 200830Z VRB05KT 9999 SCT020 31/24 Q1007 NOSIG=
20/04/2018 09:00:00Z	 SAID31 WIII 200900	METAR WIII 200900Z 05007KT 9999 FEW020CB FEW020 31/25 Q1007 NOSIG RMK CB TO S=
20/04/2018 09:30:00Z	 SAID31 WIII 200930	METAR WIII 200930Z VRB04KT 9999 FEW020CB SCT020 31/25 Q1008 NOSIG RMK CB TO SW=
20/04/2018 10:00:00Z	 SAID31 WIII 201000	METAR WIII 201000Z 03004KT 8000 VCTS FEW020CB SCT020 31/25 Q1008 NOSIG RMK CB TO SE=
20/04/2018 10:30:00Z	 SAID31 WIII 201030	METAR WIII 201030Z VRB02KT 8000 FEW018CB SCT019 30/25 Q1008 NOSIG RMK CB TO SW=
20/04/2018 11:00:00Z	 SAID31 WIII 201100	METAR WIII 201100Z 18007KT 7000 SCT020 29/24 Q1008 NOSIG=
20/04/2018 11:30:00Z	 SAID31 WIII 201130	METAR WIII 201130Z 21006KT 7000 SCT020 28/23 Q1009 NOSIG=
20/04/2018 12:00:00Z	 SAID31 WIII 201200	METAR WIII 201200Z VRB05KT 7000 FEW020 28/23 Q1009 NOSIG=
20/04/2018 12:30:00Z	 SAID31 WIII 201230	METAR WIII 201230Z VRB04KT 7000 FEW020 28/24 Q1009 NOSIG=
20/04/2018 13:00:00Z	 SAID31 WIII 201300	METAR WIII 201300Z 25005KT 6000 FEW020 28/24 Q1009 NOSIG=
20/04/2018 13:30:00Z	 SAID31 WIII 201330	METAR WIII 201330Z 21006KT 7000 FEW020 28/24 Q1010 NOSIG=
20/04/2018 14:00:00Z	 SAID31 WIII 201400	METAR WIII 201400Z VRB05KT 7000 FEW020 28/24 Q1010 NOSIG=
20/04/2018 14:30:00Z	 SAID31 WIII 201430	METAR WIII 201430Z VRB03KT 7000 FEW020 28/24 Q1010 NOSIG=
20/04/2018 15:00:00Z	 SAID31 WIII 201500	METAR WIII 201500Z VRB03KT 6000 FEW020 28/24 Q1010 NOSIG=
20/04/2018 15:30:00Z	 SAID31 WIII 201530	METAR WIII 201530Z VRB02KT 6000 FEW020 28/24 Q1010 NOSIG=
20/04/2018 16:00:00Z	 SAID31 WIII 201600	METAR WIII 201600Z VRB03KT 6000 FEW020 27/24 Q1010 NOSIG=
20/04/2018 16:30:00Z	 SAID31 WIII 201630	METAR WIII 201630Z VRB03KT 5000 HZ FEW020 27/24 Q1010 NOSIG=
20/04/2018 17:00:00Z	 SAID31 WIII 201700	METAR WIII 201700Z VRB04KT 5000 HZ FEW020 27/24 Q1009 NOSIG=
20/04/2018 17:30:00Z	 SAID31 WIII 201730	METAR WIII 201730Z VRB04KT 4000 HZ FEW020 28/24 Q1009 NOSIG=
20/04/2018 18:00:00Z	 SAID31 WIII 201800	METAR WIII 201800Z VRB04KT 4000 HZ FEW020 27/24 Q1009 NOSIG=
20/04/2018 18:30:00Z	 SAID31 WIII 201830	METAR WIII 201830Z 20006KT 4000 HZ FEW020 27/24 Q1009 NOSIG=
20/04/2018 19:00:00Z	 SAID31 WIII 201900	METAR WIII 201900Z 20005KT 3800 HZ FEW020 26/24 Q1009 NOSIG=
20/04/2018 19:30:00Z	 SAID31 WIII 201930	METAR WIII 201930Z 19004KT 4500 HZ FEW020 26/24 Q1009 NOSIG=
20/04/2018 20:00:00Z	 SAID31 WIII 202000	METAR WIII 202000Z 18003KT 5000 HZ FEW020 26/24 Q1009 NOSIG=
20/04/2018 20:30:00Z	 SAID31 WIII 202030	METAR WIII 202030Z VRB02KT 5000 HZ FEW020 26/24 Q1009 NOSIG=
20/04/2018 21:00:00Z	 SAID31 WIII 202100	METAR WIII 202100Z 20003KT 6000 FEW020 26/24 Q1009 NOSIG=
20/04/2018 21:30:00Z	 SAID31 WIII 202130	METAR WIII 202130Z VRB02KT 6000 FEW020 26/24 Q1009 NOSIG=
20/04/2018 22:00:00Z	 SAID31 WIII 202200	METAR WIII 202200Z 15003KT 5000 BR FEW020 26/24 Q1009 NOSIG=
20/04/2018 22:30:00Z	 SAID31 WIII 202230	METAR WIII 202230Z 17003KT 5000 BR FEW020 26/24 Q1009 NOSIG=
20/04/2018 23:00:00Z	 SAID31 WIII 202300	METAR WIII 202300Z VRB03KT 4500 BR FEW020 27/24 Q1009 NOSIG=
20/04/2018 23:30:00Z	 SAID31 WIII 202330	METAR WIII 202330Z VRB04KT 5000 BR FEW020 27/24 Q1009 NOSIG=
21/04/2018 00:00:00Z	 SAID31 WIII 210000	METAR WIII 210000Z VRB04KT 5000 HZ FEW020 27/24 Q1009 NOSIG=
21/04/2018 00:30:00Z	 SAID31 WIII 210030	METAR WIII 210030Z VRB05KT 5000 HZ FEW020 28/24 Q1010 NOSIG=
21/04/2018 01:00:00Z	 SAID31 WIII 210100	METAR WIII 210100Z VRB03KT 5000 HZ FEW020 28/24 Q1010 NOSIG=
21/04/2018 01:30:00Z	 SAID31 WIII 210130	METAR WIII 210130Z VRB04KT 5000 HZ FEW020 29/24 Q1010 NOSIG=
21/04/2018 02:00:00Z	 SAID31 WIII 210200	METAR WIII 210200Z VRB03KT 6000 FEW020 30/24 Q1011 NOSIG=
21/04/2018 02:30:00Z	 SAID31 WIII 210230	METAR WIII 210230Z VRB03KT 8000 FEW020 30/25 Q1011 NOSIG=
21/04/2018 03:00:00Z	 SAID31 WIII 210300	METAR WIII 210300Z VRB02KT 6000 FEW020 31/24 Q1010 NOSIG=
21/04/2018 03:30:00Z	 SAID31 WIII 210330	METAR WIII 210330Z VRB02KT 6000 FEW020 31/24 Q1010 NOSIG=
21/04/2018 04:00:00Z	 SAID31 WIII 210400	METAR WIII 210400Z VRB04KT 5000 HZ SCT020 32/24 Q1010 NOSIG=
21/04/2018 04:30:00Z	 SAID31 WIII 210430	METAR WIII 210430Z VRB05KT 6000 SCT020 32/24 Q1009 NOSIG=
21/04/2018 05:00:00Z	 SAID31 WIII 210500	METAR WIII 210500Z 02006KT 340V080 6000 SCT020 32/24 Q1009 NOSIG=
21/04/2018 05:30:00Z	 SAID31 WIII 210530	METAR WIII 210530Z 04007KT 010V080 7000 SCT020 32/23 Q1008 NOSIG=
21/04/2018 06:00:00Z	 SAID31 WIII 210600	METAR WIII 210600Z 04009KT 8000 SCT020 32/23 Q1008 NOSIG=
21/04/2018 06:30:00Z	 SAID31 WIII 210630	METAR WIII 210630Z 03009KT 9000 FEW020 33/23 Q1007 NOSIG=
21/04/2018 07:00:00Z	 SAID31 WIII 210700	METAR WIII 210700Z 03008KT 9000 FEW018CB FEW020 32/23 Q1007 NOSIG RMK CB TO SW=
21/04/2018 07:30:00Z	 SAID31 WIII 210730	METAR WIII 210730Z 02008KT 9000 FEW018CB FEW020 32/23 Q1007 NOSIG RMK CB TO SW=
21/04/2018 08:00:00Z	 SAID31 WIII 210800	METAR WIII 210800Z 04008KT 8000 FEW018CB FEW020 32/24 Q1007 NOSIG RMK CB TO SW=
21/04/2018 08:30:00Z	 SAID31 WIII 210830	METAR WIII 210830Z 02008KT 9000 FEW020 32/24 Q1007 NOSIG=
21/04/2018 09:00:00Z	 SAID31 WIII 210900	METAR WIII 210900Z 02004KT 9000 FEW020 31/24 Q1007 NOSIG=
21/04/2018 09:30:00Z	 SAID31 WIII 210930	METAR WIII 210930Z 04006KT 9000 FEW020 31/23 Q1007 NOSIG=
21/04/2018 10:00:00Z	 SAID31 WIII 211000	METAR WIII 211000Z 04005KT 7000 FEW020 30/24 Q1008 NOSIG=
21/04/2018 10:30:00Z	 SAID31 WIII 211030	METAR WIII 211030Z 04003KT 6000 FEW020 30/24 Q1008 NOSIG=
21/04/2018 11:00:00Z	 SAID31 WIII 211100	METAR WIII 211100Z VRB04KT 7000 SCT020 30/25 Q1008 NOSIG=
21/04/2018 11:30:00Z	 SAID31 WIII 211130	METAR WIII 211130Z VRB04KT 8000 SCT020 29/24 Q1008 NOSIG=
21/04/2018 12:00:00Z	 SAID31 WIII 211200	METAR WIII 211200Z 18006KT 4000 HZ BKN020 28/25 Q1009 NOSIG=
21/04/2018 12:30:00Z	 SAID31 WIII 211230	METAR WIII 211230Z 18007KT 4000 -RA FEW018CB BKN020 28/25 Q1009 TEMPO 3000 TSRA RMK CB TO SE=
21/04/2018 13:00:00Z	 SAID31 WIII 211300	METAR WIII 211300Z VRB05KT 2500 -TSRA FEW018CB BKN020 26/25 Q1010 NOSIG RMK CB OVER THE FIELD=
21/04/2018 13:30:00Z	 SAID31 WIII 211330	METAR WIII 211330Z VRB02KT 4000 -RA FEW018CB BKN020 26/24 Q1010 RETS RMK CB TO W=
21/04/2018 14:30:00Z	 SAID31 WIII 211430	METAR WIII 211430Z VRB03KT 4000 BR SCT020 27/24 Q1010 RERA NOSIG=
21/04/2018 15:00:00Z	 SAID31 WIII 211500	METAR WIII 211500Z VRB04KT 4000 BR SCT022 27/25 Q1010 NOSIG=
21/04/2018 15:30:00Z	 SAID31 WIII 211530	METAR WIII 211530Z VRB03KT 4000 BR SCT022 27/25 Q1010 NOSIG=
21/04/2018 16:00:00Z	 SAID31 WIII 211600	METAR WIII 211600Z VRB04KT 4000 BR FEW018 27/24 Q1010 NOSIG=
21/04/2018 16:30:00Z	 SAID31 WIII 211630	METAR WIII 211630Z 20006KT 4000 BR FEW018 26/25 Q1009 NOSIG=
21/04/2018 17:00:00Z	 SAID31 WIII 211700	METAR WIII 211700Z VRB05KT 4000 BR FEW018 27/25 Q1009 NOSIG=
21/04/2018 17:30:00Z	 SAID31 WIII 211730	METAR WIII 211730Z VRB05KT 4000 BR FEW018 27/25 Q1009 NOSIG=
21/04/2018 18:00:00Z	 SAID31 WIII 211800	METAR WIII 211800Z VRB02KT 4000 BR FEW018 26/25 Q1008 NOSIG=
21/04/2018 18:30:00Z	 SAID31 WIII 211830	METAR WIII 211830Z 21004KT 4000 BR FEW018 26/24 Q1008 NOSIG=
21/04/2018 19:00:00Z	 SAID31 WIII 211900	METAR WIII 211900Z 23004KT 4000 BR FEW018 26/25 Q1008 NOSIG=
21/04/2018 19:30:00Z	 SAID31 WIII 211930	METAR WIII 211930Z VRB02KT 4000 BR FEW018 26/25 Q1008 NOSIG=
21/04/2018 20:00:00Z	 SAID31 WIII 212000	METAR WIII 212000Z 24003KT 2300 BR FEW020 26/25 Q1008 NOSIG=
21/04/2018 20:30:00Z	 SAID31 WIII 212030	METAR WIII 212030Z 21003KT 2500 BR FEW020 26/25 Q1008 NOSIG=
21/04/2018 21:00:00Z	 SAID31 WIII 212100	METAR WIII 212100Z VRB02KT 2600 BR FEW020 26/25 Q1008 NOSIG=
21/04/2018 22:00:00Z	 SAID31 WIII 212200	METAR WIII 212200Z 27002KT 3000 BR FEW020 26/25 Q1008 NOSIG=
21/04/2018 22:30:00Z	 SAID31 WIII 212230	METAR WIII 212230Z VRB02KT 2800 BR FEW020 26/25 Q1008 NOSIG=
21/04/2018 23:00:00Z	 SAID31 WIII 212300	METAR WIII 212300Z 23004KT 3000 BR FEW018 26/25 Q1009 NOSIG=
21/04/2018 23:30:00Z	 SAID31 WIII 212330	METAR WIII 212330Z 20005KT 4000 VCTS FEW018CB FEW018 26/25 Q1009 NOSIG RMK CB TO N=
22/04/2018 00:00:00Z	 SAID31 WIII 220000	METAR WIII 220000Z VRB04KT 4200 VCTS FEW018CB FEW018 27/24 Q1009 NOSIG RMK CB TO N=
22/04/2018 00:30:00Z	 SAID31 WIII 220030	METAR WIII 220030Z VRB03KT 5000 HZ FEW018 27/24 Q1009 NOSIG=
22/04/2018 01:00:00Z	 SAID31 WIII 220100	METAR WIII 220100Z VRB02KT 5000 HZ FEW018 28/25 Q1010 NOSIG=
22/04/2018 01:30:00Z	 SAID31 WIII 220130	METAR WIII 220130Z VRB03KT 5000 HZ FEW018 29/24 Q1010 NOSIG=
22/04/2018 02:00:00Z	 SAID31 WIII 220200	METAR WIII 220200Z VRB03KT 5000 HZ FEW020 29/24 Q1010 NOSIG=
22/04/2018 02:30:00Z	 SAID31 WIII 220230	METAR WIII 220230Z VRB01KT 5000 HZ FEW018 30/25 Q1010 NOSIG=
22/04/2018 03:00:00Z	 SAID31 WIII 220300	METAR WIII 220300Z VRB02KT 6000 FEW018 31/25 Q1009 NOSIG=
22/04/2018 03:30:00Z	 SAID31 WIII 220330	METAR WIII 220330Z VRB03KT 7000 FEW018 31/24 Q1009 NOSIG=
22/04/2018 04:00:00Z	 SAID31 WIII 220400	METAR WIII 220400Z 08006KT 360V110 8000 SCT020 32/25 Q1008 NOSIG=
22/04/2018 04:30:00Z	 SAID31 WIII 220430	METAR WIII 220430Z 05007KT 020V090 8000 SCT020 32/25 Q1008 NOSIG=
22/04/2018 05:00:00Z	 SAID31 WIII 220500	METAR WIII 220500Z 05008KT 9000 SCT020 32/25 Q1007 NOSIG=
22/04/2018 05:30:00Z	 SAID31 WIII 220530	METAR WIII 220530Z 05009KT 020V090 9000 FEW020 32/25 Q1007 NOSIG=
22/04/2018 06:00:00Z	 SAID31 WIII 220600	METAR WIII 220600Z 04008KT 360V080 9999 FEW018 32/25 Q1006 NOSIG=
22/04/2018 06:30:00Z	 SAID31 WIII 220630	METAR WIII 220630Z 05010KT 9999 VCTS FEW018CB SCT022 32/25 Q1006 NOSIG RMK CB TO S AND SW=
22/04/2018 07:30:00Z	 SAID31 WIII 220730	METAR WIII 220730Z 01007KT 9000 VCTS FEW018CB SCT020 32/25 Q1006 NOSIG RMK CB TO S AND SW=
22/04/2018 08:00:00Z	 SAID31 WIII 220800	METAR WIII 220800Z 03009KT 8000 FEW018CB SCT018 31/25 Q1006 NOSIG RMK CB TO S AND SW=
22/04/2018 08:30:00Z	 SAID31 WIII 220830	METAR WIII 220830Z 03005KT 8000 VCTS FEW018CB SCT018 31/25 Q1006 NOSIG RMK CB TO SE AND SW=
22/04/2018 09:00:00Z	 SAID31 WIII 220900	METAR WIII 220900Z 06006KT 8000 FEW018CB SCT018 31/26 Q1006 NOSIG RMK CB TO SE AND SW=
22/04/2018 09:30:00Z	 SAID31 WIII 220930	METAR WIII 220930Z 05006KT 8000 FEW018CB SCT018 31/24 Q1006 NOSIG RMK CB TO S=
22/04/2018 10:00:00Z	 SAID31 WIII 221000	METAR WIII 221000Z VRB04KT 8000 FEW018CB SCT018 31/24 Q1007 NOSIG RMK CB TO S=
22/04/2018 10:30:00Z	 SAID31 WIII 221030	METAR WIII 221030Z VRB03KT 8000 FEW018CB SCT018 30/24 Q1007 NOSIG RMK CB TO S=
22/04/2018 11:00:00Z	 SAID31 WIII 221100	METAR WIII 221100Z 02002KT 8000 FEW018CB SCT020 30/25 Q1008 NOSIG RMK CB TO W=
22/04/2018 11:30:00Z	 SAID31 WIII 221130	METAR WIII 221130Z VRB02KT 7000 SCT020 29/26 Q1008 NOSIG=
22/04/2018 12:00:00Z	 SAID31 WIII 221200	METAR WIII 221200Z 26008KT 7000 FEW018CB SCT020 28/26 Q1008 NOSIG RMK CB TO SW=
22/04/2018 12:30:00Z	 SAID31 WIII 221230	METAR WIII 221230Z 27008KT 6000 SCT020 28/26 Q1008 NOSIG=
22/04/2018 13:00:00Z	 SAID31 WIII 221300	METAR WIII 221300Z 27007KT 6000 SCT020 28/25 Q1009 NOSIG=
22/04/2018 13:30:00Z	 SAID31 WIII 221330	METAR WIII 221330Z 27007KT 4000 -RA SCT020 27/25 Q1009 NOSIG=
22/04/2018 14:00:00Z	 SAID31 WIII 221400	METAR WIII 221400Z 26006KT 5000 HZ SCT020 27/25 Q1009 RERA NOSIG=
22/04/2018 14:30:00Z	 SAID31 WIII 221430	METAR WIII 221430Z 24007KT 5000 HZ SCT020 27/25 Q1009 NOSIG=
22/04/2018 15:00:00Z	 SAID31 WIII 221500	METAR WIII 221500Z VRB05KT 5000 HZ SCT020 27/24 Q1009 NOSIG=
22/04/2018 15:30:00Z	 SAID31 WIII 221530	METAR WIII 221530Z 24005KT 5000 HZ SCT020 27/24 Q1009 NOSIG=
22/04/2018 16:00:00Z	 SAID31 WIII 221600	METAR WIII 221600Z 22004KT 5000 HZ SCT020 27/24 Q1009 NOSIG=
22/04/2018 16:30:00Z	 SAID31 WIII 221630	METAR WIII 221630Z 29003KT 5000 HZ SCT020 27/25 Q1009 NOSIG=
22/04/2018 17:00:00Z	 SAID31 WIII 221700	METAR WIII 221700Z 30003KT 4000 HZ SCT020 27/25 Q1008 NOSIG=
22/04/2018 17:30:00Z	 SAID31 WIII 221730	METAR WIII 221730Z VRB04KT 3300 HZ SCT020 27/25 Q1008 NOSIG=
22/04/2018 18:00:00Z	 SAID31 WIII 221800	METAR WIII 221800Z 24006KT 4600 HZ FEW020CB SCT020 27/25 Q1008 NOSIG RMK CB TO SE=
22/04/2018 18:30:00Z	 SAID31 WIII 221830	METAR WIII 221830Z 21006KT 5000 HZ FEW020CB SCT020 27/25 Q1008 NOSIG RMK CB TO S=
22/04/2018 19:00:00Z	 SAID31 WIII 221900	METAR WIII 221900Z 21007KT 5000 HZ FEW020CB SCT020 27/25 Q1007 NOSIG RMK CB TO S=
22/04/2018 19:30:00Z	 SAID31 WIII 221930	METAR WIII 221930Z 19007KT 5000 HZ FEW020CB SCT020 27/25 Q1008 NOSIG RMK CB TO S=
22/04/2018 20:00:00Z	 SAID31 WIII 222000	METAR WIII 222000Z 21006KT 5000 HZ SCT020 26/25 Q1007 NOSIG=
22/04/2018 20:30:00Z	 SAID31 WIII 222030	METAR WIII 222030Z VRB05KT 5000 HZ SCT020 26/25 Q1007 NOSIG=
22/04/2018 21:00:00Z	 SAID31 WIII 222100	METAR WIII 222100Z VRB04KT 5000 HZ SCT020 26/25 Q1007 NOSIG=
22/04/2018 21:30:00Z	 SAID31 WIII 222130	METAR WIII 222130Z 20005KT 5000 HZ SCT020 26/25 Q1007 NOSIG=
22/04/2018 22:00:00Z	 SAID31 WIII 222200	METAR WIII 222200Z 22005KT 5000 HZ SCT020 26/24 Q1008 NOSIG=
22/04/2018 22:30:00Z	 SAID31 WIII 222230	METAR WIII 222230Z 21006KT 170V250 5000 VCTS FEW018CB SCT020 27/24 Q1008 NOSIG RMK CB TO NE=
22/04/2018 23:00:00Z	 SAID31 WIII 222300	METAR WIII 222300Z VRB05KT 5000 VCTS FEW018CB BKN020 27/24 Q1009 NOSIG RMK CB TO NE=
22/04/2018 23:30:00Z	 SAID31 WIII 222330	METAR WIII 222330Z VRB04KT 5000 HZ BKN020 27/24 Q1009 NOSIG=
23/04/2018 00:00:00Z	 SAID31 WIII 230000	METAR WIII 230000Z 03002KT 3500 -RA BKN020 26/24 Q1009 NOSIG=
23/04/2018 00:30:00Z	 SAID31 WIII 230030	METAR WIII 230030Z VRB03KT 4000 -RA SCT020 26/24 Q1010 NOSIG=
23/04/2018 01:00:00Z	 SAID31 WIII 230100	METAR WIII 230100Z 10002KT 4000 -RA SCT020 26/24 Q1010 NOSIG=
23/04/2018 01:30:00Z	 SAID31 WIII 230130	METAR WIII 230130Z VRB04KT 3000 -RA BKN018 26/25 Q1011 NOSIG=
23/04/2018 02:00:00Z	 SAID31 WIII 230200	METAR WIII 230200Z 07005KT 4000 -RA BKN016 OVC020 26/25 Q1011 NOSIG=
23/04/2018 02:30:00Z	 SAID31 WIII 230230	METAR WIII 230230Z VRB03KT 5000 -RA BKN016 26/25 Q1011 NOSIG=
23/04/2018 03:00:00Z	 SAID31 WIII 230300	METAR WIII 230300Z 14005KT 6000 -RA BKN016 OVC020 26/25 Q1011 RERA NOSIG=
23/04/2018 03:30:00Z	 SAID31 WIII 230330	METAR WIII 230330Z 16004KT 5000 -RA BKN018 26/25 Q1011 NOSIG=
23/04/2018 04:00:00Z	 SAID31 WIII 230400	METAR WIII 230400Z VRB04KT 6000 -RA BKN018 26/25 Q1011 NOSIG=
23/04/2018 04:30:00Z	 SAID31 WIII 230430	METAR WIII 230430Z VRB04KT 9000 +DZ SCT020 27/26 Q1010 NOSIG=
23/04/2018 05:00:00Z	 SAID31 WIII 230500	METAR WIII 230500Z VRB04KT 9000 SCT020 27/26 Q1009 RERA NOSIG=
23/04/2018 05:30:00Z	 SAID31 WIII 230530	METAR WIII 230530Z VRB03KT 6000 -RA BKN020 27/25 Q1009 NOSIG=
23/04/2018 06:00:00Z	 SAID31 WIII 230600	METAR WIII 230600Z VRB02KT 7000 SCT018 28/25 Q1008 NOSIG=
23/04/2018 06:30:00Z	 SAID31 WIII 230630	METAR WIII 230630Z VRB03KT 8000 SCT020 28/25 Q1008 NOSIG=
23/04/2018 07:00:00Z	 SAID31 WIII 230700	METAR WIII 230700Z VRB02KT 7000 BKN020 28/25 Q1008 NOSIG=
23/04/2018 07:30:00Z	 SAID31 WIII 230730	METAR WIII 230730Z VRB03KT 6000 BKN020 28/25 Q1007 NOSIG=
23/04/2018 08:00:00Z	 SAID31 WIII 230800	METAR WIII 230800Z VRB03KT 8000 SCT020 29/25 Q1007 NOSIG=
23/04/2018 08:30:00Z	 SAID31 WIII 230830	METAR WIII 230830Z VRB03KT 7000 SCT020 29/25 Q1007 NOSIG=
23/04/2018 09:00:00Z	 SAID31 WIII 230900	METAR WIII 230900Z VRB02KT 8000 SCT020 29/25 Q1007 NOSIG=
23/04/2018 09:30:00Z	 SAID31 WIII 230930	METAR WIII 230930Z VRB02KT 5000 SCT020 28/25 Q1007 NOSIG=
23/04/2018 10:00:00Z	 SAID31 WIII 231000	METAR WIII 231000Z VRB03KT 6000 SCT020 28/25 Q1007 NOSIG=
23/04/2018 10:30:00Z	 SAID31 WIII 231030	METAR WIII 231030Z 11003KT 7000 SCT020 28/24 Q1008 NOSIG=
23/04/2018 11:00:00Z	 SAID31 WIII 231100	METAR WIII 231100Z VRB03KT 6000 SCT020 28/25 Q1008 NOSIG=
23/04/2018 11:30:00Z	 SAID31 WIII 231130	METAR WIII 231130Z 14004KT 5000 HZ SCT020 28/25 Q1008 NOSIG=
23/04/2018 12:00:00Z	 SAID31 WIII 231200	METAR WIII 231200Z 16005KT 4000 HZ SCT020 28/25 Q1009 NOSIG=
23/04/2018 12:30:00Z	 SAID31 WIII 231230	METAR WIII 231230Z 17006KT 3000 -RA BKN018 27/25 Q1009 NOSIG=
23/04/2018 13:00:00Z	 SAID31 WIII 231300	METAR WIII 231300Z 14010G20KT 3500 -RA OVC018 27/25 Q1009 NOSIG=
23/04/2018 13:30:00Z	 SAID31 WIII 231330	METAR WIII 231330Z 13010G20KT 5000 -RA OVC020 26/24 Q1009 NOSIG=
23/04/2018 14:00:00Z	 SAID31 WIII 231400	METAR WIII 231400Z 14006KT 5000 -RA OVC020 26/24 Q1009 NOSIG=
23/04/2018 14:30:00Z	 SAID31 WIII 231430	METAR WIII 231430Z 17008G18KT 5000 -RA BKN020 26/24 Q1008 NOSIG=
23/04/2018 15:00:00Z	 SAID31 WIII 231500	METAR WIII 231500Z 18006KT 5000 -RA BKN020 26/24 Q1008 NOSIG=
23/04/2018 15:30:00Z	 SAID31 WIII 231530	METAR WIII 231530Z 19005KT 6000 BKN020 26/25 Q1008 RERA NOSIG=
23/04/2018 16:00:00Z	 SAID31 WIII 231600	METAR WIII 231600Z VRB03KT 5000 -RA BKN020 26/25 Q1009 NOSIG=
23/04/2018 16:30:00Z	 SAID31 WIII 231630	METAR WIII 231630Z 04003KT 3500 -RA BKN020 25/25 Q1009 NOSIG=
23/04/2018 17:00:00Z	 SAID31 WIII 231700	METAR WIII 231700Z 02003KT 3000 BR SCT020 25/25 Q1009 RERA NOSIG=
23/04/2018 17:30:00Z	 SAID31 WIII 231730	METAR WIII 231730Z 02003KT 3000 BR SCT020 25/25 Q1009 NOSIG=
23/04/2018 18:00:00Z	 SAID31 WIII 231800	METAR WIII 231800Z 05003KT 3000 BR OVC022 25/25 Q1009 NOSIG=
23/04/2018 18:30:00Z	 SAID31 WIII 231830	METAR WIII 231830Z 10003KT 5000 BR OVC022 25/25 Q1008 NOSIG=
23/04/2018 19:00:00Z	 SAID31 WIII 231900	METAR WIII 231900Z 17004KT 5000 BR FEW018 26/25 Q1008 NOSIG=
23/04/2018 19:30:00Z	 SAID31 WIII 231930	METAR WIII 231930Z 16003KT 5000 -RA SCT022 26/25 Q1008 NOSIG=
23/04/2018 20:00:00Z	 SAID31 WIII 232000	METAR WIII 232000Z 17004KT 5000 VCTS FEW018CB SCT022 25/25 Q1008 NOSIG RMK CB TO NW=
23/04/2018 20:30:00Z	 SAID31 WIII 232030	METAR WIII 232030Z 19004KT 4000 -RA BKN020 25/25 Q1008 NOSIG=
23/04/2018 21:00:00Z	 SAID31 WIII 232100	METAR WIII 232100Z 21006KT 4000 -RA BKN020 25/25 Q1008 NOSIG=
23/04/2018 21:30:00Z	 SAID31 WIII 232130	METAR WIII 232130Z 20004KT 4000 -RA BKN020 26/25 Q1008 NOSIG=
23/04/2018 22:00:00Z	 SAID31 WIII 232200	METAR WIII 232200Z 20004KT 4000 -RA BKN020 26/25 Q1008 NOSIG=
23/04/2018 22:30:00Z	 SAID31 WIII 232230	METAR WIII 232230Z 21003KT 4000 -RA BKN020 26/25 Q1008 NOSIG=
23/04/2018 23:00:00Z	 SAID31 WIII 232300	METAR WIII 232300Z 28004KT 3000 VCTS -RA FEW018CB OVC020 26/25 Q1008 NOSIG RMK CB TO NE=
23/04/2018 23:30:00Z	 SAID31 WIII 232330	METAR WIII 232330Z 31002KT 3000 VCTS -RA FEW016CB OVC020 26/25 Q1009 NOSIG RMK CB TO NE=
24/04/2018 00:00:00Z	 SAID31 WIII 240000	METAR WIII 240000Z VRB02KT 3000 -RA FEW016CB OVC020 26/25 Q1009 NOSIG RMK CB TO NE=
24/04/2018 00:30:00Z	 SAID31 WIII 240030	METAR WIII 240030Z 33003KT 3000 -RA SCT018 OVC020 25/25 Q1009 NOSIG=
24/04/2018 01:00:00Z	 SAID31 WIII 240100	METAR WIII 240100Z 31003KT 2000 -RA BR OVC020 26/25 Q1010 NOSIG=
24/04/2018 01:30:00Z	 SAID31 WIII 240130	METAR WIII 240130Z 31003KT 1100 -RA BR BKN020 26/25 Q1011 NOSIG=
24/04/2018 02:00:00Z	 SAID31 WIII 240200	METAR WIII 240200Z 29002KT 1200 BR BKN020 26/25 Q1010 RERA NOSIG=
24/04/2018 02:30:00Z	 SAID31 WIII 240230	METAR WIII 240230Z VRB03KT 1400 BR SCT020 26/25 Q1010 NOSIG=
24/04/2018 03:00:00Z	 SAID31 WIII 240300	METAR WIII 240300Z VRB03KT 1200 BR SCT020 26/25 Q1010 NOSIG=
24/04/2018 03:30:00Z	 SAID31 WIII 240330	METAR WIII 240330Z 33003KT 1500 BR SCT017 26/26 Q1010 NOSIG=
24/04/2018 04:00:00Z	 SAID31 WIII 240400	METAR WIII 240400Z VRB02KT 1900 BR SCT018 27/27 Q1009 NOSIG=
24/04/2018 04:30:00Z	 SAID31 WIII 240430	METAR WIII 240430Z VRB04KT 2500 HZ SCT018 29/27 Q1009 NOSIG=
24/04/2018 05:00:00Z	 SAID31 WIII 240500	METAR WIII 240500Z 08004KT 3000 HZ BKN020 29/26 Q1008 NOSIG=
24/04/2018 05:30:00Z	 SAID31 WIII 240530	METAR WIII 240530Z 08006KT 4000 HZ BKN020 30/26 Q1008 NOSIG=
24/04/2018 06:00:00Z	 SAID31 WIII 240600	METAR WIII 240600Z 09011KT 5000 -RA BKN020 31/27 Q1008 NOSIG=
24/04/2018 06:30:00Z	 SAID31 WIII 240630	METAR WIII 240630Z 07012KT 6000 SCT020 31/27 Q1007 RERA NOSIG=
24/04/2018 07:00:00Z	 SAID31 WIII 240700	METAR WIII 240700Z 07011KT 7000 VCTS FEW016CB BKN018 31/27 Q1007 NOSIG RMK CB TO SW=
24/04/2018 07:30:00Z	 SAID31 WIII 240730	METAR WIII 240730Z 07008KT 3500 -RA FEW016CB BKN018 26/25 Q1008 NOSIG RMK CB TO SW=
24/04/2018 08:00:00Z	 SAID31 WIII 240800	METAR WIII 240800Z VRB02KT 5000 -RA SCT020 26/26 Q1007 NOSIG=
24/04/2018 08:30:00Z	 SAID31 WIII 240830	METAR WIII 240830Z 10004KT 7000 SCT020 28/26 Q1007 RERA NOSIG=
24/04/2018 09:00:00Z	 SAID31 WIII 240900	METAR WIII 240900Z 09004KT 8000 SCT020 29/26 Q1007 NOSIG=
24/04/2018 09:30:00Z	 SAID31 WIII 240930	METAR WIII 240930Z 09005KT 9000 SCT020 29/26 Q1007 NOSIG=
24/04/2018 10:00:00Z	 SAID31 WIII 241000	METAR WIII 241000Z 10006KT 060V140 9000 SCT020 29/25 Q1007 NOSIG=
24/04/2018 10:30:00Z	 SAID31 WIII 241030	METAR WIII 241030Z 10005KT 8000 SCT020 29/25 Q1007 NOSIG=
24/04/2018 11:00:00Z	 SAID31 WIII 241100	METAR WIII 241100Z 09005KT 8000 SCT020 27/25 Q1008 NOSIG=
24/04/2018 11:30:00Z	 SAID31 WIII 241130	METAR WIII 241130Z 07007KT 8000 BKN020 28/26 Q1008 NOSIG=
24/04/2018 12:00:00Z	 SAID31 WIII 241200	METAR WIII 241200Z 04007KT 7000 FEW018CB SCT020 27/26 Q1009 NOSIG RMK SB TO NW=
24/04/2018 12:30:00Z	 SAID31 WIII 241230	METAR WIII 241230Z 10005KT 7000 SCT020 27/26 Q1009 NOSIG=
24/04/2018 13:00:00Z	 SAID31 WIII 241300	METAR WIII 241300Z 11005KT 7000 FEW020 27/25 Q1010 NOSIG=
24/04/2018 13:30:00Z	 SAID31 WIII 241330	METAR WIII 241330Z 12004KT 7000 FEW020 27/25 Q1010 NOSIG=
24/04/2018 14:00:00Z	 SAID31 WIII 241400	METAR WIII 241400Z 13003KT 7000 SCT020 27/25 Q1010 NOSIG=
24/04/2018 14:30:00Z	 SAID31 WIII 241430	METAR WIII 241430Z VRB03KT 7000 SCT020 27/25 Q1011 NOSIG=
24/04/2018 15:00:00Z	 SAID31 WIII 241500	METAR WIII 241500Z VRB03KT 7000 SCT020 27/25 Q1011 NOSIG=
24/04/2018 15:30:00Z	 SAID31 WIII 241530	METAR WIII 241530Z VRB02KT 6000 SCT020 27/25 Q1010 NOSIG=
24/04/2018 16:00:00Z	 SAID31 WIII 241600	METAR WIII 241600Z VRB02KT 5000 BR SCT020 27/26 Q1010 NOSIG=
24/04/2018 16:30:00Z	 SAID31 WIII 241630	METAR WIII 241630Z 30003KT 4300 BR SCT020 26/26 Q1010 NOSIG=
24/04/2018 17:00:00Z	 SAID31 WIII 241700	METAR WIII 241700Z 29003KT 2000 BR SCT020 26/26 Q1010 NOSIG=
24/04/2018 17:30:00Z	 SAID31 WIII 241730	METAR WIII 241730Z 28003KT 2000 BR SCT020 26/26 Q1010 NOSIG=
24/04/2018 18:00:00Z	 SAID31 WIII 241800	METAR WIII 241800Z 24004KT 2000 BR SCT020 26/26 Q1009 NOSIG=
24/04/2018 18:30:00Z	 SAID31 WIII 241830	METAR WIII 241830Z 24002KT 2000 BR SCT020 26/26 Q1009 NOSIG=
24/04/2018 19:00:00Z	 SAID31 WIII 241900	METAR WIII 241900Z 22003KT 2000 BR SCT020 26/26 Q1009 NOSIG=
24/04/2018 19:30:00Z	 SAID31 WIII 241930	METAR WIII 241930Z 28003KT 1500 BR SCT020 26/25 Q1008 NOSIG=
24/04/2018 20:00:00Z	 SAID31 WIII 242000	METAR WIII 242000Z 28002KT 1200 R25R/1300V2000 R25L/1600V1700 FG FEW018CB SCT020 26/25 Q1008 NOSIG RMK CB TO S=
24/04/2018 20:30:00Z	 SAID31 WIII 242030	METAR WIII 242030Z 26003KT 1100 R25R/1300V1700 R25L/1400V1900 FG FEW020 26/25 Q1008 NOSIG=
24/04/2018 21:00:00Z	 SAID31 WIII 242100	METAR WIII 242100Z 27004KT 1300 R25R/1500V2000 R25L/1200V1500 FG FEW018CB SCT020 26/25 Q1009 NOSIG RMK CB TO W AND S=
24/04/2018 21:30:00Z	 SAID31 WIII 242130	METAR WIII 242130Z 23006KT 1800 R25R/P2000 R25L/1500V2000 BR SCT020 26/25 Q1009 NOSIG=
24/04/2018 22:00:00Z	 SAID31 WIII 242200	METAR WIII 242200Z 26004KT 2300 BR SCT020 26/25 Q1009 NOSIG=
24/04/2018 22:30:00Z	 SAID31 WIII 242230	METAR WIII 242230Z 27005KT 1900 R25R/P2000 BR SCT020 26/25 Q1009 NOSIG=
24/04/2018 23:00:00Z	 SAID31 WIII 242300	METAR WIII 242300Z 25009KT 3600 BR SCT020 26/25 Q1009 NOSIG=
24/04/2018 23:30:00Z	 SAID31 WIII 242330	METAR WIII 242330Z 27006KT 4500 BR SCT020 26/25 Q1010 NOSIG=
25/04/2018 00:00:00Z	 SAID31 WIII 250000	METAR WIII 250000Z 28005KT 3400 BR SCT020 26/25 Q1010 NOSIG=
25/04/2018 00:30:00Z	 SAID31 WIII 250030	METAR WIII 250030Z 28008KT 5000 BR SCT020 26/25 Q1011 NOSIG=
25/04/2018 01:00:00Z	 SAID31 WIII 250100	METAR WIII 250100Z 28007KT 6000 FEW018CB SCT020 27/25 Q1011 NOSIG RMK CB TO N=
25/04/2018 01:30:00Z	 SAID31 WIII 250130	METAR WIII 250130Z 29007KT 6000 -RA FEW018CB SCT019 26/25 Q1012 NOSIG RMK CB TO NE=
25/04/2018 02:00:00Z	 SAID31 WIII 250200	METAR WIII 250200Z 29006KT 2000 RA FEW018CB BKN019 26/25 Q1012 NOSIG RMK CB TO NE=
25/04/2018 02:30:00Z	 SAID31 WIII 250230	METAR WIII 250230Z 28011KT 2000 RA FEW018CB BKN019 25/25 Q1012 NOSIG RMK CB TO NE=
25/04/2018 03:00:00Z	 SAID31 WIII 250300	METAR WIII 250300Z 28010KT 2000 RA FEW018CB BKN019 25/25 Q1012 NOSIG RMK CB TO NE=
25/04/2018 03:30:00Z	 SAID31 WIII 250330	METAR WIII 250330Z 29008KT 3000 -RA FEW018CB BKN019 25/24 Q1012 NOSIG RMK CB TO NE=
25/04/2018 04:00:00Z	 SAID31 WIII 250400	METAR WIII 250400Z 29007KT 4000 -RA FEW018CB BKN019 25/24 Q1012 NOSIG RMK CB TO NE=
25/04/2018 04:30:00Z	 SAID31 WIII 250430	METAR WIII 250430Z 27006KT 4000 RA FEW018CB BKN019 24/24 Q1011 NOSIG RMK CB TO NE=
25/04/2018 05:00:00Z	 SAID31 WIII 250500	METAR WIII 250500Z 27006KT 4000 -RA FEW018CB BKN019 25/24 Q1010 NOSIG RMK CB TO NE=
25/04/2018 05:30:00Z	 SAID31 WIII 250530	METAR WIII 250530Z 25007KT 5000 -RA FEW018CB BKN019 25/25 Q1009 NOSIG RMK CB TO E=
25/04/2018 06:00:00Z	 SAID31 WIII 250600	METAR WIII 250600Z 26007KT 5000 -RA FEW018CB BKN019 26/25 Q1009 NOSIG RMK CB TO E=
25/04/2018 06:30:00Z	 SAID31 WIII 250630	METAR WIII 250630Z VRB05KT 7000 -RA FEW018CB BKN019 26/25 Q1008 NOSIG RMK CB TO E=
25/04/2018 07:00:00Z	 SAID31 WIII 250700	METAR WIII 250700Z 22006KT 7000 SCT019 27/25 Q1008 RERA NOSIG=
25/04/2018 07:30:00Z	 SAID31 WIII 250730	METAR WIII 250730Z 19006KT 150V220 7000 SCT019 26/24 Q1008 NOSIG=
25/04/2018 08:00:00Z	 SAID31 WIII 250800	METAR WIII 250800Z 13005KT 6000 -RA BKN019 27/25 Q1007 NOSIG=
25/04/2018 08:30:00Z	 SAID31 WIII 250830	METAR WIII 250830Z VRB04KT 6000 -RA BKN019 26/25 Q1007 NOSIG=
25/04/2018 09:00:00Z	 SAID31 WIII 250900	METAR WIII 250900Z VRB04KT 7000 -RA SCT019 26/25 Q1007 NOSIG=
25/04/2018 09:30:00Z	 SAID31 WIII 250930	METAR WIII 250930Z VRB05KT 6000 -RA BKN019 26/25 Q1007 NOSIG=
25/04/2018 10:00:00Z	 SAID31 WIII 251000	METAR WIII 251000Z VRB04KT 5000 -RA BKN019 26/25 Q1007 NOSIG=
25/04/2018 10:30:00Z	 SAID31 WIII 251030	METAR WIII 251030Z VRB02KT 5000 -RA BKN019 26/25 Q1008 NOSIG=
25/04/2018 11:00:00Z	 SAID31 WIII 251100	METAR WIII 251100Z 06002KT 4000 BR BKN019 26/25 Q1009 RERA NOSIG=
25/04/2018 11:30:00Z	 SAID31 WIII 251130	METAR WIII 251130Z 10005KT 4000 BR BKN019 26/25 Q1009 NOSIG=
25/04/2018 12:00:00Z	 SAID31 WIII 251200	METAR WIII 251200Z 10005KT 4000 BR BKN019 26/25 Q1010 NOSIG=
25/04/2018 12:30:00Z	 SAID31 WIII 251230	METAR WIII 251230Z VRB05KT 4000 BR BKN019 26/25 Q1010 NOSIG=
25/04/2018 13:00:00Z	 SAID31 WIII 251300	METAR WIII 251300Z 13005KT 4000 -RA BKN018 26/25 Q1010 NOSIG=
25/04/2018 13:30:00Z	 SAID31 WIII 251330	METAR WIII 251330Z 05002KT 5000 -RA SCT018 25/25 Q1010 NOSIG=
25/04/2018 14:00:00Z	 SAID31 WIII 251400	METAR WIII 251400Z VRB02KT 4000 BR SCT020 25/25 Q1010 RERA NOSIG=
25/04/2018 14:30:00Z	 SAID31 WIII 251430	METAR WIII 251430Z VRB02KT 5000 BR SCT020 26/25 Q1010 NOSIG=
25/04/2018 15:00:00Z	 SAID31 WIII 251500	METAR WIII 251500Z VRB03KT 5000 BR SCT020 26/24 Q1010 NOSIG=
25/04/2018 15:30:00Z	 SAID31 WIII 251530	METAR WIII 251530Z VRB03KT 5000 BR SCT020 26/25 Q1010 NOSIG=
25/04/2018 16:00:00Z	 SAID31 WIII 251600	METAR WIII 251600Z VRB02KT 3200 BR SCT020 25/24 Q1009 NOSIG=
25/04/2018 16:30:00Z	 SAID31 WIII 251630	METAR WIII 251630Z 31004KT 3300 BR SCT020 25/24 Q1009 NOSIG=
25/04/2018 17:00:00Z	 SAID31 WIII 251700	METAR WIII 251700Z 31002KT 4000 BR SCT020 25/24 Q1009 NOSIG=
25/04/2018 17:30:00Z	 SAID31 WIII 251730	METAR WIII 251730Z 29002KT 3600 BR SCT020 25/24 Q1008 NOSIG=
25/04/2018 18:00:00Z	 SAID31 WIII 251800	METAR WIII 251800Z 30003KT 4100 BR SCT020 25/24 Q1008 NOSIG=
25/04/2018 19:00:00Z	 SAID31 WIII 251900	METAR WIII 251900Z 34002KT 3000 BR SCT020 25/24 Q1008 NOSIG=
25/04/2018 19:30:00Z	 SAID31 WIII 251930	METAR WIII 251930Z 15002KT 3000 BR SCT020 25/24 Q1008 NOSIG=
25/04/2018 20:00:00Z	 SAID31 WIII 252000	METAR WIII 252000Z 14002KT 4000 BR BKN020 25/24 Q1008 NOSIG=
25/04/2018 20:30:00Z	 SAID31 WIII 252030	METAR WIII 252030Z 12003KT 2500 BR BKN020 25/24 Q1008 NOSIG=
25/04/2018 21:00:00Z	 SAID31 WIII 252100	METAR WIII 252100Z 17006KT 3000 BR SCT020 25/24 Q1008 NOSIG=
25/04/2018 21:30:00Z	 SAID31 WIII 252130	METAR WIII 252130Z 18007KT 3000 BR SCT020 25/24 Q1008=
25/04/2018 22:00:00Z	 SAID31 WIII 252200	METAR WIII 252200Z 15003KT 3000 BR SCT020 25/25 Q1008 NOSIG=
25/04/2018 22:30:00Z	 SAID31 WIII 252230	METAR WIII 252230Z 13005KT 3000 BR SCT020 25/25 Q1008 NOSIG=
25/04/2018 23:00:00Z	 SAID31 WIII 252300	METAR WIII 252300Z VRB04KT 3500 BR SCT020 26/25 Q1009 NOSIG=
25/04/2018 23:30:00Z	 SAID31 WIII 252330	METAR WIII 252330Z VRB03KT 3000 BR SCT020 26/25 Q1009 NOSIG=
26/04/2018 00:00:00Z	 SAID31 WIII 260000	METAR WIII 260000Z VRB04KT 2500 BR BKN020 26/25 Q1009 NOSIG=
26/04/2018 00:30:00Z	 SAID31 WIII 260030	METAR WIII 260030Z VRB05KT 2700 BR FEW020 26/25 Q1010 NOSIG=
26/04/2018 01:00:00Z	 SAID31 WIII 260100	METAR WIII 260100Z VRB05KT 3000 HZ SCT020 27/26 Q1010 NOSIG=
26/04/2018 01:30:00Z	 SAID31 WIII 260130	METAR WIII 260130Z 09005KT 5000 HZ SCT020 28/26 Q1010 NOSIG=
26/04/2018 02:00:00Z	 SAID31 WIII 260200	METAR WIII 260200Z 11006KT 7000 SCT020 28/25 Q1010 NOSIG=
26/04/2018 02:30:00Z	 SAID31 WIII 260230	METAR WIII 260230Z 11005KT 7000 FEW020 29/25 Q1010 NOSIG=
26/04/2018 03:00:00Z	 SAID31 WIII 260300	METAR WIII 260300Z 09007KT 8000 FEW020 30/26 Q1010 NOSIG=
26/04/2018 03:30:00Z	 SAID31 WIII 260330	METAR WIII 260330Z 06008KT 9000 SCT020 30/26 Q1010 NOSIG=
26/04/2018 04:00:00Z	 SAID31 WIII 260400	METAR WIII 260400Z 06009KT 9999 SCT020 30/26 Q1009 NOSIG=
26/04/2018 04:30:00Z	 SAID31 WIII 260430	METAR WIII 260430Z 05008KT 9999 BKN020 30/26 Q1009 NOSIG=
26/04/2018 05:00:00Z	 SAID31 WIII 260500	METAR WIII 260500Z 04006KT 9999 BKN020 30/26 Q1008 NOSIG=
26/04/2018 05:30:00Z	 SAID31 WIII 260530	METAR WIII 260530Z 04005KT 9999 SCT020 30/25 Q1008 NOSIG=
26/04/2018 06:00:00Z	 SAID31 WIII 260600	METAR WIII 260600Z VRB05KT 6000 -RA BKN020 30/25 Q1008 NOSIG=
26/04/2018 06:30:00Z	 SAID31 WIII 260630	METAR WIII 260630Z 15007KT 4500 -RA BKN020 27/26 Q1008 NOSIG=
26/04/2018 07:00:00Z	 SAID31 WIII 260700	METAR WIII 260700Z 17006KT 6000 -RA BKN020 27/26 Q1008 NOSIG=
26/04/2018 07:30:00Z	 SAID31 WIII 260730	METAR WIII 260730Z 15007KT 8000 SCT020 27/25 Q1007 NOSIG=
26/04/2018 08:00:00Z	 SAID31 WIII 260800	METAR WIII 260800Z 18008KT 9000 SCT020 26/25 Q1007 NOSIG=
26/04/2018 08:30:00Z	 SAID31 WIII 260830	METAR WIII 260830Z 18005KT 9999 FEW020 27/26 Q1007 NOSIG=
26/04/2018 09:00:00Z	 SAID31 WIII 260900	METAR WIII 260900Z VRB05KT 9999 FEW020 28/26 Q1007 NOSIG=
26/04/2018 09:30:00Z	 SAID31 WIII 260930	METAR WIII 260930Z 19006KT 9999 FEW020 28/25 Q1007 NOSIG=
26/04/2018 10:00:00Z	 SAID31 WIII 261000	METAR WIII 261000Z 18007KT 9000 FEW020 28/26 Q1007 NOSIG=
26/04/2018 10:30:00Z	 SAID31 WIII 261030	METAR WIII 261030Z 17007KT 8000 FEW020 28/25 Q1008 NOSIG=
26/04/2018 11:00:00Z	 SAID31 WIII 261100	METAR WIII 261100Z VRB05KT 7000 FEW020 27/25 Q1008 NOSIG=
26/04/2018 11:30:00Z	 SAID31 WIII 261130	METAR WIII 261130Z VRB05KT 7000 FEW020 27/25 Q1008 NOSIG=
26/04/2018 12:30:00Z	 SAID31 WIII 261230	METAR WIII 261230Z VRB05KT 7000 FEW020 27/25 Q1009 NOSIG=
26/04/2018 13:30:00Z	 SAID31 WIII 261330	METAR WIII 261330Z 12010KT 060V140 6000 VCTS FEW018CB SCT019 27/25 Q1010 NOSIG RMK CB TO NW=
26/04/2018 14:00:00Z	 SAID31 WIII 261400	METAR WIII 261400Z 13006KT 7000 FEW020CB FEW020 27/25 Q1010 NOSIG RMK CB TO NW=
26/04/2018 14:30:00Z	 SAID31 WIII 261430	METAR WIII 261430Z 10003KT 6000 FEW020 26/25 Q1010 NOSIG=
26/04/2018 15:00:00Z	 SAID31 WIII 261500	METAR WIII 261500Z 15005KT 7000 FEW020 26/25 Q1010 NOSIG=
26/04/2018 15:30:00Z	 SAID31 WIII 261530	METAR WIII 261530Z VRB05KT 7000 FEW020 26/24 Q1010 NOSIG=
26/04/2018 16:00:00Z	 SAID31 WIII 261600	METAR WIII 261600Z 16006KT 150V210 6000 SCT020 26/25 Q1010 NOSIG=
26/04/2018 16:30:00Z	 SAID31 WIII 261630	METAR WIII 261630Z 16006KT 6000 SCT020 26/25 Q1010 NOSIG=
26/04/2018 17:30:00Z	 SAID31 WIII 261730	METAR WIII 261730Z 14003KT 7000 FEW020 26/25 Q1010 NOSIG=
26/04/2018 18:00:00Z	 SAID31 WIII 261800	METAR WIII 261800Z VRB03KT 7000 FEW020 26/25 Q1009 NOSIG=
26/04/2018 18:30:00Z	 SAID31 WIII 261830	METAR WIII 261830Z 12006KT 6000 FEW019CB BKN020 26/25 Q1009 NOSIG RMK CB TO S=
26/04/2018 19:00:00Z	 SAID31 WIII 261900	METAR WIII 261900Z 13004KT 5000 HZ FEW020 26/25 Q1009 NOSIG=
26/04/2018 19:30:00Z	 SAID31 WIII 261930	METAR WIII 261930Z 14005KT 5000 HZ FEW020 26/25 Q1008 NOSIG=
26/04/2018 20:00:00Z	 SAID31 WIII 262000	METAR WIII 262000Z 13004KT 5000 HZ FEW020 26/25 Q1008 NOSIG=
26/04/2018 20:30:00Z	 SAID31 WIII 262030	METAR WIII 262030Z 14004KT 5000 HZ FEW020 26/25 Q1008 NOSIG=
26/04/2018 21:00:00Z	 SAID31 WIII 262100	METAR WIII 262100Z 14004KT 5000 HZ FEW020 26/25 Q1008 NOSIG=
26/04/2018 21:30:00Z	 SAID31 WIII 262130	METAR WIII 262130Z 13005KT 5000 HZ SCT021 26/25 Q1008 NOSIG=
26/04/2018 22:00:00Z	 SAID31 WIII 262200	METAR WIII 262200Z 14005KT 5000 HZ FEW021 26/25 Q1009 NOSIG=
26/04/2018 22:30:00Z	 SAID31 WIII 262230	METAR WIII 262230Z 10003KT 5000 HZ FEW022 26/25 Q1009 NOSIG=
26/04/2018 23:00:00Z	 SAID31 WIII 262300	METAR WIII 262300Z VRB05KT 5000 HZ FEW022 27/25 Q1010 NOSIG=
26/04/2018 23:30:00Z	 SAID31 WIII 262330	METAR WIII 262330Z VRB05KT 5000 HZ FEW021 27/25 Q1010 NOSIG=
27/04/2018 00:00:00Z	 SAID31 WIII 270000	METAR WIII 270000Z 13007KT 5000 HZ FEW021 28/25 Q1011 NOSIG=
27/04/2018 00:30:00Z	 SAID31 WIII 270030	METAR WIII 270030Z 13008KT 7000 FEW021 29/25 Q1011 NOSIG=
27/04/2018 01:00:00Z	 SAID31 WIII 270100	METAR WIII 270100Z 12009KT 8000 FEW022 29/26 Q1011 NOSIG=
27/04/2018 01:30:00Z	 SAID31 WIII 270130	METAR WIII 270130Z 11009KT 8000 SCT021 30/26 Q1011 NOSIG=
27/04/2018 02:00:00Z	 SAID31 WIII 270200	METAR WIII 270200Z 08016KT 9000 SCT020 31/26 Q1011 NOSIG=
27/04/2018 02:30:00Z	 SAID31 WIII 270230	METAR WIII 270230Z 08013KT 9999 SCT020 31/26 Q1011 NOSIG=
27/04/2018 03:00:00Z	 SAID31 WIII 270300	METAR WIII 270300Z 09015KT 9000 SCT020 31/26 Q1011 NOSIG=
27/04/2018 03:30:00Z	 SAID31 WIII 270330	METAR WIII 270330Z 09016KT 050V110 9999 SCT020 31/26 Q1011 NOSIG=
27/04/2018 04:00:00Z	 SAID31 WIII 270400	METAR WIII 270400Z 09015KT 9999 SCT020 32/25 Q1011 NOSIG=
27/04/2018 04:30:00Z	 SAID31 WIII 270430	METAR WIII 270430Z 08015KT 9000 SCT020 32/25 Q1010 NOSIG=
27/04/2018 05:30:00Z	 SAID31 WIII 270530	METAR WIII 270530Z 08013KT 9999 SCT020 31/25 Q1009 NOSIG=
27/04/2018 06:00:00Z	 SAID31 WIII 270600	METAR WIII 270600Z 07016KT 9999 SCT020 32/26 Q1009 NOSIG=
27/04/2018 06:30:00Z	 SAID31 WIII 270630	METAR WIII 270630Z 07013KT 9999 SCT020 31/25 Q1009 NOSIG=
27/04/2018 07:00:00Z	 SAID31 WIII 270700	METAR WIII 270700Z 06010KT 9999 SCT020 32/26 Q1008 NOSIG=
27/04/2018 07:30:00Z	 SAID31 WIII 270730	METAR WIII 270730Z 06012KT 9999 SCT020 32/26 Q1008 NOSIG=
27/04/2018 08:00:00Z	 SAID31 WIII 270800	METAR WIII 270800Z 07013KT 9999 SCT020 31/24 Q1008 NOSIG=
27/04/2018 08:30:00Z	 SAID31 WIII 270830	METAR WIII 270830Z 06011KT 9999 SCT020 31/25 Q1008 NOSIG=
27/04/2018 09:00:00Z	 SAID31 WIII 270900	METAR WIII 270900Z 06009KT 9999 SCT020 31/25 Q1008 NOSIG=
27/04/2018 09:30:00Z	 SAID31 WIII 270930	METAR WIII 270930Z 06010KT 9999 SCT018 31/25 Q1009 NOSIG=
27/04/2018 10:00:00Z	 SAID31 WIII 271000	METAR WIII 271000Z 07010KT 9999 SCT018 30/25 Q1009 NOSIG=
27/04/2018 10:30:00Z	 SAID31 WIII 271030	METAR WIII 271030Z 05007KT 8000 SCT018 30/25 Q1009 NOSIG=
27/04/2018 11:00:00Z	 SAID31 WIII 271100	METAR WIII 271100Z 05006KT 7000 FEW018CB SCT018 29/25 Q1010 NOSIG RMK CB TO S AND SW=
27/04/2018 11:30:00Z	 SAID31 WIII 271130	METAR WIII 271130Z 04006KT 8000 SCT018 29/25 Q1011 NOSIG=
27/04/2018 12:00:00Z	 SAID31 WIII 271200	METAR WIII 271200Z 35009KT 7000 BKN018 28/25 Q1011 NOSIG=
27/04/2018 12:30:00Z	 SAID31 WIII 271230	METAR WIII 271230Z VRB04KT 5000 HZ SCT018 27/26 Q1012 RERA NOSIG=
27/04/2018 13:00:00Z	 SAID31 WIII 271300	METAR WIII 271300Z VRB03KT 6000 SCT020 27/25 Q1012 NOSIG=
27/04/2018 13:30:00Z	 SAID31 WIII 271330	METAR WIII 271330Z VRB02KT 6000 FEW020 27/25 Q1013 NOSIG=
27/04/2018 14:00:00Z	 SAID31 WIII 271400	METAR WIII 271400Z VRB02KT 6000 FEW020 27/25 Q1012 NOSIG=
27/04/2018 14:30:00Z	 SAID31 WIII 271430	METAR WIII 271430Z VRB03KT 6000 FEW020 27/24 Q1013 NOSIG=
27/04/2018 15:00:00Z	 SAID31 WIII 271500	METAR WIII 271500Z VRB02KT 6000 FEW020 27/24 Q1012 NOSIG=
27/04/2018 15:30:00Z	 SAID31 WIII 271530	METAR WIII 271530Z VRB04KT 6000 FEW020 27/25 Q1012 NOSIG=
27/04/2018 16:00:00Z	 SAID31 WIII 271600	METAR WIII 271600Z 18006KT 6000 FEW020 26/26 Q1013 NOSIG=
27/04/2018 16:30:00Z	 SAID31 WIII 271630	METAR WIII 271630Z VRB04KT 5000 HZ FEW020 26/25 Q1013 NOSIG=
27/04/2018 17:00:00Z	 SAID31 WIII 271700	METAR WIII 271700Z 19004KT 5000 HZ FEW020 26/25 Q1012 NOSIG=
27/04/2018 17:30:00Z	 SAID31 WIII 271730	METAR WIII 271730Z 19004KT 5000 HZ SCT020 26/25 Q1012 NOSIG=
27/04/2018 18:00:00Z	 SAID31 WIII 271800	METAR WIII 271800Z 19004KT 5000 HZ SCT020 26/25 Q1012 NOSIG=
27/04/2018 18:30:00Z	 SAID31 WIII 271830	METAR WIII 271830Z 16004KT 5000 HZ SCT020 26/25 Q1012 NOSIG=
27/04/2018 19:00:00Z	 SAID31 WIII 271900	METAR WIII 271900Z 14005KT 5000 -RA SCT020 26/25 Q1011 NOSIG=
27/04/2018 19:30:00Z	 SAID31 WIII 271930	METAR WIII 271930Z 17005KT 5000 BR SCT020 26/25 Q1011 RERA NOSIG=
27/04/2018 20:00:00Z	 SAID31 WIII 272000	METAR WIII 272000Z 18003KT 5000 HZ SCT020 26/25 Q1011 NOSIG=
27/04/2018 20:30:00Z	 SAID31 WIII 272030	METAR WIII 272030Z 19005KT 5000 HZ SCT020 26/25 Q1011 NOSIG=
27/04/2018 21:00:00Z	 SAID31 WIII 272100	METAR WIII 272100Z 17004KT 5000 HZ SCT020 26/25 Q1011 NOSIG=
27/04/2018 21:30:00Z	 SAID31 WIII 272130	METAR WIII 272130Z 19003KT 5000 HZ SCT020 25/24 Q1010 NOSIG=
27/04/2018 22:00:00Z	 SAID31 WIII 272200	METAR WIII 272200Z 17005KT 5000 HZ SCT020 25/24 Q1010 NOSIG=
27/04/2018 22:30:00Z	 SAID31 WIII 272230	METAR WIII 272230Z 17005KT 5000 HZ SCT020 26/24 Q1011 NOSIG=
27/04/2018 23:00:00Z	 SAID31 WIII 272300	METAR WIII 272300Z 18004KT 5000 HZ SCT020 26/24 Q1011 NOSIG=
27/04/2018 23:30:00Z	 SAID31 WIII 272330	METAR WIII 272330Z 21002KT 5000 HZ FEW021 26/24 Q1012 NOSIG=
28/04/2018 00:00:00Z	 SAID31 WIII 280000	METAR WIII 280000Z VRB03KT 7000 FEW020 27/24 Q1012 NOSIG=
28/04/2018 00:30:00Z	 SAID31 WIII 280030	METAR WIII 280030Z VRB05KT 9000 FEW020 27/24 Q1012 NOSIG=
28/04/2018 01:00:00Z	 SAID31 WIII 280100	METAR WIII 280100Z 17004KT 9000 FEW020 28/24 Q1013 NOSIG=
28/04/2018 01:30:00Z	 SAID31 WIII 280130	METAR WIII 280130Z VRB03KT 9000 FEW020 30/24 Q1013 NOSIG=
28/04/2018 02:00:00Z	 SAID31 WIII 280200	METAR WIII 280200Z VRB03KT 9000 FEW020 30/25 Q1013 NOSIG=
28/04/2018 02:30:00Z	 SAID31 WIII 280230	METAR WIII 280230Z VRB03KT 9000 FEW020 31/25 Q1013 NOSIG=
28/04/2018 03:00:00Z	 SAID31 WIII 280300	METAR WIII 280300Z VRB03KT 9000 FEW020 31/24 Q1013 NOSIG=
28/04/2018 03:30:00Z	 SAID31 WIII 280330	METAR WIII 280330Z VRB04KT 9999 FEW020 32/24 Q1013 NOSIG=
28/04/2018 04:00:00Z	 SAID31 WIII 280400	METAR WIII 280400Z VRB05KT 9999 FEW020 32/24 Q1012 NOSIG=
28/04/2018 04:30:00Z	 SAID31 WIII 280430	METAR WIII 280430Z 07006KT 360V150 9000 FEW020 32/24 Q1011 NOSIG=
28/04/2018 05:00:00Z	 SAID31 WIII 280500	METAR WIII 280500Z 04007KT 350V080 7000 FEW020 33/25 Q1011 NOSIG=
28/04/2018 05:30:00Z	 SAID31 WIII 280530	METAR WIII 280530Z 030015KT 7000 FEW020 33/26 Q1010 NOSIG=
28/04/2018 06:00:00Z	 SAID31 WIII 280600	METAR WIII 280600Z 04007KT 360V070 8000 FEW020 33/25 Q1010 NOSIG=
28/04/2018 06:30:00Z	 SAID31 WIII 280630	METAR WIII 280630Z 05009KT 8000 FEW020 32/25 Q1009 NOSIG=
28/04/2018 07:00:00Z	 SAID31 WIII 280700	METAR WIII 280700Z 03008KT 360V060 7000 FEW020 32/25 Q1009 NOSIG=
28/04/2018 07:30:00Z	 SAID31 WIII 280730	METAR WIII 280730Z 03007KT 360V070 7000 VCTS -RA FEW019CB FEW020 31/25 Q1009 NOSIG RMK CB TO S=
28/04/2018 08:00:00Z	 SAID31 WIII 280800	METAR WIII 280800Z VRB05KT 7000 -RA FEW019CB FEW020 31/25 Q1009 NOSIG RMK CB TO S=
28/04/2018 08:30:00Z	 SAID31 WIII 280830	METAR WIII 280830Z 34005KT 6000 FEW020 31/26 Q1009 RERA NOSIG=
28/04/2018 09:00:00Z	 SAID31 WIII 280900	METAR WIII 280900Z VRB05KT 6000 FEW020 31/24 Q1009 NOSIG=
28/04/2018 09:30:00Z	 SAID31 WIII 280930	METAR WIII 280930Z 36005KT 7000 FEW020 30/24 Q1009 NOSIG=
28/04/2018 10:00:00Z	 SAID31 WIII 281000	METAR WIII 281000Z 02005KT 6000 FEW020 30/24 Q1009 NOSIG=
28/04/2018 10:30:00Z	 SAID31 WIII 281030	METAR WIII 281030Z 03004KT 6000 FEW020 30/24 Q1009 NOSIG=
28/04/2018 11:00:00Z	 SAID31 WIII 281100	METAR WIII 281100Z 02005KT 7000 FEW020 29/25 Q1009 NOSIG=
28/04/2018 11:30:00Z	 SAID31 WIII 281130	METAR WIII 281130Z 02002KT 5000 HZ FEW020 29/25 Q1010 NOSIG=
28/04/2018 12:00:00Z	 SAID31 WIII 281200	METAR WIII 281200Z VRB03KT 6000 FEW020 29/25 Q1010 NOSIG=
28/04/2018 12:30:00Z	 SAID31 WIII 281230	METAR WIII 281230Z 30003KT 6000 FEW020 29/25 Q1010 NOSIG=
28/04/2018 13:00:00Z	 SAID31 WIII 281300	METAR WIII 281300Z VRB02KT 6000 FEW020 29/26 Q1011 NOSIG=
28/04/2018 13:30:00Z	 SAID31 WIII 281330	METAR WIII 281330Z 33002KT 6000 SCT022 29/26 Q1011 NOSIG=
28/04/2018 14:00:00Z	 SAID31 WIII 281400	METAR WIII 281400Z 33002KT 6000 SCT022 29/26 Q1011 NOSIG=
28/04/2018 14:30:00Z	 SAID31 WIII 281430	METAR WIII 281430Z 31002KT 5000 VCTS FEW018CB SCT022 28/26 Q1012 NOSIG RMK CB TO E=
28/04/2018 15:00:00Z	 SAID31 WIII 281500	METAR WIII 281500Z VRB02KT 5000 FEW018CB SCT022 28/26 Q1012 NOSIG RMK CB TO E=
28/04/2018 15:30:00Z	 SAID31 WIII 281530	METAR WIII 281530Z 35002KT 5000 VCTS FEW018CB SCT018 28/26 Q1012 NOSIG RMK CB TO E=
28/04/2018 16:00:00Z	 SAID31 WIII 281600	METAR WIII 281600Z VRB02KT 5000 HZ SCT018 28/27 Q1011 NOSIG=
28/04/2018 16:30:00Z	 SAID31 WIII 281630	METAR WIII 281630Z VRB02KT 5000 HZ SCT020 28/27 Q1011 NOSIG=
28/04/2018 17:00:00Z	 SAID31 WIII 281700	METAR WIII 281700Z VRB02KT 5000 HZ SCT020 28/26 Q1011 NOSIG=
28/04/2018 17:30:00Z	 SAID31 WIII 281730	METAR WIII 281730Z 07003KT 5000 HZ SCT022 28/26 Q1011 NOSIG=
28/04/2018 18:00:00Z	 SAID31 WIII 281800	METAR WIII 281800Z VRB02KT 5000 HZ SCT020 28/26 Q1011 NOSIG=
28/04/2018 18:30:00Z	 SAID31 WIII 281830	METAR WIII 281830Z 04002KT 5000 HZ SCT020 28/26 Q1010 NOSIG=
28/04/2018 19:00:00Z	 SAID31 WIII 281900	METAR WIII 281900Z VRB01KT 4000 BR SCT020 28/26 Q1010 NOSIG=
28/04/2018 19:30:00Z	 SAID31 WIII 281930	METAR WIII 281930Z VRB02KT 3500 HZ SCT020 27/26 Q1010 NOSIG=
28/04/2018 20:00:00Z	 SAID31 WIII 282000	METAR WIII 282000Z VRB01KT 3500 BR SCT020 28/26 Q1010 NOSIG=
28/04/2018 20:30:00Z	 SAID31 WIII 282030	METAR WIII 282030Z 19003KT 4200 BR SCT020 27/26 Q1010 NOSIG=
28/04/2018 21:00:00Z	 SAID31 WIII 282100	METAR WIII 282100Z 22001KT 3400 BR SCT020 27/26 Q1010 NOSIG=
28/04/2018 21:30:00Z	 SAID31 WIII 282130	METAR WIII 282130Z 17004KT 2500 BR FEW021 27/26 Q1010 NOSIG=
28/04/2018 22:00:00Z	 SAID31 WIII 282200	METAR WIII 282200Z 17005KT 2200 BR SCT020 27/26 Q1010 NOSIG=
28/04/2018 22:30:00Z	 SAID31 WIII 282230	METAR WIII 282230Z 16005KT 3500 BR FEW021 27/25 Q1010 NOSIG=
28/04/2018 23:00:00Z	 SAID31 WIII 282300	METAR WIII 282300Z VRB04KT 2500 FEW017CB FEW020 28/25 Q1011 NOSIG RMK CB TO NE=
28/04/2018 23:30:00Z	 SAID31 WIII 282330	METAR WIII 282330Z VRB04KT 3300 FEW018CB FEW020 27/25 Q1011 NOSIG RMK CB TO NE=
29/04/2018 00:00:00Z	 SAID31 WIII 290000	METAR WIII 290000Z VRB05KT 4000 HZ FEW018CB FEW020 28/25 Q1011 NOSIG RMK CB TO NE=
29/04/2018 00:30:00Z	 SAID31 WIII 290030	METAR WIII 290030Z VRB04KT 5000 HZ FEW020 29/25 Q1012 NOSIG=
29/04/2018 01:00:00Z	 SAID31 WIII 290100	METAR WIII 290100Z 13004KT 5000 HZ FEW020 30/26 Q1012 NOSIG=
29/04/2018 01:30:00Z	 SAID31 WIII 290130	METAR WIII 290130Z VRB05KT 6000 FEW020 30/26 Q1012 NOSIG=
29/04/2018 02:00:00Z	 SAID31 WIII 290200	METAR WIII 290200Z VRB05KT 8000 SCT020 30/26 Q1012 NOSIG=
29/04/2018 02:30:00Z	 SAID31 WIII 290230	METAR WIII 290230Z 11005KT 6000 SCT020 31/26 Q1012 NOSIG=
29/04/2018 03:00:00Z	 SAID31 WIII 290300	METAR WIII 290300Z VRB08KT 6000 BKN020 32/26 Q1011 NOSIG=
29/04/2018 03:30:00Z	 SAID31 WIII 290330	METAR WIII 290330Z 06007KT 7000 BKN020 32/26 Q1011 NOSIG=
29/04/2018 04:00:00Z	 SAID31 WIII 290400	METAR WIII 290400Z 05007KT 7000 BKN020 32/26 Q1011 NOSIG=
29/04/2018 04:30:00Z	 SAID31 WIII 290430	METAR WIII 290430Z 05009KT 7000 BKN020 32/26 Q1010 NOSIG=
29/04/2018 05:00:00Z	 SAID31 WIII 290500	METAR WIII 290500Z 04009KT 7000 FEW018CB SCT020 32/26 Q1010 NOSIG RMK CB TO W=
29/04/2018 05:30:00Z	 SAID31 WIII 290530	METAR WIII 290530Z 04009KT 7000 TS FEW018CB FEW020 32/26 Q1009 NOSIG RMK CB TO W=
29/04/2018 06:00:00Z	 SAID31 WIII 290600	METAR WIII 290600Z 02007KT 9000 SCT020 32/26 Q1009 RETS NOSIG=
29/04/2018 06:30:00Z	 SAID31 WIII 290630	METAR WIII 290630Z 02009KT 7000 SCT020 31/26 Q1009 NOSIG=
29/04/2018 07:00:00Z	 SAID31 WIII 290700	METAR WIII 290700Z 01008KT 8000 FEW020 31/26 Q1008 NOSIG=
29/04/2018 07:30:00Z	 SAID31 WIII 290730	METAR WIII 290730Z 02008KT 7000 VCTS FEW018CB FEW020 32/26 Q1008 NOSIG RMK CB TO SE=
29/04/2018 08:00:00Z	 SAID31 WIII 290800	METAR WIII 290800Z 03007KT 8000 SCT020 32/24 Q1008 RETS NOSIG=
29/04/2018 08:30:00Z	 SAID31 WIII 290830	METAR WIII 290830Z 04007KT 9000 FEW020 31/25 Q1008 NOSIG=
29/04/2018 09:00:00Z	 SAID31 WIII 290900	METAR WIII 290900Z 05010KT 8000 FEW021 32/24 Q1008 NOSIG=
29/04/2018 09:30:00Z	 SAID31 WIII 290930	METAR WIII 290930Z 06008KT 9000 FEW021 31/23 Q1008 NOSIG=
29/04/2018 10:00:00Z	 SAID31 WIII 291000	METAR WIII 291000Z 05010KT 8000 FEW021 31/23 Q1008 NOSIG=
29/04/2018 10:30:00Z	 SAID31 WIII 291030	METAR WIII 291030Z 06010KT 8000 FEW021 30/24 Q1008 NOSIG=
29/04/2018 11:00:00Z	 SAID31 WIII 291100	METAR WIII 291100Z 06008KT 7000 FEW021 30/24 Q1008 NOSIG=
29/04/2018 11:30:00Z	 SAID31 WIII 291130	METAR WIII 291130Z 06007KT 7000 FEW021 29/23 Q1008 NOSIG=
29/04/2018 12:00:00Z	 SAID31 WIII 291200	METAR WIII 291200Z 06006KT 7000 FEW021 29/24 Q1008 NOSIG=
29/04/2018 12:30:00Z	 SAID31 WIII 291230	METAR WIII 291230Z 07006KT 7000 FEW021 29/24 Q1009 NOSIG=
29/04/2018 13:00:00Z	 SAID31 WIII 291300	METAR WIII 291300Z 09006KT 9000 FEW020 29/24 Q1009 NOSIG=
29/04/2018 13:30:00Z	 SAID31 WIII 291330	METAR WIII 291330Z 11006KT 9000 FEW020 29/24 Q1010 NOSIG=
29/04/2018 14:00:00Z	 SAID31 WIII 291400	METAR WIII 291400Z VRB05KT 9000 FEW021 29/24 Q1010 NOSIG=
29/04/2018 14:30:00Z	 SAID31 WIII 291430	METAR WIII 291430Z VRB05KT 8000 FEW021 29/24 Q1010 NOSIG=
29/04/2018 15:00:00Z	 SAID31 WIII 291500	METAR WIII 291500Z VRB03KT 4000 BR FEW022 28/23 Q1010 NOSIG=
29/04/2018 15:30:00Z	 SAID31 WIII 291530	METAR WIII 291530Z VRB03KT 3500 BR FEW022 28/23 Q1010 NOSIG=
29/04/2018 16:00:00Z	 SAID31 WIII 291600	METAR WIII 291600Z VRB04KT 4000 BR FEW022 28/23 Q1010 NOSIG=
29/04/2018 16:30:00Z	 SAID31 WIII 291630	METAR WIII 291630Z VRB03KT 3000 BR FEW022 28/24 Q1010 NOSIG=
29/04/2018 17:30:00Z	 SAID31 WIII 291730	METAR WIII 291730Z VRB01KT 2700 BR FEW022 26/24 Q1010 NOSIG=
29/04/2018 18:00:00Z	 SAID31 WIII 291800	METAR WIII 291800Z VRB01KT 2400 BR FEW022 26/24 Q1010 NOSIG=
29/04/2018 18:30:00Z	 SAID31 WIII 291830	METAR WIII 291830Z 17004KT 3500 BR FEW022 26/24 Q1010 NOSIG=
29/04/2018 19:00:00Z	 SAID31 WIII 291900	METAR WIII 291900Z 17004KT 3000 BR FEW022 26/24 Q1010 NOSIG=
29/04/2018 19:30:00Z	 SAID31 WIII 291930	METAR WIII 291930Z 19003KT 2600 BR FEW022 27/24 Q1010 NOSIG=
29/04/2018 20:00:00Z	 SAID31 WIII 292000	METAR WIII 292000Z 21002KT 2300 BR FEW022 26/24 Q1009 NOSIG=
29/04/2018 20:30:00Z	 SAID31 WIII 292030	METAR WIII 292030Z 20001KT 2500 BR FEW022 26/24 Q1009 NOSIG=
29/04/2018 21:00:00Z	 SAID31 WIII 292100	METAR WIII 292100Z 20002KT 2400 BR FEW022 26/24 Q1009 NOSIG=
29/04/2018 22:00:00Z	 SAID31 WIII 292200	METAR WIII 292200Z 21002KT 2200 BR FEW022 26/24 Q1010 NOSIG=
29/04/2018 22:30:00Z	 SAID31 WIII 292230	METAR WIII 292230Z 18004KT 2100 BR FEW022 26/24 Q1010 NOSIG=
29/04/2018 23:00:00Z	 SAID31 WIII 292300	METAR WIII 292300Z 17004KT 2400 BR FEW022 27/24 Q1010 NOSIG=
29/04/2018 23:30:00Z	 SAID31 WIII 292330	METAR WIII 292330Z 18004KT 2100 R07R/1500V1900 BR FEW022 25/24 Q1010 NOSIG=
30/04/2018 00:00:00Z	 SAID31 WIII 300000	METAR WIII 300000Z VRB03KT 2400 BR FEW021 27/24 Q1011 NOSIG=
30/04/2018 00:30:00Z	 SAID31 WIII 300030	METAR WIII 300030Z 18005KT 3000 BR FEW021 27/25 Q1011 NOSIG=
30/04/2018 01:00:00Z	 SAID31 WIII 300100	METAR WIII 300100Z VRB04KT 3000 BR FEW021 29/24 Q1011 NOSIG=
30/04/2018 01:30:00Z	 SAID31 WIII 300130	METAR WIII 300130Z VRB02KT 3800 BR FEW022 30/25 Q1012 NOSIG=
30/04/2018 02:00:00Z	 SAID31 WIII 300200	METAR WIII 300200Z VRB03KT 4700 HZ FEW022 30/24 Q1012 NOSIG=
30/04/2018 02:30:00Z	 SAID31 WIII 300230	METAR WIII 300230Z VRB03KT 4700 HZ FEW022 31/23 Q1012 NOSIG=
30/04/2018 03:00:00Z	 SAID31 WIII 300300	METAR WIII 300300Z VRB05KT 7000 FEW020 32/22 Q1011 NOSIG=
30/04/2018 03:30:00Z	 SAID31 WIII 300330	METAR WIII 300330Z VRB05KT 8000 FEW020 32/23 Q1011 NOSIG=
30/04/2018 04:00:00Z	 SAID31 WIII 300400	METAR WIII 300400Z 05008KT 020V080 8000 FEW020 33/22 Q1011 NOSIG=
30/04/2018 05:00:00Z	 SAID31 WIII 300500	METAR WIII 300500Z 06009KT 020V100 9000 FEW020 33/23 Q1010 NOSIG=
30/04/2018 05:30:00Z	 SAID31 WIII 300530	METAR WIII 300530Z 07010KT 9999 FEW020 33/23 Q1010 NOSIG=
30/04/2018 06:00:00Z	 SAID31 WIII 300600	METAR WIII 300600Z 06009KT 020V090 9999 FEW020 33/23 Q1009 NOSIG=
30/04/2018 07:00:00Z	 SAID31 WIII 300700	METAR WIII 300700Z 04011KT 9999 FEW020 32/23 Q1008 NOSIG=
30/04/2018 07:30:00Z	 SAID31 WIII 300730	METAR WIII 300730Z 04013KT 9999 FEW020 32/24 Q1008 NOSIG=
30/04/2018 08:00:00Z	 SAID31 WIII 300800	METAR WIII 300800Z 05013KT 9000 FEW020 32/23 Q1008 NOSIG=
30/04/2018 08:30:00Z	 SAID31 WIII 300830	METAR WIII 300830Z 04014KT 9000 FEW020 32/23 Q1008 NOSIG=
30/04/2018 09:00:00Z	 SAID31 WIII 300900	METAR WIII 300900Z 05010KT 9000 FEW020 31/23 Q1008 NOSIG=
30/04/2018 09:30:00Z	 SAID31 WIII 300930	METAR WIII 300930Z 05014KT 9000 FEW020 31/23 Q1008 NOSIG=
30/04/2018 10:00:00Z	 SAID31 WIII 301000	METAR WIII 301000Z 06013KT 8000 FEW020 30/23 Q1008 NOSIG=
30/04/2018 10:30:00Z	 SAID31 WIII 301030	METAR WIII 301030Z 06015KT 7000 FEW020 30/23 Q1008 NOSIG=
30/04/2018 11:00:00Z	 SAID31 WIII 301100	METAR WIII 301100Z 06008KT 6000 FEW020 29/24 Q1008 NOSIG=
30/04/2018 11:30:00Z	 SAID31 WIII 301130	METAR WIII 301130Z 07008KT 7000 FEW020 29/24 Q1009 NOSIG=
30/04/2018 12:00:00Z	 SAID31 WIII 301200	METAR WIII 301200Z 07007KT 7000 FEW020 29/24 Q1009 NOSIG=
30/04/2018 12:30:00Z	 SAID31 WIII 301230	METAR WIII 301230Z 07008KT 7000 FEW020 29/25 Q1009 NOSIG=
30/04/2018 13:00:00Z	 SAID31 WIII 301300	METAR WIII 301300Z 07006KT 7000 FEW020 29/25 Q1010 NOSIG=
30/04/2018 13:30:00Z	 SAID31 WIII 301330	METAR WIII 301330Z 07007KT 7000 FEW022 29/25 Q1010 NOSIG=
30/04/2018 14:00:00Z	 SAID31 WIII 301400	METAR WIII 301400Z 08009KT 7000 FEW021 29/25 Q1010 NOSIG=
30/04/2018 14:30:00Z	 SAID31 WIII 301430	METAR WIII 301430Z 08007KT 7000 FEW021 28/25 Q1010 NOSIG=
30/04/2018 15:00:00Z	 SAID31 WIII 301500	METAR WIII 301500Z 09007KT 8000 FEW021 28/24 Q1011 NOSIG=
30/04/2018 15:30:00Z	 SAID31 WIII 301530	METAR WIII 301530Z 12007KT 8000 FEW021 28/24 Q1011 NOSIG=
30/04/2018 16:30:00Z	 SAID31 WIII 301630	METAR WIII 301630Z 12005KT 8000 FEW022 27/24 Q1011 NOSIG=
30/04/2018 17:00:00Z	 SAID31 WIII 301700	METAR WIII 301700Z 13005KT 5000 HZ FEW022 27/24 Q1010 NOSIG=
30/04/2018 17:30:00Z	 SAID31 WIII 301730	METAR WIII 301730Z 11006KT 5000 HZ FEW022 27/24 Q1010 NOSIG=
30/04/2018 18:00:00Z	 SAID31 WIII 301800	METAR WIII 301800Z VRB04KT 5000 HZ FEW021 26/24 Q1010 NOSIG=
30/04/2018 18:30:00Z	 SAID31 WIII 301830	METAR WIII 301830Z 16004KT 4000 HZ FEW021 27/24 Q1010 NOSIG=
30/04/2018 19:00:00Z	 SAID31 WIII 301900	METAR WIII 301900Z VRB02KT 2700 HZ FEW020 26/24 Q1010 NOSIG=
30/04/2018 19:30:00Z	 SAID31 WIII 301930	METAR WIII 301930Z 13005KT 3000 HZ FEW020 26/24 Q1010 NOSIG=
30/04/2018 20:00:00Z	 SAID31 WIII 302000	METAR WIII 302000Z 12006KT 3000 BR FEW020 26/24 Q1010 NOSIG=
30/04/2018 20:30:00Z	 SAID31 WIII 302030	METAR WIII 302030Z 14005KT 3500 BR FEW020 27/24 Q1009 NOSIG=
30/04/2018 21:00:00Z	 SAID31 WIII 302100	METAR WIII 302100Z 13005KT 4000 BR FEW020 26/23 Q1009 NOSIG=
30/04/2018 21:30:00Z	 SAID31 WIII 302130	METAR WIII 302130Z 17004KT 4400 BR FEW020 26/23 Q1010 NOSIG=
30/04/2018 22:00:00Z	 SAID31 WIII 302200	METAR WIII 302200Z 17003KT 4200 BR FEW020 26/23 Q1010 NOSIG=
30/04/2018 22:30:00Z	 SAID31 WIII 302230	METAR WIII 302230Z 14005KT 4500 HZ FEW021 26/23 Q1010 NOSIG=
30/04/2018 23:00:00Z	 SAID31 WIII 302300	METAR WIII 302300Z VRB04KT 4500 HZ FEW021 27/23 Q1010 NOSIG=
30/04/2018 23:30:00Z	 SAID31 WIII 302330	METAR WIII 302330Z VRB04KT 4000 HZ FEW021 27/23 Q1011 NOSIG=
