01/12/2013 00:00:00Z	 SAID31 WIII 010000	METAR WIII 010000Z VRB03KT 9000 FEW020CB FEW021 26/23 Q1009 RMK CB TO E=
01/12/2013 00:30:00Z	 SAID31 WIII 010030	METAR WIII 010030Z VRB03KT 9000 FEW021 27/23 Q1009 NOSIG=
01/12/2013 01:00:00Z	 SAID31 WIII 010100	METAR WIII 010100Z 16004KT 8000 FEW018 28/23 Q1010=
01/12/2013 01:30:00Z	 SAID31 WIII 010130	METAR WIII 010130Z VRB05KT 8000 FEW018 29/23 Q1010=
01/12/2013 02:00:00Z	 SAID31 WIII 010200	METAR WIII 010200Z 14007KT 8000 SCT020 28/23 Q1010=
01/12/2013 02:30:00Z	 SAID31 WIII 010230	METAR WIII 010230Z VRB05KT 8000 FEW020 29/24 Q1010=
01/12/2013 03:00:00Z	 SAID31 WIII 010300	METAR WIII 010300Z 16006KT 9000 FEW020 31/24 Q1010 NOSIG=
01/12/2013 03:30:00Z	 SAID31 WIII 010330	METAR WIII 010330Z 14006KT 9999 FEW020 32/24 Q1009=
01/12/2013 04:00:00Z	 SAID31 WIII 010400	METAR WIII 010400Z 00000KT 9999 FEW020 32/23 Q1009=
01/12/2013 04:30:00Z	 SAID31 WIII 010430	METAR WIII 010430Z VRB02KT 9999 SCT041 33/23 Q1008=
01/12/2013 05:00:00Z	 SAID31 WIII 010500	METAR WIII 010500Z VRB03KT 9999 SCT018 33/25 Q1008=
01/12/2013 05:30:00Z	 SAID31 WIII 010530	METAR WIII 010530Z 04006KT 9999 FEW018 32/25 Q1007=
01/12/2013 06:00:00Z	 SAID31 WIII 010600	METAR WIII 010600Z 02009KT 9999 FEW018 33/25 Q1007 NOSIG=
01/12/2013 06:30:00Z	 SAID31 WIII 010630	METAR WIII 010630Z 34009KT 9000 32/25 Q1007 TEMPO FM0640 TL0730 35010 G20KT 5000 TSRA FEW018CB SCT020 RMK CB TO SW AND SE=
01/12/2013 07:00:00Z	 SAID31 WIII 010700	METAR WIII 010700Z 36008KT 9000 FEW018CB FEW020 33/25 Q1006 TEMPO 350 10G20KT 5000 TSRA FEW018CB SCT020 RMK CB TO SW AND SE=
01/12/2013 08:00:00Z	 SAID31 WIII 010800	METAR WIII 010800Z 31006KT 5000 TS FEW016CB BKN020 30/24 Q1006 RMK CB OVER THE FIELD=
01/12/2013 08:30:00Z	 SAID31 WIII 010830	METAR WIII 010830Z 17008KT 5000 TS FEW016CB BKN020 28/23 Q1007 RMK CB OVER THE FIELD=
01/12/2013 09:00:00Z	 SAID31 WIII 010900	METAR WIII 010900Z VRB03KT 5000 -RA FEW016CB BKN020 25/23 Q1006 RETS RMK CB TO S=
01/12/2013 09:30:00Z	 SAID31 WIII 010930	METAR WIII 010930Z 19004KT 6000 FEW016CB BKN020 29/23 Q1007 RERA RMK CB TO S=
01/12/2013 12:00:00Z	 SAID31 WIII 011200	METAR WIII 011200Z 16008KT 5000 BR FEW018 27/24 Q1008=
01/12/2013 12:30:00Z	 SAID31 WIII 011230	METAR WIII 011230Z 16006KT 4800 BR FEW018 SCT110 27/24 Q1008 NOSIG=
01/12/2013 18:00:00Z	 SAID31 WIII 011800	METAR WIII 011800Z 23004KT 4500 BR FEW021 SCT048 25/23 Q1009 NOSIG=
01/12/2013 19:00:00Z	 SAID31 WIII 011900	METAR WIII 011900Z 18003KT 4400 BR FEW020 SCT060 25/23 Q1008 NOSIG=
01/12/2013 19:30:00Z	 SAID31 WIII 011930	METAR WIII 011930Z 18003KT 3900 BR FEW021 25/23 Q1008 NOSIG=
01/12/2013 20:00:00Z	 SAID31 WIII 012000	METAR WIII 012000Z 20004KT 4700 BR FEW020 25/23 Q1008 NOSIG=
01/12/2013 20:30:00Z	 SAID31 WIII 012030	METAR WIII 012030Z 19004KT 4000 BR FEW020 25/23 Q1008 NOSIG=
01/12/2013 21:00:00Z	 SAID31 WIII 012100	METAR WIII 012100Z 22002KT 5000 BR FEW020 25/23 Q1008 NOSIG=
01/12/2013 21:30:00Z	 SAID31 WIII 012130	METAR WIII 012130Z 19003KT 4500 BR FEW020 25/23 Q1008 NOSIG=
01/12/2013 22:00:00Z	 SAID31 WIII 012200	METAR COR WIII 012200Z 20002KT 4500 BR FEW021 25/23 Q1008 NOSIG=
01/12/2013 22:30:00Z	 SAID31 WIII 012230	METAR WIII 012230Z 22003KT 4000 BR FEW021 SCT110 25/23 Q1008 NOSIG=
01/12/2013 23:00:00Z	 SAID31 WIII 012300	METAR WIII 012300Z 25003KT 4000 BR FEW021 SCT110 25/23 Q1009 NOSIG=
01/12/2013 23:30:00Z	 SAID31 WIII 012330	METAR WIII 012330Z 25003KT 3700 BR FEW021 SCT110 26/24 Q1009 NOSIG=
02/12/2013 00:00:00Z	 SAID31 WIII 020000	METAR WIII 020000Z 29005KT 3000 BR FEW021 SCT100 26/24 Q1009 NOSIG=
02/12/2013 00:30:00Z	 SAID31 WIII 020030	METAR WIII 020030Z 26004KT 3000 BR FEW021 SCT100 27/24 Q1010 NOSIG=
02/12/2013 01:00:00Z	 SAID31 WIII 020100	METAR WIII 020100Z AUTO 24006KT 6000 NCD 28/24 Q1010=
02/12/2013 01:30:00Z	 SAID31 WIII 020130	METAR WIII 020130Z AUTO VRB05KT 8000 NCD 30/24 Q1010=
02/12/2013 02:30:00Z	 SAID31 WIII 020230	METAR WIII 020230Z AUTO 23007KT 9999 NCD 31/24 Q1010=
02/12/2013 03:00:00Z	 SAID31 WIII 020300	METAR WIII 020300Z 29005G15KT 7000 SCT018 BKN100 29/24 Q1010 NOSIG=
02/12/2013 03:30:00Z	 SAID31 WIII 020330	METAR WIII 020330Z 22009KT 7000 SCT020 BKN100 30/24 Q1009 NOSIG=
02/12/2013 04:00:00Z	 SAID31 WIII 020400	METAR WIII 020400Z 22010KT 8000 SCT018 BKN100 32/24 Q1009 NOSIG=
02/12/2013 04:30:00Z	 SAID31 WIII 020430	METAR WIII 020430Z 22011KT 8000 SCT018 BKN100 32/24 Q1008 NOSIG=
02/12/2013 05:00:00Z	 SAID31 WIII 020500	METAR WIII 020500Z 24006G16KT 9999 FEW018CB SCT018 BKN100 31/24 Q1008 NOSIG=
02/12/2013 05:30:00Z	 SAID31 WIII 020530	METAR WIII 020530Z 24007G17KT 8000 FEW018CB SCT018 BKN100 31/24 Q1008 NOSIG=
02/12/2013 06:00:00Z	 SAID31 WIII 020600	METAR WIII 020600Z 27007G17KT 8000 SCT018 BKN100 31/23 Q1007 NOSIG=
02/12/2013 06:30:00Z	 SAID31 WIII 020630	METAR WIII 020630Z 25007G17KT 8000 FEW018CB SCT018 BKN100 32/24 Q1006 NOSIG=
02/12/2013 07:00:00Z	 SAID31 WIII 020700	METAR WIII 020700Z 26007G17KT 9999 FEW018CB SCT018 BKN100 33/23 Q1006 NOSIG=
02/12/2013 07:30:00Z	 SAID31 WIII 020730	METAR WIII 020730Z 26007KT 8000 FEW018CB SCT018 BKN100 33/23 Q1005 NO SIG=
02/12/2013 08:00:00Z	 SAID31 WIII 020800	METAR WIII 020800Z 29007G17KT 9999 FEW018CB SCT018 BKN100 32/23 Q1005 NOSIG=
02/12/2013 08:30:00Z	 SAID31 WIII 020830	METAR WIII 020830Z 27009KT 9999 FEW018CB SCT018 BKN100 33/24 Q1005 NO SIG=
02/12/2013 09:00:00Z	 SAID31 WIII 020900	METAR WIII 020900Z 30008KT 9999 FEW018CB SCT018 BKN100 33/24 Q1005 NO SIG=
02/12/2013 09:30:00Z	 SAID31 WIII 020930	METAR WIII 020930Z 28009KT 9999 VCTS FEW018CB SCT020 BKN100 32/23 Q10 05 RMK CB TO E AND SE=
02/12/2013 10:00:00Z	 SAID31 WIII 021000	METAR WIII 021000Z 29007G17KT 9999 TS SCT016CB BKN090 32/24 Q1006 RMK CB TO E SE AND S=
02/12/2013 10:30:00Z	 SAID31 WIII 021030	METAR WIII 021030Z 33007G17KT 9999 VCTS SCT016CB BKN045 30/25 Q1006 R MK CB TO E SE AND S=
02/12/2013 11:00:00Z	 SAID31 WIII 021100	METAR WIII 021100Z 17015KT 2000 TSRA SCT016CB OVC050 28/23 Q1007 TEMP O FM1100 TL1200 TSRA 3000 SCT018CB OVC050=
02/12/2013 11:30:00Z	 SAID31 WIII 021130	METAR WIII 021130Z 12008G18KT 3000 TSRA SCT016CB OVC050 27/23 Q1008 T EMPO FM1100 TL1200 TSRA 3000=
02/12/2013 12:00:00Z	 SAID31 WIII 021200	METAR WIII 021200Z 10007G17KT 4000 TS BKN016CB OVC080 27/24 Q1008 RMK RERA CB ALL RWY=
02/12/2013 12:30:00Z	 SAID31 WIII 021230	METAR WIII 021230Z 10006KT 4000 TS SCT016CB OVC080 26/24 Q1009 RMK CB TO NE E AND SE=
02/12/2013 13:00:00Z	 SAID31 WIII 021300	METAR WIII 021300Z 12005KT 5000 HZ FEW016CB SCT020 OVC080 27/24 Q1009 RMK RETS CB TO NE=
02/12/2013 13:30:00Z	 SAID31 WIII 021330	METAR WIII 021330Z 12006KT 5000 HZ SCT018 BKN080 27/25 Q1009 NOSIG=
02/12/2013 14:00:00Z	 SAID31 WIII 021400	METAR WIII 021400Z 15006KT 6000 SCT018 BKN090 27/24 Q1009 NOSIG=
02/12/2013 14:30:00Z	 SAID31 WIII 021430	METAR WIII 021430Z 17005KT 4500 BR FEW018 BKN090 26/24 Q1010 NOSIG=
02/12/2013 15:00:00Z	 SAID31 WIII 021500	METAR WIII 021500Z 16006KT 4000 BR FEW018 BKN090 26/24 Q1010 NOSIG=
02/12/2013 15:30:00Z	 SAID31 WIII 021530	METAR WIII 021530Z 16004KT 3500 BR FEW018 SCT090 26/24 Q1009 NOSIG=
02/12/2013 16:00:00Z	 SAID31 WIII 021600	METAR WIII 021600Z 18003KT 3000 BR FEW020 BKN090 26/24 Q1009 NOSIG=
02/12/2013 16:30:00Z	 SAID31 WIII 021630	METAR WIII 021630Z 21005KT 3000 BR FEW018 BKN100 26/24 Q1009 NOSIG=
02/12/2013 17:00:00Z	 SAID31 WIII 021700	METAR WIII 021700Z 22003KT 2500 BR FEW018 BKN100 26/24 Q1009 NOSIG=
02/12/2013 17:30:00Z	 SAID31 WIII 021730	METAR WIII 021730Z 22004KT 3000 BR FEW018 BKN100 26/24 Q1008 NOSIG=
02/12/2013 18:00:00Z	 SAID31 WIII 021800	METAR WIII 021800Z 21003KT 3500 BR FEW018 SCT100 26/24 Q1008 NOSIG=
02/12/2013 18:30:00Z	 SAID31 WIII 021830	METAR WIII 021830Z 20002KT 3500 BR FEW018 SCT100 26/24 Q1008 NOSIG=
02/12/2013 19:00:00Z	 SAID31 WIII 021900	METAR WIII 021900Z 26003KT 4500 BR FEW018 SCT090 26/24 Q1008 NOSIG=
02/12/2013 19:30:00Z	 SAID31 WIII 021930	METAR WIII 021930Z 27002KT 3300 BR FEW018 SCT090 25/24 Q1008 NOSIG=
02/12/2013 20:00:00Z	 SAID31 WIII 022000	METAR WIII 022000Z 20004KT 2500 BR FEW018 SCT090 25/24 Q1008 NOSIG=
02/12/2013 20:30:00Z	 SAID31 WIII 022030	METAR WIII 022030Z 21003KT 2500 BR FEW020 SCT100 25/23 Q1008 NOSIG=
02/12/2013 21:00:00Z	 SAID31 WIII 022100	METAR WIII 022100Z 21004KT 2000 BR FEW018 SCT100 25/23 Q1008 NOSIG=
02/12/2013 21:30:00Z	 SAID31 WIII 022130	METAR WIII 022130Z 20004KT 4000 BR FEW018 SCT100 25/23 Q1008 NOSIG=
02/12/2013 22:00:00Z	 SAID31 WIII 022200	METAR WIII 022200Z 19004KT 5000 BR FEW018 SCT100 25/23 Q1008 NOSIG=
02/12/2013 22:30:00Z	 SAID31 WIII 022230	METAR WIII 022230Z AUTO 21004KT 5000 NCD 25/23 Q1008=
02/12/2013 23:00:00Z	 SAID31 WIII 022300	METAR WIII 022300Z 22003KT 5000 BR FEW018 BKN100 26/23 Q1009 NOSIG=
02/12/2013 23:30:00Z	 SAID31 WIII 022330	METAR WIII 022330Z 26004KT 5000 BR FEW018 BKN100 27/24 Q1009 NOSIG=
03/12/2013 00:00:00Z	 SAID31 WIII 030000	METAR WIII 030000Z 26005KT 5000 HZ FEW018 BKN100 28/24 Q1009 NOSIG=
03/12/2013 00:30:00Z	 SAID31 WIII 030030	METAR WIII 030030Z 25006KT 5000 HZ FEW050 28/24 Q1009 NOSIG=
03/12/2013 01:00:00Z	 SAID31 WIII 030100	METAR WIII 030100Z 25007KT 6000 FEW019CB FEW021 30/24 Q1010 RMK CB TO NE=
03/12/2013 01:30:00Z	 SAID31 WIII 030130	METAR WIII 030130Z 21004KT 6000 FEW019CB FEW021 30/23 Q1010 RMK CB TO NE=
03/12/2013 02:00:00Z	 SAID31 WIII 030200	METAR WIII 030200Z VRB03KT 7000 FEW019CB SCT020 31/24 Q1010 RMK CB TO NE=
03/12/2013 02:30:00Z	 SAID31 WIII 030230	METAR WIII 030230Z 35004KT 6000 FEW019CB BKN020 30/24 Q1010 RMK CB TO N AND NE=
03/12/2013 03:00:00Z	 SAID31 WIII 030300	METAR WIII 030300Z 05005KT 6000 SCT019CB BKN020 30/24 Q1009 RMK CB TO N AND W=
03/12/2013 04:00:00Z	 SAID31 WIII 030400	METAR WIII 030400Z 23009G20KT 200V280 5000 VCTS SCT018CB BKN019 27/24 Q1010 RMK CB TO W AND SW=
03/12/2013 04:30:00Z	 SAID31 WIII 030430	METAR WIII 030430Z 27015KT 4000 TSRA SCT018CB BKN020 25/24 Q1009 RMK CB TO W=
03/12/2013 05:00:00Z	 SAID31 WIII 030500	METAR WIII 030500Z 32007KT 290V360 7000 FEW018CB SCT021 27/24 Q1008 R ETS RMK CB TO SE AND SW=
03/12/2013 05:30:00Z	 SAID31 WIII 030530	METAR WIII 030530Z 31006KT 7000 VCTS FEW019CB SCT021 29/25 Q1008 RMK CB TO S AND SE=
03/12/2013 06:00:00Z	 SAID31 WIII 030600	METAR WIII 030600Z 30006KT 7000 FEW019CB SCT021 30/25 Q1008 RMK CB TO S=
03/12/2013 06:30:00Z	 SAID31 WIII 030630	METAR WIII 030630Z 29009KT 5000 -RA FEW019CB BKN021 30/25 Q1007 RMK CB TO S=
03/12/2013 07:00:00Z	 SAID31 WIII 030700	METAR WIII 030700Z 32006KT 6000 FEW019CB BKN021 31/24 Q1007 RERA RMK CB TO S=
03/12/2013 07:30:00Z	 SAID31 WIII 030730	METAR WIII 030730Z VRB04KT 6000 FEW020CB SCT021 31/24 Q1006 RMK CB TO S=
03/12/2013 08:00:00Z	 SAID31 WIII 030800	METAR WIII 030800Z VRB04KT 6000 FEW020CB SCT021 BKN110 30/23 Q1006 RM K CB TO SE=
03/12/2013 08:30:00Z	 SAID31 WIII 030830	METAR WIII 030830Z 22010KT 6000 FEW020CB SCT022 BKN110 30/24 Q1006 RM K CB TO W=
03/12/2013 09:00:00Z	 SAID31 WIII 030900	METAR WIII 030900Z 24008KT 6000 FEW020CB SCT022 28/24 Q1006 RMK CB TO W AND E=
03/12/2013 09:30:00Z	 SAID31 WIII 030930	METAR WIII 030930Z 27005KT 7000 SCT022 28/24 Q1006 NOSIG=
03/12/2013 10:00:00Z	 SAID31 WIII 031000	METAR WIII 031000Z 27007KT 7000 FEW022 SCT110 28/25 Q1006 NOSIG=
03/12/2013 10:30:00Z	 SAID31 WIII 031030	METAR WIII 031030Z 26009KT 7000 FEW020CB FEW022 28/25 Q1006 RMK CB TO SE=
03/12/2013 11:00:00Z	 SAID31 WIII 031100	METAR WIII 031100Z 24006KT 7000 FEW022 27/24 Q1007 NOSIG=
03/12/2013 11:30:00Z	 SAID31 WIII 031130	METAR WIII 031130Z 24004KT 6000 FEW022 27/24 Q1008 NOSIG=
03/12/2013 12:00:00Z	 SAID31 WIII 031200	METAR WIII 031200Z 23006KT 6000 FEW022 27/24 Q1008 NOSIG=
03/12/2013 12:30:00Z	 SAID31 WIII 031230	METAR WIII 031230Z AUTO 29004KT 9999 NCD 27/24 Q1008=
03/12/2013 13:00:00Z	 SAID31 WIII 031300	METAR WIII 031300Z AUTO 25006KT 7000 SCT016 27/24 Q1009=
03/12/2013 13:30:00Z	 SAID31 WIII 031330	METAR WIII 031330Z 24007KT 8000 FEW022 26/24 Q1009 NOSIG=
03/12/2013 14:00:00Z	 SAID31 WIII 031400	METAR WIII 031400Z 24009KT 9999 FEW022 26/24 Q1009 NOSIG=
03/12/2013 14:30:00Z	 SAID31 WIII 031430	METAR WIII 031430Z 24008KT 9000 FEW022 26/24 Q1009 NOSIG=
03/12/2013 15:00:00Z	 SAID31 WIII 031500	METAR WIII 031500Z 20006KT 8000 FEW023 26/24 Q1009 NOSIG=
03/12/2013 15:30:00Z	 SAID31 WIII 031530	METAR WIII 031530Z 21004KT 7000 FEW023 26/24 Q1010 NOSIG=
03/12/2013 16:00:00Z	 SAID31 WIII 031600	METAR WIII 031600Z 25008KT 8000 FEW022 FEW070 SCT088 26/24 Q1009 NOSI G=
03/12/2013 16:30:00Z	 SAID31 WIII 031630	METAR WIII 031630Z 26005KT 9000 FEW022 26/24 Q1009 NOSIG=
03/12/2013 17:00:00Z	 SAID31 WIII 031700	METAR WIII 031700Z 22006KT 7000 FEW022 SCT061 BKN090 26/23 Q1009 NOSI G=
03/12/2013 17:30:00Z	 SAID31 WIII 031730	METAR WIII 031730Z 23004KT 9999 FEW022 SCT090 SCT120 26/24 Q1008 NOSI G=
03/12/2013 18:00:00Z	 SAID31 WIII 031800	METAR WIII 031800Z 25005KT 6000 FEW023 BKN120 26/23 Q1008 NOSIG=
03/12/2013 18:30:00Z	 SAID31 WIII 031830	METAR WIII 031830Z 25005KT 6000 FEW023 BKN120 25/23 Q1008 NOSIG=
03/12/2013 19:00:00Z	 SAID31 WIII 031900	METAR WIII 031900Z 24006KT 9999 FEW023 FEW070 24/22 Q1007 NOSIG=
03/12/2013 20:00:00Z	 SAID31 WIII 032000	METAR WIII 032000Z 25005KT 9999 FEW022 24/22 Q1007 NOSIG=
03/12/2013 20:30:00Z	 SAID31 WIII 032030	METAR WIII 032030Z AUTO 23002KT 7000 NCD 24/22 Q1007=
03/12/2013 21:00:00Z	 SAID31 WIII 032100	METAR WIII 032100Z AUTO 18002KT 5000 BR FEW100 24/22 Q1007=
03/12/2013 21:30:00Z	 SAID31 WIII 032130	METAR WIII 032130Z AUTO 16002KT 7000 FEW080 25/22 Q1008=
03/12/2013 22:00:00Z	 SAID31 WIII 032200	METAR WIII 032200Z AUTO 20003KT 9000 NCD 25/22 Q1008=
03/12/2013 22:30:00Z	 SAID31 WIII 032230	METAR WIII 032230Z 22004KT 9999 FEW021CB FEW023 24/22 Q1008 CB TO E=
03/12/2013 23:00:00Z	 SAID31 WIII 032300	METAR WIII 032300Z 23005KT 8000 FEW023 25/23 Q1009 NOSIG=
03/12/2013 23:30:00Z	 SAID31 WIII 032330	METAR WIII 032330Z 24004KT 7000 FEW020CB FEW023 27/23 Q1009 CB TO SW=
04/12/2013 00:00:00Z	 SAID31 WIII 040000	METAR WIII 040000Z 24009KT 9000 FEW021CB FEW023 27/23 Q1009 CB TO NE=
04/12/2013 00:30:00Z	 SAID31 WIII 040030	METAR WIII 040030Z 24007KT 9999 FEW023 28/23 Q1009 NOSIG=
04/12/2013 01:00:00Z	 SAID31 WIII 040100	METAR WIII 040100Z 24009KT 9000 FEW023 28/23 Q1009 NOSIG=
04/12/2013 01:30:00Z	 SAID31 WIII 040130	METAR WIII 040130Z 24008KT 9000 FEW023 29/23 Q1009 NOSIG=
04/12/2013 02:00:00Z	 SAID31 WIII 040200	METAR WIII 040200Z 24009KT 9000 FEW023 30/24 Q1009 NOSIG=
04/12/2013 02:30:00Z	 SAID31 WIII 040230	METAR WIII 040230Z 24009KT 9000 FEW021CB FEW023 31/23 Q1009 RMK CB TO NE=
04/12/2013 03:30:00Z	 SAID31 WIII 040330	METAR WIII 040330Z 24007KT 9999 FEW023 32/22 Q1009=
04/12/2013 04:00:00Z	 SAID31 WIII 040400	METAR WIII 040400Z 24005KT 8000 FEW022 34/22 Q1008 NOSIG=
04/12/2013 04:30:00Z	 SAID31 WIII 040430	METAR WIII 040430Z 29006KT 9000 SCT022 35/21 Q1007 NOSIG=
04/12/2013 05:00:00Z	 SAID31 WIII 040500	METAR WIII 040500Z 30006KT 9999 FEW022 35/23 Q1007 NOSIG=
04/12/2013 05:30:00Z	 SAID31 WIII 040530	METAR WIII 040530Z 27008KT 9999 SCT022 34/21 Q1006 NOSIG=
04/12/2013 06:00:00Z	 SAID31 WIII 040600	METAR WIII 040600Z 27010KT 8000 SCT022 35/21 Q1006 NOSIG=
04/12/2013 06:30:00Z	 SAID31 WIII 040630	METAR WIII 040630Z 30010KT 8000 BKN022 33/24 Q1006 NOSIG=
04/12/2013 07:00:00Z	 SAID31 WIII 040700	METAR WIII 040700Z 34011KT 8000 FEW019CB SCT022 32/25 Q1006 RMK CB TO SW=
04/12/2013 07:30:00Z	 SAID31 WIII 040730	METAR WIII 040730Z 33012KT 7000 FEW019CB SCT022 32/24 Q1005 RMK CB TO SW=
04/12/2013 08:00:00Z	 SAID31 WIII 040800	METAR WIII 040800Z 31021KT 9000 FEW019CB SCT021 SCT047 31/24 Q1005 RM K CB TO SE AND SW=
04/12/2013 08:30:00Z	 SAID31 WIII 040830	METAR WIII 040830Z 23015KT 7000 VCTSRA SCT017CB SCT020 BKN037 OVC045 28/22 Q1005 RMK CB TO SE AND SW=
04/12/2013 09:30:00Z	 SAID31 WIII 040930	METAR WIII 040930Z 29007KT 7000 SHRA SCT019CB BKN034 OVC060 25/22 Q10 06 RMK CB TO SE=
04/12/2013 10:00:00Z	 SAID31 WIII 041000	METAR WIII 041000Z 26008KT 9000 -SHRA FEW018CB SCT021 26/24 Q1007 RMK CB TO E AND S=
04/12/2013 10:30:00Z	 SAID31 WIII 041030	METAR WIII 041030Z 21004KT 7000 FEW019CB SCT021 BKN100 27/24 Q1007 RE RA RMK CB TO SE=
04/12/2013 11:00:00Z	 SAID31 WIII 041100	METAR WIII 041100Z 20004KT 7000 FEW020CB SCT021 BKN100 27/25 Q1008 RM K CB TO S=
04/12/2013 11:30:00Z	 SAID31 WIII 041130	METAR WIII 041130Z 14008KT 9000 FEW020CB SCT022 SCT150 SCT190 26/24 Q 1008 RMK CB TO S=
04/12/2013 12:00:00Z	 SAID31 WIII 041200	METAR WIII 041200Z 15009KT 9999 FEW020CB SCT022 BKN110 26/23 Q1008 RM K CB TO E=
04/12/2013 12:30:00Z	 SAID31 WIII 041230	METAR WIII 041230Z AUTO 14008KT 9999 SCT110 26/23 Q1009=
04/12/2013 13:00:00Z	 SAID31 WIII 041300	METAR WIII 041300Z AUTO 16007KT 7000 NCD 26/23 Q1009=
04/12/2013 13:30:00Z	 SAID31 WIII 041330	METAR WIII 041330Z 15004KT 7000 SCT018 BKN100 26/23 Q1009 NOSIG=
04/12/2013 14:00:00Z	 SAID31 WIII 041400	METAR WIII 041400Z 23004KT 7000 SCT018 BKN100 26/23 Q1009 NOSIG=
04/12/2013 14:30:00Z	 SAID31 WIII 041430	METAR WIII 041430Z 20004KT 8000 SCT018 BKN100 26/23 Q1009 NOSIG=
04/12/2013 15:00:00Z	 SAID31 WIII 041500	METAR WIII 041500Z 20004KT 7000 SCT018 BKN090 26/23 Q1009 NOSIG=
04/12/2013 15:30:00Z	 SAID31 WIII 041530	METAR WIII 041530Z AUTO VRB03KT 9000 SCT160 26/23 Q1009=
04/12/2013 16:00:00Z	 SAID31 WIII 041600	METAR WIII 041600Z 25002KT 8000 FEW018 BKN100 26/23 Q1009 NOSIG=
04/12/2013 16:30:00Z	 SAID31 WIII 041630	METAR WIII 041630Z 24002KT 2500 BR FEW018 SCT100 25/23 Q1008 NOSIG=
04/12/2013 17:00:00Z	 SAID31 WIII 041700	METAR WIII 041700Z 17003KT 7000 FEW018 SCT100 25/23 Q1008 NOSIG=
04/12/2013 17:30:00Z	 SAID31 WIII 041730	METAR WIII 041730Z 00000KT 2500 BR FEW018 SCT100 25/24 Q1008 NOSIG=
04/12/2013 18:00:00Z	 SAID31 WIII 041800	METAR WIII 041800Z 16004KT 5000 BR FEW018 SCT100 25/24 Q1008 NOSIG=
04/12/2013 18:30:00Z	 SAID31 WIII 041830	METAR WIII 041830Z 20002KT 6000 FEW018 SCT100 25/23 Q1007 NOSIG=
04/12/2013 19:00:00Z	 SAID31 WIII 041900	METAR WIII 041900Z 18003KT 7000 FEW018 SCT100 25/23 Q1007 NOSIG=
04/12/2013 19:30:00Z	 SAID31 WIII 041930	METAR WIII 041930Z 19003KT 7000 FEW018 SCT100 25/24 Q1007 NOSIG=
04/12/2013 20:00:00Z	 SAID31 WIII 042000	METAR WIII 042000Z 19003KT 7000 FEW018 SCT100 25/23 Q1007 NOSIG=
04/12/2013 20:30:00Z	 SAID31 WIII 042030	METAR WIII 042030Z 19002KT 7000 FEW018 SCT100 25/23 Q1007 NOSIG=
04/12/2013 21:00:00Z	 SAID31 WIII 042100	METAR WIII 042100Z 19002KT 8000 FEW018 SCT100 25/23 Q1006 NOSIG=
04/12/2013 21:30:00Z	 SAID31 WIII 042130	METAR WIII 042130Z 20004KT 8000 FEW018 SCT100 25/23 Q1006 NOSIG=
04/12/2013 22:00:00Z	 SAID31 WIII 042200	METAR WIII 042200Z AUTO 9999 FEW240 26/23 Q1007=
04/12/2013 22:30:00Z	 SAID31 WIII 042230	METAR WIII 042230Z 23002KT 5000 BR FEW018 BKN100 25/23 Q1007 NOSIG=
04/12/2013 23:00:00Z	 SAID31 WIII 042300	METAR WIII 042300Z 21003KT 5000 BR FEW018 SCT100 26/23 Q1007 NOSIG=
04/12/2013 23:30:00Z	 SAID31 WIII 042330	METAR WIII 042330Z 18004KT 5000 BR FEW018 BKN100 26/23 Q1007 NOSIG=
05/12/2013 00:00:00Z	 SAID31 WIII 050000	METAR WIII 050000Z 16004KT 5000 BR SCT018 BKN100 27/24 Q1007 NOSIG=
05/12/2013 00:30:00Z	 SAID31 WIII 050030	METAR WIII 050030Z 00000KT 9000 FEW022 SCT220 29/23 Q1008 NOSIG=
05/12/2013 01:00:00Z	 SAID31 WIII 050100	METAR WIII 050100Z 23004KT 9999 FEW023 30/23 Q1008 NOSIG=
05/12/2013 01:30:00Z	 SAID31 WIII 050130	METAR WIII 050130Z 21004KT 9999 FEW022 31/23 Q1007 NOSIG=
05/12/2013 02:00:00Z	 SAID31 WIII 050200	METAR WIII 050200Z 19004KT 9999 FEW023 31/22 Q1007 NOSIG=
05/12/2013 02:30:00Z	 SAID31 WIII 050230	METAR WIII 050230Z 24006KT 9999 FEW023 32/23 Q1007 NOSIG=
05/12/2013 03:30:00Z	 SAID31 WIII 050330	METAR WIII 050330Z VRB05KT 9999 FEW023 33/23 Q1007 NOSIG=
05/12/2013 04:00:00Z	 SAID31 WIII 050400	METAR WIII 050400Z 26005KT 9999 SCT022 33/23 Q1007 NOSIG=
05/12/2013 04:30:00Z	 SAID31 WIII 050430	METAR WIII 050430Z 22004KT 9999 SCT023 33/24 Q1007 NOSIG=
05/12/2013 05:00:00Z	 SAID31 WIII 050500	METAR WIII 050500Z 05006KT 9999 FEW020 SCT022 32/24 Q1006 NOSIG=
05/12/2013 05:30:00Z	 SAID31 WIII 050530	METAR WIII 050530Z AUTO 03007KT 9999 FEW050 33/24 Q1006=
05/12/2013 06:00:00Z	 SAID31 WIII 050600	METAR WIII 050600Z 05006KT 9999 SCT022 33/24 Q1006=
05/12/2013 06:30:00Z	 SAID31 WIII 050630	METAR WIII 050630Z 02008KT 9999 FEW019CB SCT022 33/24 Q1005 RMK CB TO SW=
05/12/2013 07:00:00Z	 SAID31 WIII 050700	METAR WIII 050700Z 02007KT 9999 FEW020CB SCT022 33/24 Q1005 RMK CB TO SW=
05/12/2013 07:30:00Z	 SAID31 WIII 050730	METAR WIII 050730Z 33007KT 9999 FEW020CB SCT022 33/23 Q1004 CB TO SW=
05/12/2013 08:00:00Z	 SAID31 WIII 050800	METAR WIII 050800Z 32007KT 9999 FEW020 FEW022 32/24 Q1004 CB TO S=
05/12/2013 08:30:00Z	 SAID31 WIII 050830	METAR WIII 050830Z 01005KT 9999 FEW020CB SCT022 SCT047 32/24 Q1004 PR EC AND CB TO S=
05/12/2013 09:00:00Z	 SAID31 WIII 050900	METAR WIII 050900Z 02007KT 9999 FEW020CB SCT022 31/24 Q1004 CB TO SE AND S=
05/12/2013 09:30:00Z	 SAID31 WIII 050930	METAR WIII 050930Z 01007KT 9999 VCTS FEW020CB SCT022 SCT055 SCT066 SC T085 31/24 Q1004 CB TO SE AND S=
05/12/2013 10:00:00Z	 SAID31 WIII 051000	METAR WIII 051000Z 03006KT 4000 VCTS BR FEW020CB SCT022 SCT095 30/24 Q1005 CB TO SE AND W=
05/12/2013 10:30:00Z	 SAID31 WIII 051030	METAR WIII 051030Z 05006KT 7000 VCTS FEW020CB SCT022 SCT030 30/24 Q10 06 CB TO SE AND S=
05/12/2013 11:00:00Z	 SAID31 WIII 051100	METAR WIII 051100Z 05005KT 5000 VCTS FEW020CB SCT021 FEW090 29/24 Q10 06 CB TO S AND SE=
05/12/2013 11:30:00Z	 SAID31 WIII 051130	METAR WIII 051130Z 09007KT 7000 TSRA SCT018CB SCT021 BKN036 BKN095 29 /24 Q1007 TEMPO FM1130 18010KT 3000 TSRA SCT019CB BKN020 CB OVER THE FIELD=
05/12/2013 12:00:00Z	 SAID31 WIII 051200	METAR WIII 051200Z 22017KT 4000 TSRA SCT018CB BKN020 SCT026 BKN032 BK N041 27/22 Q1007 RMK CB OVER THE FIELD=
05/12/2013 12:30:00Z	 SAID31 WIII 051230	METAR WIII 051230Z 16004KT 4200 +TSRA BR SCT018CB BKN021 BKN027 OVC04 4 25/23 Q1008 CB OVER THE FIELD=
05/12/2013 13:30:00Z	 SAID31 WIII 051330	METAR WIII 051330Z 11009KT 6000 VCTS SHRA SCT019CB BKN020 BKN075 BKN0 96 OVC120 25/23 Q1008 RMK CB TO N=
05/12/2013 14:00:00Z	 SAID31 WIII 051400	METAR WIII 051400Z 12008KT 6000 -SHRA FEW019CB SCT021 SCT070 OVC120 2 5/23 Q1008 RETS RMK CB TO N=
05/12/2013 14:30:00Z	 SAID31 WIII 051430	METAR WIII 051430Z 13008KT 8000 VCTS -SHRA FEW019CB SCT021 SCT043 SCT 075 BKN094 OVC140 26/24 Q1008 RMK CB TO N=
05/12/2013 15:30:00Z	 SAID31 WIII 051530	METAR WIII 051530Z 15005KT 5000 SCT021 25/24 Q1008 NOSIG=
05/12/2013 16:00:00Z	 SAID31 WIII 051600	METAR WIII 051600Z 15004KT 7000 SCT021 25/24 Q1008 NOSIG=
05/12/2013 16:30:00Z	 SAID31 WIII 051630	METAR WIII 051630Z 14004KT 8000 SCT021 25/24 Q1007 NOSIG=
05/12/2013 17:00:00Z	 SAID31 WIII 051700	METAR WIII 051700Z 16005KT 8000 SCT021 25/23 Q1007 NOSIG=
05/12/2013 17:30:00Z	 SAID31 WIII 051730	METAR WIII 051730Z VRB03KT 7000 FEW022 25/23 Q1007 NOSIG=
05/12/2013 18:00:00Z	 SAID31 WIII 051800	METAR WIII 051800Z VRB04KT 5000 FEW021 25/23 Q1007 NOSIG=
05/12/2013 18:30:00Z	 SAID31 WIII 051830	METAR WIII 051830Z 18004KT 7000 FEW021 25/23 Q1006 NOSIG=
05/12/2013 19:00:00Z	 SAID31 WIII 051900	METAR WIII 051900Z 24002KT 4900 BR FEW023 25/24 Q1006 NOSIG=
05/12/2013 19:30:00Z	 SAID31 WIII 051930	METAR WIII 051930Z 18003KT 5000 FEW021 25/24 Q1006 NOSIG=
05/12/2013 20:00:00Z	 SAID31 WIII 052000	METAR WIII 052000Z 23002KT 6000 FEW021 25/23 Q1006 NOSIG=
05/12/2013 20:30:00Z	 SAID31 WIII 052030	METAR WIII 052030Z 21003KT 5000 FEW021 25/23 Q1006 NOSIG=
05/12/2013 21:00:00Z	 SAID31 WIII 052100	METAR WIII 052100Z 21003KT 4900 BR FEW021 25/23 Q1006 NOSIG=
05/12/2013 21:30:00Z	 SAID31 WIII 052130	METAR WIII 052130Z 20002KT 4900 BR FEW021 24/23 Q1006 NOSIG=
05/12/2013 22:00:00Z	 SAID31 WIII 052200	METAR WIII 052200Z 20003KT 4900 BR FEW021 25/23 Q1006 NOSIG=
05/12/2013 22:30:00Z	 SAID31 WIII 052230	METAR WIII 052230Z 18003KT 5000 BR FEW022 25/23 Q1006 NOSIG=
05/12/2013 23:00:00Z	 SAID31 WIII 052300	METAR WIII 052300Z VRB03KT 5000 FEW021 25/23 Q1006 NOSIG=
05/12/2013 23:30:00Z	 SAID31 WIII 052330	METAR WIII 052330Z 18003KT 5000 HZ FEW021 26/23 Q1007 NOSIG=
06/12/2013 00:00:00Z	 SAID31 WIII 060000	METAR WIII 060000Z 18005KT 7000 FEW022 28/24 Q1007 NOSIG=
06/12/2013 00:30:00Z	 SAID31 WIII 060030	METAR WIII 060030Z 14006KT 7000 FEW022 28/24 Q1007 NOSIG=
06/12/2013 01:00:00Z	 SAID31 WIII 060100	METAR WIII 060100Z 20002KT 7000 NCD 30/24 Q1007 NOSIG=
06/12/2013 01:30:00Z	 SAID31 WIII 060130	METAR WIII 060130Z VRB02KT 8000 NCD 31/24 Q1007 NOSIG=
06/12/2013 02:00:00Z	 SAID31 WIII 060200	METAR WIII 060200Z 11004KT 7000 NCD 32/24 Q1007 NOSIG=
06/12/2013 03:00:00Z	 SAID31 WIII 060300	METAR WIII 060300Z 05003KT 7000 FEW024 32/24 Q1007 NOSIG=
06/12/2013 03:30:00Z	 SAID31 WIII 060330	METAR WIII 060330Z 03005KT 7000 FEW024 32/24 Q1007 NOSIG=
06/12/2013 04:00:00Z	 SAID31 WIII 060400	METAR WIII 060400Z 34005KT 9000 FEW024 32/24 Q1007 NOSIG=
06/12/2013 04:30:00Z	 SAID31 WIII 060430	METAR WIII 060430Z 03006KT 9000 FEW022CB FEW023 33/25 Q1007 RMK CB TO W=
06/12/2013 05:00:00Z	 SAID31 WIII 060500	METAR WIII 060500Z 33005KT 9999 FEW021CB FEW023 33/25 Q1006 RMK CB TO W=
06/12/2013 05:30:00Z	 SAID31 WIII 060530	METAR WIII 060530Z 02005KT 9999 FEW022CB FEW024 33/25 Q1006 RMK CB TO W AND SE=
06/12/2013 06:30:00Z	 SAID31 WIII 060630	METAR WIII 060630Z 04008KT 9000 FEW021CB FEW023 33/25 Q1005 RMK CB TO W=
06/12/2013 07:00:00Z	 SAID31 WIII 060700	METAR WIII 060700Z 04006KT 9000 FEW021CB FEW023 33/24 Q1004 RMK CB TO SW=
06/12/2013 08:00:00Z	 SAID31 WIII 060800	METAR WIII 060800Z 35005KT 9000 TS FEW021CB FEW026 32/24 Q1004 RMK CB TO SW AND SE=
06/12/2013 08:30:00Z	 SAID31 WIII 060830	METAR WIII 060830Z 26008KT 8000 FEW021CB FEW024 31/24 Q1004 TEMPO 28010G20KT 5000 TSRA FEW019CB SCT023=
06/12/2013 09:00:00Z	 SAID31 WIII 060900	METAR WIII 060900Z 24007KT 7000 FEW020CB SCT023 29/23 Q1005 TEMPO 280 10G20KT 5000 TSRA FEW019CB BKN023=
06/12/2013 09:30:00Z	 SAID31 WIII 060930	METAR WIII 060930Z 24012KT 5000 -TSRA FEW019CB BKN022 26/23 Q1005 RM K CB TO W=
06/12/2013 10:00:00Z	 SAID31 WIII 061000	METAR WIII 061000Z 20006KT 5000 -TSRA FEW020CB BKN022 26/24 Q1006 RMK CB TO SE=
06/12/2013 10:30:00Z	 SAID31 WIII 061030	METAR WIII 061030Z 16011KT 3000 -TSRA FEW020CB BKN022 25/23 Q1007 RMK CB OVER THE FIELD=
06/12/2013 11:00:00Z	 SAID31 WIII 061100	METAR WIII 061100Z 29006KT 4000 TSRA FEW020 BKN022 25/24 Q1007 RMK CB OVER THE FIELD=
06/12/2013 11:30:00Z	 SAID31 WIII 061130	METAR WIII 061130Z 27006KT 5000 TSRA FEW020CB BKN022 25/23 Q1007 RMK CB OVER THE FIELD=
06/12/2013 12:00:00Z	 SAID31 WIII 061200	METAR WIII 061200Z 16003KT 7000 -RA FEW020CB BKN022 26/24 Q1008 RETS RMK CB TO S=
06/12/2013 12:30:00Z	 SAID31 WIII 061230	METAR WIII 061230Z 15009KT 6000 FEW020CB BKN022 26/24 Q1008 RMK CB TO SE AND NW=
06/12/2013 13:00:00Z	 SAID31 WIII 061300	METAR WIII 061300Z 15008KT 6000 FEW020CB SCT022 26/24 Q1008 RMK CB TO NW=
06/12/2013 13:30:00Z	 SAID31 WIII 061330	METAR WIII 061330Z 18006KT 6000 FEW020CB SCT022 26/23 Q1009 RMK CB TO N=
06/12/2013 14:00:00Z	 SAID31 WIII 061400	METAR WIII 061400Z 15006KT 6000 FEW020CB SCT022 26/23 Q1009 RMK CB TO N=
06/12/2013 14:30:00Z	 SAID31 WIII 061430	METAR WIII 061430Z 17006KT 6000 FEW020CB SCT022 26/23 Q1009 RMK CB TO N=
06/12/2013 15:00:00Z	 SAID31 WIII 061500	METAR WIII 061500Z 18003KT 6000 SCT022 26/23 Q1009 NOSIG=
06/12/2013 15:30:00Z	 SAID31 WIII 061530	METAR WIII 061530Z 23004KT 6000 FEW020CB SCT021 26/23 Q1009 RMK CB TO N=
06/12/2013 16:00:00Z	 SAID31 WIII 061600	METAR WIII 061600Z VRB02KT 6000 SCT022 26/23 Q1009 NOSIG=
06/12/2013 16:30:00Z	 SAID31 WIII 061630	METAR WIII 061630Z 00000KT 4000 BR SCT022 BKN160 25/24 Q1009 NOSIG=
06/12/2013 17:00:00Z	 SAID31 WIII 061700	METAR WIII 061700Z 30002KT 3000 BR FEW022 SCT120 25/24 Q1008 NOSIG=
06/12/2013 17:30:00Z	 SAID31 WIII 061730	METAR WIII 061730Z 29005KT 2700 BR FEW020CB FEW022 SCT110 25/24 Q1008 RMK CB TO NW=
06/12/2013 18:00:00Z	 SAID31 WIII 061800	METAR WIII 061800Z 26003KT 2300 BR FEW022 SCT110 25/24 Q1007 NOSIG=
06/12/2013 18:30:00Z	 SAID31 WIII 061830	METAR WIII 061830Z 25004KT 1900 BR FEW022 SCT110 25/24 Q1007 NOSIG=
06/12/2013 19:00:00Z	 SAID31 WIII 061900	METAR WIII 061900Z 25005KT 2200 BR FEW022 SCT110 25/24 Q1008 NOSIG=
06/12/2013 19:30:00Z	 SAID31 WIII 061930	METAR WIII 061930Z 24003KT 2100 BR FEW021 SCT110 25/24 Q1007 NOSIG=
06/12/2013 20:00:00Z	 SAID31 WIII 062000	METAR WIII 062000Z 23005KT 2600 BR FEW022 25/23 Q1007 NOSIG=
06/12/2013 20:30:00Z	 SAID31 WIII 062030	METAR WIII 062030Z 23004KT 4700 BR FEW022 24/23 Q1007 NOSIG=
06/12/2013 21:00:00Z	 SAID31 WIII 062100	METAR WIII 062100Z 21005KT 6000 FEW022 25/23 Q1007 NOSIG=
06/12/2013 21:30:00Z	 SAID31 WIII 062130	METAR WIII 062130Z 23004KT 4000 BR FEW022 24/23 Q1007 NOSIG=
06/12/2013 22:00:00Z	 SAID31 WIII 062200	METAR WIII 062200Z 26003KT 2900 BR FEW022 24/23 Q1007 NOSIG=
06/12/2013 22:30:00Z	 SAID31 WIII 062230	METAR WIII 062230Z 24006KT 5000 BR FEW022 24/23 Q1008 NOSIG=
06/12/2013 23:00:00Z	 SAID31 WIII 062300	METAR WIII 062300Z 24008KT 6000 FEW022 25/23 Q1008 NOSIG=
06/12/2013 23:30:00Z	 SAID31 WIII 062330	METAR WIII 062330Z 23009KT 7000 FEW022 26/24 Q1008 NOSIG=
07/12/2013 00:00:00Z	 SAID31 WIII 070000	METAR WIII 070000Z 23011KT 8000 FEW022 27/24 Q1009 NOSIG=
07/12/2013 00:30:00Z	 SAID31 WIII 070030	METAR WIII 070030Z AUTO 23007KT 9999 NCD 28/24 Q1009=
07/12/2013 01:00:00Z	 SAID31 WIII 070100	METAR WIII 070100Z AUTO 23007KT 9999 NCD 29/24 Q1009=
07/12/2013 01:30:00Z	 SAID31 WIII 070130	METAR WIII 070130Z AUTO 25007KT 9999 NCD 30/24 Q1009=
07/12/2013 02:00:00Z	 SAID31 WIII 070200	METAR WIII 070200Z 25009KT 9999 FEW018 SCT100 30/24 Q1009 NOSIG=
07/12/2013 02:30:00Z	 SAID31 WIII 070230	METAR WIII 070230Z 28008KT 9999 FEW018 SCT100 31/25 Q1009 NOSIG=
07/12/2013 03:00:00Z	 SAID31 WIII 070300	METAR WIII 070300Z 26008KT 9999 FEW018 SCT100 32/24 Q1009 NOSIG=
07/12/2013 03:30:00Z	 SAID31 WIII 070330	METAR WIII 070330Z 28011KT 9999 SCT018 BKN100 32/24 Q1009 NOSIG=
07/12/2013 04:00:00Z	 SAID31 WIII 070400	METAR WIII 070400Z 30006G16KT 9999 SCT018 BKN100 32/25 Q1008 NOSIG=
07/12/2013 04:30:00Z	 SAID31 WIII 070430	METAR WIII 070430Z 28011KT 9999 SCT018 BKN100 32/24 Q1008 NOSIG=
07/12/2013 05:00:00Z	 SAID31 WIII 070500	METAR WIII 070500Z 29012KT 9999 SCT018 BKN100 33/24 Q1007 NOSIG=
07/12/2013 05:30:00Z	 SAID31 WIII 070530	METAR WIII 070530Z 27011KT 9999 FEW018CB BKN100 34/23 Q1007 NOSIG=
07/12/2013 06:00:00Z	 SAID31 WIII 070600	METAR WIII 070600Z 27005G15KT 9999 FEW018CB BKN100 33/24 Q1007 NOSIG=
07/12/2013 06:30:00Z	 SAID31 WIII 070630	METAR WIII 070630Z 27005G15KT 9999 FEW018CB BKN100 32/25 Q1006 NOSIG=
07/12/2013 07:00:00Z	 SAID31 WIII 070700	METAR WIII 070700Z 30008KT 9999 FEW018CB BKN100 33/25 Q1005 NOSIG=
07/12/2013 07:30:00Z	 SAID31 WIII 070730	METAR WIII 070730Z 25006G16KT 9999 FEW018CB SCT018 BKN100 33/26 Q1005 NOSIG=
07/12/2013 08:00:00Z	 SAID31 WIII 070800	METAR WIII 070800Z 25006G16KT 9999 FEW018CB SCT018 BKN100 33/24 Q1004 NOSIG=
07/12/2013 08:30:00Z	 SAID31 WIII 070830	METAR WIII 070830Z 25008G18KT 9999 FEW020CB SCT020 BKN100 32/24 Q1004 NOSIG=
07/12/2013 09:00:00Z	 SAID31 WIII 070900	METAR WIII 070900Z 26008G18KT 9999 SCT018 BKN100 32/23 Q1004 NOSIG=
07/12/2013 09:30:00Z	 SAID31 WIII 070930	METAR WIII 070930Z 25012KT 9999 SCT018 BKN100 31/24 Q1005 NOSIG=
07/12/2013 10:00:00Z	 SAID31 WIII 071000	METAR WIII 071000Z 25007G17KT 9999 FEW018CB SCT018 BKN100 31/24 Q1005 NOSIG=
07/12/2013 10:30:00Z	 SAID31 WIII 071030	METAR WIII 071030Z 27011G21KT 9999 FEW018CB SCT018 BKN100 29/24 Q1005 NOSIG=
07/12/2013 11:00:00Z	 SAID31 WIII 071100	METAR WIII 071100Z 25010KT 9999 SCT020 BKN100 29/23 Q1006 NOSIG=
07/12/2013 11:30:00Z	 SAID31 WIII 071130	METAR WIII 071130Z 27006G16KT 8000 FEW018CB SCT018 BKN100 28/23 Q1007 NOSIG=
07/12/2013 12:00:00Z	 SAID31 WIII 071200	METAR WIII 071200Z 27010KT 8000 FEW018 CB SCT018 BKN100 28/23 Q1007 NOSIG=
07/12/2013 12:30:00Z	 SAID31 WIII 071230	METAR WIII 071230Z 27009KT 8000 FEW018CB SCT018 BKN100 28/23 Q1008 NO SIG=
07/12/2013 13:00:00Z	 SAID31 WIII 071300	METAR WIII 071300Z 25006KT 9999 FEW020CB SCT021 28/23 Q1008 RMK CB TO E=
07/12/2013 13:30:00Z	 SAID31 WIII 071330	METAR WIII 071330Z 21005KT 9999 FEW020CB SCT021 28/23 Q1009 CB TO E=
07/12/2013 14:00:00Z	 SAID31 WIII 071400	METAR WIII 071400Z 19003KT 9999 FEW020CGB SCT021 28/23 Q1009 CB TO E=
07/12/2013 14:30:00Z	 SAID31 WIII 071430	METAR WIII 071430Z 22004KT 9999 FEW020CB SCT021 28/23 Q1009 RMK CB TO E=
07/12/2013 15:00:00Z	 SAID31 WIII 071500	METAR WIII 071500Z 20005KT 9000 FEW020CB SCT021 28/23 Q1009 CB TO E=
07/12/2013 15:30:00Z	 SAID31 WIII 071530	METAR WIII 071530Z 25004KT 9999 FEW021CB SCT022 27/23 Q1009 CB TO E=
07/12/2013 16:00:00Z	 SAID31 WIII 071600	METAR WIII 071600Z 29003KT 4800 HZ FEW020CB SCT021 26/24 Q1009 CB TO E=
07/12/2013 16:30:00Z	 SAID31 WIII 071630	METAR WIII 071630Z 30004KT 9999 FEW022 27/23 Q1009 NOSIG=
07/12/2013 17:00:00Z	 SAID31 WIII 071700	METAR WIII 071700Z 02002KT 5000 HZ FEW022 26/23 Q1009 NOSIG=
07/12/2013 17:30:00Z	 SAID31 WIII 071730	METAR WIII 071730Z 03002KT 7000 FEW022 26/24 Q1008 NOSIG=
07/12/2013 18:30:00Z	 SAID31 WIII 071830	METAR WIII 071830Z AUTO 00000KT 9999 26/24 Q1008=
07/12/2013 19:00:00Z	 SAID31 WIII 071900	METAR WIII 071900Z 33002KT 7000 FEW021 26/24 Q1007 NOSIG=
07/12/2013 19:30:00Z	 SAID31 WIII 071930	METAR WIII 071930Z AUTO 00000KT 9000 26/24 Q1007=
07/12/2013 20:00:00Z	 SAID31 WIII 072000	METAR WIII 072000Z AUTO 00000KT 7000 25/23 Q1007=
07/12/2013 20:30:00Z	 SAID31 WIII 072030	METAR WIII 072030Z AUTO 00000KT 5000 25/24 Q1007=
07/12/2013 21:00:00Z	 SAID31 WIII 072100	METAR WIII 072100Z AUTO 00000KT 4700 BR NCD 25/24 Q1007=
07/12/2013 21:30:00Z	 SAID31 WIII 072130	METAR WIII 072130Z AUTO 29002KT 3500 BR NCD 25/24 Q1007=
07/12/2013 22:00:00Z	 SAID31 WIII 072200	METAR WIII 072200Z 31004KT 3400 HZ FEW022 25/24 Q1007 NOSIG=
07/12/2013 22:30:00Z	 SAID31 WIII 072230	METAR WIII 072230Z 26003KT 3200 BR FEW022 25/24 Q1007 NOSIG=
07/12/2013 23:00:00Z	 SAID31 WIII 072300	METAR WIII 072300Z 23005KT 3000 BR SCT021 25/24 Q1008 NOSIG=
07/12/2013 23:30:00Z	 SAID31 WIII 072330	METAR WIII 072330Z 24004KT 2400 BR SCT021 25/24 Q1008 NOSIG=
08/12/2013 00:00:00Z	 SAID31 WIII 080000	METAR WIII 080000Z 21003KT 3500 BR SCT021 26/24 Q1009 NOSIG=
08/12/2013 00:30:00Z	 SAID31 WIII 080030	METAR WIII 080030Z AUTO 20004KT 4800 BR NCD 27/24 Q1009=
08/12/2013 01:00:00Z	 SAID31 WIII 080100	METAR WIII 080100Z 21004KT 6000 SCT021 28/23 Q1009 NOSIG=
08/12/2013 01:30:00Z	 SAID31 WIII 080130	METAR WIII 080130Z VRB02KT 6000 FEW021 29/24 Q1009 NOSIG=
08/12/2013 02:00:00Z	 SAID31 WIII 080200	METAR WIII 080200Z VRB02KT 7000 FEW021 30/23 Q1009 NOSIG=
08/12/2013 02:30:00Z	 SAID31 WIII 080230	METAR WIII 080230Z VRB02KT 8000 FEW021 31/24 Q1009 NOSIG=
08/12/2013 03:00:00Z	 SAID31 WIII 080300	METAR WIII 080300Z VRB03KT 8000 FEW021 31/24 Q1009 NOSIG=
08/12/2013 03:30:00Z	 SAID31 WIII 080330	METAR WIII 080330Z VRB04KT 9000 FEW021 31/22 Q1009 NOSIG=
08/12/2013 04:00:00Z	 SAID31 WIII 080400	METAR WIII 080400Z VRB03KT 9000 FEW021 32/23 Q1009 NOSIG=
08/12/2013 04:30:00Z	 SAID31 WIII 080430	METAR WIII 080430Z AUTO VRB05KT 9999 NCD 32/23 Q1009=
08/12/2013 05:00:00Z	 SAID31 WIII 080500	METAR WIII 080500Z AUTO 03006KT 9999 FEW044 32/24 Q1009=
08/12/2013 05:30:00Z	 SAID31 WIII 080530	METAR WIII 080530Z AUTO VRB03KT 9999 FEW046 32/24 Q1008=
08/12/2013 06:00:00Z	 SAID31 WIII 080600	METAR WIII 080600Z 03005KT 9000 FEW018CB BKN019 31/24 Q1008 RMK CB TO NE=
08/12/2013 06:30:00Z	 SAID31 WIII 080630	METAR WIII 080630Z VRB05KT 9000 SCT020 32/24 Q1007 NOSIG=
08/12/2013 07:00:00Z	 SAID31 WIII 080700	METAR WIII 080700Z 02005KT 9000 SCT020 32/24 Q1007 NOSIG=
08/12/2013 07:30:00Z	 SAID31 WIII 080730	METAR WIII 080730Z 33006KT 9000 SCT020 31/24 Q1007 NOSIG=
08/12/2013 08:00:00Z	 SAID31 WIII 080800	METAR WIII 080800Z 34006KT 9000 SCT020 31/24 Q1006 NOSIG=
08/12/2013 08:30:00Z	 SAID31 WIII 080830	METAR WIII 080830Z 01005KT 9000 FEW018CB SCT020 31/24 Q1006 CB TO SE=
08/12/2013 09:00:00Z	 SAID31 WIII 080900	METAR WIII 080900Z VRB04KT 6000 FEW016CB BKN018 VCTS 30/24 Q1007 RMK CB TO SW=
08/12/2013 09:30:00Z	 SAID31 WIII 080930	METAR WIII 080930Z 19015KT 6000 VCTS SCT02216CB BKN018 27/22 Q1007 BE CMG TL1100 18008G20KT 4000 TSRA=
08/12/2013 10:00:00Z	 SAID31 WIII 081000	METAR WIII 081000Z 20006KT 4000 TSRA SCT016CB BKN018 27/22 Q1007 RMK CB TO SW=
08/12/2013 11:00:00Z	 SAID31 WIII 081100	METAR WIII 081100Z VRB02KT 6000 -RA FEW020CB SCT020 23/22 Q1008 RMK C B TO E=
08/12/2013 11:30:00Z	 SAID31 WIII 081130	METAR WIII 081130Z VRB04KT 7000 -RA SCT020 25/22 Q1008 NOSIG=
08/12/2013 12:30:00Z	 SAID31 WIII 081230	METAR WIII 081230Z 16006KT 8000 SCT020 26/22 Q1009 NOSIG=
08/12/2013 13:00:00Z	 SAID31 WIII 081300	METAR WIII 081300Z 18006KT 8000 SCT020 25/23 Q1009 NOSIG=
08/12/2013 13:30:00Z	 SAID31 WIII 081330	METAR WIII 081330Z 19003KT 8000 SCT020 25/23 Q1009 NOSIG=
08/12/2013 14:00:00Z	 SAID31 WIII 081400	METAR WIII 081400Z VRB02KT 8000 FEW021 25/23 Q1009 NOSIG=
08/12/2013 14:30:00Z	 SAID31 WIII 081430	METAR WIII 081430Z 17005KT 8000 FEW021 26/23 Q1010 NOSIG=
08/12/2013 15:00:00Z	 SAID31 WIII 081500	METAR WIII 081500Z 20004KT 7000 -RA SCT019 25/23 Q1010 NOSIG=
08/12/2013 15:30:00Z	 SAID31 WIII 081530	METAR WIII 081530Z 19005KT 6000 -RA SCT021 25/23 Q1010 NOSIG=
08/12/2013 16:00:00Z	 SAID31 WIII 081600	METAR WIII 081600Z 20003KT 6000 -RA SCT021 26/23 Q1010 NOSIG=
08/12/2013 16:30:00Z	 SAID31 WIII 081630	METAR WIII 081630Z 14006KT 5000 -RA SCT021 25/24 Q1010 NOSIG=
08/12/2013 17:00:00Z	 SAID31 WIII 081700	METAR WIII 081700Z 16004KT 5000 -RA SCT020 25/24 Q1009 NOSIG=
08/12/2013 17:30:00Z	 SAID31 WIII 081730	METAR WIII 081730Z 21004KT 6000 SCT021 25/23 Q1009 NOSIG=
08/12/2013 18:00:00Z	 SAID31 WIII 081800	METAR WIII 081800Z 00000KT 6000 SCT021 BKN190 25/24 Q1009 NOSIG=
08/12/2013 18:30:00Z	 SAID31 WIII 081830	METAR WIII 081830Z 25002KT 6000 SCT020 25/24 Q1008 NOSIG=
08/12/2013 19:00:00Z	 SAID31 WIII 081900	METAR WIII 081900Z 26003KT 6000 SCT021 25/24 Q1007 NOSIG=
08/12/2013 19:30:00Z	 SAID31 WIII 081930	METAR WIII 081930Z 00000KT 5000 BR SCT021 25/24 Q1008 NOSIG=
08/12/2013 20:00:00Z	 SAID31 WIII 082000	METAR WIII 082000Z 00000KT 2800 BR FEW020 25/24 Q1007 NOSIG=
08/12/2013 20:30:00Z	 SAID31 WIII 082030	METAR WIII 082030Z 00000KT 1100 FG FEW020 25/24 Q1007 NOSIG=
08/12/2013 21:00:00Z	 SAID31 WIII 082100	METAR WIII 082100Z 28003KT 4000 BR FEW021 25/24 Q1007 NOSIG=
08/12/2013 21:30:00Z	 SAID31 WIII 082130	METAR WIII 082130Z 29003KT 2000 FG FEW020 25/24 Q1007 NOSIG=
08/12/2013 22:00:00Z	 SAID31 WIII 082200	METAR WIII 082200Z 23003KT 1600 FG FEW020 25/24 Q1008 NOSIG=
08/12/2013 22:30:00Z	 SAID31 WIII 082230	METAR WIII 082230Z 24005KT 2800 FG FEW020 24/23 Q1008 NOSIG=
08/12/2013 23:00:00Z	 SAID31 WIII 082300	METAR WIII 082300Z 23007KT 4000 BR FEW021 25/24 Q1008 NOSIG=
08/12/2013 23:30:00Z	 SAID31 WIII 082330	METAR WIII 082330Z 23004KT 4000 BR FEW021 27/24 Q1008 NOSIG=
09/12/2013 00:00:00Z	 SAID31 WIII 090000	METAR WIII 090000Z 25006KT 5000 HZ FEW021 28/25 Q1009 NOSIG=
09/12/2013 00:30:00Z	 SAID31 WIII 090030	METAR WIII 090030Z 24005KT 6000 FEW021 28/25 Q1009 NOSIG=
09/12/2013 01:00:00Z	 SAID31 WIII 090100	METAR WIII 090100Z 27009KT 7000 FEW021 29/25 Q1009 NOSIG=
09/12/2013 01:30:00Z	 SAID31 WIII 090130	METAR WIII 090130Z 26008KT 240V300 8000 FEW021 SCT120 29/24 Q1009 NOS IG=
09/12/2013 02:00:00Z	 SAID31 WIII 090200	METAR WIII 090200Z 28009KT 8000 FEW020CB SCT022 31/25 Q1009 RMK CB TO N=
09/12/2013 02:30:00Z	 SAID31 WIII 090230	METAR WIII 090230Z 28008KT 6000 FEW020CB BKN022 30/25 Q1009 RMK CB TO N=
09/12/2013 03:00:00Z	 SAID31 WIII 090300	METAR WIII 090300Z 29009KT 250V320 6000 FEW020CB BKN022 31/25 Q1008 R MK CB TO N=
09/12/2013 03:30:00Z	 SAID31 WIII 090330	METAR WIII 090330Z 23009KT 7000 BKN022 32/24 Q1008 NOSIG=
09/12/2013 04:00:00Z	 SAID31 WIII 090400	METAR WIII 090400Z 26006KT 8000 SCT021 33/25 Q1007 NOSIG=
09/12/2013 04:30:00Z	 SAID31 WIII 090430	METAR WIII 090430Z VRB05KT 8000 SCT021 33/24 Q1007 NOSIG=
09/12/2013 05:00:00Z	 SAID31 WIII 090500	METAR WIII 090500Z VRB04KT 8000 SCT021 33/25 Q1006 NOSIG=
09/12/2013 05:30:00Z	 SAID31 WIII 090530	METAR WIII 090530Z 31011KT 8000 SCT021 32/26 Q1006 NOSIG=
09/12/2013 06:00:00Z	 SAID31 WIII 090600	METAR WIII 090600Z 32012KT 7000 SCT020 32/26 Q1006 NOSIG=
09/12/2013 06:30:00Z	 SAID31 WIII 090630	METAR WIII 090630Z 34014KT 7000 FEW020CB SCT021 31/25 Q1005 RMK CB TO S=
09/12/2013 07:30:00Z	 SAID31 WIII 090730	METAR WIII 090730Z 33012KT 6000 TS SCT020CB BKN021 29/25 Q1005 RMK CB TO S=
09/12/2013 08:00:00Z	 SAID31 WIII 090800	METAR WIII 090800Z 30010KT 280V340 5000 TS SCT019CB BKN020 29/25 Q100 5 RMK CB TO S AND SE=
09/12/2013 08:30:00Z	 SAID31 WIII 090830	METAR WIII 090830Z 24017KT 4000 -TSRA SCT018CB BKN019 26/24 Q1005 RMK CB TO S, W AND SE=
09/12/2013 09:00:00Z	 SAID31 WIII 090900	METAR WIII 090900Z 15015KT 1100 +TSRA SCT018CB OVC019 25/24 Q1006 RMK CB TO S, W AND SE=
09/12/2013 09:30:00Z	 SAID31 WIII 090930	METAR WIII 090930Z 14010KT 1800 TSRA SCT018CB BKN019 OVC070 25/24 Q1007 RMK CB OVER THE FIELDS=
09/12/2013 10:00:00Z	 SAID31 WIII 091000	METAR WIII 091000Z 10011KT 070V150 2900 -TSRA SCT019CB BKN020 OVC100 25/24 Q1007 RMK CB TO E AND SW=
09/12/2013 10:30:00Z	 SAID31 WIII 091030	METAR WIII 091030Z 14011KT 2800 -TSRA SCT019CB BKN020 OVC120 25/24 Q1 007 RMK CB TO E AND NE=
09/12/2013 11:00:00Z	 SAID31 WIII 091100	METAR WIII 091100Z 12007KT 060V130 3000 -TSRA SCT019CB BKN022 OVC120 25/23 Q1007 RMK CB TO S AND NE=
09/12/2013 11:30:00Z	 SAID31 WIII 091130	METAR WIII 091130Z 09008KT 3000 -RA FEW019CB SCT022 OVC100 25/23 Q100 8 RMK CB TO S AND NE=
09/12/2013 12:00:00Z	 SAID31 WIII 091200	METAR WIII 091200Z 10008KT 2800 -TSRA FEW019CB BKN020 OVC110 26/23 Q1 008 RMK CB TO SE=
09/12/2013 12:30:00Z	 SAID31 WIII 091230	METAR WIII 091230Z 13006KT 040V190 3000 -RA FEW019CB SCT020 OVC093 25/23 Q1009 RMK CB TO N=
09/12/2013 13:00:00Z	 SAID31 WIII 091300	METAR WIII 091300Z 09006KT 3000 RA FEW018CB BKN020 OVC090 25/23 Q1009 RMK CB TO N=
09/12/2013 13:30:00Z	 SAID31 WIII 091330	METAR WIII 091330Z 08008KT 4000 -RA FEW018CB BKN020 OVC090 25/23 Q100 9 RMK CB TO N=
09/12/2013 14:00:00Z	 SAID31 WIII 091400	METAR WIII 091400Z 11005KT 3000 -RA FEW018CB SCT020 OVC085 25/23 Q1009 RMK CB TO N=
09/12/2013 14:30:00Z	 SAID31 WIII 091430	METAR WIII 091430Z 18004KT 4000 -RA FEW018CB BKN020 OVC090 25/23 Q1009 RMK CB TO N=
09/12/2013 15:00:00Z	 SAID31 WIII 091500	METAR WIII 091500Z 20004KT 4000 -RA FEW018CB BKN020 OVC090 25/23 Q1009 RMK CB TO NE=
09/12/2013 15:30:00Z	 SAID31 WIII 091530	METAR WIII 091530Z VRB02KT 5000 -RA FEW018CB SCT020 BKN090 25/23 Q100 9 RMK CB TO NW=
09/12/2013 16:00:00Z	 SAID31 WIII 091600	METAR WIII 091600Z 23003KT 4500 BR SCT020 BKN090 26/24 Q1009=
09/12/2013 16:30:00Z	 SAID31 WIII 091630	METAR WIII 091630Z 25002KT 4000 BR SCT020 OVC100 25/23 Q1008=
09/12/2013 17:00:00Z	 SAID31 WIII 091700	METAR WIII 091700Z 00000KT 2500 BR SCT020 OVC090 25/24 Q1008=
09/12/2013 17:30:00Z	 SAID31 WIII 091730	METAR WIII 091730Z 00000KT 3000 BR SCT020 OVC090 25/24 Q1008=
09/12/2013 18:00:00Z	 SAID31 WIII 091800	METAR WIII 091800Z 18002KT 3500 BR FEW018 BKN090 25/23 Q1007=
09/12/2013 18:30:00Z	 SAID31 WIII 091830	METAR WIII 091830Z 17004KT 4000 BR SCT020 BKN090 26/24 Q1007=
09/12/2013 19:00:00Z	 SAID31 WIII 091900	METAR WIII 091900Z 17003KT 4500 BR FEW018 BKN090 26/23 Q1007=
09/12/2013 19:30:00Z	 SAID31 WIII 091930	METAR WIII 091930Z 16003KT 4900 BR FEW020 BKN100 25/23 Q1006=
09/12/2013 20:00:00Z	 SAID31 WIII 092000	METAR WIII 092000Z VRB02KT 5000 BR FEW020 BKN100 25/24 Q1006=
09/12/2013 20:30:00Z	 SAID31 WIII 092030	METAR WIII 092030Z 21002KT 5000 FEW018 BKN100 26/23 Q1006=
09/12/2013 21:00:00Z	 SAID31 WIII 092100	METAR WIII 092100Z 25003KT 3500 BR FEW020 BKN100 25/23 Q1006=
09/12/2013 21:30:00Z	 SAID31 WIII 092130	METAR WIII 092130Z 26002KT 2500 BR FEW020 BKN100 25/23 Q1006=
09/12/2013 22:00:00Z	 SAID31 WIII 092200	METAR WIII 092200Z 25004KT 3000 BR FEW018 BKN100 25/24 Q1006=
09/12/2013 22:30:00Z	 SAID31 WIII 092230	METAR WIII 092230Z 27002KT 5000 BR FEW020 BKN090 26/23 Q1006=
09/12/2013 23:00:00Z	 SAID31 WIII 092300	METAR WIII 092300Z 27004KT 2000 BR FEW020 BKN100 26/24 Q1007 NOSIG=
09/12/2013 23:30:00Z	 SAID31 WIII 092330	METAR WIII 092330Z 26003KT 2000 BR FEW020 SCT100 26/24 Q1007 NOSIG=
10/12/2013 00:00:00Z	 SAID31 WIII 100000	METAR WIII 100000Z 22003KT 1500 BR FEW020 SCT100 27/24 Q1007 NOSIG=
10/12/2013 00:30:00Z	 SAID31 WIII 100030	METAR WIII 100030Z 22005KT 2000 BR FEW020 SCT100 29/24 Q1007 NOSIG=
10/12/2013 01:00:00Z	 SAID31 WIII 100100	METAR WIII 100100Z 220005KT 4000 BR FEW020 30/24 Q1007 NOSIG=
10/12/2013 01:30:00Z	 SAID31 WIII 100130	METAR WIII 100130Z 24003KT 4700 BR FEW020 31/24 Q1007 NOSIG=
10/12/2013 02:00:00Z	 SAID31 WIII 100200	METAR WIII 100200Z 29005KT 6000 FEW021 32/24 Q1007 NOSIG=
10/12/2013 02:30:00Z	 SAID31 WIII 100230	METAR WIII 100230Z 24005KT 8000 FEW021 33/24 Q1007 NOSIG=
10/12/2013 03:00:00Z	 SAID31 WIII 100300	METAR WIII 100300Z 01005KT 9000 FEW021 34/24 Q1007 NOSIG=
10/12/2013 03:30:00Z	 SAID31 WIII 100330	METAR WIII 100330Z VRB03KT 9000 FEW021 35/25 Q1007 NOSIG=
10/12/2013 04:00:00Z	 SAID31 WIII 100400	METAR WIII 100400Z 35008KT 9999 FEW021 35/25 Q1006 NOSIG=
10/12/2013 04:30:00Z	 SAID31 WIII 100430	METAR WIII 100430Z 01009KT 9999 SCT021 34/24 Q1006 NOSIG=
10/12/2013 05:00:00Z	 SAID31 WIII 100500	METAR WIII 100500Z 36006KT 9999 SCT021 34/24 Q1006 NOSIG=
10/12/2013 05:30:00Z	 SAID31 WIII 100530	METAR WIII 100530Z 33009KT 9999 SCT021 34/24 Q1005 NOSIG=
10/12/2013 06:00:00Z	 SAID31 WIII 100600	METAR WIII 100600Z 35010KT 9999 SCT021 33/24 Q1005 NOSIG=
10/12/2013 06:30:00Z	 SAID31 WIII 100630	METAR WIII 100630Z 01010KT 9999 SCT021 33/24 Q1004 NOSIG=
10/12/2013 07:00:00Z	 SAID31 WIII 100700	METAR WIII 100700Z 35010KT 9999 SCT021 33/24 Q1004 NOSIG=
10/12/2013 07:30:00Z	 SAID31 WIII 100730	METAR WIII 100730Z 01013KT 9000 SCT021 33/25 Q1003 NOSIG=
10/12/2013 08:00:00Z	 SAID31 WIII 100800	METAR WIII 100800Z 34011KT 9000 FEW019CB SCT021 33/24 Q1003 RMK CB TO W=
10/12/2013 08:30:00Z	 SAID31 WIII 100830	METAR WIII 100830Z 01011KT 9999 FEW020CB SCT021 32/24 Q1003 RMK CB TO W AND S=
10/12/2013 09:00:00Z	 SAID31 WIII 100900	METAR WIII 100900Z 33010KT 9000 FEW020CB SCT021 32/24 Q1003 RMK CB TO W AND S=
10/12/2013 09:30:00Z	 SAID31 WIII 100930	METAR WIII 100930Z 33007KT 9999 FEW020CB SCT021 31/24 Q1003 RMK CB TO S=
10/12/2013 10:00:00Z	 SAID31 WIII 101000	METAR WIII 101000Z 32007KT 9999 FEW020CB SCT021 31/24 Q1004 RMK CB TO SE AND SW=
10/12/2013 10:30:00Z	 SAID31 WIII 101030	METAR WIII 101030Z 34008KT 9999 FEW020CB SCT021 31/24 Q1004 RMK CB TO SE=
10/12/2013 11:00:00Z	 SAID31 WIII 101100	METAR WIII 101100Z 31005KT 9999 FEW019CB SCT021 30/24 Q1005 RMK CB TO SE=
10/12/2013 11:30:00Z	 SAID31 WIII 101130	METAR WIII 101130Z 28008KT 9999 FEW020CB FE021 30/24 Q1005 RMK CB TO SE=
10/12/2013 12:00:00Z	 SAID31 WIII 101200	METAR WIII 101200Z 25006KT 8000 FEW020CB FEW021 28/23 Q1006 RMK CB TO SE=
10/12/2013 12:30:00Z	 SAID31 WIII 101230	METAR WIII 101230Z AUTO VRB05KT 9999 29/23 Q1007=
10/12/2013 13:00:00Z	 SAID31 WIII 101300	METAR WIII 101300Z AUTO VRB03KT 9999 28/24 Q1007=
10/12/2013 13:30:00Z	 SAID31 WIII 101330	METAR WIII 101330Z 17004KT 9000 FEW021 28/24 Q1007 NOSIG=
10/12/2013 14:30:00Z	 SAID31 WIII 101430	METAR WIII 101430Z 13009KT 6000 FEW020CB SCT021 28/24 Q1008 RMK CB TO W=
10/12/2013 15:00:00Z	 SAID31 WIII 101500	METAR WIII 101500Z 17006KT 7000 FEW020CB FEW021 28/23 Q1008 RMK CB T O W=
10/12/2013 15:30:00Z	 SAID31 WIII 101530	METAR WIII 101530Z 14005KT 9000 FEW020CB SCT021 28/22 Q1008 RMK CB TO W=
10/12/2013 16:00:00Z	 SAID31 WIII 101600	METAR WIII 101600Z 15004KT 9999 FEW020CB SCT021 28/23 Q1007 RMK CB TO N=
10/12/2013 17:00:00Z	 SAID31 WIII 101700	METAR WIII 101700Z 17003KT 9999 FEW020CB FEW021 26/23 Q1007 RMK CB TO N=
10/12/2013 17:30:00Z	 SAID31 WIII 101730	METAR WIII 101730Z 20004KT 9999 FEW020CB SCT021 28/23 Q1007 RMK CB TO N=
10/12/2013 18:00:00Z	 SAID31 WIII 101800	METAR WIII 101800Z 17003KT 7000 FEW020CB FEW021 26/23 Q1006 RMK CB TO N=
10/12/2013 18:30:00Z	 SAID31 WIII 101830	METAR WIII 101830Z AUTO 18002KT 9000 26/23 Q1006=
10/12/2013 19:00:00Z	 SAID31 WIII 101900	METAR WIII 101900Z AUTO 27003KT 9000 27/23 Q1006=
10/12/2013 19:30:00Z	 SAID31 WIII 101930	METAR WIII 101930Z AUTO 26003KT 6000 26/23 Q1006=
10/12/2013 20:00:00Z	 SAID31 WIII 102000	METAR WIII 102000Z AUTO 26003KT 3500 BR 27/23 Q1006=
10/12/2013 20:30:00Z	 SAID31 WIII 102030	METAR WIII 102030Z AUTO 27003KT 2600 VCTS BR 27/24 Q1006=
10/12/2013 21:00:00Z	 SAID31 WIII 102100	METAR WIII 102100Z 27002KT 2500 BR FEW020CB SCT021 27/24 Q1006 CB TO N=
10/12/2013 21:30:00Z	 SAID31 WIII 102130	METAR WIII 102130Z AUTO 25003KT 2400 BR 27/24 Q1006=
10/12/2013 22:00:00Z	 SAID31 WIII 102200	METAR WIII 102200Z AUTO 28003KT 2500 BR 27/24 Q1006=
10/12/2013 22:30:00Z	 SAID31 WIII 102230	METAR WIII 102230Z 27004KT 5000 BR FEW020CB SCT021 26/24 Q1007 CB TO NE=
10/12/2013 23:00:00Z	 SAID31 WIII 102300	METAR WIII 102300Z 27003KT 5000 FEW020CB SCT021 27/24 Q1007 RMK CB TO NE=
10/12/2013 23:30:00Z	 SAID31 WIII 102330	METAR WIII 102330Z 28004KT 4800 VCTS BR FEW020CB SCT021 28/24 Q1008 R MK CB TO NE=
11/12/2013 00:00:00Z	 SAID31 WIII 110000	METAR WIII 110000Z 22005KT 4000 BR FEW020CB SCT021 28/24 Q1008 RMK C B TO NE=
11/12/2013 00:30:00Z	 SAID31 WIII 110030	METAR WIII 110030Z AUTO 27005KT 7000 28/24 Q1008=
11/12/2013 01:00:00Z	 SAID31 WIII 110100	METAR WIII 110100Z 26004KT 6000 FEW024 29/24 Q1009 NOSIG=
11/12/2013 01:30:00Z	 SAID31 WIII 110130	METAR WIII 110130Z 28005KT 7000 FEW023 30/24 Q1009 NOSIG=
11/12/2013 02:00:00Z	 SAID31 WIII 110200	METAR WIII 110200Z 26003KT 8000 FEW023 31/24 Q1008 NOSIG=
11/12/2013 02:30:00Z	 SAID31 WIII 110230	METAR WIII 110230Z 25005KT 9000 FEW024 33/25 Q1008 NOSIG=
11/12/2013 03:00:00Z	 SAID31 WIII 110300	METAR WIII 110300Z 30006KT 8000 SCT023 33/25 Q1008 NOSIG=
11/12/2013 03:30:00Z	 SAID31 WIII 110330	METAR WIII 110330Z 30007KT 8000 FEW021CB SCT023 33/24 Q1008 RMK CB TO SE=
11/12/2013 04:00:00Z	 SAID31 WIII 110400	METAR WIII 110400Z 29006KT 7000 TS FEW020CB SCT023 30/24 Q1008 TEMPO 12010KT 5000 TSRA=
11/12/2013 04:30:00Z	 SAID31 WIII 110430	METAR COR WIII 110430Z 33004KT 8000 TS FEW021CB SCT023 32/24 Q1007 TE MPO 16010G20KT 4000 TSRA RMK CB OVER THE FIELD=
11/12/2013 05:00:00Z	 SAID31 WIII 110500	METAR WIII 110500Z 31004KT 8000 TS FEW021CB SCT023 32/25 Q1007 TEMPO 16010G20KT 4000 TSRA RMK CB TO SE AND S=
11/12/2013 05:30:00Z	 SAID31 WIII 110530	METAR WIII 110530Z 11006KT 7000 TS FEW021CB SCT023 31/24 Q1007 TEMPO 16010G20KT 4000 TSRA=
11/12/2013 06:00:00Z	 SAID31 WIII 110600	METAR WIII 110600Z 09003KT 8000 FEW021CB SCT023 32/24 Q1006 RETS RMK CB TO S=
11/12/2013 06:30:00Z	 SAID31 WIII 110630	METAR WIII 110630Z 33004KT 8000 FEW021CB SCT023 33/25 Q1006 RMK CB TO SW=
11/12/2013 07:00:00Z	 SAID31 WIII 110700	METAR WIII 110700Z 35007KT 8000 FEW021CB SCT023 32/25 Q1005 RMK CB TO SW=
11/12/2013 07:30:00Z	 SAID31 WIII 110730	METAR WIII 110730Z 33006KT 8000 VCTS FEW021CB SCT023 32/25 Q1005 TEMP O 27010G20KT 4000 TSRA=
11/12/2013 10:00:00Z	 SAID31 WIII 111000	METAR WIII 111000Z 27003KT 6000 FEW021CB FEW023 30/24 Q1006 RMK CB TO SE=
11/12/2013 10:30:00Z	 SAID31 WIII 111030	METAR WIII 111030Z 28003KT 5000 HZ FEW021CB FEW024 30/24 Q1006 RMK CB TO SE=
11/12/2013 11:00:00Z	 SAID31 WIII 111100	METAR WIII 111100Z 19005KT 5000 HZ FEW021CB FEW023 29/24 Q1006 RMK CB TO SE=
11/12/2013 11:30:00Z	 SAID31 WIII 111130	METAR WIII 111130Z 18006KT 4000 HZ FEW021CB FEW023 29/24 Q1007 RMK CB TO S=
11/12/2013 12:00:00Z	 SAID31 WIII 111200	METAR WIII 111200Z 22007KT 6000 FEW023 28/24 Q1007 NOSIG=
11/12/2013 12:30:00Z	 SAID31 WIII 111230	METAR WIII 111230Z 21009KT 6000 FEW022 28/24 Q1007 NOSIG=
11/12/2013 13:00:00Z	 SAID31 WIII 111300	METAR WIII 111300Z 22011KT 6000 FEW022 28/24 Q1008 NOSIG=
11/12/2013 13:30:00Z	 SAID31 WIII 111330	METAR WIII 111330Z 22010KT 6000 SCT022 28/24 Q1008 NOSIG=
11/12/2013 14:00:00Z	 SAID31 WIII 111400	METAR WIII 111400Z 23010KT 6000 FEW022 27/24 Q1008 NOSIG=
11/12/2013 14:30:00Z	 SAID31 WIII 111430	METAR WIII 111430Z 25008KT 6000 SCT022 BKN110 28/24 Q1008 NOSIG=
11/12/2013 15:00:00Z	 SAID31 WIII 111500	METAR WIII 111500Z 25009KT 6000 -DZ FEW022 BKN110 27/24 Q1008=
11/12/2013 15:30:00Z	 SAID31 WIII 111530	METAR WIII 111530Z 27007KT 6000 FEW022 SCT110 26/24 Q1008 NOSIG=
11/12/2013 16:00:00Z	 SAID31 WIII 111600	METAR WIII 111600Z 27006KT 6000 FEW022 SCT110 26/24 Q1008 NOSIG=
11/12/2013 16:30:00Z	 SAID31 WIII 111630	METAR WIII 111630Z 26006KT 6000 FEW022 SCT110 26/24 Q1008 NOSIG=
11/12/2013 17:00:00Z	 SAID31 WIII 111700	METAR WIII 111700Z 26007KT 6000 FEW020CB FEW022 SCT110 26/24 Q1008 RM K CB TO NE=
11/12/2013 17:30:00Z	 SAID31 WIII 111730	METAR WIII 111730Z 25006KT 6000 FEW020CB FEW022 SCT110 26/24 Q1007 RM K CB TO NE=
11/12/2013 18:00:00Z	 SAID31 WIII 111800	METAR WIII 111800Z 26006KT 6000 FEW020CB FEW022 SCT110 27/24 Q1007 RMK CB TO NE=
11/12/2013 18:30:00Z	 SAID31 WIII 111830	METAR WIII 111830Z 24007KT 6000 FEW020CB FEW022 SCT100 27/24 Q1007 RM K CB TO NE=
11/12/2013 19:00:00Z	 SAID31 WIII 111900	METAR WIII 111900Z 27006KT 6000 FEW020CB FEW022 SCT100 26/24 Q1007 RM K CB TO NE=
11/12/2013 19:30:00Z	 SAID31 WIII 111930	METAR WIII 111930Z 25008KT 6000 FEW021 26/23 Q1006 NOSIG=
11/12/2013 20:00:00Z	 SAID31 WIII 112000	METAR WIII 112000Z 24007KT 6000 FEW021 SCT100 25/23 Q1006 NOSIG=
11/12/2013 20:30:00Z	 SAID31 WIII 112030	METAR WIII 112030Z 27006KT 6000 FEW021 SCT100 25/23 Q1006 NOSIG=
11/12/2013 21:00:00Z	 SAID31 WIII 112100	METAR WIII 112100Z 26006KT 6000 SCT022 26/23 Q1006 NOSIG=
11/12/2013 21:30:00Z	 SAID31 WIII 112130	METAR WIII 112130Z 26005KT 6000 SCT022 26/23 Q1006 NOSIG=
11/12/2013 22:00:00Z	 SAID31 WIII 112200	METAR WIII 112200Z 27003KT 6000 FEW022 SCT100 26/24 Q1007 NOSIG=
11/12/2013 22:30:00Z	 SAID31 WIII 112230	METAR WIII 112230Z 26007KT 7000 FEW021 BKN110 26/23 Q1007 NOSIG=
11/12/2013 23:00:00Z	 SAID31 WIII 112300	METAR WIII 112300Z 27008KT 6000 FEW021 BKN110 26/23 Q1007 NOSIG=
11/12/2013 23:30:00Z	 SAID31 WIII 112330	METAR WIII 112330Z 27006KT 7000 FEW021 BKN110 27/24 Q1007 NOSIG=
12/12/2013 00:00:00Z	 SAID31 WIII 120000	METAR WIII 120000Z 25009KT 7000 FEW021 BKN110 27/24 Q1008 NOSIG=
12/12/2013 00:30:00Z	 SAID31 WIII 120030	METAR WIII 120030Z 26009KT 7000 FEW021 BKN110 28/24 Q1008 NOSIG=
12/12/2013 01:00:00Z	 SAID31 WIII 120100	METAR WIII 120100Z AUTO 25009KT 9999 29/24 Q1008=
12/12/2013 01:30:00Z	 SAID31 WIII 120130	METAR WIII 120130Z AUTO 25008KT 9999 30/24 Q1008=
12/12/2013 02:00:00Z	 SAID31 WIII 120200	METAR WIII 120200Z 27009KT 9999 FEW018 SCT100 31/24 Q1008 NOSIG=
12/12/2013 02:30:00Z	 SAID31 WIII 120230	METAR WIII 120230Z 29008KT 9999 FEW018 SCT100 31/24 Q1008 NOSIG=
12/12/2013 03:00:00Z	 SAID31 WIII 120300	METAR WIII 120300Z 26012KT 9999 SCT018 BKN100 31/24 Q1008 NOSIG=
12/12/2013 03:30:00Z	 SAID31 WIII 120330	METAR WIII 120330Z 28009KT 9999 SCT018 BKN100 32/24 Q1008 NOSIG=
12/12/2013 04:00:00Z	 SAID31 WIII 120400	METAR WIII 120400Z 24009KT 9999 SCT018 BKN100 32/24 Q1007 NOSIG=
12/12/2013 04:30:00Z	 SAID31 WIII 120430	METAR WIII 120430Z 27007KT 9999 SCT018 BKN100 33/24 Q1007 NOSIG=
12/12/2013 05:00:00Z	 SAID31 WIII 120500	METAR WIII 120500Z 29008KT 9999 SCT018 BKN100 33/24 Q1006 NOSIG=
12/12/2013 05:30:00Z	 SAID31 WIII 120530	METAR WIII 120530Z 27008KT 9999 SCT018 BKN100 32/25 Q1006 NOSIG=
12/12/2013 06:00:00Z	 SAID31 WIII 120600	METAR WIII 120600Z 34009KT 9999 SCT018 BKN100 33/25 Q1005 NOSIG=
12/12/2013 06:30:00Z	 SAID31 WIII 120630	METAR WIII 120630Z AUTO 33007KT 9999 33/25 Q1005=
12/12/2013 07:00:00Z	 SAID31 WIII 120700	METAR WIII 120700Z AUTO 35008KT 9999 33/25 Q1004=
12/12/2013 07:30:00Z	 SAID31 WIII 120730	METAR WIII 120730Z 23006G16KT 8000 TS SCT016CB BKN090 31/24 Q1004 TEM PO FM0740 TLL0900 4000 TSRA CB ALL RWY=
12/12/2013 08:00:00Z	 SAID31 WIII 120800	METAR WIII 120800Z 26013KT 8000 VCTS SCT016CB OVC090 30/24 Q1004 TEMP O FM0740 TL0900 4000 TSRA CB TO SE SW AND W=
12/12/2013 08:30:00Z	 SAID31 WIII 120830	METAR WIII 120830Z 26010KT 8000 TS SCT016CB BKN090 26/24 Q1004 TEMPO FM0740 TL0900 4000 TSRA CB TO SE S AND W=
12/12/2013 09:00:00Z	 SAID31 WIII 120900	METAR WIII 120900Z 26007KT 7000 -RA SCT016CB BKN090 26/24 Q1005 RMK C B TO SE S AND W=
12/12/2013 09:30:00Z	 SAID31 WIII 120930	METAR WIII 120930Z 20009KT 6000 -RA SCT016CB BKN090 27/24 Q1005 RMK C B TO E S AND W=
12/12/2013 10:00:00Z	 SAID31 WIII 121000	METAR WIII 121000Z 19008KT 6000 VCTS FEW018CB BKN090 27/24 Q1006 RMK CB TO SW AND W=
12/12/2013 10:30:00Z	 SAID31 WIII 121030	METAR WIII 121030Z 22007KT 6000 HZ SCT018CB BKN090 27/24 Q1006 RMK CB TO SE W AND NW=
12/12/2013 11:00:00Z	 SAID31 WIII 121100	METAR WIII 121100Z 25004KT 6000 HZ FEW018CB OVC090 27/24 Q1007 RMK CB TO NW AND E=
12/12/2013 11:30:00Z	 SAID31 WIII 121130	METAR WIII 121130Z 18006KT 5000 HZ SCT018 BKN090 27/24 Q1007 NOSIG=
12/12/2013 12:00:00Z	 SAID31 WIII 121200	METAR WIII 121200Z 21003KT 5000 HZ SCT018 BKN090 27/23 Q1007 NOSIG=
12/12/2013 12:30:00Z	 SAID31 WIII 121230	METAR WIII 121230Z 22005KT 5000 FEW020CB SCT022 27/24 Q1008 CB TO NW=
12/12/2013 13:00:00Z	 SAID31 WIII 121300	METAR WIII 121300Z 17005KT 5000 FEW020CB SCT022 26/24 Q1009 RMK CB TO NW=
12/12/2013 13:30:00Z	 SAID31 WIII 121330	METAR WIII 121330Z 19006KT FEW020CB FEW021 26/23 Q1009 RMK CB TO NW=
12/12/2013 14:00:00Z	 SAID31 WIII 121400	METAR WIII 121400Z 27003KT 7000 FEW020 SCT021 26/23 Q1009 RMK CB TO N W=
12/12/2013 14:30:00Z	 SAID31 WIII 121430	METAR WIII 121430Z 19003KT 8000 FEW020CB FEW021 26/23 Q1009 RMK CB TO NW=
12/12/2013 15:00:00Z	 SAID31 WIII 121500	METAR WIII 121500Z 22003KT 7000 SCT021 26/23 Q1009 NOSIG=
12/12/2013 15:30:00Z	 SAID31 WIII 121530	METAR WIII 121530Z 23004KT 5000 FEW020CB SCT021 26/23 Q1009 RMK CB TO NW=
12/12/2013 16:00:00Z	 SAID31 WIII 121600	METAR WIII 121600Z 28004KT 5000 BR FEW020CB SCT021 26/24 Q1009 RMK C B TO NE=
12/12/2013 16:30:00Z	 SAID31 WIII 121630	METAR WIII 121630Z 25005KT 4000 VCTS BR FEW020CB SCT021 25/23 Q1009 R MK CB TO NE=
12/12/2013 17:00:00Z	 SAID31 WIII 121700	METAR WIII 121700Z 27003KT 4200 BR FEW020CB SCT021 26/24 Q1008 CB TO NE=
12/12/2013 17:30:00Z	 SAID31 WIII 121730	METAR WIII 121730Z 28004KT 3600 BR FEW020CB SCT021 25/24 Q1008 RMK CB TO NE=
12/12/2013 18:00:00Z	 SAID31 WIII 121800	METAR WIII 121800Z 27003KT 2200 BR FEW020CB FEW021 25/24 Q1007 RMK CB TO NE=
12/12/2013 18:30:00Z	 SAID31 WIII 121830	METAR WIII 121830Z 26005KT 4100 BR FEW020CB SCT021 25/24 Q1007 RMK CB TO NE=
12/12/2013 19:00:00Z	 SAID31 WIII 121900	METAR WIII 121900Z 26006KT 3500 BR FEW020CB SCT021 25/23 Q1007 RMK CB TO NE=
12/12/2013 19:30:00Z	 SAID31 WIII 121930	METAR WIII 121930Z AUTO 26004KT 5000 BR 25/24 Q1007=
12/12/2013 20:00:00Z	 SAID31 WIII 122000	METAR WIII 122000Z AUTO 25004KT 6000 25/24 Q1007=
12/12/2013 20:30:00Z	 SAID31 WIII 122030	METAR WIII 122030Z AUTO 25006KT 9999 25/24 Q1007=
12/12/2013 21:00:00Z	 SAID31 WIII 122100	METAR WIII 122100Z AUTO 25005KT 9999 25/23 Q1007=
12/12/2013 21:30:00Z	 SAID31 WIII 122130	METAR WIII 122130Z 22005KT 9999 FEW021 25/23 Q1007 NOSIG=
12/12/2013 22:00:00Z	 SAID31 WIII 122200	METAR WIII 122200Z 24005KT 6000 SCT021 25/23 Q1007 NOSIG=
12/12/2013 22:30:00Z	 SAID31 WIII 122230	METAR WIII 122230Z 27003KT 4400 BR FEW020CB SCT021 25/23 Q1007 RMK CB TO NE=
12/12/2013 23:00:00Z	 SAID31 WIII 122300	METAR WIII 122300Z 28003KT 3700 HZ FEW021 25/24 Q1007 NOSIG=
12/12/2013 23:30:00Z	 SAID31 WIII 122330	METAR WIII 122330Z 25007KT 5000 HZ FEW021 26/24 Q1008 NOSIG=
13/12/2013 00:00:00Z	 SAID31 WIII 130000	METAR WIII 130000Z 25007KT 6000 FEW021 27/24 Q1008 NOSIG=
13/12/2013 00:30:00Z	 SAID31 WIII 130030	METAR WIII 130030Z AUTO 23009KT 9999 28/24 Q1009=
13/12/2013 01:00:00Z	 SAID31 WIII 130100	METAR WIII 130100Z 25008KT 9999 FEW022 29/24 Q1009 NOSIG=
13/12/2013 01:30:00Z	 SAID31 WIII 130130	METAR WIII 130130Z 26008KT 9999 FEW021CB FEW023 30/24 Q1009 RMK CB TO SW=
13/12/2013 02:00:00Z	 SAID31 WIII 130200	METAR WIII 130200Z 22009KT 9999 FEW021 30/24 Q1009 NOSIG=
13/12/2013 02:30:00Z	 SAID31 WIII 130230	METAR WIII 130230Z 22010KT 9999 FEW023 31/24 Q1009 NOSIG=
13/12/2013 03:00:00Z	 SAID31 WIII 130300	METAR WIII 130300Z 27011KT 9999 FEW022 31/24 Q1009 NOSIG=
13/12/2013 03:30:00Z	 SAID31 WIII 130330	METAR WIII 130330Z 25012KT 9000 FEW021CB SCT022 31/24 Q1008 RMK CB TO N=
13/12/2013 04:00:00Z	 SAID31 WIII 130400	METAR WIII 130400Z 27010KT 9000 FEW021CB SCT022 31/24 Q1008 RMK CB TO N=
13/12/2013 04:30:00Z	 SAID31 WIII 130430	METAR WIII 130430Z 27009KT 9999 FEW021CB SCT023 31/24 Q1008 RMK CB TO S=
13/12/2013 05:00:00Z	 SAID31 WIII 130500	METAR WIII 130500Z 29010KT 9999 SCT023 32/24 Q1008 NOSIG=
13/12/2013 05:30:00Z	 SAID31 WIII 130530	METAR WIII 130530Z 27010KT 9999 SCT020 31/24 Q1007 NOSIG=
13/12/2013 06:00:00Z	 SAID31 WIII 130600	METAR WIII 130600Z 28008KT 8000 VCTS FEW020CB SCT021 32/25 Q1007 RMK CB TO NW AND E=
13/12/2013 06:30:00Z	 SAID31 WIII 130630	METAR WIII 130630Z 33008KT 5000 TSRA FEW019CB BKN020 24/22 Q1007 RMK CB TO N AND E=
13/12/2013 07:00:00Z	 SAID31 WIII 130700	METAR WIII 130700Z VRB03KT 5000 -TSRA FEW019CB BKN020 25/23 Q1007 RMK CB TO E=
13/12/2013 07:30:00Z	 SAID31 WIII 130730	METAR WIII 130730Z 33003KT 7000 -RA FEW020CB SCT023 26/24 Q1006 RETS RMK CB TO NW=
13/12/2013 08:00:00Z	 SAID31 WIII 130800	METAR WIII 130800Z 27010KT 4000 RA FEW020CB BKN021 27/25 Q1006 RMK CB TO E=
13/12/2013 08:30:00Z	 SAID31 WIII 130830	METAR WIII 130830Z 36006KT 6000 TSRA FEW019CB SCT020 26/24 Q1006 RMK CB OVER THE FIELD=
13/12/2013 09:00:00Z	 SAID31 WIII 130900	METAR WIII 130900Z VRB05KT 3000 TSRA FEW020CB BKN022 26/24 Q1007 RMK CB TO SE=
13/12/2013 09:30:00Z	 SAID31 WIII 130930	METAR WIII 130930Z 18004KT 5000 -TSRA FEW020CB SCT022 25/24 Q1007 RMK CB TO E=
13/12/2013 10:00:00Z	 SAID31 WIII 131000	METAR WIII 131000Z 15005KT 6000 -RA FEW020CB SCT021 26/24 Q1007 RMK C B TO E=
13/12/2013 10:30:00Z	 SAID31 WIII 131030	METAR WIII 131030Z 17004KT 4000 -RA FEW021CB BKN022 26/24 Q1007 RMK C B TO NW=
13/12/2013 11:00:00Z	 SAID31 WIII 131100	METAR WIII 131100Z 17008KT 5000 -RA FEW020CB SCT021 26/24 Q1008 RMK C B TO N=
13/12/2013 11:30:00Z	 SAID31 WIII 131130	METAR WIII 131130Z 19006KT 6000 -RA FEW021CB SCT022 26/23 Q1008 RMK C B TO NW=
13/12/2013 12:00:00Z	 SAID31 WIII 131200	METAR WIII 131200Z 19005KT 6000 -RA FEW021CB SCT022 26/23 Q1009 RMK C B TO N=
13/12/2013 12:30:00Z	 SAID31 WIII 131230	METAR WIII 131230Z 25008G18KT 5000 RA FEW018CB BKN090 25/23 Q1010 RMK CB TO N AND E=
13/12/2013 13:00:00Z	 SAID31 WIII 131300	METAR WIII 131300Z 28006KT 6000 -RA FEW018CB BKN090 25/22 Q1010 RMK C B TO NW AND NE=
13/12/2013 13:30:00Z	 SAID31 WIII 131330	METAR WIII 131330Z 34003KT 6000 -TSRA SCT016CB BKN090 24/23 Q1010 RMK CB TO NW N AND NE=
13/12/2013 14:00:00Z	 SAID31 WIII 131400	METAR WIII 131400Z VRB02KT 5000 TSRA SCT016CB OVC090 24/23 Q1011 RMK CB TO NW N AND NE=
13/12/2013 14:30:00Z	 SAID31 WIII 131430	METAR WIII 131430Z 36004KT 6000 -RA FEW016CB OVC090 24/23 Q1011 RMK R ETS CB TO NW AND NE=
13/12/2013 15:00:00Z	 SAID31 WIII 131500	METAR WIII 131500Z 32004KT 6000 FEW018CB BKN090 24/23 Q1011 RMK CB TO NW=
13/12/2013 15:30:00Z	 SAID31 WIII 131530	METAR WIII 131530Z 26012G22KT 2000 +TSRA FEW016CB OVC090 24/23 Q1012 RMK CB TO NW=
13/12/2013 16:00:00Z	 SAID31 WIII 131600	METAR WIII 131600Z 25006G16KT 5000 RA FEW018CB BKN090 23/22 Q1011 RMK CB TO NE=
13/12/2013 16:30:00Z	 SAID31 WIII 131630	METAR WIII 131630Z 24006KT 6000 RA FEW018 OVC090 24/23 Q1011=
13/12/2013 17:00:00Z	 SAID31 WIII 131700	METAR WIII 131700Z 21006KT 6000 -RA SCT018 OVC090 24/23 Q1010=
13/12/2013 17:30:00Z	 SAID31 WIII 131730	METAR WIII 131730Z 21007KT 6000 -RA SCT018 BKN090 24/23 Q1010=
13/12/2013 18:00:00Z	 SAID31 WIII 131800	METAR WIII 131800Z 23009KT 6000 -RA FEW018 OVC090 24/23 Q1009=
13/12/2013 18:30:00Z	 SAID31 WIII 131830	METAR WIII 131830Z 21005KT 7000 -RA SCT018 BKN090 24/23 Q1008=
13/12/2013 19:00:00Z	 SAID31 WIII 131900	METAR WIII 131900Z 23006KT 7000 FEW018 BKN090 24/23 Q1008=
13/12/2013 19:30:00Z	 SAID31 WIII 131930	METAR WIII 131930Z 23006KT 7000 FEW018 BKN090 24/23 Q1008=
13/12/2013 20:00:00Z	 SAID31 WIII 132000	METAR WIII 132000Z 23008KT 7000 FEW018 BKN090 24/23 Q1007=
13/12/2013 20:30:00Z	 SAID31 WIII 132030	METAR WIII 132030Z 23007KT 7000 FEW018 BKN090 24/23 Q1007=
13/12/2013 21:00:00Z	 SAID31 WIII 132100	METAR WIII 132100Z 22005KT 7000 FEW018 BKN100 24/23 Q1007=
13/12/2013 21:30:00Z	 SAID31 WIII 132130	METAR WIII 132130Z 26004KT 5000 BR FEW018 SCT090 24/23 Q1007=
13/12/2013 22:00:00Z	 SAID31 WIII 132200	METAR WIII 132200Z 26004KT 5000 BR FEW018 SCT100 24/23 Q1007=
13/12/2013 22:30:00Z	 SAID31 WIII 132230	METAR WIII 132230Z 26003KT 5000 BR FEW018 BKN100 24/23 Q1008=
13/12/2013 23:00:00Z	 SAID31 WIII 132300	METAR WIII 132300Z 25004KT 6000 FEW018 OVC100 24/23 Q1008=
13/12/2013 23:30:00Z	 SAID31 WIII 132330	METAR WIII 132330Z 32003KT 6000 FEW018 OVC100 25/23 Q1009=
14/12/2013 00:00:00Z	 SAID31 WIII 140000	METAR WIII 140000Z VRB02KT 5000 BR FEW018 BKN100 25/23 Q1009=
14/12/2013 00:30:00Z	 SAID31 WIII 140030	METAR WIII 140030Z 28006KT 6000 FEW019 BKN110 26/24 Q1009 NOSIG=
14/12/2013 01:00:00Z	 SAID31 WIII 140100	METAR WIII 140100Z 28005KT 5000 HZ FEW019 BKN110 28/24 Q1009 NOSIG=
14/12/2013 01:30:00Z	 SAID31 WIII 140130	METAR WIII 140130Z 30009KT 240V310 6000 SCT019 BKN110 29/25 Q1009 NOS IG=
14/12/2013 02:00:00Z	 SAID31 WIII 140200	METAR WIII 140200Z 28010KT 7000 SCT019 BKN110 29/25 Q1010 NOSIG=
14/12/2013 02:30:00Z	 SAID31 WIII 140230	METAR WIII 140230Z 30010KT 7000 SCT019 BKN110 30/25 Q1009 NOSIG=
14/12/2013 03:00:00Z	 SAID31 WIII 140300	METAR WIII 140300Z 29011KT 7000 SCT018 BKN100 30/24 Q1009 NOSIG=
14/12/2013 03:30:00Z	 SAID31 WIII 140330	METAR WIII 140330Z 31012KT 270V340 7000 SCT018 BKN100 31/25 Q1009 NOS IG=
14/12/2013 04:00:00Z	 SAID31 WIII 140400	METAR WIII 140400Z 28010KT 270V340 7000 SCT018 BKN100 31/24 Q1008 NOS IG=
14/12/2013 04:30:00Z	 SAID31 WIII 140430	METAR WIII 140430Z 31010KT 280V350 7000 SCT018 BKN110 31/25 Q1008 NOS IG=
14/12/2013 05:00:00Z	 SAID31 WIII 140500	METAR WIII 140500Z 33014KT 290V350 7000 BKN018 BKN110 31/25 Q1008 NOS IG=
14/12/2013 05:30:00Z	 SAID31 WIII 140530	METAR WIII 140530Z 33016KT 290V360 6000 FEW018CB BKN018 BKN110 31/25 Q1008 RMK CB TO SW=
14/12/2013 06:00:00Z	 SAID31 WIII 140600	METAR WIII 140600Z 34012KT 290V360 5000 VCTS FEW018CB BKN018 BKN110 3 0/25 Q1007 RMK CB TO S AN D SW=
14/12/2013 06:30:00Z	 SAID31 WIII 140630	METAR WIII 140630Z 27015KT 1200 +TSRA SCT017CB OVC018 26/23 Q1007 RMK CB TO S AND SE=
14/12/2013 07:00:00Z	 SAID31 WIII 140700	METAR WIII 140700Z 31009KT 3300 -TSRA FEW018CB BKN020 OVC100 25/23 Q1 007 RMK CB TO S AND SE=
14/12/2013 07:30:00Z	 SAID31 WIII 140730	METAR WIII 140730Z 30008KT 3000 TSRA SCT018CB BKN019 OVC100 26/24 Q10 07 RMK CB TO N AND E=
14/12/2013 08:00:00Z	 SAID31 WIII 140800	METAR WIII 140800Z VRB05KT 3500 -TSRA FEW018CB SCT019 BKN100 26/25 Q1 007 RMK CB TO E AND NE=
14/12/2013 08:30:00Z	 SAID31 WIII 140830	METAR WIII 140830Z 24004KT 4000 -RA FEW018CB SCT019 BKN100 26/24 Q100 7 RETS RMK CB TO E=
14/12/2013 09:00:00Z	 SAID31 WIII 140900	METAR WIII 140900Z 18006KT 4000 -RA FEW018CB SCT020 BKN100 26/24 Q100 7 RMK CB TO E=
14/12/2013 09:30:00Z	 SAID31 WIII 140930	METAR WIII 140930Z 18006KT 3000 -RA FEW018CB SCT020 OVC100 26/24 Q100 7 RMK CB TO E=
14/12/2013 10:00:00Z	 SAID31 WIII 141000	METAR WIII 141000Z VRB05KT 4000 -RA SCT020 OVC100 26/24 Q1007=
14/12/2013 10:30:00Z	 SAID31 WIII 141030	METAR WIII 141030Z 18005KT 4000 -RA SCT020 BKN100 26/24 Q1007=
14/12/2013 11:00:00Z	 SAID31 WIII 141100	METAR WIII 141100Z 18005KT 5000 DZ FEW020 BKN100 25/24 Q1007=
14/12/2013 11:30:00Z	 SAID31 WIII 141130	METAR WIII 141130Z 18005KT 5000 BR FEW020 BKN100 26/24 Q1007 REDZ=
14/12/2013 12:00:00Z	 SAID31 WIII 141200	METAR WIII 141200Z 20005KT 6000 SCT020 BKN100 26/24 Q1008=
14/12/2013 12:30:00Z	 SAID31 WIII 141230	METAR WIII 141230Z 17005KT 5000 -DZ FEW020 BKN100 26/23 Q1009=
14/12/2013 13:00:00Z	 SAID31 WIII 141300	METAR WIII 141300Z 15004KT 6000 FEW020 BKN100 26/24 Q1009 REDZ=
14/12/2013 13:30:00Z	 SAID31 WIII 141330	METAR WIII 141330Z VRB03KT 6000 SCT020 26/24 Q1009 NOSIG=
14/12/2013 14:00:00Z	 SAID31 WIII 141400	METAR WIII 141400Z VRB03KT 6000 SCT020 26/24 Q1010 NOSIG=
14/12/2013 14:30:00Z	 SAID31 WIII 141430	METAR WIII 141430Z 18005KT 5000 SCT020 26/24 Q1009 NOSIG=
14/12/2013 15:00:00Z	 SAID31 WIII 141500	METAR WIII 141500Z VRB03KT 6000 SCT020 26/24 Q1010 NOSIG=
14/12/2013 15:30:00Z	 SAID31 WIII 141530	METAR WIII 141530Z VRB02KT 4900 SCT020 26/24 Q1010 NOSIG=
14/12/2013 16:00:00Z	 SAID31 WIII 141600	METAR WIII 141600Z VRB04KT 7000 SCT020 26/24 Q1010 NOSIG=
14/12/2013 16:30:00Z	 SAID31 WIII 141630	METAR WIII 141630Z VRB05KT 3400 BR FEW021 26/24 Q1009 NOSIG=
14/12/2013 17:00:00Z	 SAID31 WIII 141700	METAR WIII 141700Z 19003KT 4000 FEW021 25/23 Q1009 NOSIG=
14/12/2013 18:00:00Z	 SAID31 WIII 141800	METAR WIII 141800Z VRB02KT 4500 -RA SCT020 25/24 Q1009 NOSIG=
14/12/2013 18:30:00Z	 SAID31 WIII 141830	METAR WIII 141830Z VRB02KT 5000 VCTS FEW020CB FEW020 25/23 Q1009 RMK CB TO N=
14/12/2013 19:00:00Z	 SAID31 WIII 141900	METAR WIII 141900Z 17002KT 5000 BR SCT020 25/24 Q1008 NOSIG=
14/12/2013 20:00:00Z	 SAID31 WIII 142000	METAR WIII 142000Z 19003KT 5000 BR FEW021 25/24 Q1008 NOSIG=
14/12/2013 20:30:00Z	 SAID31 WIII 142030	METAR WIII 142030Z 21004KT 5000 FEW021 25/24 Q1008 NOSIG=
14/12/2013 21:00:00Z	 SAID31 WIII 142100	METAR WIII 142100Z 19002KT 6000 BR FEW021 25/24 Q1008 NOSIG=
14/12/2013 21:30:00Z	 SAID31 WIII 142130	METAR WIII 142130Z 00000KT 5000 BR FE021 25/24 Q1008 NOSIG=
14/12/2013 22:00:00Z	 SAID31 WIII 142200	METAR WIII 142200Z 17003KT 5000 FEW021 25/24 Q1008 NOSIG=
14/12/2013 22:30:00Z	 SAID31 WIII 142230	METAR WIII 142230Z 22003KT 5000 SCT020 25/23 Q1009 NOSIG=
14/12/2013 23:00:00Z	 SAID31 WIII 142300	METAR WIII 142300Z VRB03KT 7000 SCT020 25/23 Q1009 NOSIG=
14/12/2013 23:30:00Z	 SAID31 WIII 142330	METAR WIII 142330Z 22004KT 8000 SCT020 26/23 Q1009 NOSIG=
15/12/2013 00:00:00Z	 SAID31 WIII 150000	METAR WIII 150000Z 23004KT 8000 SCT020 26/23 Q1009 NOSIG=
15/12/2013 00:30:00Z	 SAID31 WIII 150030	METAR WIII 150030Z 15003KT 8000 SCT021 26/23 Q1009 NOSIG=
15/12/2013 01:00:00Z	 SAID31 WIII 150100	METAR WIII 150100Z 20003KT 8000 SCT020 27/24 Q1010 NOSIG=
15/12/2013 01:30:00Z	 SAID31 WIII 150130	METAR WIII 150130Z 21003KT 9999 SCT020 BKN100 28/23 Q1010 NOSIG=
15/12/2013 02:00:00Z	 SAID31 WIII 150200	METAR WIII 150200Z 21003KT 9000 SCT020 BKN100 28/24 Q1010 NOSIG=
15/12/2013 02:30:00Z	 SAID31 WIII 150230	METAR WIII 150230Z 28005KT 9999 SCT020 BKN100 28/24 Q1010 NOSIG=
15/12/2013 03:00:00Z	 SAID31 WIII 150300	METAR WIII 150300Z 30004KT 9999 SCT020 SCT060 29/24 Q1010 NOSIG=
15/12/2013 04:00:00Z	 SAID31 WIII 150400	METAR WIII 150400Z 27005KT 9999 SCT020 BKN100 29/24 Q1009 NOSIG=
15/12/2013 04:30:00Z	 SAID31 WIII 150430	METAR WIII 150430Z 31006KT 9999 SCT021 30/24 Q1008 NOSIG=
15/12/2013 05:00:00Z	 SAID31 WIII 150500	METAR WIII 150500Z 32005KT 9999 SCT021 30/24 Q1008 NOSIG=
15/12/2013 05:30:00Z	 SAID31 WIII 150530	METAR WIII 150530Z 31003KT 9999 SCT021 31/24 Q1007 NOSIG=
15/12/2013 06:00:00Z	 SAID31 WIII 150600	METAR WIII 150600Z 33007KT 9999 SCT021 32/24 Q1007 NOSIG=
15/12/2013 06:30:00Z	 SAID31 WIII 150630	METAR WIII 150630Z 31009KT 9999 SCT021 32/24 Q1006 NOSIG=
15/12/2013 07:00:00Z	 SAID31 WIII 150700	METAR WIII 150700Z 33006KT 9999 SCT021 32/25 Q1006 NOSIG=
15/12/2013 07:30:00Z	 SAID31 WIII 150730	METAR WIII 150730Z 32010KT 9999 SCT021 32/24 Q1006 NOSIG=
15/12/2013 08:00:00Z	 SAID31 WIII 150800	METAR WIII 150800Z 33008KT 9999 SCT021 32/25 Q1005 NOSIG=
15/12/2013 08:30:00Z	 SAID31 WIII 150830	METAR WIII 150830Z 33009KT 9999 SCT021 30/23 Q1005 NOSIG=
15/12/2013 09:00:00Z	 SAID31 WIII 150900	METAR WIII 150900Z 32006KT 9999 FEW022 31/23 Q1005 NOSIG=
15/12/2013 09:30:00Z	 SAID31 WIII 150930	METAR WIII 150930Z 31005KT 9999 FEW022 31/24 Q1005 NOSIG=
15/12/2013 10:00:00Z	 SAID31 WIII 151000	METAR WIII 151000Z 01008KT 9999 FEW022 30/24 Q1005 NOSIG=
15/12/2013 10:30:00Z	 SAID31 WIII 151030	METAR WIII 151030Z 01009KT 9999 FEW022 29/24 Q1006 NOSIG=
15/12/2013 11:00:00Z	 SAID31 WIII 151100	METAR WIII 151100Z 01008KT 9999 FEW021 28/24 Q1007 NOSIG=
15/12/2013 11:30:00Z	 SAID31 WIII 151130	METAR WIII 151130Z 34004KT 9000 FEW021 28/24 Q1007 NOSIG=
15/12/2013 12:00:00Z	 SAID31 WIII 151200	METAR WIII 151200Z 01006KT 9000 FEW020CB SCT021 28/25 Q1008 RMK CB TO SE=
15/12/2013 12:30:00Z	 SAID31 WIII 151230	METAR WIII 151230Z 05005KT 8000 FEW020CB SCT021 28/25 Q1008 RMK CB TO W=
15/12/2013 13:00:00Z	 SAID31 WIII 151300	METAR WIII 151300Z 03005KT 6000 FEW020CB SCT021 27/25 Q1008 RMK CB TO W=
15/12/2013 13:30:00Z	 SAID31 WIII 151330	METAR WIII 151330Z 03004KT 4700 HZ FEW020CB SCT021 27/25 Q1009 RMK CB TO W=
15/12/2013 14:00:00Z	 SAID31 WIII 151400	METAR WIII 151400Z 03006KT 6000 FEW020CB SCT021 BKN100 27/25 Q1009 RM K CB TO W=
15/12/2013 14:30:00Z	 SAID31 WIII 151430	METAR WIII 151430Z 03006KT 6000 FEW020CB SCT021 BKN100 27/25 Q1010 RM K CB TO W=
15/12/2013 15:00:00Z	 SAID31 WIII 151500	METAR WIII 151500Z 33003KT 6000 FEW020CB SCT022 BKN100 27/25 Q1010 RM K CB TO W=
15/12/2013 15:30:00Z	 SAID31 WIII 151530	METAR WIII 151530Z 27014KT 6000 FEW020CB SCT021 BKN100 26/23 Q1010 RM K CB TO W=
15/12/2013 16:00:00Z	 SAID31 WIII 151600	METAR WIII 151600Z 28012KT 3000 RA FEW020CB BKN021 24/22 Q1010 RMK CB TO W=
15/12/2013 16:30:00Z	 SAID31 WIII 151630	METAR WIII 151630Z 29009KT 270V330 4000 -RA FEW020CB BKN021 23/22 Q10 10 RMK CB TO N AND SW=
15/12/2013 17:00:00Z	 SAID31 WIII 151700	METAR WIII 151700Z 29005KT 4500 -RA FEW020CB BKN021 24/22 Q1010 RMK C B TO N=
15/12/2013 17:30:00Z	 SAID31 WIII 151730	METAR WIII 151730Z 28006KT 4800 -RA FEW020CB BKN021 24/23 Q1009 RMK C B TO N=
15/12/2013 18:00:00Z	 SAID31 WIII 151800	METAR WIII 151800Z 28003KT 4800 -RA FEW020CB BKN021 OVC100 24/22 Q100 9 RMK CB TO N=
15/12/2013 18:30:00Z	 SAID31 WIII 151830	METAR WIII 151830Z 12003KT 4000 -RA FEW020CB SCT021 OVC100 24/23 Q100 9 RMK CB TO N=
15/12/2013 19:00:00Z	 SAID31 WIII 151900	METAR WIII 151900Z 14005KT 4000 -RA FEW020CB SCT021 OVC100 24/23 Q100 8 RMK CB TO N=
15/12/2013 19:30:00Z	 SAID31 WIII 151930	METAR WIII 151930Z 16004KT 4000 -RA FEW020CB SCT021 OVC100 24/23 Q100 8 RMK CB TO N=
15/12/2013 20:00:00Z	 SAID31 WIII 152000	METAR WIII 152000Z 11004KT 4000 -RA SCT021 OVC100 24/23 Q1008=
15/12/2013 20:30:00Z	 SAID31 WIII 152030	METAR WIII 152030Z 05003KT 4000 -RA SCT020 OVC100 24/23 Q1008=
15/12/2013 21:00:00Z	 SAID31 WIII 152100	METAR WIII 152100Z 10003KT 3200 -RA SCT020 OVC100 24/23 Q1008=
15/12/2013 21:30:00Z	 SAID31 WIII 152130	METAR WIII 152130Z 00000KT 2700 -RA SCT020 OVC100 24/23 Q1008=
15/12/2013 22:00:00Z	 SAID31 WIII 152200	METAR WIII 152200Z 00000KT 2600 -RA SCT020 OVC100 24/23 Q1008=
15/12/2013 22:30:00Z	 SAID31 WIII 152230	METAR WIII 152230Z VRB03KT 4200 -DZ SCT020 OVC100 24/23 Q1008 RERA=
15/12/2013 23:00:00Z	 SAID31 WIII 152300	METAR WIII 152300Z 20004KT 4600 BR SCT020 OVC110 24/23 Q1008=
15/12/2013 23:30:00Z	 SAID31 WIII 152330	METAR WIII 152330Z 18004KT 6000 FEW020 BKN110 25/23 Q1008 NOSIG=
16/12/2013 00:00:00Z	 SAID31 WIII 160000	METAR WIII 160000Z 18004KT 6000 FEW020 BKN100 25/23 Q1008 NOSIG=
16/12/2013 00:30:00Z	 SAID31 WIII 160030	METAR WIII 160030Z VRB02KT 6000 FEW020 BKN100 26/23 Q1009 NOSIG=
16/12/2013 01:00:00Z	 SAID31 WIII 160100	METAR WIII 160100Z AUTO VRB02KT 9999 28/23 Q1009=
16/12/2013 01:30:00Z	 SAID31 WIII 160130	METAR WIII 160130Z VRB04KT 7000 SCT022 30/24 Q1009=
16/12/2013 02:00:00Z	 SAID31 WIII 160200	METAR WIII 160200Z VRB02KT 9999 FEW020 31/23 Q1009 NOSIG=
16/12/2013 02:30:00Z	 SAID31 WIII 160230	METAR WIII 160230Z VRB03KT 9999 FEW022 32/24 Q1009 NOSIG=
16/12/2013 03:00:00Z	 SAID31 WIII 160300	METAR WIII 160300Z VRB03KT 9999 FEW022 32/24 Q1009 NOSIG=
16/12/2013 03:30:00Z	 SAID31 WIII 160330	METAR WIII 160330Z VRB05KT 9999 SCT022 32/24 Q1009 NOSIG=
16/12/2013 04:00:00Z	 SAID31 WIII 160400	METAR WIII 160400Z VRB02KT 9999 SCT020 32/23 Q1009 NOSIG=
16/12/2013 04:30:00Z	 SAID31 WIII 160430	METAR WIII 160430Z 29002KT 9999 SCT020 32/23 Q1008=
16/12/2013 05:00:00Z	 SAID31 WIII 160500	METAR WIII 160500Z VRB04KT 9999 SCT020 32/23 Q1008=
16/12/2013 05:30:00Z	 SAID31 WIII 160530	METAR WIII 160530Z VRB05KT 9999 SCT020 33/24 Q1008 NOSIG=
16/12/2013 06:30:00Z	 SAID31 WIII 160630	METAR WIII 160630Z 36006KT 9999 SCT020 33/23 Q1006=
16/12/2013 07:00:00Z	 SAID31 WIII 160700	METAR WIII 160700Z 32007KT 9999 FEW018CB FEW020 32/23 Q1006 RMK CB TO S=
16/12/2013 07:30:00Z	 SAID31 WIII 160730	METAR WIII 160730Z 36007KT 9999 FEW018CB FEW020 32/24 Q1005 RMK CB TO S=
16/12/2013 08:00:00Z	 SAID31 WIII 160800	METAR WIII 160800Z 02008KT 9999 FEW018CB FEW020 32/24 Q1005 RMK CB TO SE=
16/12/2013 08:30:00Z	 SAID31 WIII 160830	METAR WIII 160830Z VRB05KT 9999 FEW018 32/24 Q1005 NOSIG=
16/12/2013 09:00:00Z	 SAID31 WIII 160900	METAR WIII 160900Z 34006KT 9999 FEW018 32/24 Q1005 NOSIG=
16/12/2013 09:30:00Z	 SAID31 WIII 160930	METAR WIII 160930Z 35006KT 9999 FEW018 31/25 Q1005 NOSIG=
16/12/2013 10:00:00Z	 SAID31 WIII 161000	METAR WIII 161000Z VRB04KT 9999 FEW020 31/25 Q1005=
16/12/2013 10:30:00Z	 SAID31 WIII 161030	METAR WIII 161030Z VRB03KT 9000 FEW018CB FEW020 29/25 Q1006 RMK CB TO S=
16/12/2013 11:00:00Z	 SAID31 WIII 161100	METAR WIII 161100Z VRB03KT 8000 FEW016CB FEW018 29/25 Q1006 RMK CB TO S=
16/12/2013 11:30:00Z	 SAID31 WIII 161130	METAR WIII 161130Z 36003KT 8000 FEW016CB SCT022 28/25 Q1007 RMK CB TO SE=
16/12/2013 12:00:00Z	 SAID31 WIII 161200	METAR WIII 161200Z 34002KT 7000 FEW016CB SCT020 28/25 Q1007 RMK CB TO SE=
16/12/2013 12:30:00Z	 SAID31 WIII 161230	METAR WIII 161230Z AUTO 00000KT 8000 28/25 Q1008=
16/12/2013 13:00:00Z	 SAID31 WIII 161300	METAR WIII 161300Z AUTO 00000KT 7000 28/25 Q1008=
16/12/2013 13:30:00Z	 SAID31 WIII 161330	METAR WIII 161330Z 00000KT 8000 SCT020 28/25 Q1009 NOSIG=
16/12/2013 14:00:00Z	 SAID31 WIII 161400	METAR COR WIII 161400Z 20008KT 8000 SCT020 28/25 Q1009 NOSIG=
16/12/2013 14:33:00Z	 SAID31 WIII 161433	METAR WIII 161433Z 19010KT 8000 SCT020 27/23 Q1009 NOSIG=
16/12/2013 15:00:00Z	 SAID31 WIII 161500	METAR WIII 161500Z 18007KT 8000 FEW020CB SCT020 VCTS 27/23 Q1009 RMK CB TO E=
16/12/2013 15:30:00Z	 SAID31 WIII 161530	METAR WIII 161530Z 12010KT 6000 TS FEW019CB SCT020 27/23 Q1010 RMK CB TO E=
16/12/2013 16:00:00Z	 SAID31 WIII 161600	METAR WIII 161600Z 20008KT 140V230 5000 TSRA FEW018CB SCT020 25/23 Q1 010RMK CB TO W=
16/12/2013 16:30:00Z	 SAID31 WIII 161630	METAR WIII 161630Z VRB03KT 6000 TSRA FEW018CB SCT020 25/23 Q1010 RMK CB TO NW=
16/12/2013 17:00:00Z	 SAID31 WIII 161700	METAR WIII 161700Z VRB03KT 2600 TS RA SCT016CB SCT018 24/24 Q1010 RMK CB OVER THE FIELDS=
16/12/2013 17:30:00Z	 SAID31 WIII 161730	METAR WIII 161730Z VRB03KT 2100 TS RA FEW017CB BKN019 24/23 Q1009 RMK CB TO SW=
16/12/2013 18:00:00Z	 SAID31 WIII 161800	METAR WIII 161800Z 29010KT 3100 TSRA SCT018CB BKN019 24/23 Q1009 RMK CB TO N=
16/12/2013 18:30:00Z	 SAID31 WIII 161830	METAR WIII 161830Z 31007KT 6000 -TSRA FE019CB BKN019 23/23 Q1009 RMK CB TO NE=
16/12/2013 19:00:00Z	 SAID31 WIII 161900	METAR WIII 161900Z VRB03KT 5000 -TSRA FEW018CB BKN020 24/23 Q1009 RMK CB TO NW=
16/12/2013 19:30:00Z	 SAID31 WIII 161930	METAR WIII 161930Z 29003KT 5000 TSRA FEW019CB BKN020 24/23 Q1009 RMK CB TO E=
16/12/2013 20:00:00Z	 SAID31 WIII 162000	METAR WIII 162000Z 24007KT 5000 -RA FEW020CB BKN020 24/23 Q1008 CB TO NE=
16/12/2013 20:30:00Z	 SAID31 WIII 162030	METAR WIII 162030Z VRB02KT 6000 -RA SCT020 24/23 Q1008 NOSIG=
16/12/2013 21:00:00Z	 SAID31 WIII 162100	METAR WIII 162100Z 25004KT 6000 -RA BKN020 24/23 Q1008 NOSIG=
16/12/2013 21:30:00Z	 SAID31 WIII 162130	METAR WIII 162130Z 27003KT 5000 -RA BKN020 24/23 Q1008 NOSIG=
16/12/2013 22:00:00Z	 SAID31 WIII 162200	METAR WIII 162200Z 28002KT 5000 -RA BKN020 24/23 Q1008 NOSIG=
16/12/2013 22:30:00Z	 SAID31 WIII 162230	METAR WIII 162230Z 00000KT 4700 BR SCT020 24/23 Q1008 NOSIG=
16/12/2013 23:00:00Z	 SAID31 WIII 162300	METAR WIII 162300Z 00000KT 5000 -RA SCT020 24/23 Q1009 NOSIG=
16/12/2013 23:30:00Z	 SAID31 WIII 162330	METAR WIII 162330Z VRB04KT 6000 DZ SCT020 24/23 Q1009 NOSIG=
17/12/2013 00:00:00Z	 SAID31 WIII 170000	METAR WIII 170000Z VRB03KT 7000 DZ SCT020 25/23 Q1009 NOSIG=
17/12/2013 02:00:00Z	 SAID31 WIII 170200	METAR WIII 170200Z 11004KT 6000 DZ SCT018 OVC090 26/23 Q1009=
17/12/2013 02:30:00Z	 SAID31 WIII 170230	METAR WIII 170230Z 14004KT 5000 -RA SCT018 OVC090 26/24 Q1009=
17/12/2013 03:00:00Z	 SAID31 WIII 170300	METAR WIII 170300Z 14003KT 6000 -RA SCT018 OVC090 27/23 Q1009=
17/12/2013 03:30:00Z	 SAID31 WIII 170330	METAR COR WIII 170330Z VRB02KT 7000 -RA SCT018 BKN090 28/23 Q1009=
17/12/2013 04:00:00Z	 SAID31 WIII 170400	METAR WIII 170400Z 06003KT 5000 HZ SCT018 OVC100 29/24 Q1008=
17/12/2013 04:30:00Z	 SAID31 WIII 170430	METAR WIII 170430Z 13002KT 5000 HZ SCT018 BKN100 29/23 Q1008=
17/12/2013 05:00:00Z	 SAID31 WIII 170500	METAR WIII 170500Z 04004KT 7000 SCT018 OVC100 30/23 Q1007=
17/12/2013 05:30:00Z	 SAID31 WIII 170530	METAR WIII 170530Z 34004KT 8000 SCT018 BKN100 30/24 Q1007=
17/12/2013 06:00:00Z	 SAID31 WIII 170600	METAR WIII 170600Z 35005KT 8000 SCT018 BKN100 30/24 Q1006=
17/12/2013 06:30:00Z	 SAID31 WIII 170630	METAR WIII 170630Z AUTO VRB03KT 9999 30/24 Q1006=
17/12/2013 07:00:00Z	 SAID31 WIII 170700	METAR WIII 170700Z 01004KT 8000 SCT018 BKN100 30/24 Q1005=
17/12/2013 07:30:00Z	 SAID31 WIII 170730	METAR WIII 170730Z 35003KT 8000 FEW018 BKN100 30/24 Q1005=
17/12/2013 08:00:00Z	 SAID31 WIII 170800	METAR WIII 170800Z 36003KT 9999 FEW018 BKN100 30/24 Q1004=
17/12/2013 08:30:00Z	 SAID31 WIII 170830	METAR WIII 170830Z 32003KT 9999 FEW018 BKN100 30/24 Q1005=
17/12/2013 09:00:00Z	 SAID31 WIII 170900	METAR WIII 170900Z 34003KT 9999 SCT018 BKN090 30/25 Q1004=
17/12/2013 09:30:00Z	 SAID31 WIII 170930	METAR WIII 170930Z 33005KT 9999 SCT018 BKN100 29/24 Q1005=
17/12/2013 10:00:00Z	 SAID31 WIII 171000	METAR WIII 171000Z 02004KT 8000 FEW018 BKN100 29/24 Q1005=
17/12/2013 10:30:00Z	 SAID31 WIII 171030	METAR WIII 171030Z 01004KT 8000 FEW018 BKN100 29/24 Q1006=
17/12/2013 11:00:00Z	 SAID31 WIII 171100	METAR WIII 171100Z 01003KT 8000 FEW018 BKN100 28/24 Q1006=
17/12/2013 11:30:00Z	 SAID31 WIII 171130	METAR WIII 171130Z 04002KT 8000 FEW018 BKN100 28/25 Q1006=
17/12/2013 12:00:00Z	 SAID31 WIII 171200	METAR WIII 171200Z 02005KT 8000 FEW018 BKN100 28/24 Q1007=
17/12/2013 12:30:00Z	 SAID31 WIII 171230	METAR WIII 171230Z 04003KT 8000 FEW018 BKN100 28/24 Q1007=
17/12/2013 13:00:00Z	 SAID31 WIII 171300	METAR WIII 171300Z 01005KT 6000 FEW018 BKN100 28/24 Q1007=
17/12/2013 13:30:00Z	 SAID31 WIII 171330	METAR WIII 171330Z 07003KT 7000 SCT018 BKN020 27/24 Q1008 NIL=
17/12/2013 14:00:00Z	 SAID31 WIII 171400	METAR WIII 171400Z 06003KT 8000 FEW018 SCT100 27/24 Q1008=
17/12/2013 14:30:00Z	 SAID31 WIII 171430	METAR WIII 171430Z 29002KT 7000 FEW018 SCT100 27/24 Q1008=
17/12/2013 15:00:00Z	 SAID31 WIII 171500	METAR WIII 171500Z 23002KT 5000 BR FEW018 BKN100 27/25 Q1008=
17/12/2013 15:30:00Z	 SAID31 WIII 171530	METAR WIII 171530Z VRB02KT 5000 BR FEW018 BKN100 27/25 Q1008=
17/12/2013 16:00:00Z	 SAID31 WIII 171600	METAR WIII 171600Z 32002KT 6000 FEW018 BKN100 27/25 Q1008=
17/12/2013 16:30:00Z	 SAID31 WIII 171630	METAR WIII 171630Z 00000KT 4500 BR FEW018 BKN100 26/25 Q1008=
17/12/2013 17:00:00Z	 SAID31 WIII 171700	METAR WIII 171700Z 11002KT 4500 BR FEW018 BKN100 26/25 Q1008=
17/12/2013 17:30:00Z	 SAID31 WIII 171730	METAR WIII 171730Z AUTO 00000KT 2700 BR 26/25 Q1008=
17/12/2013 18:00:00Z	 SAID31 WIII 171800	METAR WIII 171800Z 33002KT 3500 BR SCT018 BKN100 26/25 Q1007=
17/12/2013 18:30:00Z	 SAID31 WIII 171830	METAR WIII 171830Z 14003KT 4000 BR FEW018 BKN100 26/24 Q1007=
17/12/2013 19:00:00Z	 SAID31 WIII 171900	METAR WIII 171900Z 17003KT 4500 BR FEW018 SCT100 26/25 Q1007=
17/12/2013 19:30:00Z	 SAID31 WIII 171930	METAR WIII 171930Z 18002KT 4000 BR FEW018 SCT100 26/24 Q1007=
17/12/2013 20:00:00Z	 SAID31 WIII 172000	METAR WIII 172000Z 20002KT 4000 BR FEW018 SCT100 26/24 Q1007=
17/12/2013 20:30:00Z	 SAID31 WIII 172030	METAR WIII 172030Z 16002KT 3000 BR FEW018CB BKN100 26/24 Q1006 RMK CB TO NW=
17/12/2013 21:00:00Z	 SAID31 WIII 172100	METAR WIII 172100Z 20002KT 2500 BR FEW018CB SCT018 BKN100 26/24 Q1007 RMK CB TO W AND N=
17/12/2013 21:30:00Z	 SAID31 WIII 172130	METAR WIII 172130Z 19002KT 2400 BR FEW018CB SCT018 BKN100 26/24 Q1007 RMK CB TO N=
17/12/2013 22:00:00Z	 SAID31 WIII 172200	METAR WIII 172200Z 18003KT 2000 BR FEW018CB FEW018 SCT100 26/24 Q1007 RMK CB TO W AND NW=
17/12/2013 22:30:00Z	 SAID31 WIII 172230	METAR WIII 172230Z VRB02KT 2000 BR FEW018CB BKN100 26/25 Q1007 RMK CB TO W AND NW=
17/12/2013 23:00:00Z	 SAID31 WIII 172300	METAR WIII 172300Z 15006KT 2300 BR FEW018CB BKN100 26/24 Q1008 RMK CB TO SW AND W=
17/12/2013 23:30:00Z	 SAID31 WIII 172330	METAR WIII 172330Z 13004KT 3000 BR FEW018CB SCT018 BKN100 27/24 Q1008=
18/12/2013 00:00:00Z	 SAID31 WIII 180000	METAR WIII 180000Z 14004KT 3000 VCTS FEW018CB BKN100 28/25 Q1009 RMK CB TO W AND NW=
18/12/2013 00:30:00Z	 SAID31 WIII 180030	METAR WIII 180030Z 27011G21KT 4000 TS SCT016CB OVC090 25/23 Q1010 TEM PO FM0030 TL0130 33015G25KT 1500 TSRA CB ALL RWY=
18/12/2013 01:00:00Z	 SAID31 WIII 180100	METAR WIII 180100Z 27006G20KT 240V010 1000 TSRA SCT014CB OVC018 23/2 1 Q1011 RMK CB OVER THE FIELD=
18/12/2013 01:30:00Z	 SAID31 WIII 180130	METAR WIII 180130Z 35008KT 2000 TSRA SCT016CB OVC018 22/21 Q1010 RMK CB TO E AND NW=
18/12/2013 02:00:00Z	 SAID31 WIII 180200	METAR WIII 180200Z VRB02KT 4000 -RA BKN020 23/22 Q1010=
18/12/2013 02:30:00Z	 SAID31 WIII 180230	METAR WIII 180230Z 29004KT 5000 -RA BKN020 23/22 Q1010=
18/12/2013 03:00:00Z	 SAID31 WIII 180300	METAR WIII 180300Z 30004KT 7000 FEW018 BKN030 25/23 Q1010 RERA=
18/12/2013 03:30:00Z	 SAID31 WIII 180330	METAR WIII 180330Z VRB02KT 8000 SCT020 27/23 Q1009=
18/12/2013 04:00:00Z	 SAID31 WIII 180400	METAR WIII 180400Z VRB02KT 9999 SCT022 29/23 Q1009=
18/12/2013 04:30:00Z	 SAID31 WIII 180430	METAR WIII 180430Z VRB04KT 9999 SCT022 29/23 Q1009=
18/12/2013 05:00:00Z	 SAID31 WIII 180500	METAR WIII 180500Z VRB02KT 9999 SCT022 29/23 Q1009=
18/12/2013 05:30:00Z	 SAID31 WIII 180530	METAR WIII 180530Z VRB04KT 9999 FEW020 30/23 Q1008 NOSIG=
18/12/2013 06:00:00Z	 SAID31 WIII 180600	METAR WIII 180600Z 02006KT 9999 FEW020 30/24 Q1008 NOSIG=
18/12/2013 06:30:00Z	 SAID31 WIII 180630	METAR WIII 180630Z 33006KT 9999 FEW020 30/24 Q1007=
18/12/2013 07:00:00Z	 SAID31 WIII 180700	METAR COR WIII 180700Z VRB04KT 9999 SCT020 30/24 Q1007=
18/12/2013 07:30:00Z	 SAID31 WIII 180730	METAR WIII 180730Z VRB05KT 9000 BKN020 29/24 Q1007=
18/12/2013 08:00:00Z	 SAID31 WIII 180800	METAR WIII 180800Z VRB05KT 9999 BKN020 30/24 Q1006=
18/12/2013 08:30:00Z	 SAID31 WIII 180830	METAR WIII 180830Z 31006KT 9999 SCT020 30/24 Q1006=
18/12/2013 09:00:00Z	 SAID31 WIII 180900	METAR WIII 180900Z 31005KT 9999 FEW020 29/24 Q1006 NOSIG=
18/12/2013 09:30:00Z	 SAID31 WIII 180930	METAR WIII 180930Z VRB04KT 9000 SCT020 29/24 Q1006=
18/12/2013 10:00:00Z	 SAID31 WIII 181000	METAR WIII 181000Z 32003KT 9000 FEW020 28/24 Q1007=
18/12/2013 10:30:00Z	 SAID31 WIII 181030	METAR WIII 181030Z 29002KT 9000 FEW020 28/24 Q1007=
18/12/2013 11:00:00Z	 SAID31 WIII 181100	METAR WIII 181100Z 28002KT 8000 SCT020 28/24 Q1008=
18/12/2013 11:30:00Z	 SAID31 WIII 181130	METAR WIII 181130Z VRB02KT 7000 SCT020 28/24 Q1008=
18/12/2013 12:00:00Z	 SAID31 WIII 181200	METAR WIII 181200Z 17002KT 7000 SCT020 27/24 Q1009=
18/12/2013 12:30:00Z	 SAID31 WIII 181230	METAR WIII 181230Z AUTO 00000KT 9999 27/24 Q1009=
18/12/2013 13:00:00Z	 SAID31 WIII 181300	METAR WIII 181300Z AUTO VRB04KT 9999 28/23 Q1009=
18/12/2013 13:30:00Z	 SAID31 WIII 181330	METAR WIII 181330Z 13006KT 8000 FEW021 28/23 Q1010 NOSIG=
18/12/2013 14:00:00Z	 SAID31 WIII 181400	METAR WIII 181400Z VRB05KT 6000 SSCT020 28/23 Q1010 NOSIG=
18/12/2013 14:30:00Z	 SAID31 WIII 181430	METAR WIII 181430Z VRB05KT 4400 BR SCT021 28/24 Q1010 NOSIG=
18/12/2013 15:00:00Z	 SAID31 WIII 181500	METAR WIII 181500Z 16006KT 5000 SCT020 28/24 Q1010 NOSIG=
18/12/2013 15:30:00Z	 SAID31 WIII 181530	METAR WIII 181530Z 16006KT 5000 SCT021 27/24 Q1009 NOSIG=
18/12/2013 16:00:00Z	 SAID31 WIII 181600	METAR WIII 181600Z 16005KT 7000 SCT021 27/23 Q1009 NOSIG=
18/12/2013 16:30:00Z	 SAID31 WIII 181630	METAR WIII 181630Z 17002KT 6000 SCT020 27/23 Q1009 NOSIG=
18/12/2013 17:00:00Z	 SAID31 WIII 181700	METAR WIII 181700Z 19003KT 6000 FEW021 27/23 Q1009 NOSIG=
18/12/2013 17:30:00Z	 SAID31 WIII 181730	METAR WIII 181730Z 19004KT 6000 -RA SCT021 26/23 Q1009=
18/12/2013 18:00:00Z	 SAID31 WIII 181800	METAR WIII 181800Z 20002KT 7000 -RA SCT020 26/23 Q1009=
18/12/2013 18:30:00Z	 SAID31 WIII 181830	METAR WIII 181830Z VRB02KT 7000 -RA SCT020 26/23 Q1009=
18/12/2013 19:00:00Z	 SAID31 WIII 181900	METAR WIII 181900Z 19003KT 6000 -RA SCT020 26/23 Q1008=
18/12/2013 19:30:00Z	 SAID31 WIII 181930	METAR WIII 181930Z 20002KT 7000 26/23 SCT020 1008 RERA=
18/12/2013 20:00:00Z	 SAID31 WIII 182000	METAR WIII 182000Z 19003KT 7000 SCT020 26/23 Q1008=
18/12/2013 21:30:00Z	 SAID31 WIII 182130	METAR WIII 182130Z 27003KT 9000 FEW021 25/23 Q1008 NOSIG=
18/12/2013 22:00:00Z	 SAID31 WIII 182200	METAR WIII 182200Z 25006KT 2800 BR FEW021 25/24 Q1008 NOSIG=
18/12/2013 22:30:00Z	 SAID31 WIII 182230	METAR WIII 182230Z 27005KT 3200 BR FEW021 25/23 Q1009 NOSIG=
18/12/2013 23:00:00Z	 SAID31 WIII 182300	METAR WIII 182300Z 27005KT 3200 BR FEW022 25/23 Q1009 NOSIG=
18/12/2013 23:30:00Z	 SAID31 WIII 182330	METAR WIII 182330Z 26008KT 3100 BR FEW022 26/23 Q1010 NOSIG=
19/12/2013 00:00:00Z	 SAID31 WIII 190000	METAR WIII 190000Z 26008KT 4300 BR FEW021 27/23 Q1010 NOSIG=
19/12/2013 00:30:00Z	 SAID31 WIII 190030	METAR WIII 190030Z 26007KT 4800 BR SCT021 27/23 Q1010 NOSIG=
19/12/2013 01:00:00Z	 SAID31 WIII 190100	METAR WIII 190100Z 27010KT 5000 HZ FEW021 BKN100 29/23 Q1010 NOSIG=
19/12/2013 01:30:00Z	 SAID31 WIII 190130	METAR WIII 190130Z 25010KT 6000 SCT021 BKN100 28/23 Q1010 NOSIG=
19/12/2013 02:00:00Z	 SAID31 WIII 190200	METAR WIII 190200Z 28008KT 6000 SCT021 BKN100 28/23 Q1010 NOSIG=
19/12/2013 02:30:00Z	 SAID31 WIII 190230	METAR WIII 190230Z 28010KT 6000 FEW021 BKN100 29/24 Q1010 NOSIG=
19/12/2013 03:00:00Z	 SAID31 WIII 190300	METAR WIII 190300Z 27008KT 6000 FEW020 BKN100 29/23 Q1010 NOSIG=
19/12/2013 03:30:00Z	 SAID31 WIII 190330	METAR WIII 190330Z 29007KT 6000 FEW020 BKN100 30/24 Q1009 NOSIG=
19/12/2013 04:00:00Z	 SAID31 WIII 190400	METAR WIII 190400Z 29006KT 6000 FEW020 BKN100 30/24 Q1009 NOSIG=
19/12/2013 04:30:00Z	 SAID31 WIII 190430	METAR WIII 190430Z 31009KT 6000 SCT021 BKN100 30/24 Q1009 NOSIG=
19/12/2013 05:00:00Z	 SAID31 WIII 190500	METAR WIII 190500Z 30009KT 6000 SCT021 BKN100 30/24 Q1009 NOSIG=
19/12/2013 05:30:00Z	 SAID31 WIII 190530	METAR WIII 190530Z 29009KT 7000 FEW020 BKN100 31/24 Q1008 NOSIG=
19/12/2013 06:00:00Z	 SAID31 WIII 190600	METAR WIII 190600Z 28010KT 7000 FEW021 BKN100 32/24 Q1008 NOSIG=
19/12/2013 06:30:00Z	 SAID31 WIII 190630	METAR WIII 190630Z 30013KT 7000 FEW021 SCT100 32/24 Q1007 NOSIG=
19/12/2013 07:00:00Z	 SAID31 WIII 190700	METAR WIII 190700Z 30012KT 7000 SCT020 33/24 Q1006 NOSIG=
19/12/2013 07:30:00Z	 SAID31 WIII 190730	METAR WIII 190730Z 29012KT 7000 FEW020CB SCT021 33/25 Q1006 RMK CB TO S=
19/12/2013 08:00:00Z	 SAID31 WIII 190800	METAR WIII 190800Z 30011KT 7000 FEW020CB SCT021 32/24 Q1005 RMK CB TO S=
19/12/2013 08:30:00Z	 SAID31 WIII 190830	METAR WIII 190830Z 33014KT 270V010 6000 FEW020CB SCT021 32/24 Q1006 R MK CB TO S=
19/12/2013 09:00:00Z	 SAID31 WIII 190900	METAR WIII 190900Z 26010KT 250V330 6000 FEW020CB SCT021 31/23 Q1006 R MK CB TO S=
19/12/2013 09:30:00Z	 SAID31 WIII 190930	METAR WIII 190930Z 16012KT 140V260 3100 -RA SCT019CB BKN020 28/24 Q10 07 RMK CB TO S=
19/12/2013 09:30:00Z	 SAID31 WIII 190930	METAR WIII 190930Z 16012KT 140V260 3100 -RA SCT019CB BKN020 28/24 Q1007 RMK CB TO S=
19/12/2013 10:00:00Z	 SAID31 WIII 191000	METAR WIII 191000Z 16008KT 3300 -RA FEW019CB BKN020 26/24 Q1007 RMK C B TO SE=
19/12/2013 10:30:00Z	 SAID31 WIII 191030	METAR WIII 191030Z 15007KT 3700 -RA FEW019CB BKN020 26/23 Q1008 RMK C B TO SE=
19/12/2013 11:00:00Z	 SAID31 WIII 191100	METAR WIII 191100Z VRB05KT 4500 -DZ FEW019CB SCT020 OVC100 26/23 Q100 8 RERA RMK CB TO SE=
19/12/2013 11:30:00Z	 SAID31 WIII 191130	METAR WIII 191130Z 16012KT 6000 FEW019CB SCT021 BKN100 27/23 Q1009 RMK CB TO SE=
19/12/2013 12:00:00Z	 SAID31 WIII 191200	METAR WIII 191200Z 13012KT 110V190 3000 -TSRA FEW019CB SCT020 OVC100 26/23 Q1009 RMK CB TO E=
19/12/2013 12:30:00Z	 SAID31 WIII 191230	METAR WIII 191230Z 12008KT 3000 -RA FEW018CB SCT018 OVC090 26/23 Q1010 RMK RETS CB TO N=
19/12/2013 13:00:00Z	 SAID31 WIII 191300	METAR WIII 191300Z 13005KT 4000 -RA FEW018CB SCT018 OVC090 26/24 Q1009 RMK CB TO E=
19/12/2013 13:30:00Z	 SAID31 WIII 191330	METAR WIII 191330Z VRB02KT 5000 -RA FEW018CB SCT018 OVC090 25/23 Q101 0 RMK CB TO E=
19/12/2013 14:00:00Z	 SAID31 WIII 191400	METAR WIII 191400Z 26002KT 6000 -RA SCT018 OVC090 25/23 Q1009=
19/12/2013 14:30:00Z	 SAID31 WIII 191430	METAR WIII 191430Z 14004KT 7000 FEW018CB FEW018 OVC090 25/23 Q1010 RMK CB TO E=
19/12/2013 15:00:00Z	 SAID31 WIII 191500	METAR WIII 191500Z 17003KT 8000 FEW018 BKN090 26/23 Q1010=
19/12/2013 15:30:00Z	 SAID31 WIII 191530	METAR WIII 191530Z 32005KT 8000 SCT020 BKN100 25/23 Q1010=
19/12/2013 16:00:00Z	 SAID31 WIII 191600	METAR WIII 191600Z 24002KT 8000 FEW018 BKN100 25/23 Q1010=
19/12/2013 16:30:00Z	 SAID31 WIII 191630	METAR WIII 191630Z 25003KT 8000 FEW020 BKN100 25/23 Q1010=
19/12/2013 17:00:00Z	 SAID31 WIII 191700	METAR WIII 191700Z 25005KT 6000 FEW018 SCT100 25/23 Q1010=
19/12/2013 17:30:00Z	 SAID31 WIII 191730	METAR WIII 191730Z 28004KT 7000 FEW018 BKN100 25/23 Q1009=
19/12/2013 18:00:00Z	 SAID31 WIII 191800	METAR WIII 191800Z 28006KT 7000 SCT020 BKN100 25/23 Q1009=
19/12/2013 18:30:00Z	 SAID31 WIII 191830	METAR WIII 191830Z 25008KT 8000 SCT020 BKN100 25/23 Q1009=
19/12/2013 19:00:00Z	 SAID31 WIII 191900	METAR WIII 191900Z 23007KT 8000 SCT020 BKN100 25/22 Q1009=
19/12/2013 19:30:00Z	 SAID31 WIII 191930	METAR WIII 191930Z 22009KT 8000 SCT020 BKN100 26/22 Q1009=
19/12/2013 20:00:00Z	 SAID31 WIII 192000	METAR WIII 192000Z 19006KT 8000 SCT018 BKN100 25/22 Q1009=
19/12/2013 20:30:00Z	 SAID31 WIII 192030	METAR WIII 192030Z 22007KT 8000 SCT020 BKN100 25/22 Q1009=
19/12/2013 21:00:00Z	 SAID31 WIII 192100	METAR COR WIII 192100Z 23004KT 8000 SCT020 BKN100 25/22 Q1009=
19/12/2013 21:30:00Z	 SAID31 WIII 192130	METAR WIII 192130Z 25005KT 8000 SCT018 BKN100 24/22 Q1009=
19/12/2013 22:00:00Z	 SAID31 WIII 192200	METAR WIII 192200Z 29005KT 8000 FEW020 SCT100 24/22 Q1009=
19/12/2013 22:30:00Z	 SAID31 WIII 192230	METAR WIII 192230Z 29005KT 8000 SCT020 BKN100 25/22 Q1009=
19/12/2013 23:00:00Z	 SAID31 WIII 192300	METAR WIII 192300Z 25008KT 9999 SCT020 BKN100 25/22 Q1009=
19/12/2013 23:30:00Z	 SAID31 WIII 192330	METAR WIII 192330Z 25007KT 9999 SCT020 BKN100 25/22 Q1010=
20/12/2013 00:00:00Z	 SAID31 WIII 200000	METAR WIII 200000Z 27006KT 9999 SCT020 BKN100 26/22 Q1010 NOSIG=
20/12/2013 00:30:00Z	 SAID31 WIII 200030	METAR WIII 200030Z 30006KT 8000 FEW020 BKN100 27/22 Q1011 NOSIG=
20/12/2013 01:00:00Z	 SAID31 WIII 200100	METAR WIII 200100Z 26008KT 7000 FEW020 BKN100 27/23 Q1011 NOSIG=
20/12/2013 01:30:00Z	 SAID31 WIII 200130	METAR WIII 200130Z 28006KT 7000 FEW020 BKN110 27/23 Q1011 NOSIG=
20/12/2013 02:00:00Z	 SAID31 WIII 200200	METAR WIII 200200Z 25006KT 7000 FEW020 BKN110 28/23 Q1011 NOSIG=
20/12/2013 02:30:00Z	 SAID31 WIII 200230	METAR WIII 200230Z 27010KT 8000 FEW020 BKN110 28/23 Q1011 NOSIG=
20/12/2013 03:00:00Z	 SAID31 WIII 200300	METAR WIII 200300Z 28010KT 8000 FEW020 BKN110 28/23 Q1011 NOSIG=
20/12/2013 03:30:00Z	 SAID31 WIII 200330	METAR WIII 200330Z 27012KT 6000 DZ SCT020 BKN110 28/23 Q1011=
20/12/2013 04:00:00Z	 SAID31 WIII 200400	METAR WIII 200400Z 27012KT 7000 SCT020 BKN110 29/24 Q1011=
20/12/2013 04:30:00Z	 SAID31 WIII 200430	METAR WIII 200430Z 28016KT 7000 SCT020 BKN110 29/24 Q1011=
20/12/2013 05:00:00Z	 SAID31 WIII 200500	METAR WIII 200500Z 27021KT 7000 SCT020 BKN110 27/23 Q1011=
20/12/2013 05:30:00Z	 SAID31 WIII 200530	METAR WIII 200530Z 27018KT 8000 FEW021 BKN100 29/23 Q1010 NOSIG=
20/12/2013 06:00:00Z	 SAID31 WIII 200600	METAR WIII 200600Z 27020KT 8000 FEW021 BKN100 29/23 Q1010 NOSIG=
20/12/2013 06:30:00Z	 SAID31 WIII 200630	METAR WIII 200630Z 27022KT 8000 FEW021 BKN100 29/22 Q1010 NOSIG=
20/12/2013 07:00:00Z	 SAID31 WIII 200700	METAR WIII 200700Z 25023KT 7000 SCT021 BKN100 29/21 Q1010 NOSIG=
20/12/2013 07:30:00Z	 SAID31 WIII 200730	METAR WIII 200730Z 25021KT 8000 FEW021 BKN100 29/21 Q1009 NOSIG=
20/12/2013 08:00:00Z	 SAID31 WIII 200800	METAR WIII 200800Z 23017KT 8000 FEW021 BKN100 29/22 Q1009 NOSIG=
20/12/2013 08:30:00Z	 SAID31 WIII 200830	METAR WIII 200830Z 25016KT 8000 FEW020 BKN100 28/21 Q1009 NOSIG=
20/12/2013 09:00:00Z	 SAID31 WIII 200900	METAR WIII 200900Z 25012KT 8000 FEW020 BKN100 28/22 Q1009 NOSIG=
20/12/2013 09:30:00Z	 SAID31 WIII 200930	METAR WIII 200930Z 25013KT 8000 FEW020 BKN100 28/22 Q1009 NOSIG=
20/12/2013 10:00:00Z	 SAID31 WIII 201000	METAR WIII 201000Z 25014KT 8000 FEW020 BKN100 28/22 Q1009 NOSIG=
20/12/2013 10:30:00Z	 SAID31 WIII 201030	METAR WIII 201030Z 24018KT 7000 SCT021 BKN090 28/22 Q1009 NOSIG=
20/12/2013 11:00:00Z	 SAID31 WIII 201100	METAR WIII 201100Z 22018KT 5000 DZ SCT020 BKN090 27/22 Q1010=
20/12/2013 11:30:00Z	 SAID31 WIII 201130	METAR WIII 201130Z 24016KT 6000 -DZ SCT020 BKN090 26/21 Q1011=
20/12/2013 12:00:00Z	 SAID31 WIII 201200	METAR WIII 201200Z 26013KT 7000 SCT020 BKN090 26/21 Q1011 NOSIG=
20/12/2013 12:30:00Z	 SAID31 WIII 201230	METAR WIII 201230Z 26010KT 7000 FEW020 BKN090 26/22 Q1012 NOSIG=
20/12/2013 13:00:00Z	 SAID31 WIII 201300	METAR WIII 201300Z 23010KT 7000 FEW021 26/21 Q1012 NOSIG=
20/12/2013 13:30:00Z	 SAID31 WIII 201330	METAR WIII 201330Z 23014KT 7000 FEW021 26/21 Q1012 NOSIG=
20/12/2013 14:00:00Z	 SAID31 WIII 201400	METAR WIII 201400Z 23014KT 7000 SCT021 26/20 Q1012 NOSIG=
20/12/2013 15:00:00Z	 SAID31 WIII 201500	METAR WIII 201500Z 26008KT 7000 -RA SCT020 25/21 Q1012 NOSIG=
20/12/2013 15:30:00Z	 SAID31 WIII 201530	METAR WIII 201530Z 25009KT 7000 -RA SCT020 24/21 Q1012 NOSIG=
20/12/2013 16:30:00Z	 SAID31 WIII 201630	METAR WIII 201630Z 25008KT 9999 -RA SCT02 025/21 Q1012 NOSIG=
20/12/2013 17:00:00Z	 SAID31 WIII 201700	METAR WIII 201700Z 25007KT 8000 -RA SCT020 24/21 Q1011 NOSIG=
20/12/2013 17:30:00Z	 SAID31 WIII 201730	METAR WIII 201730Z 26007KT 8000 SCT020 24/21 Q1011 NOSIG=
20/12/2013 18:00:00Z	 SAID31 WIII 201800	METAR WIII 201800Z 26007KT 8000 SCT020 24/21 Q1010 NOSIG=
20/12/2013 18:30:00Z	 SAID31 WIII 201830	METAR WIII 201830Z 24006KT 8000 SCT020 24/21 Q1010 NOSIG=
20/12/2013 19:00:00Z	 SAID31 WIII 201900	METAR WIII 201900Z 18003KT 8000 SCT020 25/21 Q1010 NOSIG=
20/12/2013 19:30:00Z	 SAID31 WIII 201930	METAR WIII 201930Z 26007KT 8000 SCT020 24/21 Q1010 NOSIG=
20/12/2013 20:00:00Z	 SAID31 WIII 202000	METAR WIII 202000Z 25006KT 7000 FEW021 25/22 1010 NOSIG=
20/12/2013 20:30:00Z	 SAID31 WIII 202030	METAR WIII 202030Z 26005KT 7000 FEW021 24/22 Q1009 NOSIG=
20/12/2013 21:00:00Z	 SAID31 WIII 202100	METAR WIII 202100Z 26004KT 7000 SCT020 24/22 Q1009 NOSIG=
20/12/2013 21:30:00Z	 SAID31 WIII 202130	METAR WIII 202130Z 26004KT 7000 SCT020 24/22 Q1009 NOSIG=
20/12/2013 22:00:00Z	 SAID31 WIII 202200	METAR WIII 202200Z VRB02KT 7000 DZ SCT020 24/22 Q1010 NOSIG=
20/12/2013 22:30:00Z	 SAID31 WIII 202230	METAR WIII 202230Z VRB02KT 7000 DZ SCT020 24/22 Q1010 NOSIG=
20/12/2013 23:00:00Z	 SAID31 WIII 202300	METAR WIII 202300Z 28004KT 6000 SCT020 24/22 Q1010 NOSIG=
20/12/2013 23:30:00Z	 SAID31 WIII 202330	METAR WIII 202330Z 27007KT 7000 SCT020 25/22 Q1010 NOSIG=
21/12/2013 00:00:00Z	 SAID31 WIII 210000	METAR WIII 210000Z 27007KT 7000 SCT020 26/22 Q1010 NOSIG=
21/12/2013 00:30:00Z	 SAID31 WIII 210030	METAR WIII 210030Z 26009KT 8000 FEW021 27/22 Q1011 NOSIG=
21/12/2013 01:00:00Z	 SAID31 WIII 210100	METAR WIII 210100Z AUTO 26013KT 9999 27/22 Q1011=
21/12/2013 01:30:00Z	 SAID31 WIII 210130	METAR WIII 210130Z 27014KT 8000 BKN020 27/23 Q1011=
21/12/2013 02:00:00Z	 SAID31 WIII 210200	METAR WIII 210200Z 27012G20KT 9000 FEW018 BKN060 27/22 Q1011=
21/12/2013 02:30:00Z	 SAID31 WIII 210230	METAR WIII 210230Z 26013KT 9999 SCT020 28/23 Q1011=
21/12/2013 03:00:00Z	 SAID31 WIII 210300	METAR WIII 210300Z 25015KT 9999 SCT020 29/23 Q1011=
21/12/2013 03:30:00Z	 SAID31 WIII 210330	METAR WIII 210330Z 24014G22KT 9999 SCT020 30/23 Q1010=
21/12/2013 04:00:00Z	 SAID31 WIII 210400	METAR WIII 210400Z 26012G22KT 9999 FEW018 SCT030 30/22 Q1010=
21/12/2013 04:30:00Z	 SAID31 WIII 210430	METAR WIII 210430Z 25016KT 9999 FEW018 SCT030 29/22 Q1010=
21/12/2013 05:00:00Z	 SAID31 WIII 210500	METAR WIII 210500Z 26020KT 9999 SCT020 30/22 Q1010=
21/12/2013 05:30:00Z	 SAID31 WIII 210530	METAR WIII 210530Z 25012G24KT 9999 SCT020 31/23 Q1009=
21/12/2013 06:00:00Z	 SAID31 WIII 210600	METAR WIII 210600Z 25014G24KT 9999 SCT022 31/23 Q1009=
21/12/2013 06:30:00Z	 SAID31 WIII 210630	METAR WIII 210630Z 26012G25KT 9999 FEW020 31/23 Q1008=
21/12/2013 07:00:00Z	 SAID31 WIII 210700	METAR WIII 210700Z 26015G22KT 9999 FEW020 31/23 Q1008=
21/12/2013 07:30:00Z	 SAID31 WIII 210730	METAR WIII 210730Z AUTO 25017KT 9999 31/22 Q1007=
21/12/2013 08:00:00Z	 SAID31 WIII 210800	METAR WIII 210800Z AUTO 26014KT 9999 31/23 Q1007=
21/12/2013 08:30:00Z	 SAID31 WIII 210830	METAR WIII 210830Z 24016KT 9999 SCT020 31/23 Q1007=
21/12/2013 09:00:00Z	 SAID31 WIII 210900	METAR WIII 210900Z 26014G22KT 9999 SCT020 30/22 Q1007=
21/12/2013 09:30:00Z	 SAID31 WIII 210930	METAR WIII 210930Z 25018KT 9999 SCT020 30/22 Q1007=
21/12/2013 10:00:00Z	 SAID31 WIII 211000	METAR WIII 211000Z 26015KT 9000 SCT018 29/22 Q1008=
21/12/2013 10:30:00Z	 SAID31 WIII 211030	METAR WIII 211030Z 24015KT 9000 SCT020 28/23 Q1008=
21/12/2013 11:00:00Z	 SAID31 WIII 211100	METAR WIII 211100Z 24015KT 8000 SCT018 BKN060 28/23 Q1009=
21/12/2013 11:30:00Z	 SAID31 WIII 211130	METAR WIII 211130Z 24015KT 7000 BKN020 27/23 Q1009=
21/12/2013 12:00:00Z	 SAID31 WIII 211200	METAR WIII 211200Z 25010KT 6000 BKN020 27/23 Q1010=
21/12/2013 12:30:00Z	 SAID31 WIII 211230	METAR WIII 211230Z 25014KT 6000 SCT020 BKN090 26/23 Q1010=
21/12/2013 13:00:00Z	 SAID31 WIII 211300	METAR WIII 211300Z 25012KT 6000 SCT020 BKN090 26/22 Q1010 NOSIG=
21/12/2013 13:30:00Z	 SAID31 WIII 211330	METAR WIII 211330Z 24013KT 6000 FEW020 BKN090 27/22 Q1010 NOSIG=
21/12/2013 14:00:00Z	 SAID31 WIII 211400	METAR WIII 211400Z 24012KT 7000 FEW020 BKN090 26/22 Q1010 NOSIG=
21/12/2013 14:30:00Z	 SAID31 WIII 211430	METAR WIII 211430Z 26012KT 7000 FEW020 SCT090 26/22 Q1010 NOSIG=
21/12/2013 15:00:00Z	 SAID31 WIII 211500	METAR WIII 211500Z 25012KT 7000 FEW020 SCT100 26/22 Q1011 NOSIG=
21/12/2013 15:30:00Z	 SAID31 WIII 211530	METAR WIII 211530Z 26009KT 7000 FEW020 SCT100 26/22 Q1011 NOSIG=
21/12/2013 16:00:00Z	 SAID31 WIII 211600	METAR WIII 211600Z 26008KT FEW020 SCT100 26/22 Q1011 NOSIG=
21/12/2013 16:30:00Z	 SAID31 WIII 211630	METAR WIII 211630Z 26008KT 7000 FEW020 SCT100 25/22 Q1011 NOSIG=
21/12/2013 17:00:00Z	 SAID31 WIII 211700	METAR WIII 211700Z 27011KT 7000 SCT021 25/22 Q1011=
21/12/2013 17:30:00Z	 SAID31 WIII 211730	METAR WIII 211730Z 27009KT 7000 FEW021 SCT100 25/22 Q1010 NOSIG=
21/12/2013 18:00:00Z	 SAID31 WIII 211800	METAR WIII 211800Z 27013KT 6000 SCT021 BKN100 25/22 Q1010 NOSIG=
21/12/2013 18:30:00Z	 SAID31 WIII 211830	METAR WIII 211830Z 26017KT 4400 DZ SCT020 BKN100 24/22 Q1010=
21/12/2013 19:00:00Z	 SAID31 WIII 211900	METAR WIII 211900Z 28013KT 4000 -RA BKN020 24/23 Q1010=
21/12/2013 19:30:00Z	 SAID31 WIII 211930	METAR WIII 211930Z 27010KT 4400 DZ SCT020 BKN100 24/22 Q1009=
21/12/2013 20:00:00Z	 SAID31 WIII 212000	METAR WIII 212000Z 27008KT 6000 FEW021 BKN100 24/22 Q1009 REDZ=
21/12/2013 20:30:00Z	 SAID31 WIII 212030	METAR WIII 212030Z 26007KT 6000 FEW021 BKN100 23/22 Q1009=
21/12/2013 21:00:00Z	 SAID31 WIII 212100	METAR WIII 212100Z 26010KT 4000 -DZ SCT020 BKN100 23/22 Q1009=
21/12/2013 21:30:00Z	 SAID31 WIII 212130	METAR WIII 212130Z 25005KT 5000 BR SCT020 BKN100 24/22 Q1010=
21/12/2013 22:00:00Z	 SAID31 WIII 212200	METAR WIII 212200Z 27006KT 3000 -RA SCT020 BKN100 24/23 Q1010=
21/12/2013 22:30:00Z	 SAID31 WIII 212230	METAR WIII 212230Z 29009KT 3300 -RA SCT020 OVC100 23/22 Q1010=
21/12/2013 23:00:00Z	 SAID31 WIII 212300	METAR WIII 212300Z 29009KT 6000 SCT018 OVC100 23/22 Q1010 RERA=
21/12/2013 23:30:00Z	 SAID31 WIII 212330	METAR WIII 212330Z 27006KT 3000 -RA BKN018 OVC100 23/22 Q1011=
22/12/2013 00:00:00Z	 SAID31 WIII 220000	METAR WIII 220000Z 28006KT 5000 -RA BKN018 OVC100 24/22 Q1011=
22/12/2013 00:30:00Z	 SAID31 WIII 220030	METAR WIII 220030Z 28008KT 6000 DZ SCT018 OVC100 24/23 Q1011 RERA=
22/12/2013 01:00:00Z	 SAID31 WIII 220100	METAR WIII 220100Z 26009KT 5000 -RA SCT018 OVC100 24/23 Q1012=
22/12/2013 01:30:00Z	 SAID31 WIII 220130	METAR WIII 220130Z 30009KT 4500 -RA SCT018 OVC090 24/23 Q1012=
22/12/2013 02:00:00Z	 SAID31 WIII 220200	METAR WIII 220200Z 31007KT 2500 RA SCT018 OVC090 24/23 Q1012=
22/12/2013 02:30:00Z	 SAID31 WIII 220230	METAR WIII 220230Z 29008KT 7000 SCT018 OVC090 24/23 Q1012 RMK RERA=
22/12/2013 03:00:00Z	 SAID31 WIII 220300	METAR WIII 220300Z 29008G18KT 8000 SCT018 OVC090 26/23 Q1012=
22/12/2013 03:30:00Z	 SAID31 WIII 220330	METAR WIII 220330Z 26008G18KT 7000 -DZ SCT018 OVC090 25/23 Q1012=
22/12/2013 04:00:00Z	 SAID31 WIII 220400	METAR WIII 220400Z 28009G19KT 6000 -RA SCT018 OVC090 25/23 Q1012=
22/12/2013 04:30:00Z	 SAID31 WIII 220430	METAR WIII 220430Z 30006G16KT 5000 +RA SCT018 OVC090 24/23 Q1011=
22/12/2013 05:00:00Z	 SAID31 WIII 220500	METAR WIII 220500Z 28010KT 6000 -RA SCT018 OVC090 25/23 Q1011=
22/12/2013 05:30:00Z	 SAID31 WIII 220530	METAR WIII 220530Z 29005KT 6000 -RA SCT018 OVC090 25/23 Q1011=
22/12/2013 06:00:00Z	 SAID31 WIII 220600	METAR WIII 220600Z 27006KT 7000 -RA SCT018 OVC090 26/23 Q1010=
22/12/2013 06:30:00Z	 SAID31 WIII 220630	METAR WIII 220630Z 29006KT 7000 -RA SCT018 OVC090 26/23 Q1010=
22/12/2013 07:00:00Z	 SAID31 WIII 220700	METAR WIII 220700Z 25009KT 8000 -RA SCT018 OVC090 26/23 Q1009=
22/12/2013 07:30:00Z	 SAID31 WIII 220730	METAR WIII 220730Z 26007KT 8000 -RA SCT018 OVC090 26/23 Q1009=
22/12/2013 09:00:00Z	 SAID31 WIII 220900	METAR WIII 220900Z 25008KT 8000 -RA FEW018 OVC090 26/23 Q1009=
22/12/2013 09:30:00Z	 SAID31 WIII 220930	METAR WIII 220930Z 24008KT 8000 -RA FEW018 OVC090 26/23 Q1009=
22/12/2013 10:00:00Z	 SAID31 WIII 221000	METAR WIII 221000Z 24008KT 8000 -RA SCT018 OVC090 26/24 Q1009=
22/12/2013 10:30:00Z	 SAID31 WIII 221030	METAR WIII 221030Z 27009KT 8000 -DZ SCT018 OVC090 26/24 Q1010=
22/12/2013 11:00:00Z	 SAID31 WIII 221100	METAR WIII 221100Z 29007KT 8000 SCT018 OVC090 26/23 Q1010=
22/12/2013 11:30:00Z	 SAID31 WIII 221130	METAR WIII 221130Z 25007KT 8000 SCT018 OVC090 26/23 Q1010=
22/12/2013 12:00:00Z	 SAID31 WIII 221200	METAR WIII 221200Z 24005KT 7000 -RA SCT018 OVC090 25/23 Q1010=
22/12/2013 12:30:00Z	 SAID31 WIII 221230	METAR WIII 221230Z 26005KT 7000 -RA SCT018 OVC090 25/23 Q1011=
22/12/2013 13:00:00Z	 SAID31 WIII 221300	METAR WIII 221300Z 29005KT 6000 -SHRA SCT020 25/23 Q1011 NOSIG=
22/12/2013 13:30:00Z	 SAID31 WIII 221330	METAR WIII 221330Z 28005KT 6000 -RA SCT020 25/23 Q1011 NOSIG=
22/12/2013 14:00:00Z	 SAID31 WIII 221400	METAR WIII 221400Z 27005KT 7000 -RA FEW018CB SCT020 25/22 Q1012 CB TO NE=
22/12/2013 14:30:00Z	 SAID31 WIII 221430	METAR WIII 221430Z 27008KT 7000 -RA FEW018CB SCT020 24/23 Q1012 RMK C B TO NE=
22/12/2013 15:00:00Z	 SAID31 WIII 221500	METAR WIII 221500Z 30006KT 8000 -RA SCT020 24/22 Q1012 NOSIG=
22/12/2013 15:30:00Z	 SAID31 WIII 221530	METAR WIII 221530Z 26007KT 9000 -RA SCT020 24/22 Q1012 NOSIG=
22/12/2013 16:00:00Z	 SAID31 WIII 221600	METAR WIII 221600Z 28004KT 9999 -SHRA SCT020 24/22 Q1011 NOSIG=
22/12/2013 16:30:00Z	 SAID31 WIII 221630	METAR WIII 221630Z 28004KT 9999 -SHRA ST020 24/22 Q1011 NOSIG=
22/12/2013 17:00:00Z	 SAID31 WIII 221700	METAR WIII 221700Z 26005KT 9999 FEW021 24/22 Q1011 RE RA=
22/12/2013 17:30:00Z	 SAID31 WIII 221730	METAR WIII 221730Z 26005KT 9000 FEW021 24/22 Q1010 NOSIG=
22/12/2013 18:00:00Z	 SAID31 WIII 221800	METAR WIII 221800Z 27007KT 9000 2FEW021 4/22 Q1010 NOSIG=
22/12/2013 19:00:00Z	 SAID31 WIII 221900	METAR WIII 221900Z 23013KT 9999 FEW021 25/22 Q1010 NOSIG=
22/12/2013 19:30:00Z	 SAID31 WIII 221930	METAR WIII 221930Z 25008KT 9999 FEW021 24/22 Q1009 NOSIG=
22/12/2013 20:00:00Z	 SAID31 WIII 222000	METAR WIII 222000Z 25007KT 9999 FEW021 24/22 Q1009 NOSIG=
22/12/2013 20:30:00Z	 SAID31 WIII 222030	METAR WIII 222030Z 25005KT 9999 FEW021 23/22 Q1009 NOSIG=
22/12/2013 21:00:00Z	 SAID31 WIII 222100	METAR WIII 222100Z 24006KT 9999 FEW021 23/22 Q1009 NOSIG=
22/12/2013 21:30:00Z	 SAID31 WIII 222130	METAR WIII 222130Z 26005KT 9999 FEW021 24/22 Q1009 NOSIG=
22/12/2013 22:00:00Z	 SAID31 WIII 222200	METAR WIII 222200Z 25005KT 9000 FEW021 24/22 Q1009 NOSIG=
22/12/2013 22:30:00Z	 SAID31 WIII 222230	METAR WIII 222230Z 24006KT 9000 FEW021 24/22 Q1010 NOSIG=
22/12/2013 23:00:00Z	 SAID31 WIII 222300	METAR WIII 222300Z 23007KT 9999 FEW022 25/22 Q1010 NOSIG=
22/12/2013 23:30:00Z	 SAID31 WIII 222330	METAR WIII 222330Z 23006KT 9000 FEW021 25/22 Q1010 NOSIG=
23/12/2013 00:00:00Z	 SAID31 WIII 230000	METAR WIII 230000Z VRB03KT 9000 FEW021 25/23 Q1011 NOSIG=
23/12/2013 00:30:00Z	 SAID31 WIII 230030	METAR WIII 230030Z VRB02KT 9000 FEW021 26/23 Q1011 NOSIG=
23/12/2013 01:00:00Z	 SAID31 WIII 230100	METAR WIII 230100Z 28004KT 9000 FEW022 27/23 Q1011 NOSIG=
23/12/2013 01:30:00Z	 SAID31 WIII 230130	METAR WIII 230130Z 23004KT 9000 FEW022 28/24 Q1011 NOSIG=
23/12/2013 02:00:00Z	 SAID31 WIII 230200	METAR WIII 230200Z 31005KT 9000 FEW022 28/24 Q1011 NOSIG=
23/12/2013 02:30:00Z	 SAID31 WIII 230230	METAR WIII 230230Z 31006KT 9999 FEW022 29/24 Q1011 NOSIG=
23/12/2013 03:00:00Z	 SAID31 WIII 230300	METAR WIII 230300Z 31006KT 9999 FEW021 29/24 Q1011 NOSIG=
23/12/2013 03:30:00Z	 SAID31 WIII 230330	METAR WIII 230330Z 32006KT 9000 FEW022 30/24 Q1011 NOSIG=
23/12/2013 04:00:00Z	 SAID31 WIII 230400	METAR WIII 230400Z 32009KT 9000 FEW022 32/24 Q1010 NOSIG=
23/12/2013 04:30:00Z	 SAID31 WIII 230430	METAR WIII 230430Z 31010KT 9999 FEW021CB FEW022 31/23 Q1010 RMK CB TO SW=
23/12/2013 05:00:00Z	 SAID31 WIII 230500	METAR WIII 230500Z 32010KT 9999 FEW021CB FEW022 31/23 Q1010 RMK CB TO S=
23/12/2013 05:30:00Z	 SAID31 WIII 230530	METAR WIII 230530Z 31009KT 9000 FEW021CB FEW022 31/23 Q1009 RMK CB TO S=
23/12/2013 06:00:00Z	 SAID31 WIII 230600	METAR WIII 230600Z 22014KT 7000 SCT021 28/23 Q1009 RMK VC PREC TO S=
23/12/2013 06:30:00Z	 SAID31 WIII 230630	METAR WIII 230630Z 23010KT 8000 FEW021CB SCT022 27/23 Q1009 RMK CB TO NW=
23/12/2013 07:00:00Z	 SAID31 WIII 230700	METAR WIII 230700Z 22005KT 8000 FEW022 27/23 Q1009 NOSIG=
23/12/2013 07:30:00Z	 SAID31 WIII 230730	METAR WIII 230730Z VRB05KT 6000 FEW021CB SCT022 28/23 Q1009 RMK CB TO NW=
23/12/2013 08:00:00Z	 SAID31 WIII 230800	METAR WIII 230800Z 20007KT 7000 -RA FEW021CB FEW022 26/24 Q1009 RMK C B TO NW=
23/12/2013 08:30:00Z	 SAID31 WIII 230830	METAR WIII 230830Z 25004KT 8000 FEW022 29/24 Q1008 NOSIG=
23/12/2013 09:00:00Z	 SAID31 WIII 230900	METAR WIII 230900Z 25010KT 8000 FEW022 29/23 Q1008 NOSIG=
23/12/2013 09:30:00Z	 SAID31 WIII 230930	METAR WIII 230930Z 23011KT 9999 FEW022 29/23 Q1008 NOSIG=
23/12/2013 10:00:00Z	 SAID31 WIII 231000	METAR WIII 231000Z 25009KT 9000 FEW022 28/23 Q1008 NOSIG=
23/12/2013 10:30:00Z	 SAID31 WIII 231030	METAR WIII 231030Z 25013KT 9000 FEW023 27/22 Q1009 NOSIG=
23/12/2013 11:00:00Z	 SAID31 WIII 231100	METAR WIII 231100Z 25011KT 8000 FEW020 27/22 Q1009 NOSIG=
23/12/2013 11:30:00Z	 SAID31 WIII 231130	METAR WIII 231130Z 23010KT 7000 FEW020 27/22 Q1010 NOSIG=
23/12/2013 12:00:00Z	 SAID31 WIII 231200	METAR WIII 231200Z 25010KT 7000 FEW020 27/22 Q1011 NOSIG=
23/12/2013 12:30:00Z	 SAID31 WIII 231230	METAR WIII 231230Z 25010KT 6000 FEW020 26/22 Q1011 NOSIG=
23/12/2013 13:00:00Z	 SAID31 WIII 231300	METAR WIII 231300Z 24011KT 6000 FEW020 26/22 Q1011 NOSIG=
23/12/2013 13:30:00Z	 SAID31 WIII 231330	METAR WIII 231330Z 24016G20KT 5000 BR FEW020 26/21 Q1011=
23/12/2013 14:00:00Z	 SAID31 WIII 231400	METAR WIII 231400Z 24012KT 5000 BR FEW018 26/21 Q1012 NOSIG=
23/12/2013 14:30:00Z	 SAID31 WIII 231430	METAR WIII 231430Z 24008KT 5000 BR FEW020 26/21 Q1012 NOSIG=
23/12/2013 15:00:00Z	 SAID31 WIII 231500	METAR WIII 231500Z 24009KT 5000 BR FEW020 26/21 Q1012 =
23/12/2013 15:30:00Z	 SAID31 WIII 231530	METAR WIII 231530Z 21006KT 5000 BR FEW020 26/21 Q1011=
23/12/2013 16:00:00Z	 SAID31 WIII 231600	METAR WIII 231600Z 23009KT 5000 BR FEW020 26/21 Q1012=
23/12/2013 16:30:00Z	 SAID31 WIII 231630	METAR WIII 231630Z 25008KT 5000 BR FEW020 25/21 Q1012=
23/12/2013 17:00:00Z	 SAID31 WIII 231700	METAR WIII 231700Z 27005KT 5000 BR FEW020 25/21 Q1011=
23/12/2013 17:30:00Z	 SAID31 WIII 231730	METAR WIII 231730Z 25007KT 5000 BR FEW020 24/21 Q1011=
23/12/2013 18:00:00Z	 SAID31 WIII 231800	METAR WIII 231800Z 26007KT 5000 BR FEW020 24/22 Q1011=
23/12/2013 18:30:00Z	 SAID31 WIII 231830	METAR WIII 231830Z AUTO 25006KT 5000 24/22 Q1011=
23/12/2013 19:00:00Z	 SAID31 WIII 231900	METAR WIII 231900Z 25006KT 5000 BR FEW020 24/21 Q1010=
23/12/2013 19:30:00Z	 SAID31 WIII 231930	METAR WIII 231930Z 27004KT 4000 BR FEW020 24/22 Q1010=
23/12/2013 20:00:00Z	 SAID31 WIII 232000	METAR WIII 232000Z 27006KT 4000 BR FEW020 25/22 Q1010=
23/12/2013 20:30:00Z	 SAID31 WIII 232030	METAR WIII 232030Z AUTO 27006KT 9999 25/22 Q1010=
23/12/2013 21:00:00Z	 SAID31 WIII 232100	METAR WIII 232100Z AUTO 26006KT 9999 25/22 Q1010=
23/12/2013 21:30:00Z	 SAID31 WIII 232130	METAR WIII 232130Z AUTO 28010KT 7000 24/22 Q1011=
23/12/2013 22:00:00Z	 SAID31 WIII 232200	METAR WIII 232200Z AUTO 26010KT 9999 24/22 Q1011=
23/12/2013 22:30:00Z	 SAID31 WIII 232230	METAR WIII 232230Z AUTO 27008KT 9999 24/22 Q1011=
23/12/2013 23:00:00Z	 SAID31 WIII 232300	METAR WIII 232300Z AUTO 27006KT 9999 24/22 Q1011=
23/12/2013 23:30:00Z	 SAID31 WIII 232330	METAR WIII 232330Z 27006KT 5000 BR FEW020 BKN060 24/22 Q1012=
24/12/2013 00:00:00Z	 SAID31 WIII 240000	METAR WIII 240000Z 26008KT 5000 BR FEW020 BKN060 25/22 Q1012=
24/12/2013 00:30:00Z	 SAID31 WIII 240030	METAR WIII 240030Z 26007KT 7000 FEW020 26/23 Q1012 NOSIG=
24/12/2013 01:00:00Z	 SAID31 WIII 240100	METAR WIII 240100Z 27009KT 8000 FEW022 27/23 Q1012 NOSIG=
24/12/2013 01:30:00Z	 SAID31 WIII 240130	METAR WIII 240130Z 27008KT 9000 FEW021 27/23 Q1013 NOSIG=
24/12/2013 02:00:00Z	 SAID31 WIII 240200	METAR WIII 240200Z 27008KT 9000 FEW022 28/23 Q1012 NOSIG=
24/12/2013 02:30:00Z	 SAID31 WIII 240230	METAR WIII 240230Z 26009KT 9000 FEW021 29/23 Q1012 NOSIG=
24/12/2013 03:00:00Z	 SAID31 WIII 240300	METAR WIII 240300Z 26013KT 9000 FEW022 29/23 Q1012 NOSIG=
24/12/2013 03:30:00Z	 SAID31 WIII 240330	METAR WIII 240330Z 30006KT 9000 FEW020 29/23 Q1012 NOSIG=
24/12/2013 04:30:00Z	 SAID31 WIII 240430	METAR WIII 240430Z 26006KT 4000 -RA FEW020CB SCT021 27/24 Q1011 RMK C B TO W=
24/12/2013 05:00:00Z	 SAID31 WIII 240500	METAR WIII 240500Z 28006KT 7000 -RA SCT022 26/24 Q1011=
24/12/2013 05:30:00Z	 SAID31 WIII 240530	METAR WIII 240530Z 31007KT 8000 FEW021 29/25 Q1010 RERA=
24/12/2013 06:00:00Z	 SAID31 WIII 240600	METAR WIII 240600Z 30008KT 9000 FEW022 30/24 Q1010 NOSIG=
24/12/2013 06:30:00Z	 SAID31 WIII 240630	METAR WIII 240630Z 29007KT 9000 FEW022 30/23 Q1009 NOSIG=
24/12/2013 07:00:00Z	 SAID31 WIII 240700	METAR WIII 240700Z 28008KT 8000 SCT020 30/23 Q1009 NOSIG=
24/12/2013 07:30:00Z	 SAID31 WIII 240730	METAR WIII 240730Z 28009KT 8000 FEW020CB FEW021 29/23 Q1009 RMK CB TO S=
24/12/2013 08:00:00Z	 SAID31 WIII 240800	METAR WIII 240800Z 23009KT 8000 FEW020CB FEW021 28/24 Q1008 RMK CB TO S=
24/12/2013 08:30:00Z	 SAID31 WIII 240830	METAR WIII 240830Z 25005KT 8000 FEW021CB FEW022 28/24 Q1008 RMK CB TO S=
24/12/2013 09:00:00Z	 SAID31 WIII 240900	METAR WIII 240900Z 27007KT 9000 FEW021CB FEW022 29/24 Q1008 RMK CB TO NW=
24/12/2013 09:30:00Z	 SAID31 WIII 240930	METAR WIII 240930Z 27007KT 9000 FEW022 29/24 Q1008 NOSIG=
24/12/2013 10:00:00Z	 SAID31 WIII 241000	METAR WIII 241000Z 28007KT 9000 FEW022 29/23 Q1009 NOSIG=
24/12/2013 10:30:00Z	 SAID31 WIII 241030	METAR WIII 241030Z 28005KT 9000 FEW022 28/23 Q1009 NOSIG=
24/12/2013 11:00:00Z	 SAID31 WIII 241100	METAR WIII 241100Z 27006KT 9000 FEW022 28/23 Q1010 NOSIG=
24/12/2013 11:30:00Z	 SAID31 WIII 241130	METAR WIII 241130Z 27004KT 8000 FEW022 28/23 Q1010 NOSIG=
24/12/2013 12:00:00Z	 SAID31 WIII 241200	METAR WIII 241200Z 27005KT 8000 FEW021CB FEW022 28/23 Q1011 RMK CB TO NW=
24/12/2013 12:30:00Z	 SAID31 WIII 241230	METAR WIII 241230Z 26005KT 7000 FEW022 27/23 Q1011 NOSIG=
24/12/2013 13:00:00Z	 SAID31 WIII 241300	METAR WIII 241300Z 27003KT 8000 FEW022 27/23 Q1011 NOSIG=
24/12/2013 13:30:00Z	 SAID31 WIII 241330	METAR WIII 241330Z 27007KT 7000 SCT018 BKN100 27/23 Q1011 NOSIG=
24/12/2013 14:00:00Z	 SAID31 WIII 241400	METAR WIII 241400Z 2507KT 7000 FEW022 SCT100 27/23 Q1011 NOSIG=
24/12/2013 14:30:00Z	 SAID31 WIII 241430	METAR WIII 241430Z 29008KT 8000 SCT018 BKN100 26/23 Q1012 NOSIG=
24/12/2013 15:00:00Z	 SAID31 WIII 241500	METAR WIII 241500Z 28009KT 8000 SCT018 BKN100 26/23 Q1012 NOSIG=
24/12/2013 15:30:00Z	 SAID31 WIII 241530	METAR WIII 241530Z 28008KT 8000 FEW018 BKN100 26/23 Q1012 NOSIG=
24/12/2013 16:00:00Z	 SAID31 WIII 241600	METAR WIII 241600Z 26008KT 8000 FEW018 BKN100 26/23 Q1012 NOSIG=
24/12/2013 16:30:00Z	 SAID31 WIII 241630	METAR WIII 241630Z 27008KT 8000 FEW018 BKN100 26/23 Q1012 NOSIG=
24/12/2013 17:00:00Z	 SAID31 WIII 241700	METAR WIII 241700Z 26007KT 8000 FEW018CB SCT018 BKN100 26/22 Q1011 RM K CB TO NE AND E=
24/12/2013 17:30:00Z	 SAID31 WIII 241730	METAR WIII 241730Z 27008KT 8000 FEW018CB SCT018 BKN100 25/22 Q1011 RM K CB TO NE AND E=
24/12/2013 18:00:00Z	 SAID31 WIII 241800	METAR WIII 241800Z 25006KT 8000 FEW018CB SCT018 BKN100 24/22 Q1011 RM K CB TO NE=
24/12/2013 18:30:00Z	 SAID31 WIII 241830	METAR WIII 241830Z 28005KT 8000 FEW018CB SCT018 BKN100 25/22 Q1011 RM K CB TO NE=
24/12/2013 19:00:00Z	 SAID31 WIII 241900	METAR WIII 241900Z 28006KT 8000 SCT018 BKN100 25/22 Q1011 NOSIG=
24/12/2013 19:30:00Z	 SAID31 WIII 241930	METAR WIII 241930Z 29006KT 8000 SCT018 BKN100 25/22 Q1011 NOSIG=
24/12/2013 20:00:00Z	 SAID31 WIII 242000	METAR WIII 242000Z 28007KT 8000 SCT018 BKN100 25/22 Q1011 NOSIG=
24/12/2013 20:30:00Z	 SAID31 WIII 242030	METAR WIII 242030Z 28009KT 8000 SCT018 BKN100 25/23 Q1010 NOSIG=
24/12/2013 21:00:00Z	 SAID31 WIII 242100	METAR WIII 242100Z 25006KT 8000 SCT018 BKN100 25/23 Q1011 NOSIG=
24/12/2013 21:30:00Z	 SAID31 WIII 242130	METAR WIII 242130Z 29007KT 8000 FEW018 BKN100 25/23 Q1011 NOSIG=
24/12/2013 22:00:00Z	 SAID31 WIII 242200	METAR WIII 242200Z 27007KT 8000 SCT018 BKN100 25/23 Q1011 NOSIG=
24/12/2013 22:30:00Z	 SAID31 WIII 242230	METAR WIII 242230Z 25004KT 8000 SCT018 BKN100 25/23 Q1011 NOSIG=
24/12/2013 23:00:00Z	 SAID31 WIII 242300	METAR WIII 242300Z 26004KT 8000 SCT018 BKN100 25/23 Q1012 NOSIG=
24/12/2013 23:30:00Z	 SAID31 WIII 242330	METAR WIII 242330Z 27006KT 7000 SCT018 BKN100 25/24 Q1012 NOSIG=
25/12/2013 00:00:00Z	 SAID31 WIII 250000	METAR WIII 250000Z 24007KT 7000 SCT018 BKN100 26/23 Q1012 NOSIG=
25/12/2013 00:30:00Z	 SAID31 WIII 250030	METAR WIII 250030Z 26007KT 8000 SCT018 BKN090 27/23 Q1013 NOSIG=
25/12/2013 01:00:00Z	 SAID31 WIII 250100	METAR WIII 250100Z 25009KT 8000 FEW022 26/23 Q1013 NOSIG=
25/12/2013 01:30:00Z	 SAID31 WIII 250130	METAR WIII 250130Z 23007KT 9000 FEW022 28/23 Q1013 NOSIG=
25/12/2013 02:00:00Z	 SAID31 WIII 250200	METAR WIII 250200Z 25009KT 9000 FEW022 28/23 Q1013 NOSIG=
25/12/2013 02:30:00Z	 SAID31 WIII 250230	METAR WIII 250230Z 26010KT 9999 FEW022 29/23 Q1012 NOSIG=
25/12/2013 03:00:00Z	 SAID31 WIII 250300	METAR WIII 250300Z 27009KT 9999 FEW022 29/23 Q1012 NOSIG=
25/12/2013 03:30:00Z	 SAID31 WIII 250330	METAR WIII 250330Z 27008KT 9000 FEW023 29/23 Q1012 NOSIG=
25/12/2013 04:00:00Z	 SAID31 WIII 250400	METAR WIII 250400Z 30009KT 9999 FEW021 31/24 Q1012 NOSIG=
25/12/2013 04:30:00Z	 SAID31 WIII 250430	METAR WIII 250430Z 29007KT 9999 FEW021 31/24 Q1011 NOSIG=
25/12/2013 05:00:00Z	 SAID31 WIII 250500	METAR WIII 250500Z 31006KT 9999 FEW021 31/24 Q1011 NOSIG=
25/12/2013 05:30:00Z	 SAID31 WIII 250530	METAR WIII 250530Z 35008KT 9999 FEW021 31/24 Q1010 NOSIG=
25/12/2013 06:00:00Z	 SAID31 WIII 250600	METAR WIII 250600Z 30007KT 9999 FEW022 32/24 Q1010 NOSIG=
25/12/2013 06:30:00Z	 SAID31 WIII 250630	METAR WIII 250630Z 34008KT 9999 FEW022 32/24 Q1009 NOSIG=
25/12/2013 07:00:00Z	 SAID31 WIII 250700	METAR WIII 250700Z 34006KT 9999 FEW021CB FEW022 32/24 Q1009 RMK CB TO W=
25/12/2013 07:30:00Z	 SAID31 WIII 250730	METAR WIII 250730Z 33007KT 9000 FEW021CB FEW022 32/23 Q1009 CB TO W =
25/12/2013 08:00:00Z	 SAID31 WIII 250800	METAR WIII 250800Z 33011KT 9000 FEW021CB FEW022 30/24 Q1008 RMK CB TO NW=
25/12/2013 08:30:00Z	 SAID31 WIII 250830	METAR WIII 250830Z 32007KT 9000 FEW021CB FEW022 31/25 Q1008 RMK CB TO NW=
25/12/2013 09:00:00Z	 SAID31 WIII 250900	METAR WIII 250900Z 32009KT 9000 FEW021CB FEW022 29/23 Q1009 RMK CB TO SE=
25/12/2013 09:30:00Z	 SAID31 WIII 250930	METAR WIII 250930Z 31009KT 9000 FEW021CB FEW022 28/24 Q1009 RMK CB TO SE=
25/12/2013 10:00:00Z	 SAID31 WIII 251000	METAR WIII 251000Z 30004KT 8000 FEW021CB FEW022 28/24 Q1009 RMK CB TO SE=
25/12/2013 10:30:00Z	 SAID31 WIII 251030	METAR WIII 251030Z 32006KT 7000 -RA FEW021CB FEW022 28/25 Q1009 RMK C B TO N=
25/12/2013 11:00:00Z	 SAID31 WIII 251100	METAR WIII 251100Z 32006KT 7000 FEW022 28/25 Q1010 NOSIG=
25/12/2013 11:30:00Z	 SAID31 WIII 251130	METAR WIII 251130Z 33006KT 7000 FEW021CB FEW022 28/25 Q1010 RMK CB TO N=
25/12/2013 12:00:00Z	 SAID31 WIII 251200	METAR WIII 251200Z 32005KT 7000 FEW021CB FEW022 28/25 Q1010 RMK CB TO N=
25/12/2013 12:30:00Z	 SAID31 WIII 251230	METAR WIII 251230Z 31005KT 7000 FEW022 28/25 Q1011 NOSIG=
25/12/2013 13:00:00Z	 SAID31 WIII 251300	METAR WIII 251300Z 28004KT 8000 FEW021 28/25 Q1011 NOSIG=
25/12/2013 13:30:00Z	 SAID31 WIII 251330	METAR WIII 251330Z 28004KT 7000 FEW021 27/24 Q1011 NOSIG=
25/12/2013 14:00:00Z	 SAID31 WIII 251400	METAR WIII 251400Z 30004KT 5000 FEW021 27/24 Q1011 NOSIG=
25/12/2013 14:30:00Z	 SAID31 WIII 251430	METAR WIII 251430Z 30004KT 5000 FEW021 27/23 Q1012 NOSIG=
25/12/2013 15:00:00Z	 SAID31 WIII 251500	METAR WIII 251500Z 28004KT 4900 BR FEW021 26/23 Q1012 NOSIG=
25/12/2013 15:30:00Z	 SAID31 WIII 251530	METAR WIII 251530Z 26004KT 4800 BR 26/23 Q1012 NOSIG=
25/12/2013 16:00:00Z	 SAID31 WIII 251600	METAR WIII 251600Z 27005KT 3600 BR FEW020CB FEW021 26/24 Q1012 RMK CB TO W=
25/12/2013 16:30:00Z	 SAID31 WIII 251630	METAR WIII 251630Z 27005KT 4500 BR FEW021 26/24 Q1012 NOSIG=
25/12/2013 17:00:00Z	 SAID31 WIII 251700	METAR WIII 251700Z 26005KT 4600 BR FEW021 26/24 Q1011 NOSIG=
25/12/2013 17:30:00Z	 SAID31 WIII 251730	METAR WIII 251730Z 26007KT 4500 BR FEW020CB FEW 021 26/24 Q1011 RMK C B TO E=
25/12/2013 18:00:00Z	 SAID31 WIII 251800	METAR WIII 251800Z 25006KT 5000 VCTS FEW020CB FEW021 26/24 Q1010 RMK CB TO NW=
25/12/2013 18:30:00Z	 SAID31 WIII 251830	METAR WIII 251830Z 28005KT 6000 FEW020CB FEW021 26/24 Q1010 RMK CB TO NE=
25/12/2013 19:00:00Z	 SAID31 WIII 251900	METAR WIII 251900Z 28006KT 6000 VCTS FEW020CB FEW021 26/24 Q1010 RMK CB TO NE=
25/12/2013 19:30:00Z	 SAID31 WIII 251930	METAR WIII 251930Z 28005KT 7000 VCTS FEW020CB FEW021 26/23 Q1010 RMK CB TO NE=
25/12/2013 20:00:00Z	 SAID31 WIII 252000	METAR WIII 252000Z 27004KT 7000 FEW021 26/24 Q1010 NOSIG=
25/12/2013 20:30:00Z	 SAID31 WIII 252030	METAR WIII 252030Z 28004KT 7000 FEW021 26/23 Q1010 NOSIG=
25/12/2013 21:00:00Z	 SAID31 WIII 252100	METAR WIII 252100Z 28005KT 7000 FEW021 26/23 Q1010 NOSIG=
25/12/2013 21:30:00Z	 SAID31 WIII 252130	METAR WIII 252130Z 28004KT 8000 FEW021 26/23 Q1010 NOSIG=
25/12/2013 22:00:00Z	 SAID31 WIII 252200	METAR WIII 252200Z 28005KT 8000 FEW021 25/23 Q1010 NOSIG=
25/12/2013 22:30:00Z	 SAID31 WIII 252230	METAR WIII 252230Z 27005KT 8000 FEW021 25/23 Q1011 NOSIG=
25/12/2013 23:00:00Z	 SAID31 WIII 252300	METAR WIII 252300Z 26004KT 9999 FEW022 25/23 Q1011 NOSIG=
25/12/2013 23:30:00Z	 SAID31 WIII 252330	METAR WIII 252330Z 29004KT 9999 FEW021 26/23 Q1011 NOSIG=
26/12/2013 00:00:00Z	 SAID31 WIII 260000	METAR WIII 260000Z 28004KT 9999 FEW021 26/24 Q1012 NOSIG=
26/12/2013 00:30:00Z	 SAID31 WIII 260030	METAR WIII 260030Z 28008KT 9000 FEW021 28/24 Q1012 NOSIG=
26/12/2013 01:00:00Z	 SAID31 WIII 260100	METAR WIII 260100Z 30005KT 9999 FEW021 29/24 Q1012 NOSIG=
26/12/2013 01:30:00Z	 SAID31 WIII 260130	METAR WIII 260130Z 28008KT 9999 FEW021 30/24 Q1012 NOSIG=
26/12/2013 02:00:00Z	 SAID31 WIII 260200	METAR WIII 260200Z 28011KT 9999 SCT021 30/24 Q1012 NOSIG=
26/12/2013 02:30:00Z	 SAID31 WIII 260230	METAR WIII 260230Z 30008KT 9000 SCT021 31/24 Q1011 NOSIG=
26/12/2013 03:00:00Z	 SAID31 WIII 260300	METAR WIII 260300Z 30008KT 9999 SCT020 31/24 Q1011 NOSIG=
26/12/2013 03:30:00Z	 SAID31 WIII 260330	METAR WIII 260330Z 30010KT 9999 SCT020 32/24 Q1011 NOSIG=
26/12/2013 04:00:00Z	 SAID31 WIII 260400	METAR WIII 260400Z 31008KT 9999 SCT020 32/24 Q1011 NOSIG=
26/12/2013 04:30:00Z	 SAID31 WIII 260430	METAR WIII 260430Z 32011KT 9999 SCT020 31/25 Q1010 NOSIG=
26/12/2013 05:00:00Z	 SAID31 WIII 260500	METAR WIII 260500Z 32010KT 9999 SCT020 32/25 Q1009 NOSIG=
26/12/2013 05:30:00Z	 SAID31 WIII 260530	METAR WIII 260530Z 32013KT 9999 SCT020 32/25 Q1009 NOSIG=
26/12/2013 06:00:00Z	 SAID31 WIII 260600	METAR WIII 260600Z 32013KT 9999 SCT020 32/24 Q1008 NOSIG=
26/12/2013 06:30:00Z	 SAID31 WIII 260630	METAR WIII 260630Z 32012KT 9999 FEW018CB SCT020 32/25 Q1008 RMK CB TO W=
26/12/2013 07:00:00Z	 SAID31 WIII 260700	METAR WIII 260700Z 33013KT 7000 SCT018CB SCT020 30/25 Q1007 RMK CB TO SE =
26/12/2013 07:30:00Z	 SAID31 WIII 260730	METAR WIII 260730Z 33007KT 7000 TS SCT018CB SCT020 30/25 Q1007 TEMPO TSRA RMK CB TO SE=
26/12/2013 08:00:00Z	 SAID31 WIII 260800	METAR WIII 260800Z 31008KT 7000 TS SCT018CB SCT020 30/25 Q1007 RMK CB TO SE=
26/12/2013 08:30:00Z	 SAID31 WIII 260830	METAR WIII 260830Z 31010KT 8000 FEW018CB SCT020 30/25 Q1007 RMK CB T O W NOSIG=
26/12/2013 09:00:00Z	 SAID31 WIII 260900	METAR WIII 260900Z 33005KT 8000 FEW018CB SCT020 30/24 Q1007 RMK CB TO E AND SE=
26/12/2013 09:30:00Z	 SAID31 WIII 260930	METAR WIII 260930Z 29006KT 8000 FEW018CB SCT020 31/24 Q1007 RMK CB TO SE=
26/12/2013 10:00:00Z	 SAID31 WIII 261000	METAR WIII 261000Z 23005KT 8000 31/25 SCT020 Q1008 NOSIG=
26/12/2013 10:30:00Z	 SAID31 WIII 261030	METAR WIII 261030Z 26013KT 8000 FEW018CB SCT020 30/24 Q1008 RMK CB TO NW NOSIG =
26/12/2013 11:00:00Z	 SAID31 WIII 261100	METAR WIII 261100Z 30009KT 8000 TS FEW018CB SCT020 29/23 Q1009 RMK CB TO N=
26/12/2013 11:30:00Z	 SAID31 WIII 261130	METAR WIII 261130Z 30005KT 8000 FEW018CB SCT020 27/23 Q1009 RMK CB T O N=
26/12/2013 12:00:00Z	 SAID31 WIII 261200	METAR WIII 261200Z 33006KT 8000 SCT020 27/23 Q1010 NOSIG=
26/12/2013 12:30:00Z	 SAID31 WIII 261230	METAR WIII 261230Z 29008KT 7000 SCT020 28/23 Q1010 NOSIG=
26/12/2013 13:00:00Z	 SAID31 WIII 261300	METAR WIII 261300Z 27008KT 7000 SCT020 27/23 Q1010 NOSIG=
26/12/2013 13:30:00Z	 SAID31 WIII 261330	METAR WIII 261330Z 25006KT 7000 FEW020 SCT110 27/23 Q1011 NOSIG=
26/12/2013 14:00:00Z	 SAID31 WIII 261400	METAR WIII 261400Z 26005KT 7000 FEW020 SCT090 27/24 Q1011 NOSIG=
26/12/2013 14:30:00Z	 SAID31 WIII 261430	METAR WIII 261430Z 29005KT 7000 FEW020 SCT100 27/24 Q1011 NOSIG=
26/12/2013 15:00:00Z	 SAID31 WIII 261500	METAR WIII 261500Z 28004KT 6000 FEW021 26/24 Q1011 NOSIG=
26/12/2013 15:30:00Z	 SAID31 WIII 261530	METAR WIII 261530Z 28004KT 6000 FEW021 SCT100 26/24 Q1011 NOSIG=
26/12/2013 16:00:00Z	 SAID31 WIII 261600	METAR WIII 261600Z 24005KT 6000 FEW020CB FEW022 26/24 Q1011 RMK CB TO E=
26/12/2013 16:30:00Z	 SAID31 WIII 261630	METAR WIII 261630Z 27004KT 6000 FEW022 26/24 Q1011 NOSIG=
26/12/2013 17:00:00Z	 SAID31 WIII 261700	METAR WIII 261700Z 25006KT 6000 FEW022 26/24 Q1011 NOSIG=
26/12/2013 17:30:00Z	 SAID31 WIII 261730	METAR WIII 261730Z 28004KT 6000 FEW022 SCT100 26/24 Q1010 NOSIG=
26/12/2013 18:00:00Z	 SAID31 WIII 261800	METAR WIII 261800Z VRB03KT 4500 BR FEW022 SCT100 26/23 Q1010 NOSIG=
26/12/2013 18:30:00Z	 SAID31 WIII 261830	METAR WIII 261830Z 27006KT 6000 FEW022 SCT100 26/24 Q1010 NOSIG=
26/12/2013 19:00:00Z	 SAID31 WIII 261900	METAR WIII 261900Z 26004KT 6000 SCT022 26/24 Q1009 NOSIG=
26/12/2013 19:30:00Z	 SAID31 WIII 261930	METAR WIII 261930Z 25003KT 6000 SCT021 26/24 Q1010 NOSIG=
26/12/2013 20:00:00Z	 SAID31 WIII 262000	METAR WIII 262000Z 25003KT 6000 FEW021 SCT100 26/24 Q1009 NOSIG=
26/12/2013 20:30:00Z	 SAID31 WIII 262030	METAR WIII 262030Z 26005KT 6000 SCT021 25/24 Q1009 NOSIG=
26/12/2013 21:00:00Z	 SAID31 WIII 262100	METAR WIII 262100Z 24005KT 6000 SCT021 26/23 Q1009 NOSIG=
26/12/2013 21:30:00Z	 SAID31 WIII 262130	METAR WIII 262130Z 22003KT 6000 SCT021 25/24 Q1009 NOSIG=
26/12/2013 22:00:00Z	 SAID31 WIII 262200	METAR WIII 262200Z VRB04KT 6000 FEW021 25/23 Q1009 NOSIG=
26/12/2013 22:30:00Z	 SAID31 WIII 262230	METAR WIII 262230Z 18003KT 6000 SCT021 25/23 Q1009 NOSIG=
26/12/2013 23:00:00Z	 SAID31 WIII 262300	METAR WIII 262300Z 26004KT 7000 SCT021 25/23 Q1010 NOSIG=
26/12/2013 23:30:00Z	 SAID31 WIII 262330	METAR WIII 262330Z 25005KT 6000 SCT021 25/23 Q1010 NOSIG=
27/12/2013 00:00:00Z	 SAID31 WIII 270000	METAR WIII 270000Z 27005KT 6000 FEW022 SCT100 26/23 Q1010 NOSIG=
27/12/2013 00:30:00Z	 SAID31 WIII 270030	METAR WIII 270030Z 26004KT 6000 FEW022 SCT100 27/24 Q1011 NOSIG=
27/12/2013 01:00:00Z	 SAID31 WIII 270100	METAR WIII 270100Z 27007KT 7000 FEW023 27/24 Q1011 NOSIG=
27/12/2013 01:30:00Z	 SAID31 WIII 270130	METAR WIII 270130Z 29005KT 7000 FEW022 28/23 Q1011 NOSIG=
27/12/2013 02:00:00Z	 SAID31 WIII 270200	METAR WIII 270200Z 30005KT 8000 FEW024 28/24 Q1011 NOSIG=
27/12/2013 02:30:00Z	 SAID31 WIII 270230	METAR WIII 270230Z 29006KT 8000 FEW023 29/24 Q1011 NOSIG=
27/12/2013 03:00:00Z	 SAID31 WIII 270300	METAR WIII 270300Z 31006KT 8000 FEW023 29/24 Q1011 NOSIG=
27/12/2013 03:30:00Z	 SAID31 WIII 270330	METAR WIII 270330Z 31010KT 9999 FEW022 29/24 Q1010 NOSIG=
27/12/2013 04:00:00Z	 SAID31 WIII 270400	METAR WIII 270400Z 31006KT 9000 SCT021 30/24 Q1010 NOSIG=
27/12/2013 04:30:00Z	 SAID31 WIII 270430	METAR WIII 270430Z 32009KT 9000 SCT021 30/24 Q1010 NOSIG=
27/12/2013 06:00:00Z	 SAID31 WIII 270600	METAR WIII 270600Z 31010KT 9999 FEW022 32/25 Q1008 NOSIG=
27/12/2013 06:30:00Z	 SAID31 WIII 270630	METAR WIII 270630Z 32010KT 9999 FEW022 30/24 Q1008 NOSIG=
27/12/2013 07:00:00Z	 SAID31 WIII 270700	METAR WIII 270700Z 31010KT 9999 FEW022 31/24 Q1007 NOSIG=
27/12/2013 07:30:00Z	 SAID31 WIII 270730	METAR WIII 270730Z 33008KT 9999 FEW022 32/24 Q1007 NOSIG=
27/12/2013 08:00:00Z	 SAID31 WIII 270800	METAR WIII 270800Z 32008KT 9999 FEW022 31/24 Q1006 NOSIG=
27/12/2013 08:30:00Z	 SAID31 WIII 270830	METAR WIII 270830Z 32006KT 9999 FEW021CB FEW022 30/24 Q1007 RMK CB TO E =
27/12/2013 09:00:00Z	 SAID31 WIII 270900	METAR WIII 270900Z 30006KT 9999 FEW023 30/24 Q1007 NOSIG=
27/12/2013 09:30:00Z	 SAID31 WIII 270930	METAR WIII 270930Z 31007KT 9999 FEW022 30/24 Q1007 NOSIG=
27/12/2013 10:00:00Z	 SAID31 WIII 271000	METAR WIII 271000Z 32006KT 9000 FEW021CB FEW023 30/24 Q1007 RMK CB TO SE=
27/12/2013 10:30:00Z	 SAID31 WIII 271030	METAR WIII 271030Z 32005KT 9000 FEW022CB FEW023 29/24 Q1008 RMK CB TO E=
27/12/2013 11:00:00Z	 SAID31 WIII 271100	METAR WIII 271100Z 31004KT 8000 FEW021CB FEW022 28/23 Q1008 RMK CB TO SE=
27/12/2013 11:30:00Z	 SAID31 WIII 271130	METAR WIII 271130Z 32005KT 5000 HZ FEW021CB FEW022 28/24 Q1008 RMK CB TO NW=
27/12/2013 12:00:00Z	 SAID31 WIII 271200	METAR WIII 271200Z 31003KT 6000 FEW021CB FEW022 27/24 Q1009 RMK CB TO NW=
27/12/2013 12:30:00Z	 SAID31 WIII 271230	METAR WIII 271230Z 30003KT 6000 FEW022 27/24 Q1009 NOSIG=
27/12/2013 13:00:00Z	 SAID31 WIII 271300	METAR WIII 271300Z 27005KT 7000 FEW019CB FEW020 27/23 Q1010 RMK CB TO N=
27/12/2013 13:30:00Z	 SAID31 WIII 271330	METAR WIII 271330Z 31002KT 7000 FEW021 27/24 Q1010 NOSIG=
27/12/2013 14:00:00Z	 SAID31 WIII 271400	METAR WIII 271400Z VRB02KT 7000 FEW021 27/23 Q1010 NOSIG=
27/12/2013 14:30:00Z	 SAID31 WIII 271430	METAR WIII 271430Z 28002KT 7000 FEW021 27/23 Q1011 NOSIG=
27/12/2013 15:00:00Z	 SAID31 WIII 271500	METAR WIII 271500Z 25003KT 7000 FEW021 26/23 Q1010 NOSIG=
27/12/2013 15:30:00Z	 SAID31 WIII 271530	METAR WIII 271530Z 28002KT 7000 FEW021 26/23 Q1010 NOSIG=
27/12/2013 16:00:00Z	 SAID31 WIII 271600	METAR WIII 271600Z 26005KT 8000 FEW021 26/23 Q1010 NOSIG=
27/12/2013 16:30:00Z	 SAID31 WIII 271630	METAR WIII 271630Z 26006KT 8000 FEW021 26/23 Q1009 NOSIG=
27/12/2013 17:00:00Z	 SAID31 WIII 271700	METAR WIII 271700Z 26005KT 8000 FEW021 25/23 Q1009 NOSIG=
27/12/2013 17:30:00Z	 SAID31 WIII 271730	METAR WIII 271730Z 25005KT 7000 FEW021 25/23 Q1009 NOSIG=
27/12/2013 18:00:00Z	 SAID31 WIII 271800	METAR WIII 271800Z 23004KT 8000 FEW022 25/23 Q1009 NOSIG=
27/12/2013 18:30:00Z	 SAID31 WIII 271830	METAR WIII 271830Z 21005KT 3500 BR FEW021 25/23 Q1009 NOSIG=
27/12/2013 19:00:00Z	 SAID31 WIII 271900	METAR WIII 271900Z 21005KT 8000 FEW021 25/23 Q1009 NOSIG=
27/12/2013 19:30:00Z	 SAID31 WIII 271930	METAR WIII 271930Z 23005KT 8000 FEW021 24/22 Q1009 NOSIG=
27/12/2013 20:00:00Z	 SAID31 WIII 272000	METAR WIII 272000Z 24003KT 8000 FEW021 24/22 Q1008 NOSIG=
27/12/2013 20:30:00Z	 SAID31 WIII 272030	METAR WIII 272030Z 24003KT 7000 FEW021 24/23 Q1008 NOSIG=
27/12/2013 21:00:00Z	 SAID31 WIII 272100	METAR WIII 272100Z 23002KT 6000 FEW021 24/22 Q1008 NOSIG=
27/12/2013 21:30:00Z	 SAID31 WIII 272130	METAR WIII 272130Z 20005KT 6000 FEW021 24/22 Q1008 NOSIG=
27/12/2013 22:00:00Z	 SAID31 WIII 272200	METAR WIII 272200Z 20002KT 6000 FEW021 24/22 Q1008 NOSIG=
27/12/2013 22:30:00Z	 SAID31 WIII 272230	METAR WIII 272230Z 30003KT 7000 FEW021 24/22 Q1009 NOSIG=
27/12/2013 23:00:00Z	 SAID31 WIII 272300	METAR WIII 272300Z 33003KT 9000 FEW021 BR 24/22 Q1009 NOSIG=
27/12/2013 23:30:00Z	 SAID31 WIII 272330	METAR WIII 272330Z 30003KT 6000 FEW021 24/22 Q1010 NOSIG=
28/12/2013 00:00:00Z	 SAID31 WIII 280000	METAR WIII 280000Z 28005KT 7000 FEW020CB FEW021 25/22 Q1010 RMK CB TO S=
28/12/2013 00:30:00Z	 SAID31 WIII 280030	METAR WIII 280030Z AUTO 25006KT 4900 BR 25/23 Q1011=
28/12/2013 01:00:00Z	 SAID31 WIII 280100	METAR WIII 280100Z 26006KT 5000 HZ FEW022 27/23 Q1011 NOSIG=
28/12/2013 01:30:00Z	 SAID31 WIII 280130	METAR WIII 280130Z 22004KT 7000 FEW022 29/23 Q1011 NOSIG=
28/12/2013 02:00:00Z	 SAID31 WIII 280200	METAR WIII 280200Z 29009KT 8000 FEW022 30/24 Q1011 NOSIG=
28/12/2013 02:30:00Z	 SAID31 WIII 280230	METAR WIII 280230Z 31007KT 9000 FEW023 30/24 Q1011 NOSIG=
28/12/2013 03:00:00Z	 SAID31 WIII 280300	METAR WIII 280300Z 31009KT 9000 FEW020 31/24 Q1011 NOSIG=
28/12/2013 03:30:00Z	 SAID31 WIII 280330	METAR WIII 280330Z 31008KT 9000 FEW020 31/24 Q1010 NOSIG=
28/12/2013 04:00:00Z	 SAID31 WIII 280400	METAR WIII 280400Z 30009KT 9999 FEW020 31/24 Q1010 NOSIG=
28/12/2013 04:30:00Z	 SAID31 WIII 280430	METAR WIII 280430Z 32010KT 9999 FEW020 31/24 Q1010 NOSIG=
28/12/2013 05:00:00Z	 SAID31 WIII 280500	METAR WIII 280500Z 33011KT 9999 FEW021 31/24 Q1009 NOSIG=
28/12/2013 05:30:00Z	 SAID31 WIII 280530	METAR WIII 280530Z 33012KT 9999 FEW021 31/24 Q1009 NOSIG=
28/12/2013 06:00:00Z	 SAID31 WIII 280600	METAR WIII 280600Z 33012KT 9999 FEW021 31/23 Q1008 NOSIG=
28/12/2013 06:30:00Z	 SAID31 WIII 280630	METAR WIII 280630Z 35013KT 9999 FEW021 31/23 Q1007 NOSIG=
28/12/2013 07:00:00Z	 SAID31 WIII 280700	METAR WIII 280700Z 33010KT 9999 FEW021 32/24 Q1007 NOSIG=
28/12/2013 07:30:00Z	 SAID31 WIII 280730	METAR WIII 280730Z 34007KT 9999 FEW021 31/24 Q1006 NOSIG=
28/12/2013 08:00:00Z	 SAID31 WIII 280800	METAR WIII 280800Z 32007KT 9999 FEW021 31/24 Q1006 NOSIG=
28/12/2013 08:30:00Z	 SAID31 WIII 280830	METAR WIII 280830Z 35007KT 9999 FEW021 31/24 Q1006 NOSIG=
28/12/2013 09:00:00Z	 SAID31 WIII 280900	METAR WIII 280900Z 35008KT 9999 FEW021 31/24 Q1006 NOSIG=
28/12/2013 09:30:00Z	 SAID31 WIII 280930	METAR WIII 280930Z 33007KT 9999 FEW021 31/24 Q1006 NOSIG=
28/12/2013 10:00:00Z	 SAID31 WIII 281000	METAR WIII 281000Z 32004KT 9999 FEW022 30/24 Q1006 NOSIG=
28/12/2013 10:30:00Z	 SAID31 WIII 281030	METAR WIII 281030Z 32006KT 9999 FEW022 29/24 Q1006 NOSIG=
28/12/2013 11:00:00Z	 SAID31 WIII 281100	METAR WIII 281100Z 32005KT 9000 FEW021 29/24 Q1007 NOSIG=
28/12/2013 11:30:00Z	 SAID31 WIII 281130	METAR WIII 281130Z 32005KT 7000 FEW021 28/24 Q1007 NOSIG=
28/12/2013 12:00:00Z	 SAID31 WIII 281200	METAR WIII 281200Z 32004KT 6000 FEW022 28/24 Q1008 NOSIG=
28/12/2013 12:30:00Z	 SAID31 WIII 281230	METAR WIII 281230Z 31007KT 7000 FEW022 28/24 Q1008 NOSIG=
28/12/2013 13:00:00Z	 SAID31 WIII 281300	METAR WIII 281300Z 27004KT 8000 FEW024 28/24 Q1008 NOSIG=
28/12/2013 13:30:00Z	 SAID31 WIII 281330	METAR WIII 281330Z 28006KT 8000 FEW023 27/23 Q1008 NOSIG=
28/12/2013 14:00:00Z	 SAID31 WIII 281400	METAR WIII 281400Z 29006KT 8000 FEW022 27/23 Q1009 NOSIG=
28/12/2013 14:30:00Z	 SAID31 WIII 281430	METAR WIII 281430Z 27007KT 8000 FEW023 27/22 Q1009 NOSIG=
28/12/2013 15:00:00Z	 SAID31 WIII 281500	METAR WIII 281500Z 27006KT 8000 FEW023 26/22 Q1009 NOSIG=
28/12/2013 15:30:00Z	 SAID31 WIII 281530	METAR WIII 281530Z 27005KT 7000 FEW023 26/22 Q1009 NOSIG=
28/12/2013 16:00:00Z	 SAID31 WIII 281600	METAR WIII 281600Z 30004KT 7000 FEW023 26/22 Q1009 NOSIG=
28/12/2013 16:30:00Z	 SAID31 WIII 281630	METAR WIII 281630Z 29005KT 7000 FEW023 25/22 Q1009 NOSIG=
28/12/2013 17:00:00Z	 SAID31 WIII 281700	METAR WIII 281700Z 24004KT 7000 FEW023 25/22 Q1009 NOSIG=
28/12/2013 17:30:00Z	 SAID31 WIII 281730	METAR WIII 281730Z 27005KT 8000 FEW022 24/21 Q1009 NOSIG=
28/12/2013 18:00:00Z	 SAID31 WIII 281800	METAR WIII 281800Z 26006KT 7000 FEW023 24/21 Q1008 NOSIG=
28/12/2013 18:30:00Z	 SAID31 WIII 281830	METAR WIII 281830Z 26004KT 7000 FEW021 24/21 Q1008 NOSIG=
28/12/2013 19:00:00Z	 SAID31 WIII 281900	METAR WIII 281900Z 24007KT 6000 FEW022 24/21 Q1008 NOSIG=
28/12/2013 19:30:00Z	 SAID31 WIII 281930	METAR WIII 281930Z 27004KT 6000 FEW022 24/21 Q1008 NOSIG=
28/12/2013 20:00:00Z	 SAID31 WIII 282000	METAR WIII 282000Z 29002KT 5000 HZ FEW022 23/21 Q1007 NOSIG=
28/12/2013 20:30:00Z	 SAID31 WIII 282030	METAR WIII 282030Z 23005KT 5000 HZ FEW022 24/21 Q1007 NOSIG=
28/12/2013 21:00:00Z	 SAID31 WIII 282100	METAR WIII 282100Z 20005KT 6000 FEW022 24/21 Q1008 NOSIG=
28/12/2013 21:30:00Z	 SAID31 WIII 282130	METAR WIII 282130Z 20003KT 6000 FEW022 24/21 Q1007 NOSIG=
28/12/2013 22:00:00Z	 SAID31 WIII 282200	METAR WIII 282200Z 22006KT 6000 FEW022 23/21 Q1007 NOSIG=
28/12/2013 22:30:00Z	 SAID31 WIII 282230	METAR WIII 282230Z 22005KT 6000 FEW022 23/21 Q1008 NOSIG=
28/12/2013 23:00:00Z	 SAID31 WIII 282300	METAR WIII 282300Z 18004KT 6000 FEW024 24/21 Q1009 NOSIG=
28/12/2013 23:30:00Z	 SAID31 WIII 282330	METAR WIII 282330Z 21003KT 6000 FEW024 25/22 Q1009 NOSIG=
29/12/2013 00:00:00Z	 SAID31 WIII 290000	METAR WIII 290000Z 23003KT 5000 HZ FEW024 25/22 Q1010 NOSIG=
29/12/2013 00:30:00Z	 SAID31 WIII 290030	METAR WIII 290030Z 26006KT 5000 HZ FEW023 26/23 Q1010 NOSIG=
29/12/2013 01:00:00Z	 SAID31 WIII 290100	METAR WIII 290100Z 29005KT 5000 HZ FEW023 28/23 Q1010 NOSIG=
29/12/2013 01:30:00Z	 SAID31 WIII 290130	METAR WIII 290130Z 30007KT 5000 HZ FEW023 29/23 Q1010 NOSIG=
29/12/2013 02:00:00Z	 SAID31 WIII 290200	METAR WIII 290200Z 29009KT 7000 FEW023 30/23 Q1010 NOSIG=
29/12/2013 02:30:00Z	 SAID31 WIII 290230	METAR WIII 290230Z 31007KT 7000 FEW022 31/23 Q1010 NOSIG=
29/12/2013 03:00:00Z	 SAID31 WIII 290300	METAR WIII 290300Z 30007KT 8000 FEW022 31/23 Q1010 NOSIG=
29/12/2013 03:30:00Z	 SAID31 WIII 290330	METAR WIII 290330Z 32008KT 8000 FEW022 30/23 Q1010 NOSIG=
29/12/2013 04:00:00Z	 SAID31 WIII 290400	METAR WIII 290400Z 33009KT 8000 SCT022 30/23 Q1010 NOSIG=
29/12/2013 04:30:00Z	 SAID31 WIII 290430	METAR WIII 290430Z 31009KT 7000 BKN021 30/24 Q1009 NOSIG=
29/12/2013 05:00:00Z	 SAID31 WIII 290500	METAR WIII 290500Z 33010KT 8000 BKN021 30/24 Q1009 NOSIG=
29/12/2013 05:30:00Z	 SAID31 WIII 290530	METAR WIII 290530Z 35011KT 300V020 8000 SCT021 30/24 Q1009 NOSIG=
29/12/2013 06:00:00Z	 SAID31 WIII 290600	METAR WIII 290600Z 34012KT 8000 BKN021 31/25 Q1008 NOSIG=
29/12/2013 06:30:00Z	 SAID31 WIII 290630	METAR WIII 290630Z 35010KT 8000 BKN021 32/24 Q1008 NOSIG=
29/12/2013 07:00:00Z	 SAID31 WIII 290700	METAR WIII 290700Z 33008KT 8000 SCT021 30/23 Q1007 NOSIG=
29/12/2013 07:30:00Z	 SAID31 WIII 290730	METAR WIII 290730Z 31008KT 8000 SCT021 32/23 Q1007 NOSIG=
29/12/2013 08:00:00Z	 SAID31 WIII 290800	METAR WIII 290800Z 33007KT 8000 FEW021 31/23 Q1006 NOSIG=
29/12/2013 08:30:00Z	 SAID31 WIII 290830	METAR WIII 290830Z 32007KT 8000 FEW021 30/23 Q1007 NOSIG=
29/12/2013 09:00:00Z	 SAID31 WIII 290900	METAR WIII 290900Z 34006KT 8000 FEW021 29/23 Q1007 NOSIG=
29/12/2013 09:30:00Z	 SAID31 WIII 290930	METAR WIII 290930Z 33008KT 8000 FEW020CB FEW021 29/23 Q1007 RMK CB TO SW=
29/12/2013 10:00:00Z	 SAID31 WIII 291000	METAR WIII 291000Z 32009KT 8000 FEW020CB FEW021 29/23 Q1007 RMK CB TO SW=
29/12/2013 10:30:00Z	 SAID31 WIII 291030	METAR WIII 291030Z 32008KT 7000 FEW020CB FEW021 SCT090 28/24 Q1007 RM K CB TO S=
29/12/2013 11:00:00Z	 SAID31 WIII 291100	METAR WIII 291100Z 32005KT 7000 FEW021 28/24 Q1008 NOSIG=
29/12/2013 11:30:00Z	 SAID31 WIII 291130	METAR WIII 291130Z VRB05KT 7000 FEW020TCU FEW021 28/24 Q1008 RMK TCU TO S=
29/12/2013 12:00:00Z	 SAID31 WIII 291200	METAR WIII 291200Z 31004KT 8000 FEW020 27/24 Q1009 NOSIG=
29/12/2013 12:30:00Z	 SAID31 WIII 291230	METAR WIII 291230Z 30006KT 8000 FEW021 27/24 Q1009 NOSIG=
29/12/2013 13:00:00Z	 SAID31 WIII 291300	METAR WIII 291300Z 29006KT 9000 FEW020 27/24 Q1010 NOSIG=
29/12/2013 13:30:00Z	 SAID31 WIII 291330	METAR WIII 291330Z 30006KT 9000 FEW021 27/24 Q1010 NOSIG=
29/12/2013 14:00:00Z	 SAID31 WIII 291400	METAR WIII 291400Z 30006KT 9000 FEW021 27/24 Q1011 NOSIG=
29/12/2013 14:30:00Z	 SAID31 WIII 291430	METAR WIII 291430Z 30007KT 9000 FEW021 27/24 Q1011 NOSIG=
29/12/2013 15:00:00Z	 SAID31 WIII 291500	METAR WIII 291500Z 30007KT 9000 FEW021 27/24 Q1011 NOSIG=
29/12/2013 15:30:00Z	 SAID31 WIII 291530	METAR WIII 291530Z 29006KT 8000 FEW021 27/24 Q1011 NOSIG=
29/12/2013 16:00:00Z	 SAID31 WIII 291600	METAR WIII 291600Z 29004KT 8000 FEW021 27/24 Q1011 NOSIG=
29/12/2013 16:30:00Z	 SAID31 WIII 291630	METAR WIII 291630Z 29006KT 8000 FEW021 27/24 Q1010 NOSIG=
29/12/2013 17:00:00Z	 SAID31 WIII 291700	METAR WIII 291700Z 30004KT 8000 FEW021 26/24 Q1010 NOSIG=
29/12/2013 17:30:00Z	 SAID31 WIII 291730	METAR WIII 291730Z 31005KT 8000 FEW021 26/24 Q1010 NOSIG =
29/12/2013 18:00:00Z	 SAID31 WIII 291800	METAR WIII 291800Z 30007KT 8000 FEW021 26/23 Q1010 NOSIG=
29/12/2013 18:30:00Z	 SAID31 WIII 291830	METAR WIII 291830Z 30006KT 8000 FEW021 26/23 Q1009 NOSIG=
29/12/2013 19:00:00Z	 SAID31 WIII 291900	METAR WIII 291900Z 31007KT 8000 FEW021 26/24 Q1009 NOSIG=
29/12/2013 19:30:00Z	 SAID31 WIII 291930	METAR WIII 291930Z 30005KT 8000 FEW020 26/23 Q1009 NOSIG=
29/12/2013 20:00:00Z	 SAID31 WIII 292000	METAR WIII 292000Z 29005KT 8000 FEW020CB FEW021 26/23 Q1008 RMK CB TO NE=
29/12/2013 20:30:00Z	 SAID31 WIII 292030	METAR WIII 292030Z 28007KT 7000 FEW022 26/23 Q1008 NOSIG=
29/12/2013 21:00:00Z	 SAID31 WIII 292100	METAR WIII 292100Z 29007KT 8000 FEW021 26/23 Q1008 NOSIG=
29/12/2013 21:30:00Z	 SAID31 WIII 292130	METAR WIII 292130Z 30007KT 7000 FEW021 26/23 Q1008 NOSIG=
29/12/2013 22:00:00Z	 SAID31 WIII 292200	METAR WIII 292200Z 31010KT 6000 FEW021 25/23 Q1009 NOSIG=
29/12/2013 22:30:00Z	 SAID31 WIII 292230	METAR WIII 292230Z 27004KT 6000 -RA BKN020 24/22 Q1009 NOSIG=
29/12/2013 23:00:00Z	 SAID31 WIII 292300	METAR WIII 292300Z 26006KT 8000 BKN021 24/23 Q1009 NOSIG=
29/12/2013 23:30:00Z	 SAID31 WIII 292330	METAR WIII 292330Z 26007KT 8000 BKN021 25/23 Q1010 NOSIG=
30/12/2013 00:00:00Z	 SAID31 WIII 300000	METAR WIII 300000Z 26008KT 6000 SCT021 25/23 Q1010 NOSIG=
30/12/2013 00:30:00Z	 SAID31 WIII 300030	METAR WIII 300030Z 25006KT 6000 SCT020 25/23 Q1011 NOSIG=
30/12/2013 01:00:00Z	 SAID31 WIII 300100	METAR WIII 300100Z 27004KT 6000 SCT022 26/23 Q1011 NOSIG=
30/12/2013 01:30:00Z	 SAID31 WIII 300130	METAR WIII 300130Z 28005KT 6000 SCT022 26/24 Q1011 NOSIG=
30/12/2013 02:00:00Z	 SAID31 WIII 300200	METAR WIII 300200Z 29006KT 6000 SCT022 27/24 Q1011 NOSIG=
30/12/2013 02:30:00Z	 SAID31 WIII 300230	METAR WIII 300230Z 30006KT 6000 FEW021CB SCT022 27/24 Q1011 RMK CB TO NE=
30/12/2013 03:00:00Z	 SAID31 WIII 300300	METAR WIII 300300Z 28008KT 6000 SCT022 27/24 Q1011 NOSIG=
30/12/2013 03:30:00Z	 SAID31 WIII 300330	METAR WIII 300330Z 32009KT 6000 -RA BKN022 28/24 Q1011=
30/12/2013 04:00:00Z	 SAID31 WIII 300400	METAR WIII 300400Z 31009KT 6000 -RA SCT022 28/24 Q1011=
30/12/2013 04:30:00Z	 SAID31 WIII 300430	METAR WIII 300430Z 31009KT 7000 SCT022 28/24 Q1011 NOSIG=
30/12/2013 05:00:00Z	 SAID31 WIII 300500	METAR WIII 300500Z 30006KT 6000 -RA SCT022 27/24 Q1010=
30/12/2013 05:30:00Z	 SAID31 WIII 300530	METAR WIII 300530Z 32008KT 7000 SCT022 29/24 Q1010 NOSIG=
30/12/2013 06:00:00Z	 SAID31 WIII 300600	METAR WIII 300600Z 32007KT 7000 SCT022 29/24 Q1009 NOSIG=
30/12/2013 06:30:00Z	 SAID31 WIII 300630	METAR WIII 300630Z 31009KT 7000 SCT022 29/24 Q1009 NOSIG=
30/12/2013 07:00:00Z	 SAID31 WIII 300700	METAR WIII 300700Z 330010KT 7000 SCT022 29/24 Q1008 NOSIG=
30/12/2013 07:30:00Z	 SAID31 WIII 300730	METAR WIII 300730Z 32009KT 7000 SCT022 29/24 Q1008 NOSIG=
30/12/2013 08:00:00Z	 SAID31 WIII 300800	METAR WIII 300800Z 33006KT 8000 SCT022 29/24 Q1007 NOSIG=
30/12/2013 08:30:00Z	 SAID31 WIII 300830	METAR WIII 300830Z 33009KT 8000 SCT022 29/23 Q1007 NOSIG=
30/12/2013 09:00:00Z	 SAID31 WIII 300900	METAR WIII 300900Z 34009KT 8000 SCT022 29/23 Q1007 NOSIG=
30/12/2013 09:30:00Z	 SAID31 WIII 300930	METAR WIII 300930Z 31017G23KT 6000 BKN020 27/23 Q1008=
30/12/2013 10:00:00Z	 SAID31 WIII 301000	METAR WIII 301000Z 30013KT 3500 -RA SCT020 BKN080 24/23 Q1008=
30/12/2013 10:30:00Z	 SAID31 WIII 301030	METAR WIII 301030Z 29006KT 3500 -RA SCT020 BKN080 24/23 Q1009=
30/12/2013 11:00:00Z	 SAID31 WIII 301100	METAR WIII 301100Z 30005KT 4000 -RA SCT020 24/23 Q1009=
30/12/2013 11:30:00Z	 SAID31 WIII 301130	METAR WIII 301130Z 30009KT 6000 -RA SCT020 25/23 Q1009=
30/12/2013 12:00:00Z	 SAID31 WIII 301200	METAR WIII 301200Z 28006KT 5000 -RA BKN020 24/23 Q1010=
30/12/2013 12:30:00Z	 SAID31 WIII 301230	METAR WIII 301230Z 28005KT 4000 -RA FEW016CB OVC020 24/23 Q1010 RMK C B TO N=
30/12/2013 13:00:00Z	 SAID31 WIII 301300	METAR WIII 301300Z 28005KT 4000 -RA FEW016CB OVC020 24/23 Q1011 RMK C B TO NE=
30/12/2013 13:30:00Z	 SAID31 WIII 301330	METAR WIII 301330Z VRB02KT 5000 BR SCT018 OVC022 24/23 Q1011 RERA=
30/12/2013 14:00:00Z	 SAID31 WIII 301400	METAR WIII 301400Z 24009KT 5000 BR BKN020 24/23 Q1012=
30/12/2013 14:30:00Z	 SAID31 WIII 301430	METAR WIII 301430Z 25006KT 5000 BR BKN020 24/23 Q1012=
30/12/2013 15:00:00Z	 SAID31 WIII 301500	METAR WIII 301500Z 22009KT 5000 BR BKN020 25/22 Q1012=
30/12/2013 15:30:00Z	 SAID31 WIII 301530	METAR WIII 301530Z 22008KT 5000 BR BKN020 24/22 Q1011=
30/12/2013 16:00:00Z	 SAID31 WIII 301600	METAR WIII 301600Z 22006KT 5000 BR SCT020 24/22 Q1011=
30/12/2013 16:30:00Z	 SAID31 WIII 301630	METAR WIII 301630Z 23006KT 5000 BR SCT022 24/22 Q1011=
30/12/2013 17:00:00Z	 SAID31 WIII 301700	METAR WIII 301700Z 27004KT 5000 -RA OVC020 24/23 Q1011=
30/12/2013 17:30:00Z	 SAID31 WIII 301730	METAR WIII 301730Z 35002KT 4000 -RA OVC020 24/23 Q1011=
30/12/2013 18:00:00Z	 SAID31 WIII 301800	METAR WIII 301800Z 31002KT 4000 -RA OVC020 24/23 Q1010=
30/12/2013 18:30:00Z	 SAID31 WIII 301830	METAR WIII 301830Z 26004KT 4000 -DZ OVC020 24/23 Q1010=
30/12/2013 19:00:00Z	 SAID31 WIII 301900	METAR WIII 301900Z 26008KT 3000 -RA OVC020 24/23 Q1010=
30/12/2013 19:30:00Z	 SAID31 WIII 301930	METAR WIII 301930Z 23006KT 3000 RA OVC020 24/23 Q1010=
30/12/2013 20:00:00Z	 SAID31 WIII 302000	METAR WIII 302000Z AUTO 22016KT 5000 BR 24/23 Q1009=
30/12/2013 20:30:00Z	 SAID31 WIII 302030	METAR WIII 302030Z 22014KT 3000 RA OVC020 23/22 Q1009=
30/12/2013 21:00:00Z	 SAID31 WIII 302100	METAR WIII 302100Z 22014KT 3000 RA FEW016CB OVC020 23/22 Q1009 RMK CB TO N AND E=
30/12/2013 22:30:00Z	 SAID31 WIII 302230	METAR WIII 302230Z 25015KT 3000 RA OVC020 23/22 Q1010=
30/12/2013 23:00:00Z	 SAID31 WIII 302300	METAR WIII 302300Z 25013KT 3000 RA OVC020 23/22 Q1011=
30/12/2013 23:30:00Z	 SAID31 WIII 302330	METAR WIII 302330Z 25012KT 2000 RA OVC020 23/22 Q1011=
31/12/2013 00:00:00Z	 SAID31 WIII 310000	METAR WIII 310000Z 24008KT 3000 RA OVC020 23/22 Q1012=
31/12/2013 00:30:00Z	 SAID31 WIII 310030	METAR WIII 310030Z 27005KT 3000 RA OVC020 23/22 Q1012=
31/12/2013 01:00:00Z	 SAID31 WIII 310100	METAR WIII 310100Z 22005KT 4000 -RA SCT018 OVC090 23/22 Q1013=
31/12/2013 01:30:00Z	 SAID31 WIII 310130	METAR WIII 310130Z 22007KT 4000 -RA SCT018 OVC090 23/22 Q1013=
31/12/2013 02:00:00Z	 SAID31 WIII 310200	METAR WIII 310200Z 24009KT 5000 -RA FEW018CB SCT018 OVC090 24/22 Q101 2 RMK CB TO E=
31/12/2013 02:30:00Z	 SAID31 WIII 310230	METAR WIII 310230Z 23009KT 5000 -RA FEW018 FEW090 24/23 Q1012=
31/12/2013 03:00:00Z	 SAID31 WIII 310300	METAR WIII 310300Z 21008KT 5000 -RA FEW018CB SCT020 25/23 Q1012 RMK C B TO NE=
31/12/2013 03:30:00Z	 SAID31 WIII 310330	METAR WIII 310330Z 23009KT 5000 HZ FEW018CB SCT020 OVC090 25/23 Q1012 RMK CB TO NE=
31/12/2013 04:00:00Z	 SAID31 WIII 310400	METAR WIII 310400Z 22008KT 6000 FEW018CB SCT020 OVC090 26/23 Q1012 RM K CB TO NE=
31/12/2013 04:30:00Z	 SAID31 WIII 310430	METAR WIII 310430Z 25007KT 6000 FEW020 OVC090 27/24 Q1012 NOSIG=
31/12/2013 05:00:00Z	 SAID31 WIII 310500	METAR WIII 310500Z 24006KT 6000 FEW020 OVC090 27/24 Q1011 NOSIG=
31/12/2013 05:30:00Z	 SAID31 WIII 310530	METAR WIII 310530Z 26008KT 5000 FEW020 OVC090 28/24 Q1011 NOSIG=
31/12/2013 06:00:00Z	 SAID31 WIII 310600	METAR WIII 310600Z 27007KT 5000 HZ FEW020 OVC100 28/24 Q1010 NOSIG=
31/12/2013 06:30:00Z	 SAID31 WIII 310630	METAR WIII 310630Z 28010KT 5000 HZ FEW018CB SCT020 OVC100 29/24 Q1010 RMK CB TO NE=
31/12/2013 07:00:00Z	 SAID31 WIII 310700	METAR WIII 310700Z 28009KT 6000 SCT020 OVC100 29/24 Q1009 NOSIG=
31/12/2013 07:30:00Z	 SAID31 WIII 310730	METAR WIII 310730Z 32006KT 6000 SCT020 OVC100 29/24 Q1009 NOSIG=
31/12/2013 08:00:00Z	 SAID31 WIII 310800	METAR WIII 310800Z 30007KT 6000 FEW020CB SCT020 OVC100 28/24 Q1008 RM K CB TO N AND E=
31/12/2013 08:30:00Z	 SAID31 WIII 310830	METAR WIII 310830Z 30009KT 6000 FEW019CB SCT020 OVC100 29/24 Q1008 RM K CB TO SW=
31/12/2013 09:00:00Z	 SAID31 WIII 310900	METAR WIII 310900Z 31009KT 7000 FEW018CB SCT018 OVC100 28/24 Q1008 RM K CB TO SW=
31/12/2013 09:30:00Z	 SAID31 WIII 310930	METAR WIII 310930Z 31007KT 8000 SCT018 BKN100 29/24 Q1008 NOSIG=
31/12/2013 10:00:00Z	 SAID31 WIII 311000	METAR WIII 311000Z 31005KT 7000 SCT019 BKN100 28/24 Q1009 NOSIG=
31/12/2013 10:30:00Z	 SAID31 WIII 311030	METAR WIII 311030Z 31005KT 7000 SCT018 OVC100 28/24 Q1009 NOSIG=
31/12/2013 11:00:00Z	 SAID31 WIII 311100	METAR WIII 311100Z 31004KT 6000 SCT019 OVC100 28/24 Q1009 NOSIG=
31/12/2013 11:30:00Z	 SAID31 WIII 311130	METAR WIII 311130Z 19006KT 5000 HZ FEW018CB SCT018 OVC100 27/24 Q1010 RMK CB TO S=
31/12/2013 12:00:00Z	 SAID31 WIII 311200	METAR WIII 311200Z 21006KT 5000 HZ SCT018 BKN100 27/23 Q1010 NOSIG=
31/12/2013 12:30:00Z	 SAID31 WIII 311230	METAR WIII 311230Z 20005KT 5000 HZ SCT018 BKN100 27/23 Q1011 NOSIG=
31/12/2013 13:00:00Z	 SAID31 WIII 311300	METAR WIII 311300Z 21004KT 5000 HZ SCT019 BKN100 27/23 Q1011 NOSIG=
31/12/2013 13:30:00Z	 SAID31 WIII 311330	METAR WIII 311330Z 22006KT 5000 HZ SCT019 BKN100 27/23 Q1011 NOSIG=
31/12/2013 14:00:00Z	 SAID31 WIII 311400	METAR WIII 311400Z 24005KT 5000 HZ SCT019 BKN100 27/23 Q1012 NOSIG=
31/12/2013 14:30:00Z	 SAID31 WIII 311430	METAR WIII 311430Z 23007KT 4500 HZ SCT019 BKN100 27/23 Q1012 NOSIG=
31/12/2013 15:00:00Z	 SAID31 WIII 311500	METAR WIII 311500Z 24006KT 4500 HZ SCT019 BKN100 27/23 Q1012 NOSIG=
31/12/2013 15:30:00Z	 SAID31 WIII 311530	METAR WIII 311530Z 26006KT 4000 HZ FEW019 SCT090 26/23 Q1012 NOSIG=
31/12/2013 16:00:00Z	 SAID31 WIII 311600	METAR WIII 311600Z 26004KT 4000 HZ FEW019 SCT090 26/23 Q1012 NOSIG=
31/12/2013 16:30:00Z	 SAID31 WIII 311630	METAR WIII 311630Z 21005KT 4000 HZ FEW019 SCT090 26/23 Q1011 NOSIG=
31/12/2013 17:35:00Z	 SAID31 WIII 311735	METAR WIII 311730Z 23004KT 4000 HZ FEW018 SCT090 26/23 Q1011 NOSIG=
31/12/2013 22:30:00Z	 SAID31 WIII 312230	METAR WIII 312230Z 23007KT 4000 -RA SCT020 OVC100 24/23 Q1011=
31/12/2013 23:00:00Z	 SAID31 WIII 312300	METAR WIII 312300Z VRB03KT 4000 -RA SCT020 OVC100 24/23 Q1011=
31/12/2013 23:30:00Z	 SAID31 WIII 312330	METAR WIII 312330Z 18004KT 5000 -RA SCT020 OVC090 24/23 Q1011=
