02/09/2017 01:00:00Z	 SAID31 WIII 020100	METAR WIII 020100Z 16004KT 5000 HZ FEW022 28/21 Q1012 NOSIG=
02/09/2017 21:00:00Z	 SAID31 WIII 022100	METAR WIII 022100Z VRB02KT 3500 HZ FEW020 25/21 Q1010 NOSIG=
02/09/2017 21:30:00Z	 SAID31 WIII 022130	METAR WIII 022130Z 17002KT 3800 HZ FEW020 24/21 Q1010=
03/09/2017 00:00:00Z	 SAID31 WIII 030000	METAR WIII 030000Z 14003KT 4500 HZ FEW021 26/21 Q1011 NOSIG=
03/09/2017 03:00:00Z	 SAID31 WIII 030300	METAR WIII 030300Z 08007KT 050V140 7000 FEW021 32/19 Q1012 NOSIG=
03/09/2017 06:00:00Z	 SAID31 WIII 030600	METAR WIII 030600Z 03013KT 010V070 8000 FEW021 32/21 Q1009 NOSIG=
03/09/2017 09:00:00Z	 SAID31 WIII 030900	METAR WIII 030900Z 04013KT 9999 FEW021 31/21 Q1008 NOSIG=
03/09/2017 12:00:00Z	 SAID31 WIII 031200	METAR WIII 031200Z 05007KT 8000 FEW021 27/21 Q1010 NOSIG=
04/09/2017 15:00:00Z	 SAID31 WIII 041500	METAR WIII 041500Z 30002KT 8000 FEW022 29/22 Q1011 NOSIG=
04/09/2017 21:00:00Z	 SAID31 WIII 042100	METAR WIII 042100Z 20004KT 4500 HZ FEW022 25/23 Q1009 NOSIG=
08/09/2017 09:30:00Z	 SAID31 WIII 080930	METAR WIII 080930Z 05014G24KT CAVOK 31/20 Q1008 NOSIG=
08/09/2017 10:00:00Z	 SAID31 WIII 081000	METAR WIII 081000Z 04012G22KT CAVOK 30/21 Q1008 NOSIG=
08/09/2017 10:30:00Z	 SAID31 WIII 081030	METAR WIII 081030Z 05014KT CAVOK 29/21 Q1008 NOSIG=
08/09/2017 11:00:00Z	 SAID31 WIII 081100	METAR WIII 081100Z 05014KT 9999 FEW022 29/21 Q1009 NOSIG=
08/09/2017 11:30:00Z	 SAID31 WIII 081130	METAR WIII 081130Z 05011KT 9999 FEW023 28/22 Q1009 NOSIG=
08/09/2017 12:00:00Z	 SAID31 WIII 081200	METAR WIII 081200Z 06010KT 9999 FEW022 28/22 Q1009 NOSIG=
08/09/2017 12:30:00Z	 SAID31 WIII 081230	METAR WIII 081230Z 06008KT 9999 SCT022 28/22 Q1010 NOSIG=
08/09/2017 13:00:00Z	 SAID31 WIII 081300	METAR WIII 081300Z 05008KT 7000 SCT020 28/22 Q1010 NOSIG=
08/09/2017 13:30:00Z	 SAID31 WIII 081330	METAR WIII 081330Z 07007KT 7000 FEW020 28/22 Q1011 NOSIG=
08/09/2017 14:00:00Z	 SAID31 WIII 081400	METAR WIII 081400Z 06008KT 7000 FEW020 27/22 Q1011 NOSIG=
08/09/2017 14:30:00Z	 SAID31 WIII 081430	METAR WIII 081430Z 07005KT 7000 SCT020 28/22 Q1011 NOSIG=
08/09/2017 15:00:00Z	 SAID31 WIII 081500	METAR WIII 081500Z 07006KT 7000 FEW021 27/22 Q1011 NOSIG=
08/09/2017 15:30:00Z	 SAID31 WIII 081530	METAR WIII 081530Z VRB03KT 7000 SCT020 27/22 Q1011 NOSIG=
08/09/2017 16:00:00Z	 SAID31 WIII 081600	METAR WIII 081600Z 08005KT 7000 SCT020 28/22 Q1011 NOSIG=
08/09/2017 16:30:00Z	 SAID31 WIII 081630	METAR WIII 081630Z 08005KT 7000 SCT020 28/22 Q1011 NOSIG=
08/09/2017 17:00:00Z	 SAID31 WIII 081700	METAR WIII 081700Z 07004KT 7000 SCT020 27/23 Q1010 NOSIG=
08/09/2017 17:30:00Z	 SAID31 WIII 081730	METAR WIII 081730Z 08004KT 7000 SCT020 27/23 Q1010 NOSIG=
08/09/2017 18:00:00Z	 SAID31 WIII 081800	METAR WIII 081800Z 09004KT 7000 FEW020 27/23 Q1010 NOSIG=
08/09/2017 18:30:00Z	 SAID31 WIII 081830	METAR WIII 081830Z 10003KT 7000 FEW020 28/23 Q1010 NOSIG=
08/09/2017 19:00:00Z	 SAID31 WIII 081900	METAR WIII 081900Z 18002KT 7000 FEW020 27/23 Q1009 NOSIG=
08/09/2017 22:00:00Z	 SAID31 WIII 082200	METAR WIII 082200Z 17002KT 4600 HZ FEW020 26/22 Q1009 NOSIG=
08/09/2017 22:30:00Z	 SAID31 WIII 082230	METAR WIII 082230Z 16002KT 4900 HZ FEW020 26/22 Q1009 NOSIG=
08/09/2017 23:00:00Z	 SAID31 WIII 082300	METAR WIII 082300Z 15003KT 4300 BR FEW021 26/22 Q1009 NOSIG=
08/09/2017 23:30:00Z	 SAID31 WIII 082330	METAR WIII 082330Z 16002KT 3500 HZ FEW021 26/22 Q1009 NOSIG=
09/09/2017 00:00:00Z	 SAID31 WIII 090000	METAR WIII 090000Z 16003KT 5000 HZ FEW022 27/22 Q1010 NOSIG=
09/09/2017 00:30:00Z	 SAID31 WIII 090030	METAR WIII 090030Z 17003KT 5000 HZ FEW022 28/22 Q1010 NOSIG=
09/09/2017 01:30:00Z	 SAID31 WIII 090130	METAR WIII 090130Z VRB01KT 5000 HZ FEW022 31/23 Q1010 NOSIG=
09/09/2017 02:00:00Z	 SAID31 WIII 090200	METAR WIII 090200Z VRB02KT 5000 HZ FEW022 31/22 Q1010 NOSIG=
09/09/2017 02:30:00Z	 SAID31 WIII 090230	METAR WIII 090230Z VRB05KT 7000 SCT022 31/23 Q1010 NOSIG=
09/09/2017 03:00:00Z	 SAID31 WIII 090300	METAR WIII 090300Z 02006KT 8000 SCT022 32/22 Q1010 NOSIG=
09/09/2017 03:30:00Z	 SAID31 WIII 090330	METAR WIII 090330Z 04007KT 350V080 8000 FEW022 33/22 Q1010 NOSIG=
09/09/2017 04:00:00Z	 SAID31 WIII 090400	METAR WIII 090400Z 03009KT 9999 FEW022 33/22 Q1009 NOSIG=
09/09/2017 04:30:00Z	 SAID31 WIII 090430	METAR WIII 090430Z 03011KT 360V060 9999 FEW022 33/22 Q1009 NOSIG=
09/09/2017 05:00:00Z	 SAID31 WIII 090500	METAR WIII 090500Z 04012KT 9999 FEW022 33/22 Q1008 NOSIG=
09/09/2017 05:30:00Z	 SAID31 WIII 090530	METAR WIII 090530Z 03009G19KT 9999 FEW022 33/23 Q1008 NOSIG=
09/09/2017 06:00:00Z	 SAID31 WIII 090600	METAR WIII 090600Z 01007G17KT 9999 FEW022 33/22 Q1008 NOSIG=
09/09/2017 06:30:00Z	 SAID31 WIII 090630	METAR WIII 090630Z 01008G18KT 9999 FEW022 33/23 Q1007 NOSIG=
09/09/2017 07:00:00Z	 SAID31 WIII 090700	METAR WIII 090700Z 02006G16KT 9999 FEW022 33/23 Q1007 NOSIG=
09/09/2017 07:30:00Z	 SAID31 WIII 090730	METAR WIII 090730Z 01007G17KT 9999 FEW022 32/23 Q1007 NOSIG=
09/09/2017 08:00:00Z	 SAID31 WIII 090800	METAR WIII 090800Z 34015KT CAVOK 32/23 Q1007 NOSIG=
09/09/2017 08:30:00Z	 SAID31 WIII 090830	METAR WIII 090830Z 35006G16KT 320V020 CAVOK 32/23 Q1007 NOSIG=
09/09/2017 09:00:00Z	 SAID31 WIII 090900	METAR WIII 090900Z 34006G16KT CAVOK 31/23 Q1007 NOSIG=
09/09/2017 09:30:00Z	 SAID31 WIII 090930	METAR WIII 090930Z 33009KT 290V360 9999 FEW022 31/23 Q1007 NOSIG=
09/09/2017 10:00:00Z	 SAID31 WIII 091000	METAR WIII 091000Z 32008KT CAVOK 30/24 Q1007 NOSIG=
09/09/2017 10:30:00Z	 SAID31 WIII 091030	METAR WIII 091030Z 32008KT CAVOK 29/24 Q1008 NOSIG=
09/09/2017 11:00:00Z	 SAID31 WIII 091100	METAR WIII 091100Z 31006KT 9999 FEW022 29/25 Q1008 NOSIG=
09/09/2017 11:30:00Z	 SAID31 WIII 091130	METAR WIII 091130Z VRB05KT 9999 FEW021 29/25 Q1009 NOSIG=
09/09/2017 12:00:00Z	 SAID31 WIII 091200	METAR WIII 091200Z VRB05KT 9999 FEW021 29/24 Q1009 NOSIG=
09/09/2017 12:30:00Z	 SAID31 WIII 091230	METAR WIII 091230Z 27005KT 8000 SCT020 29/24 Q1009 NOSIG=
09/09/2017 13:00:00Z	 SAID31 WIII 091300	METAR WIII 091300Z 25008KT 7000 FEW020 28/23 Q1010 NOSIG=
09/09/2017 14:00:00Z	 SAID31 WIII 091400	METAR WIII 091400Z 25006KT 7000 FEW023 27/22 Q1010 NOSIG=
09/09/2017 14:30:00Z	 SAID31 WIII 091430	METAR WIII 091430Z 24008KT 7000 SCT023 27/22 Q1010 NOSIG=
09/09/2017 15:00:00Z	 SAID31 WIII 091500	METAR WIII 091500Z 22007KT 7000 FEW023 27/22 Q1011 NOSIG=
09/09/2017 15:30:00Z	 SAID31 WIII 091530	METAR WIII 091530Z 20006KT 7000 SCT023 27/22 Q1011 NOSIG=
09/09/2017 16:00:00Z	 SAID31 WIII 091600	METAR WIII 091600Z 21004KT 8000 SCT023 27/22 Q1010 NOSIG=
09/09/2017 16:30:00Z	 SAID31 WIII 091630	METAR WIII 091630Z 23005KT 8000 SCT023 27/23 Q1010 NOSIG=
09/09/2017 17:00:00Z	 SAID31 WIII 091700	METAR WIII 091700Z 21003KT 7000 FEW023 26/23 Q1010 NOSIG=
09/09/2017 17:30:00Z	 SAID31 WIII 091730	METAR WIII 091730Z 22003KT 7000 FEW075 27/23 Q1010 NOSIG=
09/09/2017 18:00:00Z	 SAID31 WIII 091800	METAR WIII 091800Z 23002KT 7000 FEW022 26/23 Q1010 NOSIG=
09/09/2017 18:30:00Z	 SAID31 WIII 091830	METAR WIII 091830Z 24003KT 7000 FEW022 26/23 Q1010 NOSIG=
09/09/2017 19:00:00Z	 SAID31 WIII 091900	METAR WIII 091900Z 20004KT 6000 FEW023 27/23 Q1010 NOSIG=
09/09/2017 19:30:00Z	 SAID31 WIII 091930	METAR WIII 091930Z 20003KT 6000 FEW023 26/23 Q1010 NOSIG=
09/09/2017 20:00:00Z	 SAID31 WIII 092000	METAR WIII 092000Z 20004KT 5000 HZ FEW023 26/23 Q1010 NOSIG=
09/09/2017 20:30:00Z	 SAID31 WIII 092030	METAR WIII 092030Z 21004KT 5000 HZ FEW023 26/23 Q1010 NOSIG=
09/09/2017 21:00:00Z	 SAID31 WIII 092100	METAR WIII 092100Z 19004KT 5000 HZ FEW023 26/23 Q1010 NOSIG=
09/09/2017 21:30:00Z	 SAID31 WIII 092130	METAR WIII 092130Z 20004KT 5000 HZ FEW023 26/23 Q1010 NOSIG=
09/09/2017 22:00:00Z	 SAID31 WIII 092200	METAR WIII 092200Z 20003KT 5000 HZ FEW022 25/23 Q1010 NOSIG=
09/09/2017 22:30:00Z	 SAID31 WIII 092230	METAR WIII 092230Z 23003KT 5000 HZ FEW022 25/23 Q1010 NOSIG=
09/09/2017 23:00:00Z	 SAID31 WIII 092300	METAR WIII 092300Z 22004KT 5000 HZ FEW022 25/24 Q1010 NOSIG=
09/09/2017 23:30:00Z	 SAID31 WIII 092330	METAR WIII 092330Z 19004KT 5000 HZ FEW022 26/23 Q1011 NOSIG=
10/09/2017 00:00:00Z	 SAID31 WIII 100000	METAR WIII 100000Z VRB02KT 5000 HZ FEW022 27/22 Q1011 NOSIG=
10/09/2017 00:30:00Z	 SAID31 WIII 100030	METAR WIII 100030Z VRB03KT 5000 HZ FEW022 28/22 Q1011 NOSIG=
10/09/2017 01:00:00Z	 SAID31 WIII 100100	METAR WIII 100100Z 14006KT 5000 HZ FEW022 29/22 Q1011 NOSIG=
10/09/2017 01:30:00Z	 SAID31 WIII 100130	METAR WIII 100130Z 15008KT 6000 FEW022 30/21 Q1011 NOSIG=
10/09/2017 02:00:00Z	 SAID31 WIII 100200	METAR WIII 100200Z VRB04KT 7000 FEW022 31/21 Q1011 NOSIG=
10/09/2017 02:30:00Z	 SAID31 WIII 100230	METAR WIII 100230Z VRB02KT 8000 FEW022 31/21 Q1011 NOSIG=
10/09/2017 03:00:00Z	 SAID31 WIII 100300	METAR WIII 100300Z VRB05KT 8000 FEW022 32/20 Q1011 NOSIG=
10/09/2017 03:30:00Z	 SAID31 WIII 100330	METAR WIII 100330Z VRB04KT 8000 FEW022 33/20 Q1011 NOSIG=
10/09/2017 04:00:00Z	 SAID31 WIII 100400	METAR WIII 100400Z VRB04KT 9000 FEW020 033/20 Q1010 NOSIG=
10/09/2017 04:30:00Z	 SAID31 WIII 100430	METAR WIII 100430Z VRB04KT 9000 FEW020 34/20 Q1010 NOSIG=
10/09/2017 05:00:00Z	 SAID31 WIII 100500	METAR WIII 100500Z VRB03KT 9999 FEW020 34/20 Q1009 NOSIG=
10/09/2017 05:30:00Z	 SAID31 WIII 100530	METAR WIII 100530Z VRB03KT 9999 SCT020 32/22 Q1009 NOSIG=
10/09/2017 06:00:00Z	 SAID31 WIII 100600	METAR WIII 100600Z 35016KT 9999 SCT020 33/22 Q1008 NOSIG=
10/09/2017 06:30:00Z	 SAID31 WIII 100630	METAR WIII 100630Z 34016KT 9999 SCT020 33/22 Q1008 NOSIG=
10/09/2017 07:00:00Z	 SAID31 WIII 100700	METAR WIII 100700Z 34011KT 9999 FEW020 32/22 Q1008 NOSIG=
10/09/2017 07:30:00Z	 SAID31 WIII 100730	METAR WIII 100730Z 32010KT 9999 FEW020 33/22 Q1008 NOSIG=
10/09/2017 08:00:00Z	 SAID31 WIII 100800	METAR WIII 100800Z 31009KT 9999 FEW020 32/22 Q1007 NOSIG=
10/09/2017 08:30:00Z	 SAID31 WIII 100830	METAR WIII 100830Z 33009KT 9999 FEW021 32/22 Q1007 NOSIG=
10/09/2017 09:00:00Z	 SAID31 WIII 100900	METAR WIII 100900Z 32011KT 9999 FEW022 31/23 Q1007 NOSIG=
10/09/2017 09:30:00Z	 SAID31 WIII 100930	METAR WIII 100930Z 34012KT 9999 FEW022 31/23 Q1007 NOSIG=
10/09/2017 10:00:00Z	 SAID31 WIII 101000	METAR WIII 101000Z 33010KT 9999 FEW022 30/23 Q1008 NOSIG=
10/09/2017 10:30:00Z	 SAID31 WIII 101030	METAR WIII 101030Z 33008KT 9999 FEW022 30/24 Q1008 NOSIG=
10/09/2017 11:00:00Z	 SAID31 WIII 101100	METAR WIII 101100Z 33006KT 9000 FEW022 29/24 Q1009 NOSIG=
10/09/2017 11:30:00Z	 SAID31 WIII 101130	METAR WIII 101130Z 35006KT 9000 FEW022 29/24 Q1009 NOSIG=
10/09/2017 12:00:00Z	 SAID31 WIII 101200	METAR WIII 101200Z 34005KT 7000 VCTS FEW018CB SCT020 29/23 Q1010 NOSIG RMK CB TO SE=
10/09/2017 12:30:00Z	 SAID31 WIII 101230	METAR WIII 101230Z VRB05KT 3000 TSRA SCT018CB BKN020 29/23 Q1011 TEMPO FM1230 3000 TSRA RMK CB TO S AND E=
10/09/2017 13:00:00Z	 SAID31 WIII 101300	METAR WIII 101300Z 07018G28KT 4500 +TSRA FEW016CB BKN0018 23/20 Q1010 NOSIG RMK CB OVER THE FIELD=
10/09/2017 13:30:00Z	 SAID31 WIII 101330	METAR WIII 101330Z 04010KT 1500 -TSRA FEW016CB BKN018 23/22 Q1011 NOSIG RMK CB OVER THE FIELD=
10/09/2017 14:00:00Z	 SAID31 WIII 101400	METAR WIII 101400Z 12006KT 2500 TS FEW016CB BKN018 24/23 Q1011 RERA NOSIG RMK CB TO NE=
10/09/2017 14:30:00Z	 SAID31 WIII 101430	METAR WIII 101430Z 20004KT 3500 BR FEW017CB BKN018 25/23 Q1011 RETS NOSIG CB TO N=
10/09/2017 15:00:00Z	 SAID31 WIII 101500	METAR WIII 101500Z 18002KT 4500 HZ BKN020 25/23 Q1011 NOSIG=
10/09/2017 15:30:00Z	 SAID31 WIII 101530	METAR WIII 101530Z 21004KT 5000 SCT020 25/24 Q1011 NOSIG=
10/09/2017 18:00:00Z	 SAID31 WIII 101800	METAR WIII 101800Z 13003KT 4400 HZ FEW021 26/23 Q1010 NOSIG=
10/09/2017 18:30:00Z	 SAID31 WIII 101830	METAR WIII 101830Z 15004KT 5000 FEW021 26/23 Q1010 NOSIG=
10/09/2017 19:00:00Z	 SAID31 WIII 101900	METAR WIII 101900Z 17003KT 5000 FEW021 26/23 Q1010 NOSIG=
10/09/2017 19:30:00Z	 SAID31 WIII 101930	METAR WIII 101930Z 16004KT 5000 FEW021 25/23 Q1010 NOSIG=
10/09/2017 20:00:00Z	 SAID31 WIII 102000	METAR WIII 102000Z VRB01KT 5000 FEW021 25/22 Q1010 NOSIG=
10/09/2017 20:30:00Z	 SAID31 WIII 102030	METAR WIII 102030Z 21003KT 5000 BR FEW020 25/22 Q1010 NOSIG=
10/09/2017 21:00:00Z	 SAID31 WIII 102100	METAR WIII 102100Z 20003KT 6000 SCT020 23/22 Q1010 NOSIG=
10/09/2017 21:30:00Z	 SAID31 WIII 102130	METAR WIII 102130Z 19004KT 6000 SCT020 25/22 Q1010 NOSIG=
10/09/2017 22:00:00Z	 SAID31 WIII 102200	METAR WIII 102200Z 21005KT 6000 SCT021 25/23 Q1010 NOSIG=
10/09/2017 22:30:00Z	 SAID31 WIII 102230	METAR WIII 102230Z 20005KT 6000 SCT020 25/23 Q1010 NOSIG=
10/09/2017 23:00:00Z	 SAID31 WIII 102300	METAR WIII 102300Z 19003KT 6000 SCT020 25/23 Q1010 NOSIG=
10/09/2017 23:30:00Z	 SAID31 WIII 102330	METAR WIII 102330Z 21005KT 7000 SCT021 25/23 Q1011 NOSIG=
11/09/2017 00:00:00Z	 SAID31 WIII 110000	METAR WIII 110000Z 20006KT 8000 FEW021 26/23 Q1011 NOSIG=
11/09/2017 00:30:00Z	 SAID31 WIII 110030	METAR WIII 110030Z 20006KT 8000 FEW022 27/23 Q1011 NOSIG=
11/09/2017 01:00:00Z	 SAID31 WIII 110100	METAR WIII 110100Z VRB05KT 8000 FEW022 28/23 Q1011 NOSIG=
11/09/2017 01:30:00Z	 SAID31 WIII 110130	METAR WIII 110130Z 14005KT 8000 FEW022 29/23 Q1012 NOSIG=
11/09/2017 02:00:00Z	 SAID31 WIII 110200	METAR WIII 110200Z VRB04KT 8000 FEW022 29/22 Q1012 NOSIG=
11/09/2017 02:30:00Z	 SAID31 WIII 110230	METAR WIII 110230Z VRB04KT 9000 FEW022 31/23 Q1011 NOSIG=
11/09/2017 03:00:00Z	 SAID31 WIII 110300	METAR WIII 110300Z VRB03KT 9000 FEW022 31/22 Q1011 NOSIG=
11/09/2017 03:30:00Z	 SAID31 WIII 110330	METAR WIII 110330Z VRB02KT 9000 FEW022 31/22 Q1011 NOSIG=
11/09/2017 04:00:00Z	 SAID31 WIII 110400	METAR WIII 110400Z VRB03KT 8000 FEW022 32/22 Q1010 NOSIG=
11/09/2017 04:30:00Z	 SAID31 WIII 110430	METAR WIII 110430Z VRB03KT 8000 FEW022 31/24 Q1010 NOSIG=
11/09/2017 05:00:00Z	 SAID31 WIII 110500	METAR WIII 110500Z VRB04KT 8000 FEW020 32/23 Q1010 NOSIG=
11/09/2017 05:30:00Z	 SAID31 WIII 110530	METAR WIII 110530Z 34008KT 8000 FEW022 32/23 Q1009 NOSIG=
11/09/2017 06:00:00Z	 SAID31 WIII 110600	METAR WIII 110600Z 35008KT 8000 FEW022 32/23 Q1009 NOSIG=
11/09/2017 06:30:00Z	 SAID31 WIII 110630	METAR WIII 110630Z 34009KT 7000 FEW022 32/24 Q1008 NOSIG=
11/09/2017 07:00:00Z	 SAID31 WIII 110700	METAR WIII 110700Z 35010KT 8000 FEW022 32/24 Q1008 NOSIG=
11/09/2017 07:30:00Z	 SAID31 WIII 110730	METAR WIII 110730Z 34009KT 300V030 8000 FEW022 32/24 Q1008 NOSIG=
11/09/2017 08:00:00Z	 SAID31 WIII 110800	METAR WIII 110800Z 34009KT 310V020 9999 FEW022 31/24 Q1008 NOSIG=
11/09/2017 08:30:00Z	 SAID31 WIII 110830	METAR WIII 110830Z 34005G15KT 8000 FEW022 31/24 Q1008 NOSIG=
11/09/2017 09:00:00Z	 SAID31 WIII 110900	METAR WIII 110900Z 34009KT 8000 SCT022 31/24 Q1008 NOSIG=
11/09/2017 09:30:00Z	 SAID31 WIII 110930	METAR WIII 110930Z 35010KT 8000 BKN022 30/25 Q1008 NOSIG=
11/09/2017 10:00:00Z	 SAID31 WIII 111000	METAR WIII 111000Z 34009KT 8000 BKN022 30/25 Q1008 NOSIG=
11/09/2017 10:30:00Z	 SAID31 WIII 111030	METAR WIII 111030Z 35009KT 8000 BKN022 30/25 Q1008 NOSIG=
11/09/2017 11:00:00Z	 SAID31 WIII 111100	METAR WIII 111100Z 34008KT 7000 BKN022 29/25 Q1008 NOSIG=
11/09/2017 11:30:00Z	 SAID31 WIII 111130	METAR WIII 111130Z 33006KT 7000 SCT020 29/25 Q1009 NOSIG=
11/09/2017 12:00:00Z	 SAID31 WIII 111200	METAR WIII 111200Z 33005KT 6000 SCT020 29/25 Q1009 NOSIG=
11/09/2017 12:30:00Z	 SAID31 WIII 111230	METAR WIII 111230Z VRB04KT 7000 SCT022 29/25 Q1010 NOSIG=
11/09/2017 13:00:00Z	 SAID31 WIII 111300	METAR WIII 111300Z VRB03KT 6000 FEW020 29/25 Q1010 NOSIG=
11/09/2017 13:30:00Z	 SAID31 WIII 111330	METAR WIII 111330Z 33003KT 6000 FEW020 29/25 Q1010 NOSIG=
11/09/2017 14:00:00Z	 SAID31 WIII 111400	METAR WIII 111400Z 33004KT 6000 FEW020 29/25 Q1010 NOSIG=
11/09/2017 14:30:00Z	 SAID31 WIII 111430	METAR WIII 111430Z VRB04KT 6000 FEW020 28/25 Q1010 NOSIG=
11/09/2017 15:00:00Z	 SAID31 WIII 111500	METAR WIII 111500Z VRB04KT 5000 HZ FEW020 28/25 Q1010 NOSIG=
11/09/2017 15:30:00Z	 SAID31 WIII 111530	METAR WIII 111530Z VRB03KT 5000 HZ FEW020 28/25 Q1011 NOSIG=
11/09/2017 16:00:00Z	 SAID31 WIII 111600	METAR WIII 111600Z 29003KT 5000 HZ FEW018 28/25 Q1011 NOSIG=
11/09/2017 16:30:00Z	 SAID31 WIII 111630	METAR WIII 111630Z 32004KT 5000 HZ FEW018 28/25 Q1010 NOSIG=
11/09/2017 17:00:00Z	 SAID31 WIII 111700	METAR WIII 111700Z 30003KT 5000 HZ FEW018 28/25 Q1010 NOSIG=
11/09/2017 17:30:00Z	 SAID31 WIII 111730	METAR WIII 111730Z VRB03KT 5000 HZ FEW018 28/25 Q1010 NOSIG=
11/09/2017 18:00:00Z	 SAID31 WIII 111800	METAR WIII 111800Z VRB02KT 5000 HZ SCT020 28/25 Q1010 NOSIG=
11/09/2017 18:30:00Z	 SAID31 WIII 111830	METAR WIII 111830Z 34003KT 5000 HZ SCT020 28/25 Q1010 NOSIG=
11/09/2017 19:00:00Z	 SAID31 WIII 111900	METAR WIII 111900Z 36005KT 5000 HZ SCT020 28/24 Q1010 NOSIG=
11/09/2017 19:30:00Z	 SAID31 WIII 111930	METAR WIII 111930Z VRB03KT 5000 HZ SCT020 27/24 Q1010 NOSIG=
11/09/2017 20:00:00Z	 SAID31 WIII 112000	METAR WIII 112000Z VRB03KT 3900 HZ SCT019 27/24 Q1010 NOSIG=
11/09/2017 20:30:00Z	 SAID31 WIII 112030	METAR WIII 112030Z VRB02KT 4000 HZ SCT020 27/24 Q1010 NOSIG=
11/09/2017 21:00:00Z	 SAID31 WIII 112100	METAR WIII 112100Z 18003KT 4000 HZ SCT020 27/24 Q1010 NOSIG=
11/09/2017 21:30:00Z	 SAID31 WIII 112130	METAR WIII 112130Z 21003KT 3500 HZ SCT021 27/24 Q1010 NOSIG=
11/09/2017 22:00:00Z	 SAID31 WIII 112200	METAR WIII 112200Z 17003KT 4000 HZ SCT021 27/23 Q1011 NOSIG=
11/09/2017 22:30:00Z	 SAID31 WIII 112230	METAR WIII 112230Z VRB02KT 4500 HZ SCT021 26/23 Q1011 NOSIG=
11/09/2017 23:00:00Z	 SAID31 WIII 112300	METAR WIII 112300Z 20003KT 4000 HZ SCT021 26/23 Q1011 NOSIG=
11/09/2017 23:30:00Z	 SAID31 WIII 112330	METAR WIII 112330Z 18006KT 5000 HZ FEW018 27/23 Q1012 NOSIG=
12/09/2017 00:00:00Z	 SAID31 WIII 120000	METAR WIII 120000Z 16004KT 5000 HZ FEW020 27/23 Q1012 NOSIG=
12/09/2017 00:30:00Z	 SAID31 WIII 120030	METAR WIII 120030Z 17004KT 5000 HZ FEW020 29/23 Q1012 NOSIG=
12/09/2017 01:00:00Z	 SAID31 WIII 120100	METAR WIII 120100Z VRB02KT 5000 HZ FEW020 29/23 Q1012 NOSIG=
12/09/2017 01:30:00Z	 SAID31 WIII 120130	METAR WIII 120130Z VRB02KT 6000 FEW020 30/23 Q1012 NOSIG=
12/09/2017 02:00:00Z	 SAID31 WIII 120200	METAR WIII 120200Z VRB04KT 6000 FEW020 30/23 Q1012 NOSIG=
12/09/2017 02:30:00Z	 SAID31 WIII 120230	METAR WIII 120230Z VRB02KT 6000 SCT020 31/21 Q1012 NOSIG=
12/09/2017 03:00:00Z	 SAID31 WIII 120300	METAR WIII 120300Z VRB04KT 7000 SCT020 31/21 Q1011 NOSIG=
12/09/2017 03:30:00Z	 SAID31 WIII 120330	METAR WIII 120330Z VRB04KT 8000 SCT020 32/22 Q1011 NOSIG=
12/09/2017 04:00:00Z	 SAID31 WIII 120400	METAR WIII 120400Z VRB05KT 8000 SCT020 32/21 Q1011 NOSIG=
12/09/2017 04:30:00Z	 SAID31 WIII 120430	METAR WIII 120430Z 32006KT 270V020 8000 SCT020 32/21 Q1010 NOSIG=
12/09/2017 05:00:00Z	 SAID31 WIII 120500	METAR WIII 120500Z 33008KT 8000 SCT020 32/22 Q1010 NOSIG=
12/09/2017 05:30:00Z	 SAID31 WIII 120530	METAR WIII 120530Z 35009KT 8000 SCT020 32/22 Q1009 NOSIG=
12/09/2017 06:00:00Z	 SAID31 WIII 120600	METAR WIII 120600Z 32010KT 8000 FEW020 32/21 Q1009 NOSIG=
12/09/2017 06:30:00Z	 SAID31 WIII 120630	METAR WIII 120630Z 36010KT 320V030 8000 FEW020 32/22 Q1009 NOSIG=
12/09/2017 07:00:00Z	 SAID31 WIII 120700	METAR WIII 120700Z 34011KT 8000 FEW020 32/23 Q1009 NOSIG=
12/09/2017 07:30:00Z	 SAID31 WIII 120730	METAR WIII 120730Z 35010KT 8000 FEW020 31/23 Q1008 NOSIG=
12/09/2017 08:00:00Z	 SAID31 WIII 120800	METAR WIII 120800Z 35010KT 330V030 8000 FEW020 31/23 Q1008 NOSIG=
12/09/2017 08:30:00Z	 SAID31 WIII 120830	METAR WIII 120830Z 34011KT 310V020 8000 FEW020 31/23 Q1008 NOSIG=
12/09/2017 09:00:00Z	 SAID31 WIII 120900	METAR WIII 120900Z 34010G17KT 320V030 8000 FEW020 30/23 Q1008 NOSIG=
12/09/2017 09:30:00Z	 SAID31 WIII 120930	METAR WIII 120930Z 35009KT 8000 FEW020 30/22 Q1008 NOSIG=
12/09/2017 10:30:00Z	 SAID31 WIII 121030	METAR WIII 121030Z 33008KT 310V010 8000 FEW020 29/23 Q1009 NOSIG=
12/09/2017 11:00:00Z	 SAID31 WIII 121100	METAR WIII 121100Z 32006KT 300V010 8000 FEW020 29/23 Q1009 NOSIG=
12/09/2017 11:30:00Z	 SAID31 WIII 121130	METAR WIII 121130Z VRB05KT 8000 FEW018CB SCT020 29/23 Q1009 NOSIG RMK CB TO S=
12/09/2017 12:00:00Z	 SAID31 WIII 121200	METAR WIII 121200Z VRB05KT 8000 FEW018CB SCT020 29/23 Q1010 NOSIG RMK CB TO S=
12/09/2017 12:30:00Z	 SAID31 WIII 121230	METAR WIII 121230Z VRB04KT 8000 SCT020 29/23 Q1010 NOSIG=
12/09/2017 13:00:00Z	 SAID31 WIII 121300	METAR WIII 121300Z VRB04KT 7000 SCT020 29/23 Q1011 NOSIG=
12/09/2017 13:30:00Z	 SAID31 WIII 121330	METAR WIII 121330Z 23004KT 7000 SCT020 28/23 Q1011 NOSIG=
12/09/2017 14:00:00Z	 SAID31 WIII 121400	METAR WIII 121400Z 16005KT 8000 SCT022 27/21 Q1011 NOSIG=
12/09/2017 14:30:00Z	 SAID31 WIII 121430	METAR WIII 121430Z VRB04KT 8000 SCT022 27/21 Q1011 NOSIG=
12/09/2017 15:00:00Z	 SAID31 WIII 121500	METAR WIII 121500Z 13007KT 8000 SCT022 27/20 Q1011 NOSIG=
12/09/2017 15:30:00Z	 SAID31 WIII 121530	METAR WIII 121530Z 14009KT 8000 FEW022 26/20 Q1011 NOSIG=
12/09/2017 16:30:00Z	 SAID31 WIII 121630	METAR WIII 121630Z 13006KT 8000 SCT020 26/20 Q1012 NOSIG=
12/09/2017 17:00:00Z	 SAID31 WIII 121700	METAR WIII 121700Z 13004KT 8000 SCT020 26/20 Q1011 NOSIG=
12/09/2017 17:30:00Z	 SAID31 WIII 121730	METAR WIII 121730Z 14006KT 8000 SCT020 26/20 Q1011 NOSIG=
12/09/2017 18:00:00Z	 SAID31 WIII 121800	METAR WIII 121800Z VRB02KT 8000 SCT020 26/20 Q1011 NOSIG=
12/09/2017 18:30:00Z	 SAID31 WIII 121830	METAR WIII 121830Z 17003KT 8000 SCT020 26/19 Q1011 NOSIG=
12/09/2017 19:00:00Z	 SAID31 WIII 121900	METAR WIII 121900Z 18003KT 8000 SCT020 26/19 Q1010 NOSIG=
12/09/2017 19:30:00Z	 SAID31 WIII 121930	METAR WIII 121930Z 20003KT 8000 SCT020 25/20 Q1010 NOSIG=
12/09/2017 20:00:00Z	 SAID31 WIII 122000	METAR WIII 122000Z 20004KT 7000 SCT020 25/20 Q1010 NOSIG=
12/09/2017 20:30:00Z	 SAID31 WIII 122030	METAR WIII 122030Z VRB02KT 7000 SCT020 25/20 Q1010 NOSIG=
12/09/2017 21:00:00Z	 SAID31 WIII 122100	METAR WIII 122100Z 17004KT 7000 SCT020 24/20 Q1010 NOSIG=
12/09/2017 21:30:00Z	 SAID31 WIII 122130	METAR WIII 122130Z 16002KT 7000 SCT020 24/20 Q1010 NOSIG=
12/09/2017 22:00:00Z	 SAID31 WIII 122200	METAR WIII 122200Z 20003KT 5000 BR SCT020 24/20 Q1010 NOSIG=
12/09/2017 22:30:00Z	 SAID31 WIII 122230	METAR WIII 122230Z VRB02KT 5000 BR FEW022 24/20 Q1010 NOSIG=
12/09/2017 23:00:00Z	 SAID31 WIII 122300	METAR WIII 122300Z 16002KT 7000 FEW022 24/20 Q1011 NOSIG=
12/09/2017 23:30:00Z	 SAID31 WIII 122330	METAR WIII 122330Z 15003KT 7000 FEW022 24/20 Q1011 NOSIG=
13/09/2017 00:00:00Z	 SAID31 WIII 130000	METAR WIII 130000Z 18002KT 6000 FEW022 25/20 Q1011 NOSIG=
13/09/2017 00:30:00Z	 SAID31 WIII 130030	METAR WIII 130030Z VRB05KT 6000 FEW022 26/21 Q1012 NOSIG=
13/09/2017 01:00:00Z	 SAID31 WIII 130100	METAR WIII 130100Z 17005KT 6000 FEW022 27/20 Q1012 NOSIG=
13/09/2017 01:30:00Z	 SAID31 WIII 130130	METAR WIII 130130Z 17005KT 6000 FEW022 28/21 Q1012 NOSIG=
13/09/2017 02:00:00Z	 SAID31 WIII 130200	METAR WIII 130200Z 16004KT 6000 FEW022 29/21 Q1012 NOSIG=
13/09/2017 02:30:00Z	 SAID31 WIII 130230	METAR WIII 130230Z VRB04KT 6000 FEW022 30/21 Q1012 NOSIG=
13/09/2017 03:00:00Z	 SAID31 WIII 130300	METAR WIII 130300Z VRB03KT 7000 FEW022 31/20 Q1011 NOSIG=
13/09/2017 03:30:00Z	 SAID31 WIII 130330	METAR WIII 130330Z VRB03KT 8000 FEW023 32/19 Q1011 NOSIG=
13/09/2017 04:00:00Z	 SAID31 WIII 130400	METAR WIII 130400Z VRB04KT 8000 FEW023 32/19 Q1010 NOSIG=
13/09/2017 04:30:00Z	 SAID31 WIII 130430	METAR WIII 130430Z VRB06KT 8000 FEW023 33/20 Q1010 NOSIG=
13/09/2017 05:00:00Z	 SAID31 WIII 130500	METAR WIII 130500Z 01013KT 340V040 8000 FEW023 32/20 Q1009 NOSIG=
13/09/2017 05:30:00Z	 SAID31 WIII 130530	METAR WIII 130530Z 35010KT 310V020 9999 FEW023 31/20 Q1009 NOSIG=
13/09/2017 06:00:00Z	 SAID31 WIII 130600	METAR WIII 130600Z 34014KT 320V030 9999 FEW023 32/20 Q1009 NOSIG=
13/09/2017 06:30:00Z	 SAID31 WIII 130630	METAR WIII 130630Z 35012KT 320V020 9999 FEW023 31/20 Q1008 NOSIG=
13/09/2017 07:00:00Z	 SAID31 WIII 130700	METAR WIII 130700Z 35009KT 320V020 9999 FEW022 32/20 Q1008 NOSIG=
13/09/2017 07:30:00Z	 SAID31 WIII 130730	METAR WIII 130730Z 36010KT 9999 FEW022 32/20 Q1008 NOSIG=
13/09/2017 08:00:00Z	 SAID31 WIII 130800	METAR WIII 130800Z 33009KT 300V010 9999 FEW022 32/20 Q1008 NOSIG=
13/09/2017 08:30:00Z	 SAID31 WIII 130830	METAR WIII 130830Z 34009KT 310V020 CAVOK 31/22 Q1008 NOSIG=
13/09/2017 09:00:00Z	 SAID31 WIII 130900	METAR WIII 130900Z 36008KT 300V030 9999 FEW022 31/21 Q1008 NOSIG=
13/09/2017 09:30:00Z	 SAID31 WIII 130930	METAR WIII 130930Z 36008KT 320V030 CAVOK 30/21 Q1008 NOSIG=
13/09/2017 10:00:00Z	 SAID31 WIII 131000	METAR WIII 131000Z 36008KT 300V020 CAVOK 30/21 Q1009 NOSIG=
13/09/2017 10:30:00Z	 SAID31 WIII 131030	METAR WIII 131030Z 01006KT 9000 FEW023 29/22 Q1009 NOSIG=
13/09/2017 11:00:00Z	 SAID31 WIII 131100	METAR WIII 131100Z 01006KT 9000 FEW023 29/21 Q1009 NOSIG=
13/09/2017 11:30:00Z	 SAID31 WIII 131130	METAR WIII 131130Z VRB05KT 9000 FEW022 29/22 Q1010 NOSIG=
13/09/2017 12:00:00Z	 SAID31 WIII 131200	METAR WIII 131200Z VRB05KT 8000 FEW022 28/22 Q1010 NOSIG=
13/09/2017 12:30:00Z	 SAID31 WIII 131230	METAR WIII 131230Z VRB05KT 8000 FEW022 29/21 Q1011 NOSIG=
13/09/2017 13:00:00Z	 SAID31 WIII 131300	METAR WIII 131300Z VRB03KT 8000 FEW022 28/21 Q1011 NOSIG=
13/09/2017 13:30:00Z	 SAID31 WIII 131330	METAR WIII 131330Z VRB02KT 7000 FEW022 28/21 Q1011 NOSIG=
13/09/2017 14:00:00Z	 SAID31 WIII 131400	METAR WIII 131400Z 10002KT 6000 FEW022 27/22 Q1011 NOSIG=
13/09/2017 14:30:00Z	 SAID31 WIII 131430	METAR WIII 131430Z 10001KT 6000 FEW022 28/22 Q1011 NOSIG=
13/09/2017 15:00:00Z	 SAID31 WIII 131500	METAR WIII 131500Z VRB02KT 5000 HZ FEW022 27/22 Q1011 NOSIG=
13/09/2017 15:30:00Z	 SAID31 WIII 131530	METAR WIII 131530Z VRB02KT 5000 HZ FEW022 27/22 Q1011 NOSIG=
13/09/2017 16:00:00Z	 SAID31 WIII 131600	METAR WIII 131600Z VRB02KT 5000 HZ FEW022 27/22 Q1011 NOSIG=
13/09/2017 16:30:00Z	 SAID31 WIII 131630	METAR WIII 131630Z VRB02KT 5000 HZ FEW022 27/22 Q1011 NOSIG=
13/09/2017 17:00:00Z	 SAID31 WIII 131700	METAR WIII 131700Z VRB02KT 5000 HZ FEW022 26/22 Q1010 NOSIG=
13/09/2017 17:30:00Z	 SAID31 WIII 131730	METAR WIII 131730Z 11002KT 5000 HZ FEW022 26/22 Q1010 NOSIG=
13/09/2017 18:00:00Z	 SAID31 WIII 131800	METAR WIII 131800Z 08002KT 5000 HZ FEW022 26/22 Q1010 NOSIG=
13/09/2017 18:30:00Z	 SAID31 WIII 131830	METAR WIII 131830Z 00000KT 4500 HZ FEW022 26/22 Q1010 NOSIG=
13/09/2017 19:00:00Z	 SAID31 WIII 131900	METAR WIII 131900Z 22004KT 2500 HZ FEW022 25/23 Q1010 NOSIG=
13/09/2017 19:30:00Z	 SAID31 WIII 131930	METAR WIII 131930Z VRB02KT 2400 HZ FEW022 25/23 Q1010 NOSIG=
13/09/2017 20:00:00Z	 SAID31 WIII 132000	METAR WIII 132000Z 22003KT 2600 HZ FEW022 25/22 Q1010 NOSIG=
13/09/2017 21:00:00Z	 SAID31 WIII 132100	METAR WIII 132100Z 18003KT 2700 HZ FEW022 25/23 Q1010 NOSIG=
13/09/2017 21:30:00Z	 SAID31 WIII 132130	METAR WIII 132130Z 18003KT 3100 HZ FEW022 25/23 Q1010 NOSIG=
13/09/2017 22:00:00Z	 SAID31 WIII 132200	METAR WIII 132200Z 20003KT 3000 HZ FEW022 25/22 Q1010 NOSIG=
13/09/2017 22:30:00Z	 SAID31 WIII 132230	METAR WIII 132230Z 17003KT 4000 HZ FEW022 25/22 Q1010 NOSIG=
13/09/2017 23:00:00Z	 SAID31 WIII 132300	METAR WIII 132300Z 17002KT 4000 HZ FEW022 25/22 Q1011 NOSIG=
13/09/2017 23:30:00Z	 SAID31 WIII 132330	METAR WIII 132330Z 15003KT 4000 HZ FEW022 25/22 Q1011 NOSIG=
14/09/2017 00:00:00Z	 SAID31 WIII 140000	METAR WIII 140000Z 18003KT 4000 HZ FEW022 26/23 Q1011 NOSIG=
14/09/2017 00:30:00Z	 SAID31 WIII 140030	METAR WIII 140030Z 18004KT 5000 HZ FEW022 27/22 Q1011 NOSIG=
14/09/2017 01:00:00Z	 SAID31 WIII 140100	METAR WIII 140100Z VRB04KT 5000 HZ FEW022 29/22 Q1011 NOSIG=
14/09/2017 01:30:00Z	 SAID31 WIII 140130	METAR WIII 140130Z VRB05KT 6000 FEW022 30/22 Q1011 NOSIG=
14/09/2017 02:00:00Z	 SAID31 WIII 140200	METAR WIII 140200Z VRB05KT 8000 SCT021 30/21 Q1011 NOSIG=
14/09/2017 02:30:00Z	 SAID31 WIII 140230	METAR WIII 140230Z 05007KT 8000 SCT021 31/21 Q1011 NOSIG=
14/09/2017 03:00:00Z	 SAID31 WIII 140300	METAR WIII 140300Z 08007KT 9000 SCT020 31/20 Q1011 NOSIG=
14/09/2017 03:30:00Z	 SAID31 WIII 140330	METAR WIII 140330Z 05008KT 9999 SCT020 32/21 Q1011 NOSIG=
14/09/2017 04:00:00Z	 SAID31 WIII 140400	METAR WIII 140400Z 03009KT 9999 SCT020 32/21 Q1010 NOSIG=
14/09/2017 04:30:00Z	 SAID31 WIII 140430	METAR WIII 140430Z 03010KT 9999 SCT020 32/21 Q1010 NOSIG=
14/09/2017 05:00:00Z	 SAID31 WIII 140500	METAR WIII 140500Z 02009KT 9999 FEW022 32/22 Q1009 NOSIG=
14/09/2017 05:30:00Z	 SAID31 WIII 140530	METAR WIII 140530Z 02010KT 9999 FEW021 32/22 Q1009 NOSIG=
14/09/2017 06:00:00Z	 SAID31 WIII 140600	METAR WIII 140600Z 02009KT 9999 FEW021 32/22 Q1008 NOSIG=
14/09/2017 06:30:00Z	 SAID31 WIII 140630	METAR WIII 140630Z 36010KT 9999 FEW021 32/22 Q1008 NOSIG=
14/09/2017 07:00:00Z	 SAID31 WIII 140700	METAR WIII 140700Z 01010KT 9999 FEW022 32/22 Q1008 NOSIG=
14/09/2017 07:30:00Z	 SAID31 WIII 140730	METAR WIII 140730Z 01010KT 9999 FEW022 32/22 Q1008 NOSIG=
14/09/2017 08:00:00Z	 SAID31 WIII 140800	METAR WIII 140800Z 01011KT 9999 FEW022 32/23 Q1007 NOSIG=
14/09/2017 08:30:00Z	 SAID31 WIII 140830	METAR WIII 140830Z 01011KT 9999 FEW021 31/22 Q1007 NOSIG=
14/09/2017 09:00:00Z	 SAID31 WIII 140900	METAR WIII 140900Z 01010KT 9999 FEW022 31/22 Q1007 NOSIG=
14/09/2017 09:30:00Z	 SAID31 WIII 140930	METAR WIII 140930Z 01009KT 9999 FEW022 30/22 Q1007 NOSIG=
14/09/2017 10:00:00Z	 SAID31 WIII 141000	METAR WIII 141000Z 36006KT 9000 FEW022 30/22 Q1008 NOSIG=
14/09/2017 10:30:00Z	 SAID31 WIII 141030	METAR WIII 141030Z 36006KT 9000 FEW022 29/23 Q1008 NOSIG=
14/09/2017 11:00:00Z	 SAID31 WIII 141100	METAR WIII 141100Z VRB05KT 9000 FEW020 29/23 Q1008 NOSIG=
14/09/2017 11:30:00Z	 SAID31 WIII 141130	METAR WIII 141130Z 35006KT 8000 FEW021 29/23 Q1008 NOSIG=
14/09/2017 12:00:00Z	 SAID31 WIII 141200	METAR WIII 141200Z VRB03KT 8000 FEW021 28/24 Q1009 NOSIG=
14/09/2017 12:30:00Z	 SAID31 WIII 141230	METAR WIII 141230Z VRB02KT 8000 FEW021 28/24 Q1009 NOSIG=
14/09/2017 13:00:00Z	 SAID31 WIII 141300	METAR WIII 141300Z VRB02KT 7000 SCT020 28/24 Q1010 NOSIG=
14/09/2017 13:30:00Z	 SAID31 WIII 141330	METAR WIII 141330Z VRB02KT 7000 FEW022 28/24 Q1010 NOSIG=
14/09/2017 14:00:00Z	 SAID31 WIII 141400	METAR WIII 141400Z VRB02KT 7000 FEW022 28/24 Q1010 NOSIG=
14/09/2017 14:30:00Z	 SAID31 WIII 141430	METAR WIII 141430Z VRB01KT 7000 FEW022 28/24 Q1011 NOSIG=
14/09/2017 15:00:00Z	 SAID31 WIII 141500	METAR WIII 141500Z VRB01KT 9000 FEW023 28/24 Q1011 NOSIG=
14/09/2017 15:30:00Z	 SAID31 WIII 141530	METAR WIII 141530Z 22002KT 4200 HZ FEW022 27/24 Q1011 NOSIG=
14/09/2017 16:00:00Z	 SAID31 WIII 141600	METAR WIII 141600Z 21002KT 4800 HZ FEW023 27/24 Q1010 NOSIG=
14/09/2017 16:30:00Z	 SAID31 WIII 141630	METAR WIII 141630Z 22003KT 6000 FEW023 27/24 Q1010 NOSIG=
14/09/2017 17:30:00Z	 SAID31 WIII 141730	METAR WIII 141730Z 22003KT 5000 HZ FEW024 27/24 Q1010 NOSIG=
14/09/2017 18:00:00Z	 SAID31 WIII 141800	METAR WIII 141800Z 21003KT 2300 HZ FEW023 27/24 Q1009 NOSIG=
14/09/2017 18:30:00Z	 SAID31 WIII 141830	METAR WIII 141830Z 20003KT 4000 HZ FEW023 27/23 Q1009 NOSIG=
14/09/2017 19:00:00Z	 SAID31 WIII 141900	METAR WIII 141900Z 18002KT 4400 HZ FEW023 27/23 Q1009 NOSIG=
14/09/2017 19:30:00Z	 SAID31 WIII 141930	METAR WIII 141930Z 18002KT 4700 HZ FEW023 26/23 Q1009 NOSIG=
14/09/2017 20:00:00Z	 SAID31 WIII 142000	METAR WIII 142000Z 18002KT 4700 HZ FEW023 26/23 Q1009 NOSIG=
14/09/2017 20:30:00Z	 SAID31 WIII 142030	METAR WIII 142030Z 17003KT 3500 BR FEW023 26/23 Q1009 NOSIG=
14/09/2017 21:00:00Z	 SAID31 WIII 142100	METAR WIII 142100Z 17002KT 3400 BR FEW023 26/23 Q1009 NOSIG=
14/09/2017 21:30:00Z	 SAID31 WIII 142130	METAR WIII 142130Z 16002KT 3300 BR FEW023 26/23 Q1009 NOSIG=
14/09/2017 22:00:00Z	 SAID31 WIII 142200	METAR WIII 142200Z 17002KT 3100 BR FEW023 26/23 Q1009 NOSIG=
14/09/2017 22:30:00Z	 SAID31 WIII 142230	METAR WIII 142230Z 19003KT 2600 BR FEW023 25/24 Q1009 NOSIG=
14/09/2017 23:00:00Z	 SAID31 WIII 142300	METAR WIII 142300Z 18003KT 2500 BR FEW023 26/23 Q1010 NOSIG=
14/09/2017 23:30:00Z	 SAID31 WIII 142330	METAR WIII 142330Z 17003KT 3200 BR FEW023 26/23 Q1010 NOSIG=
15/09/2017 00:00:00Z	 SAID31 WIII 150000	METAR WIII 150000Z 16003KT 3500 HZ FEW023 27/23 Q1010 NOSIG=
15/09/2017 01:00:00Z	 SAID31 WIII 150100	METAR WIII 150100Z VRB04KT 5000 HZ FEW022 29/23 Q1011 NOSIG=
15/09/2017 01:30:00Z	 SAID31 WIII 150130	METAR WIII 150130Z VRB04KT 6000 FEW021 30/22 Q1011 NOSIG=
15/09/2017 02:00:00Z	 SAID31 WIII 150200	METAR WIII 150200Z VRB02KT 8000 FEW021 31/22 Q1011 NOSIG=
15/09/2017 02:30:00Z	 SAID31 WIII 150230	METAR WIII 150230Z VRB04KT 8000 FEW021 32/22 Q1011 NOSIG=
15/09/2017 03:00:00Z	 SAID31 WIII 150300	METAR WIII 150300Z VRB04KT 9000 FEW021 33/21 Q1010 NOSIG=
15/09/2017 03:30:00Z	 SAID31 WIII 150330	METAR WIII 150330Z VRB03KT 9000 FEW021 32/21 Q1010 NOSIG=
15/09/2017 04:00:00Z	 SAID31 WIII 150400	METAR WIII 150400Z 02009KT 340V050 9000 FEW020 32/23 Q1010 NOSIG=
15/09/2017 05:00:00Z	 SAID31 WIII 150500	METAR WIII 150500Z 35010KT 9000 FEW020 32/23 Q1009 NOSIG=
15/09/2017 05:30:00Z	 SAID31 WIII 150530	METAR WIII 150530Z 02009KT 9999 FEW020 33/23 Q1008 NOSIG=
15/09/2017 06:00:00Z	 SAID31 WIII 150600	METAR WIII 150600Z 36009KT 9999 FEW020 32/23 Q1008 NOSIG=
15/09/2017 06:30:00Z	 SAID31 WIII 150630	METAR WIII 150630Z 01010KT 9999 FEW020 32/22 Q1008 NOSIG=
15/09/2017 07:00:00Z	 SAID31 WIII 150700	METAR WIII 150700Z 36010KT 9999 FEW020 32/21 Q1007 NOSIG=
15/09/2017 07:30:00Z	 SAID31 WIII 150730	METAR WIII 150730Z 01010KT 9999 FEW020 32/22 Q1007 NOSIG=
15/09/2017 08:00:00Z	 SAID31 WIII 150800	METAR WIII 150800Z 01010KT 9999 FEW020 32/21 Q1007 NOSIG=
15/09/2017 08:30:00Z	 SAID31 WIII 150830	METAR WIII 150830Z 36009KT 9999 FEW020 32/20 Q1007 NOSIG=
15/09/2017 09:00:00Z	 SAID31 WIII 150900	METAR WIII 150900Z 02009KT 9999 FEW020 32/21 Q1007 NOSIG=
15/09/2017 09:30:00Z	 SAID31 WIII 150930	METAR WIII 150930Z 36008KT 9999 FEW020 31/21 Q1007 NOSIG=
15/09/2017 10:00:00Z	 SAID31 WIII 151000	METAR WIII 151000Z 35007KT 9999 FEW020 30/21 Q1007 NOSIG=
15/09/2017 10:30:00Z	 SAID31 WIII 151030	METAR WIII 151030Z VRB05KT 9999 FEW020 30/21 Q1008 NOSIG=
15/09/2017 11:00:00Z	 SAID31 WIII 151100	METAR WIII 151100Z VRB04KT 9000 FEW020 29/21 Q1008 NOSIG=
15/09/2017 11:30:00Z	 SAID31 WIII 151130	METAR WIII 151130Z VRB03KT 9000 FEW020 29/22 Q1008 NOSIG=
15/09/2017 12:00:00Z	 SAID31 WIII 151200	METAR WIII 151200Z 35003KT 9000 FEW020 29/22 Q1008 NOSIG=
15/09/2017 12:30:00Z	 SAID31 WIII 151230	METAR WIII 151230Z 01003KT 8000 FEW020 29/22 Q1009 NOSIG=
15/09/2017 13:00:00Z	 SAID31 WIII 151300	METAR WIII 151300Z VRB02KT 8000 FEW020 29/22 Q1009 NOSIG=
15/09/2017 13:30:00Z	 SAID31 WIII 151330	METAR WIII 151330Z VRB02KT 8000 FEW020 29/22 Q1010 NOSIG=
15/09/2017 14:00:00Z	 SAID31 WIII 151400	METAR WIII 151400Z 32002KT 8000 FEW020 29/22 Q1010 NOSIG=
15/09/2017 14:30:00Z	 SAID31 WIII 151430	METAR WIII 151430Z VRB02KT 8000 FEW020 29/22 Q1010 NOSIG=
15/09/2017 15:00:00Z	 SAID31 WIII 151500	METAR WIII 151500Z 36002KT 8000 FEW020 28/23 Q1010 NOSIG=
15/09/2017 15:30:00Z	 SAID31 WIII 151530	METAR WIII 151530Z VRB03KT 8000 FEW020 29/23 Q1010 NOSIG=
15/09/2017 16:00:00Z	 SAID31 WIII 151600	METAR WIII 151600Z 23004KT 6000 FEW020 26/23 Q1010 NOSIG=
15/09/2017 16:30:00Z	 SAID31 WIII 151630	METAR WIII 151630Z 22004KT 5000 HZ FEW020 27/24 Q1010 NOSIG=
15/09/2017 17:00:00Z	 SAID31 WIII 151700	METAR WIII 151700Z 23005KT 5000 HZ FEW020 26/23 Q1010 NOSIG=
15/09/2017 17:30:00Z	 SAID31 WIII 151730	METAR WIII 151730Z 23004KT 5000 HZ FEW020 26/23 Q1010 NOSIG=
15/09/2017 18:00:00Z	 SAID31 WIII 151800	METAR WIII 151800Z 22003KT 5000 HZ FEW020 26/23 Q1010 NOSIG=
15/09/2017 18:30:00Z	 SAID31 WIII 151830	METAR WIII 151830Z 22003KT 5000 HZ FEW020 26/23 Q1010 NOSIG=
15/09/2017 19:00:00Z	 SAID31 WIII 151900	METAR WIII 151900Z 21004KT 5000 HZ SCT020 26/23 Q1009 NOSIG=
15/09/2017 19:30:00Z	 SAID31 WIII 151930	METAR WIII 151930Z 21005KT 5000 HZ SCT020 26/23 Q1009 NOSIG=
15/09/2017 20:00:00Z	 SAID31 WIII 152000	METAR WIII 152000Z 20004KT 5000 HZ SCT020 26/23 Q1009 NOSIG=
15/09/2017 20:30:00Z	 SAID31 WIII 152030	METAR WIII 152030Z VRB03KT 4600 HZ FEW020 26/23 Q1009 NOSIG=
15/09/2017 21:00:00Z	 SAID31 WIII 152100	METAR WIII 152100Z 19003KT 4500 HZ FEW020 26/23 Q1010 NOSIG=
15/09/2017 21:30:00Z	 SAID31 WIII 152130	METAR WIII 152130Z 21002KT 4200 BR FEW020 25/23 Q1010 NOSIG=
15/09/2017 22:00:00Z	 SAID31 WIII 152200	METAR WIII 152200Z 19003KT 4200 HZ FEW020 25/23 Q1010 NOSIG=
15/09/2017 22:30:00Z	 SAID31 WIII 152230	METAR WIII 152230Z 20002KT 4200 HZ SCT020 26/23 Q1010 NOSIG=
15/09/2017 23:00:00Z	 SAID31 WIII 152300	METAR WIII 152300Z 19003KT 4000 HZ SCT020 26/23 Q1011 NOSIG=
15/09/2017 23:30:00Z	 SAID31 WIII 152330	METAR WIII 152330Z VRB02KT 3600 HZ SCT020 26/23 Q1011 NOSIG=
16/09/2017 00:00:00Z	 SAID31 WIII 160000	METAR WIII 160000Z 19004KT 3500 HZ FEW020 27/23 Q1011 NOSIG=
16/09/2017 00:30:00Z	 SAID31 WIII 160030	METAR WIII 160030Z VRB04KT 3900 HZ FEW020 28/23 Q1012 NOSIG=
16/09/2017 01:00:00Z	 SAID31 WIII 160100	METAR WIII 160100Z VRB04KT 4300 HZ FEW022 29/23 Q1012 NOSIG=
16/09/2017 01:30:00Z	 SAID31 WIII 160130	METAR WIII 160130Z VRB04KT 6000 FEW022 30/23 Q1012 NOSIG=
16/09/2017 02:00:00Z	 SAID31 WIII 160200	METAR WIII 160200Z VRB02KT 7000 FEW020 31/22 Q1012 NOSIG=
16/09/2017 02:30:00Z	 SAID31 WIII 160230	METAR WIII 160230Z VRB03KT 8000 FEW020 32/21 Q1012 NOSIG=
16/09/2017 03:00:00Z	 SAID31 WIII 160300	METAR WIII 160300Z VRB03KT 8000 SCT020 33/21 Q1011 NOSIG=
16/09/2017 03:30:00Z	 SAID31 WIII 160330	METAR WIII 160330Z VRB05KT 8000 FEW020 33/21 Q1011 NOSIG=
16/09/2017 04:00:00Z	 SAID31 WIII 160400	METAR WIII 160400Z 03008KT 350V070 9000 FEW020 33/21 Q1010 NOSIG=
16/09/2017 04:30:00Z	 SAID31 WIII 160430	METAR WIII 160430Z 02010KT 9000 FEW020 34/21 Q1010 NOSIG=
16/09/2017 05:00:00Z	 SAID31 WIII 160500	METAR WIII 160500Z 03013KT 9000 FEW020 34/21 Q1010 NOSIG=
16/09/2017 06:00:00Z	 SAID31 WIII 160600	METAR WIII 160600Z 01013KT 9999 FEW020 33/22 Q1009 NOSIG=
16/09/2017 06:30:00Z	 SAID31 WIII 160630	METAR WIII 160630Z 02015KT 350V050 9999 FEW020 33/21 Q1009 NOSIG=
16/09/2017 07:00:00Z	 SAID31 WIII 160700	METAR WIII 160700Z 02017KT 9999 FEW020 33/21 Q1008 NOSIG=
16/09/2017 07:30:00Z	 SAID31 WIII 160730	METAR WIII 160730Z 04015KT 9999 FEW020 33/21 Q1008 NOSIG=
16/09/2017 08:00:00Z	 SAID31 WIII 160800	METAR WIII 160800Z 05019KT 9999 FEW020 33/21 Q1008 NOSIG=
16/09/2017 08:30:00Z	 SAID31 WIII 160830	METAR WIII 160830Z 05017KT 9999 FEW020 33/20 Q1008 NOSIG=
16/09/2017 09:00:00Z	 SAID31 WIII 160900	METAR WIII 160900Z 06018KT 9999 FEW021 32/20 Q1008 NOSIG=
16/09/2017 09:30:00Z	 SAID31 WIII 160930	METAR WIII 160930Z 05018KT 9999 FEW021 32/21 Q1008 NOSIG=
16/09/2017 10:00:00Z	 SAID31 WIII 161000	METAR WIII 161000Z 04014KT 9999 FEW021 31/21 Q1008 NOSIG=
16/09/2017 10:30:00Z	 SAID31 WIII 161030	METAR WIII 161030Z 05012KT 9000 FEW020 30/21 Q1009 NOSIG=
16/09/2017 11:00:00Z	 SAID31 WIII 161100	METAR WIII 161100Z 06013KT 8000 FEW021 30/20 Q1009 NOSIG=
16/09/2017 11:30:00Z	 SAID31 WIII 161130	METAR WIII 161130Z 06013KT 7000 FEW021 30/20 Q1010 NOSIG=
16/09/2017 12:00:00Z	 SAID31 WIII 161200	METAR WIII 161200Z 07011KT 7000 FEW021 30/20 Q1010 NOSIG=
16/09/2017 12:30:00Z	 SAID31 WIII 161230	METAR WIII 161230Z 07012KT 7000 FEW021 29/21 Q1011 NOSIG=
16/09/2017 13:00:00Z	 SAID31 WIII 161300	METAR WIII 161300Z 06009KT 7000 FEW020 29/21 Q1011 NOSIG=
16/09/2017 13:30:00Z	 SAID31 WIII 161330	METAR WIII 161330Z 07008KT 7000 FEW020 29/22 Q1011 NOSIG=
16/09/2017 14:00:00Z	 SAID31 WIII 161400	METAR WIII 161400Z 08007KT 6000 FEW020 29/22 Q1012 NOSIG=
16/09/2017 14:30:00Z	 SAID31 WIII 161430	METAR WIII 161430Z 09004KT 6000 FEW020 29/21 Q1012 NOSIG=
16/09/2017 15:00:00Z	 SAID31 WIII 161500	METAR WIII 161500Z 09004KT 6000 FEW020 29/22 Q1012 NOSIG=
16/09/2017 15:30:00Z	 SAID31 WIII 161530	METAR WIII 161530Z 09006KT 6000 FEW020 29/22 Q1012 NOSIG=
16/09/2017 16:00:00Z	 SAID31 WIII 161600	METAR WIII 161600Z 11003KT 6000 FEW020 29/22 Q1012 NOSIG=
16/09/2017 16:30:00Z	 SAID31 WIII 161630	METAR WIII 161630Z 11003KT 5000 HZ FEW020 28/22 Q1012 NOSIG=
16/09/2017 17:00:00Z	 SAID31 WIII 161700	METAR WIII 161700Z VRB02KT 5000 HZ FEW020 28/23 Q1012 NOSIG=
16/09/2017 17:30:00Z	 SAID31 WIII 161730	METAR WIII 161730Z VRB02KT 5000 HZ FEW018 28/23 Q1012 NOSIG=
16/09/2017 18:00:00Z	 SAID31 WIII 161800	METAR WIII 161800Z 19002KT 5000 HZ FEW018 28/22 Q1011 NOSIG=
16/09/2017 18:30:00Z	 SAID31 WIII 161830	METAR WIII 161830Z 20002KT 5000 HZ FEW018 27/22 Q1011 NOSIG=
16/09/2017 19:00:00Z	 SAID31 WIII 161900	METAR WIII 161900Z 21003KT 5000 HZ FEW018 27/22 Q1011 NOSIG=
16/09/2017 19:30:00Z	 SAID31 WIII 161930	METAR WIII 161930Z 21002KT 5000 HZ SCT020 26/22 Q1011 NOSIG=
16/09/2017 20:00:00Z	 SAID31 WIII 162000	METAR WIII 162000Z 21002KT 5000 HZ SCT020 26/23 Q1011 NOSIG=
16/09/2017 20:30:00Z	 SAID31 WIII 162030	METAR WIII 162030Z 21003KT 5000 HZ SCT020 26/23 Q1011 NOSIG=
16/09/2017 21:00:00Z	 SAID31 WIII 162100	METAR WIII 162100Z 22002KT 5000 HZ SCT020 25/23 Q1011 NOSIG=
16/09/2017 21:30:00Z	 SAID31 WIII 162130	METAR WIII 162130Z 20001KT 5000 HZ SCT020 26/23 Q1011 NOSIG=
16/09/2017 22:00:00Z	 SAID31 WIII 162200	METAR WIII 162200Z 16003KT 5000 HZ FEW020 26/23 Q1011 NOSIG=
16/09/2017 22:30:00Z	 SAID31 WIII 162230	METAR WIII 162230Z 18002KT 5000 HZ FEW020 26/23 Q1011 NOSIG=
16/09/2017 23:00:00Z	 SAID31 WIII 162300	METAR WIII 162300Z VRB02KT 5000 HZ FEW020 25/23 Q1012 NOSIG=
16/09/2017 23:30:00Z	 SAID31 WIII 162330	METAR WIII 162330Z 18004KT 5000 HZ FEW020 26/23 Q1012 NOSIG=
17/09/2017 00:00:00Z	 SAID31 WIII 170000	METAR WIII 170000Z VRB03KT 5000 HZ FEW020 27/23 Q1012 NOSIG=
17/09/2017 00:30:00Z	 SAID31 WIII 170030	METAR WIII 170030Z VRB04KT 5000 HZ FEW020 28/22 Q1012 NOSIG=
17/09/2017 01:00:00Z	 SAID31 WIII 170100	METAR WIII 170100Z 18005KT 6000 FEW020 29/22 Q1013 NOSIG=
17/09/2017 01:30:00Z	 SAID31 WIII 170130	METAR WIII 170130Z VRB03KT 6000 FEW020 30/22 Q1013 NOSIG=
17/09/2017 02:00:00Z	 SAID31 WIII 170200	METAR WIII 170200Z VRB03KT 7000 FEW020 31/22 Q1013 NOSIG=
17/09/2017 02:30:00Z	 SAID31 WIII 170230	METAR WIII 170230Z VRB05KT 8000 FEW020 32/21 Q1013 NOSIG=
17/09/2017 03:00:00Z	 SAID31 WIII 170300	METAR WIII 170300Z 13006KT 100V200 8000 FEW020 33/20 Q1013 NOSIG=
17/09/2017 03:30:00Z	 SAID31 WIII 170330	METAR WIII 170330Z 04006KT 360V090 8000 FEW020 33/21 Q1012 NOSIG=
17/09/2017 04:00:00Z	 SAID31 WIII 170400	METAR WIII 170400Z 04008KT 8000 FEW020 33/20 Q1012 NOSIG=
17/09/2017 04:30:00Z	 SAID31 WIII 170430	METAR WIII 170430Z 04008KT 350V070 8000 FEW020 34/20 Q1011 NOSIG=
17/09/2017 05:00:00Z	 SAID31 WIII 170500	METAR WIII 170500Z 04012KT 8000 FEW020 34/21 Q1011 NOSIG=
17/09/2017 05:30:00Z	 SAID31 WIII 170530	METAR WIII 170530Z 03013KT 8000 FEW020 FEW240 34/21 Q1011 NOSIG=
17/09/2017 06:00:00Z	 SAID31 WIII 170600	METAR WIII 170600Z 02013KT 8000 FEW020 33/22 Q1010 NOSIG=
17/09/2017 06:30:00Z	 SAID31 WIII 170630	METAR WIII 170630Z 02011KT 350V050 8000 FEW020 33/22 Q1010 NOSIG=
17/09/2017 07:00:00Z	 SAID31 WIII 170700	METAR WIII 170700Z 02012KT 8000 FEW020 33/22 Q1009 NOSIG=
17/09/2017 07:30:00Z	 SAID31 WIII 170730	METAR WIII 170730Z 02014KT 8000 FEW020 33/21 Q1009 NOSIG=
17/09/2017 08:00:00Z	 SAID31 WIII 170800	METAR WIII 170800Z 02015KT 8000 FEW020 33/21 Q1010 NOSIG=
17/09/2017 08:30:00Z	 SAID31 WIII 170830	METAR WIII 170830Z 03013KT 8000 FEW020 31/22 Q1010 NOSIG=
17/09/2017 09:00:00Z	 SAID31 WIII 170900	METAR WIII 170900Z 03014KT 8000 FEW020 32/22 Q1010 NOSIG=
17/09/2017 09:30:00Z	 SAID31 WIII 170930	METAR WIII 170930Z 03014KT 8000 FEW020 31/23 Q1010 NOSIG=
17/09/2017 10:00:00Z	 SAID31 WIII 171000	METAR WIII 171000Z 04014KT 8000 FEW020 30/23 Q1011 NOSIG=
17/09/2017 10:30:00Z	 SAID31 WIII 171030	METAR WIII 171030Z 04011KT 8000 FEW020 29/23 Q1011 NOSIG=
17/09/2017 11:00:00Z	 SAID31 WIII 171100	METAR WIII 171100Z 04013KT 8000 FEW020 29/23 Q1011 NOSIG=
17/09/2017 11:30:00Z	 SAID31 WIII 171130	METAR WIII 171130Z 04010KT 7000 FEW020 28/24 Q1012 NOSIG=
17/09/2017 12:00:00Z	 SAID31 WIII 171200	METAR WIII 171200Z 05008KT 7000 FEW020 28/24 Q1012 NOSIG=
17/09/2017 12:30:00Z	 SAID31 WIII 171230	METAR WIII 171230Z 06007KT 7000 FEW020 28/24 Q1013 NOSIG=
17/09/2017 13:00:00Z	 SAID31 WIII 171300	METAR WIII 171300Z 07004KT 7000 FEW020 28/23 Q1013 NOSIG=
17/09/2017 13:30:00Z	 SAID31 WIII 171330	METAR WIII 171330Z 09004KT 7000 FEW020 28/23 Q1013 NOSIG=
17/09/2017 14:00:00Z	 SAID31 WIII 171400	METAR WIII 171400Z 10005KT 7000 FEW021 28/23 Q1013 NOSIG=
17/09/2017 14:30:00Z	 SAID31 WIII 171430	METAR WIII 171430Z VRB04KT 7000 FEW021 29/23 Q1013 NOSIG=
17/09/2017 15:00:00Z	 SAID31 WIII 171500	METAR WIII 171500Z 10005KT 7000 FEW021 28/22 Q1013 NOSIG=
17/09/2017 15:30:00Z	 SAID31 WIII 171530	METAR WIII 171530Z 12004KT 7000 FEW021 28/22 Q1013 NOSIG=
17/09/2017 16:00:00Z	 SAID31 WIII 171600	METAR WIII 171600Z 11004KT 7000 FEW021 28/23 Q1013 NOSIG=
17/09/2017 16:30:00Z	 SAID31 WIII 171630	METAR WIII 171630Z 11006KT 7000 FEW021 28/23 Q1013 NOSIG=
17/09/2017 17:00:00Z	 SAID31 WIII 171700	METAR WIII 171700Z 10004KT 7000 FEW021 28/23 Q1013 NOSIG=
17/09/2017 17:30:00Z	 SAID31 WIII 171730	METAR WIII 171730Z 09008KT 7000 FEW021 28/22 Q1013 NOSIG=
17/09/2017 18:00:00Z	 SAID31 WIII 171800	METAR WIII 171800Z 09007KT 7000 FEW021 28/22 Q1012 NOSIG=
17/09/2017 18:30:00Z	 SAID31 WIII 171830	METAR WIII 171830Z 10005KT 7000 FEW021 28/22 Q1012 NOSIG=
17/09/2017 19:00:00Z	 SAID31 WIII 171900	METAR WIII 171900Z 10005KT 6000 FEW021 27/22 Q1012 NOSIG=
17/09/2017 19:30:00Z	 SAID31 WIII 171930	METAR WIII 171930Z 11004KT 6000 FEW021 27/22 Q1012 NOSIG=
17/09/2017 20:00:00Z	 SAID31 WIII 172000	METAR WIII 172000Z 12004KT 6000 FEW021 27/22 Q1012 NOSIG=
17/09/2017 20:30:00Z	 SAID31 WIII 172030	METAR WIII 172030Z 11004KT 6000 FEW021 27/22 Q1011 NOSIG=
17/09/2017 21:00:00Z	 SAID31 WIII 172100	METAR WIII 172100Z 12003KT 6000 FEW021 27/22 Q1011 NOSIG=
17/09/2017 21:30:00Z	 SAID31 WIII 172130	METAR WIII 172130Z 10003KT 6000 FEW021 26/22 Q1012 NOSIG=
17/09/2017 22:00:00Z	 SAID31 WIII 172200	METAR WIII 172200Z 11003KT 6000 FEW021 27/22 Q1012 NOSIG=
17/09/2017 22:30:00Z	 SAID31 WIII 172230	METAR WIII 172230Z VRB02KT 6000 FEW021 26/22 Q1012 NOSIG=
17/09/2017 23:00:00Z	 SAID31 WIII 172300	METAR WIII 172300Z 07004KT 6000 FEW021 25/21 Q1013 NOSIG=
17/09/2017 23:30:00Z	 SAID31 WIII 172330	METAR WIII 172330Z 07004KT 6000 FEW021 26/22 Q1013 NOSIG=
18/09/2017 00:00:00Z	 SAID31 WIII 180000	METAR WIII 180000Z VRB03KT 6000 FEW022 27/23 Q1013 NOSIG=
18/09/2017 00:30:00Z	 SAID31 WIII 180030	METAR WIII 180030Z VRB03KT 6000 FEW022 29/22 Q1014 NOSIG=
18/09/2017 01:00:00Z	 SAID31 WIII 180100	METAR WIII 180100Z VRB04KT 6000 FEW022 30/22 Q1014 NOSIG=
18/09/2017 01:30:00Z	 SAID31 WIII 180130	METAR WIII 180130Z 10014KT 7000 FEW022 30/21 Q1014 NOSIG=
18/09/2017 02:00:00Z	 SAID31 WIII 180200	METAR WIII 180200Z 10010KT 9999 FEW022 31/20 Q1014 NOSIG=
18/09/2017 02:30:00Z	 SAID31 WIII 180230	METAR WIII 180230Z 08013KT 9999 FEW021 32/20 Q1014 NOSIG=
18/09/2017 03:00:00Z	 SAID31 WIII 180300	METAR WIII 180300Z 07014KT 9999 FEW021 32/21 Q1014 NOSIG=
18/09/2017 03:30:00Z	 SAID31 WIII 180330	METAR WIII 180330Z 04015KT 9999 FEW021 33/21 Q1013 NOSIG=
18/09/2017 04:00:00Z	 SAID31 WIII 180400	METAR WIII 180400Z 04015KT 9999 FEW021 32/22 Q1013 NOSIG=
18/09/2017 04:30:00Z	 SAID31 WIII 180430	METAR WIII 180430Z 04014KT 9999 FEW021 33/22 Q1012 NOSIG=
18/09/2017 05:00:00Z	 SAID31 WIII 180500	METAR WIII 180500Z 04017KT 9999 FEW022 33/22 Q1011 NOSIG=
18/09/2017 05:30:00Z	 SAID31 WIII 180530	METAR WIII 180530Z 05016KT 9999 FEW022 33/22 Q1011 NOSIG=
18/09/2017 06:00:00Z	 SAID31 WIII 180600	METAR WIII 180600Z 05015KT 9999 FEW022 34/22 Q1011 NOSIG=
18/09/2017 06:30:00Z	 SAID31 WIII 180630	METAR WIII 180630Z 04019KT 9999 FEW022 33/22 Q1010 NOSIG=
18/09/2017 07:00:00Z	 SAID31 WIII 180700	METAR WIII 180700Z 04016KT 9999 FEW022 33/21 Q1010 NOSIG=
18/09/2017 07:30:00Z	 SAID31 WIII 180730	METAR WIII 180730Z 03018KT 9999 FEW022 33/22 Q1010 NOSIG=
18/09/2017 08:00:00Z	 SAID31 WIII 180800	METAR WIII 180800Z 03019KT 9999 FEW022 32/22 Q1010 NOSIG=
18/09/2017 08:30:00Z	 SAID31 WIII 180830	METAR WIII 180830Z 03017KT 9999 FEW022 32/22 Q1010 NOSIG=
18/09/2017 09:00:00Z	 SAID31 WIII 180900	METAR WIII 180900Z 03015KT 9999 FEW022 31/22 Q1009 NOSIG=
18/09/2017 09:30:00Z	 SAID31 WIII 180930	METAR WIII 180930Z 03014KT 9999 FEW022 30/21 Q1010 NOSIG=
18/09/2017 10:00:00Z	 SAID31 WIII 181000	METAR WIII 181000Z 03015KT 9999 FEW022 30/21 Q1010 NOSIG=
18/09/2017 10:30:00Z	 SAID31 WIII 181030	METAR WIII 181030Z 04013KT 9000 FEW022 29/21 Q1010 NOSIG=
18/09/2017 11:00:00Z	 SAID31 WIII 181100	METAR WIII 181100Z 05010KT 8000 FEW022 28/21 Q1010 NOSIG=
18/09/2017 11:30:00Z	 SAID31 WIII 181130	METAR WIII 181130Z 05011KT 8000 FEW022 28/21 Q1011 NOSIG=
18/09/2017 12:00:00Z	 SAID31 WIII 181200	METAR WIII 181200Z 05009KT 8000 FEW022 28/22 Q1011 NOSIG=
18/09/2017 12:30:00Z	 SAID31 WIII 181230	METAR WIII 181230Z 05007KT 8000 FEW022 27/22 Q1012 NOSIG=
18/09/2017 13:00:00Z	 SAID31 WIII 181300	METAR WIII 181300Z 05007KT 8000 FEW022 27/23 Q1012 NOSIG=
18/09/2017 13:30:00Z	 SAID31 WIII 181330	METAR WIII 181330Z 05007KT 8000 FEW022 27/23 Q1013 NOSIG=
18/09/2017 14:00:00Z	 SAID31 WIII 181400	METAR WIII 181400Z 04006KT 7000 FEW022 27/23 Q1013 NOSIG=
18/09/2017 14:30:00Z	 SAID31 WIII 181430	METAR WIII 181430Z 05006KT 7000 FEW022 27/23 Q1013 NOSIG=
18/09/2017 15:00:00Z	 SAID31 WIII 181500	METAR WIII 181500Z 06005KT 7000 SCT022 27/23 Q1013 NOSIG=
18/09/2017 15:30:00Z	 SAID31 WIII 181530	METAR WIII 181530Z 08004KT 7000 SCT022 27/23 Q1013 NOSIG=
18/09/2017 16:00:00Z	 SAID31 WIII 181600	METAR WIII 181600Z 10004KT 7000 SCT022 28/23 Q1013 NOSIG=
18/09/2017 16:30:00Z	 SAID31 WIII 181630	METAR WIII 181630Z VRB03KT 6000 SCT022 27/23 Q1013 NOSIG=
18/09/2017 17:00:00Z	 SAID31 WIII 181700	METAR WIII 181700Z VRB03KT 6000 SCT022 27/23 Q1013 NOSIG=
18/09/2017 17:30:00Z	 SAID31 WIII 181730	METAR WIII 181730Z 07003KT 6000 SCT022 27/23 Q1012 NOSIG=
18/09/2017 18:00:00Z	 SAID31 WIII 181800	METAR WIII 181800Z 07001KT 6000 FEW022 26/23 Q1012 NOSIG=
18/09/2017 18:30:00Z	 SAID31 WIII 181830	METAR WIII 181830Z 05002KT 6000 FEW022 27/23 Q1012 NOSIG=
18/09/2017 19:00:00Z	 SAID31 WIII 181900	METAR WIII 181900Z 05001KT 6000 FEW022 27/23 Q1012 NOSIG=
18/09/2017 19:30:00Z	 SAID31 WIII 181930	METAR WIII 181930Z VRB02KT 6000 FEW022 26/23 Q1012 NOSIG=
18/09/2017 20:00:00Z	 SAID31 WIII 182000	METAR WIII 182000Z 08002KT 6000 FEW022 26/23 Q1012 NOSIG=
18/09/2017 20:30:00Z	 SAID31 WIII 182030	METAR WIII 182030Z VRB01KT 7000 SCT023 26/23 Q1012 NOSIG=
18/09/2017 21:00:00Z	 SAID31 WIII 182100	METAR WIII 182100Z VRB01KT 7000 SCT023 26/23 Q1012 NOSIG=
18/09/2017 21:30:00Z	 SAID31 WIII 182130	METAR WIII 182130Z 16002KT 7000 SCT023 26/23 Q1012 NOSIG=
18/09/2017 22:00:00Z	 SAID31 WIII 182200	METAR WIII 182200Z 21003KT 6000 SCT023 26/23 Q1012 NOSIG=
18/09/2017 22:30:00Z	 SAID31 WIII 182230	METAR WIII 182230Z 17004KT 5000 FEW023 26/23 Q1012 NOSIG=
18/09/2017 23:00:00Z	 SAID31 WIII 182300	METAR WIII 182300Z 19003KT 4500 HZ SCT023 26/23 Q1013 NOSIG=
18/09/2017 23:30:00Z	 SAID31 WIII 182330	METAR WIII 182330Z 17003KT 4000 HZ SCT023 27/23 Q1013 NOSIG=
19/09/2017 00:00:00Z	 SAID31 WIII 190000	METAR WIII 190000Z VRB03KT 4300 HZ SCT023 28/23 Q1013 NOSIG=
19/09/2017 00:30:00Z	 SAID31 WIII 190030	METAR WIII 190030Z VRB03KT 5000 BR FEW022 28/23 Q1013 NOSIG=
19/09/2017 01:00:00Z	 SAID31 WIII 190100	METAR WIII 190100Z VRB04KT 5000 HZ FEW020 29/23 Q1013 NOSIG=
19/09/2017 01:30:00Z	 SAID31 WIII 190130	METAR WIII 190130Z VRB03KT 5000 HZ FEW020 30/23 Q1013 NOSIG=
19/09/2017 02:00:00Z	 SAID31 WIII 190200	METAR WIII 190200Z VRB04KT 5000 HZ SCT020 30/23 Q1013 NOSIG=
19/09/2017 02:30:00Z	 SAID31 WIII 190230	METAR WIII 190230Z VRB02KT 6000 SCT020 31/23 Q1013 NOSIG=
19/09/2017 03:00:00Z	 SAID31 WIII 190300	METAR WIII 190300Z VRB04KT 5000 SCT020 30/23 Q1013 NOSIG=
19/09/2017 03:30:00Z	 SAID31 WIII 190330	METAR WIII 190330Z 01006KT 310V070 5000 SCT020 32/23 Q1012 NOSIG=
19/09/2017 04:00:00Z	 SAID31 WIII 190400	METAR WIII 190400Z 35007KT 300V030 7000 SCT020 32/23 Q1012 NOSIG=
19/09/2017 04:30:00Z	 SAID31 WIII 190430	METAR WIII 190430Z 35009KT 320V030 8000 SCT020 31/23 Q1011 NOSIG=
19/09/2017 05:00:00Z	 SAID31 WIII 190500	METAR WIII 190500Z 36009KT 330V050 8000 SCT020 32/21 Q1011 NOSIG=
19/09/2017 05:30:00Z	 SAID31 WIII 190530	METAR WIII 190530Z 01008KT 310V040 8000 FEW021 32/21 Q1010 NOSIG=
19/09/2017 06:00:00Z	 SAID31 WIII 190600	METAR WIII 190600Z 01013KT 8000 FEW021 32/19 Q1010 NOSIG=
19/09/2017 06:30:00Z	 SAID31 WIII 190630	METAR WIII 190630Z 35010KT 9999 FEW020 32/20 Q1009 NOSIG=
19/09/2017 07:00:00Z	 SAID31 WIII 190700	METAR WIII 190700Z 36009KT 9999 FEW020 32/20 Q1009 NOSIG=
19/09/2017 07:30:00Z	 SAID31 WIII 190730	METAR WIII 190730Z 36009KT 9999 FEW020 32/20 Q1009 NOSIG=
19/09/2017 08:00:00Z	 SAID31 WIII 190800	METAR WIII 190800Z 03011KT 9999 FEW020 31/21 Q1008 NOSIG=
19/09/2017 08:30:00Z	 SAID31 WIII 190830	METAR WIII 190830Z 02010KT 9999 FEW020 31/22 Q1008 NOSIG=
19/09/2017 09:00:00Z	 SAID31 WIII 190900	METAR WIII 190900Z 02009KT 9000 FEW021 31/21 Q1008 NOSIG=
19/09/2017 09:30:00Z	 SAID31 WIII 190930	METAR WIII 190930Z 36008KT 9999 FEW020 30/21 Q1008 NOSIG=
19/09/2017 10:00:00Z	 SAID31 WIII 191000	METAR WIII 191000Z 01007KT 9999 FEW020 30/23 Q1008 NOSIG=
19/09/2017 10:30:00Z	 SAID31 WIII 191030	METAR WIII 191030Z 01006KT 9999 FEW021 29/23 Q1009 NOSIG=
19/09/2017 11:00:00Z	 SAID31 WIII 191100	METAR WIII 191100Z 01006KT 9999 FEW021 29/23 Q1009 NOSIG=
19/09/2017 11:30:00Z	 SAID31 WIII 191130	METAR WIII 191130Z 36005KT 9999 FEW020 29/24 Q1010 NOSIG=
19/09/2017 12:00:00Z	 SAID31 WIII 191200	METAR WIII 191200Z 36005KT 8000 SCT020 28/24 Q1010 NOSIG=
19/09/2017 12:30:00Z	 SAID31 WIII 191230	METAR WIII 191230Z 01004KT 9999 SCT020 28/24 Q1011 NOSIG=
19/09/2017 13:00:00Z	 SAID31 WIII 191300	METAR WIII 191300Z 36005KT 8000 BKN021 29/24 Q1011 NOSIG=
19/09/2017 13:30:00Z	 SAID31 WIII 191330	METAR WIII 191330Z VRB05KT 8000 BKN021 29/24 Q1012 NOSIG=
19/09/2017 14:00:00Z	 SAID31 WIII 191400	METAR WIII 191400Z VRB03KT 8000 BKN021 28/24 Q1012 NOSIG=
19/09/2017 14:30:00Z	 SAID31 WIII 191430	METAR WIII 191430Z 35005KT 8000 BKN022 28/24 Q1012 NOSIG=
19/09/2017 15:00:00Z	 SAID31 WIII 191500	METAR WIII 191500Z VRB05KT 7000 SCT020 28/24 Q1012 NOSIG=
19/09/2017 15:30:00Z	 SAID31 WIII 191530	METAR WIII 191530Z 01004KT 7000 SCT020 28/24 Q1012 NOSIG=
19/09/2017 16:00:00Z	 SAID31 WIII 191600	METAR WIII 191600Z 04004KT 7000 SCT020 28/24 Q1012 NOSIG=
19/09/2017 16:30:00Z	 SAID31 WIII 191630	METAR WIII 191630Z 04005KT 7000 SCT020 28/24 Q1012 NOSIG=
19/09/2017 17:00:00Z	 SAID31 WIII 191700	METAR WIII 191700Z VRB03KT 7000 SCT020 27/24 Q1012 NOSIG=
19/09/2017 17:30:00Z	 SAID31 WIII 191730	METAR WIII 191730Z 18006KT 7000 SCT020 27/23 Q1012 NOSIG=
19/09/2017 18:00:00Z	 SAID31 WIII 191800	METAR WIII 191800Z 17003KT 7000 SCT020 26/23 Q1011 NOSIG=
19/09/2017 18:30:00Z	 SAID31 WIII 191830	METAR WIII 191830Z 15003KT 6000 SCT020 26/23 Q1011 NOSIG=
19/09/2017 19:00:00Z	 SAID31 WIII 191900	METAR WIII 191900Z VRB05KT 6000 BKN020 27/22 Q1011 NOSIG=
19/09/2017 19:30:00Z	 SAID31 WIII 191930	METAR WIII 191930Z VRB03KT 7000 BKNOPS1 27/22 Q1011 NOSIG=
19/09/2017 20:00:00Z	 SAID31 WIII 192000	METAR WIII 192000Z VRB03KT 8000 BKN022 26/22 Q1011 NOSIG=
19/09/2017 20:30:00Z	 SAID31 WIII 192030	METAR WIII 192030Z 21003KT 8000 SCT022 26/23 Q1011 NOSIG=
19/09/2017 21:00:00Z	 SAID31 WIII 192100	METAR WIII 192100Z 31010KT 8000 BKN022 25/23 Q1011 NOSIG=
19/09/2017 21:30:00Z	 SAID31 WIII 192130	METAR WIII 192130Z VRB03KT 8000 BKN022 25/22 Q1011 NOSIG=
19/09/2017 22:00:00Z	 SAID31 WIII 192200	METAR WIII 192200Z 11004KT 8000 SCT021 25/22 Q1011 NOSIG=
19/09/2017 22:30:00Z	 SAID31 WIII 192230	METAR WIII 192230Z VRB02KT 8000 SCT021 26/21 Q1011 NOSIG=
19/09/2017 23:00:00Z	 SAID31 WIII 192300	METAR WIII 192300Z VRB03KT 8000 SCT021 26/22 Q1011 NOSIG=
19/09/2017 23:30:00Z	 SAID31 WIII 192330	METAR WIII 192330Z 19005KT 8000 BKN022 26/23 Q1012 NOSIG=
20/09/2017 00:00:00Z	 SAID31 WIII 200000	METAR WIII 200000Z 15004KT 6000 BKN020 26/23 Q1012 NOSIG=
20/09/2017 00:30:00Z	 SAID31 WIII 200030	METAR WIII 200030Z VRB04KT 5000 SCT021 27/23 Q1012 NOSIG=
20/09/2017 01:00:00Z	 SAID31 WIII 200100	METAR WIII 200100Z VRB03KT 5000 HZ SCT020 27/23 Q1013 NOSIG=
20/09/2017 01:30:00Z	 SAID31 WIII 200130	METAR WIII 200130Z VRB02KT 5000 HZ SCT020 28/23 Q1013 NOSIG=
20/09/2017 02:00:00Z	 SAID31 WIII 200200	METAR WIII 200200Z VRB04KT 6000 FEW020 29/22 Q1013 NOSIG=
20/09/2017 02:30:00Z	 SAID31 WIII 200230	METAR WIII 200230Z VRB04KT 6000 FEW020 30/22 Q1012 NOSIG=
20/09/2017 03:00:00Z	 SAID31 WIII 200300	METAR WIII 200300Z VRB05KT 5000 HZ SCT020 32/20 Q1012 NOSIG=
20/09/2017 03:30:00Z	 SAID31 WIII 200330	METAR WIII 200330Z 05010KT 360V100 7000 SCT020 32/20 Q1011 NOSIG=
20/09/2017 04:00:00Z	 SAID31 WIII 200400	METAR WIII 200400Z 01008KT 9000 FEW020 32/20 Q1011 NOSIG=
20/09/2017 04:30:00Z	 SAID31 WIII 200430	METAR WIII 200430Z 03010KT 9999 FEW020 33/20 Q1011 NOSIG=
20/09/2017 05:00:00Z	 SAID31 WIII 200500	METAR WIII 200500Z 02015KT 330V060 9000 FEW020 32/19 Q1010 NOSIG=
20/09/2017 05:30:00Z	 SAID31 WIII 200530	METAR WIII 200530Z 01008KT 340V050 9000 FEW020 32/19 Q1009 NOSIG=
20/09/2017 06:00:00Z	 SAID31 WIII 200600	METAR WIII 200600Z 01009KT 9999 FEW020 32/18 Q1009 NOSIG=
20/09/2017 06:30:00Z	 SAID31 WIII 200630	METAR WIII 200630Z 36010KT 9000 FEW021 32/19 Q1009 NOSIG=
20/09/2017 07:00:00Z	 SAID31 WIII 200700	METAR WIII 200700Z 01009KT 9999 FEW021 32/19 Q1008 NOSIG=
20/09/2017 07:30:00Z	 SAID31 WIII 200730	METAR WIII 200730Z 01009KT 9999 FEW020 31/20 Q1008 NOSIG=
20/09/2017 08:00:00Z	 SAID31 WIII 200800	METAR WIII 200800Z 36008KT 9999 FEW020 31/20 Q1008 NOSIG=
20/09/2017 08:30:00Z	 SAID31 WIII 200830	METAR WIII 200830Z 01009KT 9999 FEW020 31/20 Q1008 NOSIG=
20/09/2017 09:00:00Z	 SAID31 WIII 200900	METAR WIII 200900Z 35007KT 310V030 9000 SCT021 30/21 Q1008 NOSIG=
20/09/2017 09:30:00Z	 SAID31 WIII 200930	METAR WIII 200930Z 36007KT 9000 FEW020 30/21 Q1008 NOSIG=
20/09/2017 10:00:00Z	 SAID31 WIII 201000	METAR WIII 201000Z 35007KT 9999 FEW020 29/21 Q1008 NOSIG=
20/09/2017 10:30:00Z	 SAID31 WIII 201030	METAR WIII 201030Z 35005KT 9000 SCT021 29/21 Q1009 NOSIG=
20/09/2017 11:00:00Z	 SAID31 WIII 201100	METAR WIII 201100Z 02004KT 8000 FEW021 29/21 Q1009 NOSIG=
20/09/2017 11:30:00Z	 SAID31 WIII 201130	METAR WIII 201130Z 01005KT 8000 SCT021 29/22 Q1009 NOSIG=
20/09/2017 12:00:00Z	 SAID31 WIII 201200	METAR WIII 201200Z VRB04KT 8000 SCT020 28/21 Q1010 NOSIG=
20/09/2017 12:30:00Z	 SAID31 WIII 201230	METAR WIII 201230Z 07003KT 8000 SCT020 28/22 Q1010 NOSIG=
20/09/2017 13:00:00Z	 SAID31 WIII 201300	METAR WIII 201300Z VRB04KT 8000 SCT020 29/22 Q1010 NOSIG=
20/09/2017 13:30:00Z	 SAID31 WIII 201330	METAR WIII 201330Z 04004KT 8000 SCT020 27/23 Q1011 NOSIG=
20/09/2017 14:00:00Z	 SAID31 WIII 201400	METAR WIII 201400Z VRB02KT 6000 FEW020CB SCT020 28/22 Q1011 NOSIG RMK CB TO E=
20/09/2017 14:30:00Z	 SAID31 WIII 201430	METAR WIII 201430Z VRB03KT 2500 TSRA FEW018CB BKN020 27/22 Q1012 NOSIG RMK CB TO E=
20/09/2017 15:00:00Z	 SAID31 WIII 201500	METAR WIII 201500Z 09008KT 4000 -TSRA FEW020CB BKN021 26/22 Q1012 NOSIG RMK CB TO NE=
20/09/2017 15:30:00Z	 SAID31 WIII 201530	METAR WIII 201530Z 08006KT 4500 -RA FEW020CB SCT021 25/22 Q1012 RETS NOSIG RMK CB TO NE=
20/09/2017 16:00:00Z	 SAID31 WIII 201600	METAR WIII 201600Z 05003KT 5000 BR FEW020CB SCT021 25/22 Q1012 RERA NOSIG RMK CB TO NE=
20/09/2017 16:30:00Z	 SAID31 WIII 201630	METAR WIII 201630Z VRB04KT 4800 BR FEW020CB SCT021 25/22 Q1012 NOSIG RMK CB TO E=
20/09/2017 17:00:00Z	 SAID31 WIII 201700	METAR WIII 201700Z VRB04KT 4000 BR SCT020 25/22 Q1012 NOSIG=
20/09/2017 17:30:00Z	 SAID31 WIII 201730	METAR WIII 201730Z VRB01KT 5000 SCT020 26/22 Q1011 NOSIG=
20/09/2017 18:30:00Z	 SAID31 WIII 201830	METAR WIII 201830Z VRB02KT 5000 BR FEW021 25/22 Q1011 NOSIG=
20/09/2017 19:00:00Z	 SAID31 WIII 201900	METAR WIII 201900Z 17002KT 5000 FEW021 25/22 Q1010 NOSIG=
20/09/2017 19:30:00Z	 SAID31 WIII 201930	METAR WIII 201930Z 09004KT 3800 BR SCT020 25/22 Q1010 NOSIG=
20/09/2017 20:00:00Z	 SAID31 WIII 202000	METAR WIII 202000Z 11003KT 4200 BR NCD 25/22 Q1010 NOSIG=
20/09/2017 20:30:00Z	 SAID31 WIII 202030	METAR WIII 202030Z 11003KT 3900 BR NCD 25/23 Q1010 NOSIG=
20/09/2017 21:00:00Z	 SAID31 WIII 202100	METAR WIII 202100Z 11003KT 4600 BR NCD 25/23 Q1010 NOSIG=
20/09/2017 21:30:00Z	 SAID31 WIII 202130	METAR WIII 202130Z 13002KT 4800 BR NCD 25/23 Q1010 NOSIG=
20/09/2017 22:00:00Z	 SAID31 WIII 202200	METAR WIII 202200Z VRB02KT 4200 BR FEW020 24/22 Q1010 NOSIG=
20/09/2017 22:30:00Z	 SAID31 WIII 202230	METAR WIII 202230Z 14003KT 4900 BR FEW020 25/22 Q1011 NOSIG=
20/09/2017 23:00:00Z	 SAID31 WIII 202300	METAR WIII 202300Z 14003KT 4400 BR FEW020 25/22 Q1011 NOSIG=
20/09/2017 23:30:00Z	 SAID31 WIII 202330	METAR WIII 202330Z 14004KT 5000 HZ FEW020 25/22 Q1011 NOSIG=
21/09/2017 00:00:00Z	 SAID31 WIII 210000	METAR WIII 210000Z 12004KT 5000 HZ FEW020 26/21 Q1011 NOSIG=
21/09/2017 00:30:00Z	 SAID31 WIII 210030	METAR WIII 210030Z VRB04KT 5000 FEW021 27/22 Q1012 NOSIG=
21/09/2017 01:00:00Z	 SAID31 WIII 210100	METAR WIII 210100Z VRB05KT 5000 HZ FEW021 28/21 Q1012 NOSIG=
21/09/2017 01:30:00Z	 SAID31 WIII 210130	METAR WIII 210130Z VRB03KT 6000 FEW020 29/21 Q1012 NOSIG=
21/09/2017 02:00:00Z	 SAID31 WIII 210200	METAR WIII 210200Z VRB04KT 7000 SCT020 30/22 Q1012 NOSIG=
21/09/2017 02:30:00Z	 SAID31 WIII 210230	METAR WIII 210230Z 05006KT 010V090 8000 SCT020 30/21 Q1012 NOSIG=
21/09/2017 03:00:00Z	 SAID31 WIII 210300	METAR WIII 210300Z 03007KT 360V060 8000 SCT020 30/21 Q1011 NOSIG=
21/09/2017 03:30:00Z	 SAID31 WIII 210330	METAR WIII 210330Z 05008KT 010V080 8000 FEW020 31/21 Q1011 NOSIG=
21/09/2017 04:00:00Z	 SAID31 WIII 210400	METAR WIII 210400Z 02008KT 8000 SCT020 31/21 Q1011 NOSIG=
21/09/2017 04:30:00Z	 SAID31 WIII 210430	METAR WIII 210430Z 04009KT 340V070 9000 SCT020 32/21 Q1010 NOSIG=
21/09/2017 05:00:00Z	 SAID31 WIII 210500	METAR WIII 210500Z 03010KT 340V050 9999 SCT020 32/21 Q1010 NOSIG=
21/09/2017 05:30:00Z	 SAID31 WIII 210530	METAR WIII 210530Z 01011KT 9999 FEW020 32/21 Q1009 NOSIG=
21/09/2017 06:00:00Z	 SAID31 WIII 210600	METAR WIII 210600Z 02011KT 330V050 9999 FEW020 32/22 Q1009 NOSIG=
21/09/2017 06:30:00Z	 SAID31 WIII 210630	METAR WIII 210630Z 36010KT 330V030 9999 FEW020 32/22 Q1008 NOSIG=
21/09/2017 07:00:00Z	 SAID31 WIII 210700	METAR WIII 210700Z 36010KT 340V040 9999 FEW020 31/22 Q1008 NOSIG=
21/09/2017 07:30:00Z	 SAID31 WIII 210730	METAR WIII 210730Z 36009KT 330V040 9999 FEW020 31/22 Q1008 NOSIG=
21/09/2017 08:00:00Z	 SAID31 WIII 210800	METAR WIII 210800Z 35013KT 9999 FEW020 31/22 Q1008 NOSIG=
21/09/2017 08:30:00Z	 SAID31 WIII 210830	METAR WIII 210830Z 35009KT 310V020 9999 FEW020 30/21 Q1008 NOSIG=
21/09/2017 09:00:00Z	 SAID31 WIII 210900	METAR WIII 210900Z 35009KT 9999 FEW020 30/22 Q1008 NOSIG=
21/09/2017 09:30:00Z	 SAID31 WIII 210930	METAR WIII 210930Z 34007KT 320V030 9999 FEW020 30/22 Q1008 NOSIG=
21/09/2017 10:00:00Z	 SAID31 WIII 211000	METAR WIII 211000Z 36008KT 9999 FEW020 29/22 Q1008 NOSIG=
21/09/2017 10:30:00Z	 SAID31 WIII 211030	METAR WIII 211030Z 35006KT 9000 FEW020 29/22 Q1008 NOSIG=
21/09/2017 11:00:00Z	 SAID31 WIII 211100	METAR WIII 211100Z VRB05KT 8000 FEW020 28/22 Q1009 NOSIG=
21/09/2017 11:30:00Z	 SAID31 WIII 211130	METAR WIII 211130Z 36004KT 8000 FEW020 28/22 Q1009 NOSIG=
21/09/2017 12:00:00Z	 SAID31 WIII 211200	METAR WIII 211200Z VRB03KT 8000 FEW020 28/23 Q1009 NOSIG=
21/09/2017 12:30:00Z	 SAID31 WIII 211230	METAR WIII 211230Z 03003KT 8000 FEW020 27/23 Q1010 NOSIG=
21/09/2017 13:00:00Z	 SAID31 WIII 211300	METAR WIII 211300Z 04002KT 7000 FEW020 27/22 Q1010 NOSIG=
21/09/2017 13:30:00Z	 SAID31 WIII 211330	METAR WIII 211330Z VRB02KT 6000 FEW020 28/22 Q1010 NOSIG=
21/09/2017 14:00:00Z	 SAID31 WIII 211400	METAR WIII 211400Z 22002KT 6000 FEW020 27/23 Q1010 NOSIG=
21/09/2017 14:30:00Z	 SAID31 WIII 211430	METAR WIII 211430Z VRB02KT 6000 FEW020 27/22 Q1011 NOSIG=
21/09/2017 15:00:00Z	 SAID31 WIII 211500	METAR WIII 211500Z 22005KT 6000 FEW020 26/22 Q1011 NOSIG=
21/09/2017 15:30:00Z	 SAID31 WIII 211530	METAR WIII 211530Z 23004KT 5000 HZ FEW020 26/22 Q1011 NOSIG=
21/09/2017 16:00:00Z	 SAID31 WIII 211600	METAR WIII 211600Z 22004KT 5000 HZ FEW020 26/22 Q1011 NOSIG=
21/09/2017 16:30:00Z	 SAID31 WIII 211630	METAR WIII 211630Z 22005KT 5000 HZ FEW020 25/22 Q1011 NOSIG=
21/09/2017 17:00:00Z	 SAID31 WIII 211700	METAR WIII 211700Z 23005KT 5000 HZ FEW020 25/22 Q1011 NOSIG=
21/09/2017 17:30:00Z	 SAID31 WIII 211730	METAR WIII 211730Z 22006KT 5000 HZ FEW020 25/22 Q1010 NOSIG=
21/09/2017 18:00:00Z	 SAID31 WIII 211800	METAR WIII 211800Z 20003KT 5000 HZ FEW020 25/22 Q1010 NOSIG=
21/09/2017 18:30:00Z	 SAID31 WIII 211830	METAR WIII 211830Z 20004KT 5000 HZ FEW020 25/22 Q1010 NOSIG=
21/09/2017 19:00:00Z	 SAID31 WIII 211900	METAR WIII 211900Z 20003KT 4000 HZ FEW020 25/22 Q1010 NOSIG=
21/09/2017 19:30:00Z	 SAID31 WIII 211930	METAR WIII 211930Z 22004KT 4000 BR FEW020 24/22 Q1010 NOSIG=
21/09/2017 20:00:00Z	 SAID31 WIII 212000	METAR WIII 212000Z 21004KT 4600 BR FEW020 24/22 Q1010 NOSIG=
21/09/2017 20:30:00Z	 SAID31 WIII 212030	METAR WIII 212030Z 22004KT 6000 FEW020 24/22 Q1010 NOSIG=
21/09/2017 21:00:00Z	 SAID31 WIII 212100	METAR WIII 212100Z 21004KT 6000 FEW020 24/22 Q1010 NOSIG=
21/09/2017 21:30:00Z	 SAID31 WIII 212130	METAR WIII 212130Z 21005KT 6000 FEW021 24/22 Q1010 NOSIG=
21/09/2017 22:00:00Z	 SAID31 WIII 212200	METAR WIII 212200Z 21004KT 6000 FEW021 24/22 Q1010 NOSIG=
21/09/2017 22:30:00Z	 SAID31 WIII 212230	METAR WIII 212230Z 23006KT 5000 HZ FEW020 24/22 Q1011 NOSIG=
21/09/2017 23:00:00Z	 SAID31 WIII 212300	METAR WIII 212300Z 24007KT 5000 HZ FEW020 25/22 Q1011 NOSIG=
21/09/2017 23:30:00Z	 SAID31 WIII 212330	METAR WIII 212330Z 23006KT 6000 FEW020 25/22 Q1011 NOSIG=
22/09/2017 00:00:00Z	 SAID31 WIII 220000	METAR WIII 220000Z 23006KT 6000 FEW020 26/22 Q1011 NOSIG=
22/09/2017 00:30:00Z	 SAID31 WIII 220030	METAR WIII 220030Z 22007KT 6000 FEW020 27/22 Q1011 NOSIG=
22/09/2017 01:00:00Z	 SAID31 WIII 220100	METAR WIII 220100Z 23006KT 6000 FEW020 28/22 Q1012 NOSIG=
22/09/2017 01:30:00Z	 SAID31 WIII 220130	METAR WIII 220130Z VRB04KT 7000 FEW021 29/22 Q1012 NOSIG=
22/09/2017 02:00:00Z	 SAID31 WIII 220200	METAR WIII 220200Z 23006KT 200V260 8000 FEW021 30/22 Q1012 NOSIG=
22/09/2017 02:30:00Z	 SAID31 WIII 220230	METAR WIII 220230Z VRB04KT 9000 FEW021 31/19 Q1012 NOSIG=
22/09/2017 03:00:00Z	 SAID31 WIII 220300	METAR WIII 220300Z VRB05KT 9999 FEW022 32/19 Q1011 NOSIG=
22/09/2017 03:30:00Z	 SAID31 WIII 220330	METAR WIII 220330Z VRB02KT 9999 FEW022 32/19 Q1011 NOSIG=
22/09/2017 04:00:00Z	 SAID31 WIII 220400	METAR WIII 220400Z VRB04KT 9999 FEW022 33/19 Q1011 NOSIG=
22/09/2017 04:30:00Z	 SAID31 WIII 220430	METAR WIII 220430Z 05006KT 9999 FEW022 33/18 Q1010 NOSIG=
22/09/2017 05:00:00Z	 SAID31 WIII 220500	METAR WIII 220500Z 03006KT 320V070 9999 FEW022 33/20 Q1010 NOSIG=
22/09/2017 05:30:00Z	 SAID31 WIII 220530	METAR WIII 220530Z 02006KT 330V060 9999 FEW210 SCT250 33/20 Q1010 NOSIG=
22/09/2017 06:00:00Z	 SAID31 WIII 220600	METAR WIII 220600Z 04007KT 9999 FEW022 33/20 Q1009 NOSIG=
22/09/2017 06:30:00Z	 SAID31 WIII 220630	METAR WIII 220630Z 05008KT 9999 FEW022 33/20 Q1009 NOSIG=
22/09/2017 07:00:00Z	 SAID31 WIII 220700	METAR WIII 220700Z 05008KT 9999 FEW021 33/19 Q1008 NOSIG=
22/09/2017 07:30:00Z	 SAID31 WIII 220730	METAR WIII 220730Z 05010KT 9999 FEW022 32/20 Q1008 NOSIG=
22/09/2017 08:00:00Z	 SAID31 WIII 220800	METAR WIII 220800Z 06009KT 9999 FEW022 32/20 Q1008 NOSIG=
22/09/2017 08:30:00Z	 SAID31 WIII 220830	METAR WIII 220830Z 04008KT 9999 FEW022 32/20 Q1008 NOSIG=
22/09/2017 09:00:00Z	 SAID31 WIII 220900	METAR WIII 220900Z 04008KT 9999 FEW022 32/21 Q1008 NOSIG=
22/09/2017 09:30:00Z	 SAID31 WIII 220930	METAR WIII 220930Z 06007KT 9999 FEW021 31/20 Q1009 NOSIG=
22/09/2017 10:00:00Z	 SAID31 WIII 221000	METAR WIII 221000Z 06006KT 9999 FEW021 31/20 Q1009 NOSIG=
22/09/2017 10:30:00Z	 SAID31 WIII 221030	METAR WIII 221030Z 06004KT 8000 FEW020 30/21 Q1009 NOSIG=
22/09/2017 11:00:00Z	 SAID31 WIII 221100	METAR WIII 221100Z 05003KT 7000 FEW020 29/21 Q1009 NOSIG=
22/09/2017 11:30:00Z	 SAID31 WIII 221130	METAR WIII 221130Z 05003KT 5000 FEW022 29/22 Q1009 NOSIG=
22/09/2017 12:00:00Z	 SAID31 WIII 221200	METAR WIII 221200Z 06004KT 6000 FEW022 28/22 Q1010 NOSIG=
22/09/2017 12:30:00Z	 SAID31 WIII 221230	METAR WIII 221230Z 03003KT 6000 FEW022 29/22 Q1010 NOSIG=
22/09/2017 13:00:00Z	 SAID31 WIII 221300	METAR WIII 221300Z 30002KT 2600 BR FEW022 26/23 Q1010 NOSIG=
22/09/2017 13:30:00Z	 SAID31 WIII 221330	METAR WIII 221330Z 28002KT 2700 HZ FEW021 27/22 Q1011 NOSIG=
22/09/2017 14:00:00Z	 SAID31 WIII 221400	METAR WIII 221400Z 29003KT 2300 HZ FEW021 27/23 Q1011 NOSIG=
22/09/2017 14:30:00Z	 SAID31 WIII 221430	METAR WIII 221430Z 29002KT 2800 HZ FEW021 27/23 Q1011 NOSIG=
22/09/2017 15:00:00Z	 SAID31 WIII 221500	METAR WIII 221500Z 29003KT 2400 HZ FEW021 26/23 Q1011 NOSIG=
22/09/2017 15:30:00Z	 SAID31 WIII 221530	METAR WIII 221530Z VRB03KT 2800 HZ FEW021 27/22 Q1011 NOSIG=
22/09/2017 16:00:00Z	 SAID31 WIII 221600	METAR WIII 221600Z 17005KT 3300 HZ FEW021 28/22 Q1011 NOSIG=
22/09/2017 16:30:00Z	 SAID31 WIII 221630	METAR WIII 221630Z 19004KT 3400 HZ FEW021 27/21 Q1011 NOSIG=
22/09/2017 17:00:00Z	 SAID31 WIII 221700	METAR WIII 221700Z 21004KT 3900 BR FEW021 27/21 Q1011 NOSIG=
22/09/2017 17:30:00Z	 SAID31 WIII 221730	METAR WIII 221730Z 21004KT 4100 BR FEW021 27/21 Q1011 NOSIG=
22/09/2017 18:00:00Z	 SAID31 WIII 221800	METAR WIII 221800Z 21004KT 5000 BR FEW021 26/22 Q1011 NOSIG=
22/09/2017 18:30:00Z	 SAID31 WIII 221830	METAR WIII 221830Z 21003KT 5000 HZ FEW021 25/22 Q1011 NOSIG=
22/09/2017 19:00:00Z	 SAID31 WIII 221900	METAR WIII 221900Z 20005KT 5000 HZ FEW021 26/22 Q1010 NOSIG=
22/09/2017 19:30:00Z	 SAID31 WIII 221930	METAR WIII 221930Z 19006KT 5000 HZ FEW021 26/22 Q1010 NOSIG=
22/09/2017 20:00:00Z	 SAID31 WIII 222000	METAR WIII 222000Z 20006KT 5000 HZ FEW021 25/22 Q1010 NOSIG=
22/09/2017 21:00:00Z	 SAID31 WIII 222100	METAR WIII 222100Z 20006KT 5000 HZ FEW021 25/21 Q1010 NOSIG=
22/09/2017 23:00:00Z	 SAID31 WIII 222300	METAR WIII 222300Z 20006KT 170V240 5000 HZ FEW021 25/21 Q1011 NOSIG=
23/09/2017 00:00:00Z	 SAID31 WIII 230000	METAR WIII 230000Z 28005KT 4700 HZ FEW021 26/22 Q1011 NOSIG=
23/09/2017 00:30:00Z	 SAID31 WIII 230030	METAR WIII 230030Z 27005KT 4200 HZ FEW021 27/22 Q1011 NOSIG=
23/09/2017 01:00:00Z	 SAID31 WIII 230100	METAR WIII 230100Z VRB05KT 4000 HZ FEW021 29/22 Q1011 NOSIG=
23/09/2017 01:30:00Z	 SAID31 WIII 230130	METAR WIII 230130Z VRB05KT 5000 HZ FEW022 30/22 Q1012 NOSIG=
23/09/2017 02:00:00Z	 SAID31 WIII 230200	METAR WIII 230200Z VRB04KT 5000 HZ FEW022 31/22 Q1012 NOSIG=
23/09/2017 02:30:00Z	 SAID31 WIII 230230	METAR WIII 230230Z VRB05KT 6000 FEW022 31/22 Q1012 NOSIG=
23/09/2017 03:00:00Z	 SAID31 WIII 230300	METAR WIII 230300Z VRB04KT 7000 FEW022 32/22 Q1012 NOSIG=
23/09/2017 03:30:00Z	 SAID31 WIII 230330	METAR WIII 230330Z VRB03KT 9000 FEW022 33/21 Q1011 NOSIG=
23/09/2017 04:00:00Z	 SAID31 WIII 230400	METAR WIII 230400Z VRB05KT 9000 FEW022 33/22 Q1011 NOSIG=
23/09/2017 04:30:00Z	 SAID31 WIII 230430	METAR WIII 230430Z 03007KT 8000 SCT022 33/23 Q1011 NOSIG=
23/09/2017 05:00:00Z	 SAID31 WIII 230500	METAR WIII 230500Z 02007KT 8000 SCT021 33/24 Q1011 NOSIG=
23/09/2017 05:30:00Z	 SAID31 WIII 230530	METAR WIII 230530Z 02006KT 8000 FEW022 33/24 Q1010 NOSIG=
23/09/2017 06:00:00Z	 SAID31 WIII 230600	METAR WIII 230600Z 01007KT 8000 FEW022 33/23 Q1010 NOSIG=
23/09/2017 06:30:00Z	 SAID31 WIII 230630	METAR WIII 230630Z 01007KT 8000 FEW022 33/22 Q1010 NOSIG=
23/09/2017 07:00:00Z	 SAID31 WIII 230700	METAR WIII 230700Z 03009KT 9000 FEW021 33/23 Q1010 NOSIG=
23/09/2017 07:30:00Z	 SAID31 WIII 230730	METAR WIII 230730Z 36007KT 9000 FEW022 32/24 Q1009 NOSIG=
23/09/2017 08:00:00Z	 SAID31 WIII 230800	METAR WIII 230800Z 01008G16KT 9999 FEW022 32/24 Q1009 NOSIG=
23/09/2017 08:30:00Z	 SAID31 WIII 230830	METAR WIII 230830Z 02007KT 9999 FEW022 32/23 Q1009 NOSIG=
23/09/2017 09:00:00Z	 SAID31 WIII 230900	METAR WIII 230900Z 36007KT 9999 FEW022 31/23 Q1009 NOSIG=
23/09/2017 09:30:00Z	 SAID31 WIII 230930	METAR WIII 230930Z 01006KT 9999 FEW022 31/23 Q1009 NOSIG=
23/09/2017 10:00:00Z	 SAID31 WIII 231000	METAR WIII 231000Z VRB05KT 9999 FEW022 31/23 Q1010 NOSIG=
23/09/2017 10:30:00Z	 SAID31 WIII 231030	METAR WIII 231030Z VRB04KT 9999 FEW022 30/23 Q1010 NOSIG=
23/09/2017 11:00:00Z	 SAID31 WIII 231100	METAR WIII 231100Z VRB03KT 8000 FEW021 29/23 Q1010 NOSIG=
23/09/2017 11:30:00Z	 SAID31 WIII 231130	METAR WIII 231130Z 32003KT 7000 FEW021 29/23 Q1010 NOSIG=
23/09/2017 12:00:00Z	 SAID31 WIII 231200	METAR WIII 231200Z 31002KT 6000 FEW021 29/23 Q1010 NOSIG=
23/09/2017 12:30:00Z	 SAID31 WIII 231230	METAR WIII 231230Z 30004KT 5000 FEW022 28/23 Q1010 NOSIG=
23/09/2017 13:00:00Z	 SAID31 WIII 231300	METAR WIII 231300Z 29005KT 4500 HZ FEW022 28/23 Q1011 NOSIG=
23/09/2017 13:30:00Z	 SAID31 WIII 231330	METAR WIII 231330Z 28005KT 4900 HZ FEW022 28/23 Q1011 NOSIG=
23/09/2017 14:00:00Z	 SAID31 WIII 231400	METAR WIII 231400Z 30004KT 5000 HZ FEW022 28/23 Q1011 NOSIG=
23/09/2017 15:00:00Z	 SAID31 WIII 231500	METAR WIII 231500Z 26008KT 4900 HZ FEW022 26/23 Q1012 NOSIG=
23/09/2017 15:30:00Z	 SAID31 WIII 231530	METAR WIII 231530Z 24007KT 5000 FEW022 27/23 Q1012 NOSIG=
23/09/2017 16:00:00Z	 SAID31 WIII 231600	METAR WIII 231600Z 23007KT 6000 FEW022 27/23 Q1012 NOSIG=
23/09/2017 16:30:00Z	 SAID31 WIII 231630	METAR WIII 231630Z 23006KT 7000 FEW022 27/23 Q1011 NOSIG=
23/09/2017 17:00:00Z	 SAID31 WIII 231700	METAR WIII 231700Z 21006KT 7000 FEW022 27/23 Q1011 NOSIG=
23/09/2017 17:30:00Z	 SAID31 WIII 231730	METAR WIII 231730Z 23004KT 7000 FEW022 26/23 Q1011 NOSIG=
23/09/2017 18:00:00Z	 SAID31 WIII 231800	METAR WIII 231800Z 24005KT 7000 FEW022 26/23 Q1011 NOSIG=
23/09/2017 19:30:00Z	 SAID31 WIII 231930	METAR WIII 231930Z 23005KT 8000 FEW022 26/23 Q1010 NOSIGG=
23/09/2017 21:30:00Z	 SAID31 WIII 232130	METAR WIII 232130Z 27005KT 5000 FEW021 25/23 Q1010 NOSIG=
23/09/2017 22:30:00Z	 SAID31 WIII 232230	METAR WIII 232230Z 23006KT 5000 SCT021 26/23 Q1010 NOSIG=
23/09/2017 23:00:00Z	 SAID31 WIII 232300	METAR WIII 232300Z 22005KT 5000 SCT021 26/23 Q1010 NOSIG=
23/09/2017 23:30:00Z	 SAID31 WIII 232330	METAR WIII 232330Z 23006KT 5000 SCT020 26/23 Q1011 NOSIG=
24/09/2017 00:00:00Z	 SAID31 WIII 240000	METAR WIII 240000Z 23006KT 6000 SCT020 27/23 Q1011 NOSIG=
24/09/2017 00:30:00Z	 SAID31 WIII 240030	METAR WIII 240030Z 22006KT 180V240 7000 SCT020 28/23 Q1011 NOSIG=
24/09/2017 01:00:00Z	 SAID31 WIII 240100	METAR WIII 240100Z 21006KT 170V240 7000 SCT022 28/23 Q1011 NOSIG=
24/09/2017 01:30:00Z	 SAID31 WIII 240130	METAR WIII 240130Z 22005KT 7000 SCT022 28/23 Q1012 NOSIG=
24/09/2017 02:00:00Z	 SAID31 WIII 240200	METAR WIII 240200Z 19006KT 160V240 7000 SCT022 29/23 Q1012 NOSIG=
24/09/2017 02:30:00Z	 SAID31 WIII 240230	METAR WIII 240230Z VRB05KT 8000 SCT020 30/23 Q1012 NOSIG=
24/09/2017 03:00:00Z	 SAID31 WIII 240300	METAR WIII 240300Z VRB03KT 8000 SCT020 31/22 Q1012 NOSIG=
24/09/2017 03:30:00Z	 SAID31 WIII 240330	METAR WIII 240330Z 06009KT 9000 SCT020 30/24 Q1011 NOSIG=
24/09/2017 04:00:00Z	 SAID31 WIII 240400	METAR WIII 240400Z 05006KT 010V080 8000 SCT020 30/24 Q1011 NOSIG=
24/09/2017 04:30:00Z	 SAID31 WIII 240430	METAR WIII 240430Z 03006KT 350V070 8000 SCT020 30/24 Q1011 NOSIG=
24/09/2017 05:00:00Z	 SAID31 WIII 240500	METAR WIII 240500Z 03006KT 6000 BKN022 29/24 Q1010 NOSIG=
24/09/2017 05:30:00Z	 SAID31 WIII 240530	METAR WIII 240530Z 04005KT 6000 BKN022 30/24 Q1010 NOSIG=
24/09/2017 06:00:00Z	 SAID31 WIII 240600	METAR WIII 240600Z VRB04KT 6000 SCT020 30/24 Q1010 NOSIG=
24/09/2017 06:30:00Z	 SAID31 WIII 240630	METAR WIII 240630Z VRB03KT 6000 SCT020 31/22 Q1009 NOSIG=
24/09/2017 07:00:00Z	 SAID31 WIII 240700	METAR WIII 240700Z VRB03KT 7000 SCT020 31/22 Q1009 NOSIG=
24/09/2017 07:30:00Z	 SAID31 WIII 240730	METAR WIII 240730Z VRB03KT 7000 SCT020 31/23 Q1008 NOSIG=
24/09/2017 08:00:00Z	 SAID31 WIII 240800	METAR WIII 240800Z VRB04KT 6000 SCT020 31/23 Q1009 NOSIG=
24/09/2017 08:30:00Z	 SAID31 WIII 240830	METAR WIII 240830Z 08009KT 6000 SCT020 31/23 Q1008 NOSIG=
24/09/2017 09:00:00Z	 SAID31 WIII 240900	METAR WIII 240900Z 09007KT 6000 SCT020 30/23 Q1008 NOSIG=
24/09/2017 09:30:00Z	 SAID31 WIII 240930	METAR WIII 240930Z 07006KT 6000 SCT020 30/23 Q1008 NOSIG=
24/09/2017 10:00:00Z	 SAID31 WIII 241000	METAR WIII 241000Z VRB03KT 6000 SCT020 30/22 Q1009 NOSIG=
24/09/2017 10:30:00Z	 SAID31 WIII 241030	METAR WIII 241030Z 18008KT 5000 HZ SCT020 29/23 Q1009 NOSIG=
24/09/2017 11:00:00Z	 SAID31 WIII 241100	METAR WIII 241100Z 18007KT 5000 HZ SCT020 28/23 Q1009 NOSIG=
24/09/2017 12:00:00Z	 SAID31 WIII 241200	METAR WIII 241200Z VRB05KT 5000 HZ SCT020 28/23 Q1010 NOSIG=
24/09/2017 12:30:00Z	 SAID31 WIII 241230	METAR WIII 241230Z 19004KT 5000 HZ SCT020 28/22 Q1010 NOSIG=
24/09/2017 13:00:00Z	 SAID31 WIII 241300	METAR WIII 241300Z 16005KT 5000 HZ SCT020 28/22 Q1010 NOSIG=
24/09/2017 13:30:00Z	 SAID31 WIII 241330	METAR WIII 241330Z 17004KT 5000 HZ SCT020 28/22 Q1010 NOSIG=
24/09/2017 14:00:00Z	 SAID31 WIII 241400	METAR WIII 241400Z VRB04KT 5000 HZ SCT020 28/22 Q1010 NOSIG=
24/09/2017 14:30:00Z	 SAID31 WIII 241430	METAR WIII 241430Z VRB02KT 5000 HZ SCT020 28/22 Q1011 NOSIG=
24/09/2017 15:00:00Z	 SAID31 WIII 241500	METAR WIII 241500Z VRB03KT 5000 HZ SCT020 28/22 Q1011 NOSIG=
24/09/2017 15:30:00Z	 SAID31 WIII 241530	METAR WIII 241530Z 21002KT 5000 HZ SCT020 28/22 Q1011 NOSIG=
24/09/2017 16:00:00Z	 SAID31 WIII 241600	METAR WIII 241600Z VRB03KT 5000 HZ SCT020 28/22 Q1010 NOSIG=
24/09/2017 16:30:00Z	 SAID31 WIII 241630	METAR WIII 241630Z VRB02KT 5000 HZ SCT022 27/22 Q1010 NOSIG=
24/09/2017 17:00:00Z	 SAID31 WIII 241700	METAR WIII 241700Z 32002KT 5000 HZ SCT020 27/22 Q1010 NOSIG=
24/09/2017 17:30:00Z	 SAID31 WIII 241730	METAR WIII 241730Z 29002KT 3000 HZ SCT021 27/22 Q1010 NOSIG=
24/09/2017 18:00:00Z	 SAID31 WIII 241800	METAR WIII 241800Z VRB03KT 2500 HZ SCT020 26/23 Q1010 NOSIG=
24/09/2017 18:30:00Z	 SAID31 WIII 241830	METAR WIII 241830Z VRB03KT 2000 HZ SCT020 27/22 Q1010 NOSIG=
24/09/2017 19:00:00Z	 SAID31 WIII 241900	METAR WIII 241900Z 26004KT 2000 HZ SCT021 26/24 Q1009 NOSIG=
24/09/2017 19:30:00Z	 SAID31 WIII 241930	METAR WIII 241930Z 26004KT 2000 HZ SCT021 26/24 Q1009 NOSIG=
24/09/2017 20:00:00Z	 SAID31 WIII 242000	METAR WIII 242000Z 25003KT 3000 HZ SCT021 25/24 Q1009 NOSIG=
24/09/2017 20:30:00Z	 SAID31 WIII 242030	METAR WIII 242030Z 26002KT 3500 HZ SCT021 26/23 Q1009 NOSIG=
24/09/2017 21:00:00Z	 SAID31 WIII 242100	METAR WIII 242100Z 32002KT 3500 HZ SCT020 26/23 Q1010 NOSIG=
24/09/2017 21:30:00Z	 SAID31 WIII 242130	METAR WIII 242130Z 24003KT 3500 HZ SCT021 25/24 Q1010 NOSIG=
24/09/2017 22:00:00Z	 SAID31 WIII 242200	METAR WIII 242200Z 23002KT 3500 BR SCT022 25/24 Q1010 NOSIG=
24/09/2017 22:30:00Z	 SAID31 WIII 242230	METAR WIII 242230Z 23003KT 3000 BR FEW020 25/24 Q1010 NOSIG=
24/09/2017 23:00:00Z	 SAID31 WIII 242300	METAR WIII 242300Z 20003KT 3000 BR FEW020 26/23 Q1010 NOSIG=
24/09/2017 23:30:00Z	 SAID31 WIII 242330	METAR WIII 242330Z 20003KT 4000 BR FEW020 26/23 Q1010 NOSIG=
25/09/2017 00:00:00Z	 SAID31 WIII 250000	METAR WIII 250000Z 19003KT 5000 HZ FEW020 27/23 Q1010 NOSIG=
25/09/2017 00:30:00Z	 SAID31 WIII 250030	METAR WIII 250030Z VRB03KT 5000 HZ FEW020 27/23 Q1010 NOSIG=
25/09/2017 01:00:00Z	 SAID31 WIII 250100	METAR WIII 250100Z VRB03KT 3800 HZ FEW020 28/23 Q1010 NOSIG=
25/09/2017 01:30:00Z	 SAID31 WIII 250130	METAR WIII 250130Z 22003KT 4600 HZ FEW020 30/23 Q1010 NOSIG=
25/09/2017 02:00:00Z	 SAID31 WIII 250200	METAR WIII 250200Z VRB03KT 5000 HZ FEW020 30/24 Q1011 NOSIG=
25/09/2017 02:30:00Z	 SAID31 WIII 250230	METAR WIII 250230Z VRB03KT 7000 FEW020 31/23 Q1011 NOSIG=
25/09/2017 03:00:00Z	 SAID31 WIII 250300	METAR WIII 250300Z VRB03KT 7000 SCT020 31/23 Q1011 NOSIG=
25/09/2017 03:30:00Z	 SAID31 WIII 250330	METAR WIII 250330Z VRB04KT 6000 SCT020 31/24 Q1010 NOSIG=
25/09/2017 04:00:00Z	 SAID31 WIII 250400	METAR WIII 250400Z VRB05KT 8000 SCT020 32/24 Q1010 NOSIG=
25/09/2017 04:30:00Z	 SAID31 WIII 250430	METAR WIII 250430Z 06007KT 020V100 9000 FEW020 33/24 Q1009 NOSIG=
25/09/2017 05:00:00Z	 SAID31 WIII 250500	METAR WIII 250500Z 06009KT 010V080 9000 FEW020 33/24 Q1008 NOSIG=
25/09/2017 05:30:00Z	 SAID31 WIII 250530	METAR WIII 250530Z 06010KT 010V080 9000 FEW020 33/24 Q1008 NOSIG=
25/09/2017 06:00:00Z	 SAID31 WIII 250600	METAR WIII 250600Z 05012KT 9000 FEW020 32/24 Q1007 NOSIG=
25/09/2017 06:30:00Z	 SAID31 WIII 250630	METAR WIII 250630Z 06009KT 9000 FEW020 32/24 Q1007 NOSIG=
25/09/2017 07:00:00Z	 SAID31 WIII 250700	METAR WIII 250700Z 05010KT 9999 FEW020 32/24 Q1007 NOSIG=
25/09/2017 07:30:00Z	 SAID31 WIII 250730	METAR WIII 250730Z 05012KT 020V080 9999 FEW020 32/24 Q1006 NOSIG=
25/09/2017 08:00:00Z	 SAID31 WIII 250800	METAR WIII 250800Z 06011KT 9999 FEW020 32/24 Q1006 NOSIG=
25/09/2017 08:30:00Z	 SAID31 WIII 250830	METAR WIII 250830Z 05009KT 9999 FEW020 31/24 Q1006 NOSIG=
25/09/2017 09:00:00Z	 SAID31 WIII 250900	METAR WIII 250900Z 04010KT 9000 FEW020CB FEW020 31/24 Q1006 NOSIG RMK CB TO SW=
25/09/2017 09:30:00Z	 SAID31 WIII 250930	METAR WIII 250930Z 05008KT 8000 FEW020CB FEW020 30/24 Q1006 NOSIG RMK CB TO SW=
25/09/2017 10:00:00Z	 SAID31 WIII 251000	METAR WIII 251000Z 04008KT 010V080 8000 FEW020CB FEW020 30/24 Q1007 NOSIG RMK CB TO S=
25/09/2017 10:30:00Z	 SAID31 WIII 251030	METAR WIII 251030Z VRB05KT 8000 FEW020CB SCT020 30/24 Q1007 NOSIG RMK CB TO S=
25/09/2017 11:00:00Z	 SAID31 WIII 251100	METAR WIII 251100Z 05006KT 7000 SCT020 29/24 Q1007 NOSIG=
25/09/2017 11:30:00Z	 SAID31 WIII 251130	METAR WIII 251130Z 04005KT 6000 VCTS FEW020CB SCT020 29/24 Q1008 NOSIG RMK CB TO SW=
25/09/2017 12:00:00Z	 SAID31 WIII 251200	METAR WIII 251200Z VRB03KT 7000 SCT020 29/25 Q1008 NOSIG=
25/09/2017 12:30:00Z	 SAID31 WIII 251230	METAR WIII 251230Z 22008KT 170V260 4000 SCT020 27/24 Q1009 TEMPO 4000 RA=
25/09/2017 13:00:00Z	 SAID31 WIII 251300	METAR WIII 251300Z 20004KT 4500 HZ SCT020 27/24 Q1009 NOSIG=
25/09/2017 13:30:00Z	 SAID31 WIII 251330	METAR WIII 251330Z VRB02KT 4000 HZ SCT020 27/24 Q1009 NOSIG=
25/09/2017 14:00:00Z	 SAID31 WIII 251400	METAR WIII 251400Z 21004KT 4000 HZ SCT020 27/24 Q1010 NOSIG=
25/09/2017 14:30:00Z	 SAID31 WIII 251430	METAR WIII 251430Z 22002KT 4000 HZ FEW018 27/24 Q1010 NOSIG=
25/09/2017 15:00:00Z	 SAID31 WIII 251500	METAR WIII 251500Z 22003KT 4000 VCTS FEW018CB SCT020 27/24 Q1010 NOSIG RMK CB TO N=
25/09/2017 15:30:00Z	 SAID31 WIII 251530	METAR WIII 251530Z VRB03KT 4000 VCTS FEW018CB SCT020 27/24 Q1010 NOSIG RMK CB TO N=
25/09/2017 16:00:00Z	 SAID31 WIII 251600	METAR WIII 251600Z VRB03KT 4000 HZ SCT018 27/24 Q1010 NOSIG=
25/09/2017 16:30:00Z	 SAID31 WIII 251630	METAR WIII 251630Z 26002KT 4000 BR SCT020 26/24 Q1010 NOSIG=
25/09/2017 17:00:00Z	 SAID31 WIII 251700	METAR WIII 251700Z 22002KT 4000 BR SCT020 26/24 Q1010 NOSIG=
25/09/2017 17:30:00Z	 SAID31 WIII 251730	METAR WIII 251730Z 21002KT 4000 BR FEW018 27/24 Q1009 NOSIG=
25/09/2017 18:00:00Z	 SAID31 WIII 251800	METAR WIII 251800Z 22003KT 4000 BR FEW018 26/24 Q1009 NOSIG=
25/09/2017 18:30:00Z	 SAID31 WIII 251830	METAR WIII 251830Z 22004KT 4000 BR FEW018 26/24 Q1009 NOSIG=
25/09/2017 19:00:00Z	 SAID31 WIII 251900	METAR WIII 251900Z 23004KT 4000 BR SCT020 26/24 Q1008 NOSIG=
25/09/2017 19:30:00Z	 SAID31 WIII 251930	METAR WIII 251930Z 25003KT 4000 BR FEW018 26/24 Q1009 NOSIG=
25/09/2017 20:00:00Z	 SAID31 WIII 252000	METAR WIII 252000Z 23004KT 3200 BR SCT020 26/24 Q1009 NOSIG=
25/09/2017 20:30:00Z	 SAID31 WIII 252030	METAR WIII 252030Z 21002KT 3300 BR SCT020 26/24 Q1008 NOSIG=
25/09/2017 21:00:00Z	 SAID31 WIII 252100	METAR WIII 252100Z 23002KT 3700 BR SCT020 26/24 Q1008 NOSIG=
25/09/2017 21:30:00Z	 SAID31 WIII 252130	METAR WIII 252130Z 23002KT 3700 BR FEW020 26/24 Q1008 NOSIG=
25/09/2017 22:00:00Z	 SAID31 WIII 252200	METAR WIII 252200Z 20003KT 3800 BR FEW020 26/24 Q1009 NOSIG=
25/09/2017 22:30:00Z	 SAID31 WIII 252230	METAR WIII 252230Z 18004KT 5000 HZ FEW020 26/24 Q1009 NOSIG=
25/09/2017 23:00:00Z	 SAID31 WIII 252300	METAR WIII 252300Z 20003KT 5000 HZ FEW021 26/24 Q1009 NOSIG=
25/09/2017 23:30:00Z	 SAID31 WIII 252330	METAR WIII 252330Z 18005KT 6000 FEW021 27/24 Q1010 NOSIG=
26/09/2017 00:00:00Z	 SAID31 WIII 260000	METAR WIII 260000Z 19004KT 8000 FEW022 28/24 Q1010 NOSIG=
26/09/2017 00:30:00Z	 SAID31 WIII 260030	METAR WIII 260030Z 19004KT 8000 FEW020 28/24 Q1010 NOSIG=
26/09/2017 01:00:00Z	 SAID31 WIII 260100	METAR WIII 260100Z VRB05KT 7000 FEW021 30/24 Q1011 NOSIG=
26/09/2017 01:30:00Z	 SAID31 WIII 260130	METAR WIII 260130Z 17005KT 8000 FEW022 31/23 Q1011 NOSIG=
26/09/2017 02:00:00Z	 SAID31 WIII 260200	METAR WIII 260200Z 13010KT 060V180 9000 SCT023 32/24 Q1011 NOSIG=
26/09/2017 02:30:00Z	 SAID31 WIII 260230	METAR WIII 260230Z 13013KT 8000 SCT021 32/23 Q1011 NOSIG=
26/09/2017 03:00:00Z	 SAID31 WIII 260300	METAR WIII 260300Z 10015KT 8000 BKN020 31/23 Q1011 NOSIG=
26/09/2017 03:30:00Z	 SAID31 WIII 260330	METAR WIII 260330Z 11014KT 9000 SCT020 32/23 Q1010 NOSIG=
26/09/2017 04:00:00Z	 SAID31 WIII 260400	METAR WIII 260400Z 10013G18KT 9999 SCT020 32/24 Q1010 NOSIG=
26/09/2017 04:30:00Z	 SAID31 WIII 260430	METAR WIII 260430Z 08015KT 9000 SCT020 32/24 Q1010 NOSIG=
26/09/2017 05:00:00Z	 SAID31 WIII 260500	METAR WIII 260500Z 07015KT 9000 SCT023 33/24 Q1009 NOSIG=
26/09/2017 05:30:00Z	 SAID31 WIII 260530	METAR WIII 260530Z 09013KT 9999 SCT023 33/24 Q1008 NOSIG=
26/09/2017 06:00:00Z	 SAID31 WIII 260600	METAR WIII 260600Z 06013KT 9000 SCT020 33/24 Q1008 NOSIG=
26/09/2017 06:30:00Z	 SAID31 WIII 260630	METAR WIII 260630Z 06013KT 9000 SCT022 33/24 Q1007 NOSIG=
26/09/2017 07:00:00Z	 SAID31 WIII 260700	METAR WIII 260700Z 06015KT 9999 FEW021 33/25 Q1007 NOSIG=
26/09/2017 07:30:00Z	 SAID31 WIII 260730	METAR WIII 260730Z 07016KT 9999 FEW021 32/25 Q1007 NOSIG=
26/09/2017 08:00:00Z	 SAID31 WIII 260800	METAR WIII 260800Z 06012KT 9999 FEW022 32/25 Q1007 NOSIG=
26/09/2017 08:30:00Z	 SAID31 WIII 260830	METAR WIII 260830Z 06012KT 9999 FEW022 32/25 Q1007 NOSIG=
26/09/2017 09:00:00Z	 SAID31 WIII 260900	METAR WIII 260900Z 06012KT 9999 FEW023 31/24 Q1007 NOSIG=
26/09/2017 09:30:00Z	 SAID31 WIII 260930	METAR WIII 260930Z 06011KT 9999 FEW023 31/24 Q1007 NOSIG=
26/09/2017 10:00:00Z	 SAID31 WIII 261000	METAR WIII 261000Z 06012KT 9999 FEW022 31/24 Q1008 NOSIG=
26/09/2017 10:30:00Z	 SAID31 WIII 261030	METAR WIII 261030Z 06008KT 9999 FEW023 30/24 Q1008 NOSIG=
26/09/2017 11:00:00Z	 SAID31 WIII 261100	METAR WIII 261100Z 07007KT 8000 FEW023 29/25 Q1008 NOSIG=
26/09/2017 11:30:00Z	 SAID31 WIII 261130	METAR WIII 261130Z 07007KT 8000 FEW023 29/25 Q1008 NOSIG=
26/09/2017 12:00:00Z	 SAID31 WIII 261200	METAR WIII 261200Z 07010KT 8000 FEW023 29/25 Q1009 NOSIG=
26/09/2017 12:30:00Z	 SAID31 WIII 261230	METAR WIII 261230Z 08009KT 8000 FEW023 29/25 Q1010 NOSIG=
26/09/2017 13:00:00Z	 SAID31 WIII 261300	METAR WIII 261300Z 08009KT 7000 FEW021 29/25 Q1010 NOSIG=
26/09/2017 13:30:00Z	 SAID31 WIII 261330	METAR WIII 261330Z 09008KT 7000 FEW020 28/25 Q1010 NOSIG=
26/09/2017 14:00:00Z	 SAID31 WIII 261400	METAR WIII 261400Z 21007KT 140V240 7000 SCT020 29/25 Q1010 NOSIG=
26/09/2017 14:30:00Z	 SAID31 WIII 261430	METAR WIII 261430Z 23005KT 7000 FEW020CB SCT020 28/24 Q1010 NOSIG RMK CB TO W=
26/09/2017 15:00:00Z	 SAID31 WIII 261500	METAR WIII 261500Z 21008KT 7000 FEW020CB SCT020 28/24 Q1010 TEMPO 16010KT 3000 TSRA RMK CB TO W=
26/09/2017 15:30:00Z	 SAID31 WIII 261530	METAR WIII 261530Z 15006KT 070V190 7000 FEW020CB SCT020 28/24 Q1010 NOSIG RMK CB TO W=
26/09/2017 16:00:00Z	 SAID31 WIII 261600	METAR WIII 261600Z 28006KT 7000 FEW020CB SCT020 28/24 Q1010 NOSIG RMK CB TO W=
26/09/2017 16:30:00Z	 SAID31 WIII 261630	METAR WIII 261630Z 28005KT 5000 HZ SCT020 26/25 Q1010 NOSIG=
26/09/2017 17:00:00Z	 SAID31 WIII 261700	METAR WIII 261700Z 24002KT 5000 -RA SCT020 26/25 Q1010 TEMPO RA=
26/09/2017 17:30:00Z	 SAID31 WIII 261730	METAR WIII 261730Z 28004KT 3900 HZ BKN020 26/25 Q1009 NOSIG=
26/09/2017 18:00:00Z	 SAID31 WIII 261800	METAR WIII 261800Z VRB04KT 3300 HZ BKN020 26/25 Q1009 NOSIG=
26/09/2017 18:30:00Z	 SAID31 WIII 261830	METAR WIII 261830Z 28010KT 260V340 2600 HZ BKN020 26/25 Q1009 NOSIG=
26/09/2017 19:00:00Z	 SAID31 WIII 261900	METAR WIII 261900Z 21006KT 200V270 3000 RA FEW020CB BKN020 25/25 Q1009 NOSIG RMK CB TO W=
26/09/2017 20:00:00Z	 SAID31 WIII 262000	METAR WIII 262000Z 21007KT 5000 VCTS FEW020CB SCT020 25/25 Q1009 RERA NOSIG CB TO NW=
26/09/2017 20:30:00Z	 SAID31 WIII 262030	METAR WIII 262030Z VRB03KT 6000 SCT020 25/24 Q1009 NOSIG=
26/09/2017 21:00:00Z	 SAID31 WIII 262100	METAR WIII 262100Z VRB04KT 6000 BKN020 25/25 Q1009 NOSIG=
26/09/2017 21:30:00Z	 SAID31 WIII 262130	METAR WIII 262130Z 31005KT 2000 TSRA SCT018CB BKN020 25/25 Q1010 NOSIG RMK CB OVER THE FIELD=
26/09/2017 22:00:00Z	 SAID31 WIII 262200	METAR WIII 262200Z 31007KT 4000 TSRA SCT018CB BKN020 25/25 Q1010 NOSIG RMK CB OVER THE FIELD=
26/09/2017 22:30:00Z	 SAID31 WIII 262230	METAR WIII 262230Z 31015KT 2100 TSRA SCT018CB BKN018 24/24 Q1010 NOSIG RMK CB OVER THE FIELD=
26/09/2017 23:00:00Z	 SAID31 WIII 262300	METAR WIII 262300Z 30007KT 4000 TSRA SCT018CB BKN018 24/24 Q1011 NOSIG RMK CB OVER THE FIELD=
26/09/2017 23:30:00Z	 SAID31 WIII 262330	METAR WIII 262330Z 25010KT 3000 TSRA SCT018CB BKN018 24/24 Q1011 NOSIG RMK CB TO SW=
27/09/2017 00:00:00Z	 SAID31 WIII 270000	METAR WIII 270000Z 20005KT 5000 -TSRA SCT018CB BKN018 24/24 Q1012 NOSIG RMK CB TO S=
27/09/2017 00:30:00Z	 SAID31 WIII 270030	METAR WIII 270030Z 18003KT 6000 -RA BKN019 24/24 Q1012 NOSIG=
27/09/2017 01:00:00Z	 SAID31 WIII 270100	METAR WIII 270100Z VRB05KT 6000 -RA BKN019 24/24 Q1012 NOSIG=
27/09/2017 01:30:00Z	 SAID31 WIII 270130	METAR WIII 270130Z VRB05KT 5000 -RA BKN018 25/25 Q1013 NOSIG=
27/09/2017 02:00:00Z	 SAID31 WIII 270200	METAR WIII 270200Z 20005KT 7000 BKN018 25/25 Q1013 RERA NOSIG=
27/09/2017 02:30:00Z	 SAID31 WIII 270230	METAR WIII 270230Z 19005KT 8000 BKN019 26/25 Q1013 NOSIG=
27/09/2017 03:00:00Z	 SAID31 WIII 270300	METAR WIII 270300Z 20005KT 8000 BKN020 26/25 Q1013 NOSIG=
27/09/2017 03:30:00Z	 SAID31 WIII 270330	METAR WIII 270330Z 21005KT 8000 -RA BKN019 26/25 Q1013 NOSIG=
27/09/2017 04:00:00Z	 SAID31 WIII 270400	METAR WIII 270400Z 20005KT 8000 BKN020 26/25 Q1012 RERA NOSIG=
27/09/2017 04:30:00Z	 SAID31 WIII 270430	METAR WIII 270430Z VRB04KT 8000 BKN020 27/24 Q1012 NOSIG=
27/09/2017 05:00:00Z	 SAID31 WIII 270500	METAR WIII 270500Z VRB04KT 8000 BKN020 27/25 Q1011 NOSIG=
27/09/2017 05:30:00Z	 SAID31 WIII 270530	METAR WIII 270530Z 17005KT 7000 BKN020 27/25 Q1011 RERA NOSIG=
27/09/2017 06:00:00Z	 SAID31 WIII 270600	METAR WIII 270600Z VRB05KT 8000 SCT020 27/25 Q1010 NOSIG=
27/09/2017 06:30:00Z	 SAID31 WIII 270630	METAR WIII 270630Z VRB04KT 8000 SCT020 28/24 Q1010 NOSIG=
27/09/2017 07:00:00Z	 SAID31 WIII 270700	METAR WIII 270700Z VRB03KT 8000 BKN020 28/24 Q1010 NOSIG=
27/09/2017 07:30:00Z	 SAID31 WIII 270730	METAR WIII 270730Z VRB03KT 8000 BKN020 28/24 Q1009 NOSIG=
27/09/2017 08:00:00Z	 SAID31 WIII 270800	METAR WIII 270800Z VRB04KT 8000 -RA BKN020 28/24 Q1010 NOSIG=
27/09/2017 08:30:00Z	 SAID31 WIII 270830	METAR WIII 270830Z VRB04KT 8000 -RA BKN020 27/24 Q1010 TEMPO 5000 RA=
27/09/2017 09:00:00Z	 SAID31 WIII 270900	METAR WIII 270900Z VRB05KT 2000 RA BKN020 26/25 Q1010 NOSIG=
27/09/2017 09:30:00Z	 SAID31 WIII 270930	METAR WIII 270930Z 11007KT 070V130 3000 RA BKN020 26/25 Q1010 NOSIG=
27/09/2017 10:00:00Z	 SAID31 WIII 271000	METAR WIII 271000Z 14005KT 4000 -RA BKN020 26/26 Q1010 NOSIG=
27/09/2017 10:30:00Z	 SAID31 WIII 271030	METAR WIII 271030Z 18005KT 4000 -RA BKN019 26/25 Q1010 NOSIG=
27/09/2017 11:00:00Z	 SAID31 WIII 271100	METAR WIII 271100Z VRB03KT 4500 -RA BKN020 26/25 Q1010 NOSIG=
27/09/2017 11:30:00Z	 SAID31 WIII 271130	METAR WIII 271130Z 21004KT 4000 -RA BKN020 26/26 Q1010 NOSIG=
27/09/2017 12:00:00Z	 SAID31 WIII 271200	METAR WIII 271200Z VRB03KT 5000 -RA BKN020 26/25 Q1011 NOSIG=
27/09/2017 12:30:00Z	 SAID31 WIII 271230	METAR WIII 271230Z VRB03KT 4000 -RA BKN020 26/25 Q1011 NOSIG=
27/09/2017 13:00:00Z	 SAID31 WIII 271300	METAR WIII 271300Z VRB02KT 4200 -RA BKN020 26/25 Q1012 NOSIG=
27/09/2017 13:30:00Z	 SAID31 WIII 271330	METAR WIII 271330Z VRB02KT 4000 -RA SCT020 25/25 Q1012 NOSIG=
27/09/2017 14:00:00Z	 SAID31 WIII 271400	METAR WIII 271400Z VRB02KT 5000 -RA BKN020 25/25 Q1012 NOSIG=
27/09/2017 14:30:00Z	 SAID31 WIII 271430	METAR WIII 271430Z 23004KT 4000 BR SCT020 26/25 Q1012 RERA NOSIG=
27/09/2017 15:00:00Z	 SAID31 WIII 271500	METAR WIII 271500Z 25003KT 3500 BR SCT020 26/26 Q1012 NOSIG=
27/09/2017 15:30:00Z	 SAID31 WIII 271530	METAR WIII 271530Z VRB02KT 3000 BR SCT020 26/25 Q1012 NOSIG=
27/09/2017 16:00:00Z	 SAID31 WIII 271600	METAR WIII 271600Z VRB02KT 3200 BR SCT020 26/25 Q1012 NOSIG=
27/09/2017 16:30:00Z	 SAID31 WIII 271630	METAR WIII 271630Z 27003KT 3500 BR SCT020 25/25 Q1011 NOSIG=
27/09/2017 17:30:00Z	 SAID31 WIII 271730	METAR WIII 271730Z 31001KT 2000 BR SCT020 25/25 Q1011 NOSIG=
27/09/2017 18:30:00Z	 SAID31 WIII 271830	METAR WIII 271830Z VRB01KT 2100 BR SCT020 25/25 Q1010 NOSIG=
27/09/2017 19:00:00Z	 SAID31 WIII 271900	METAR WIII 271900Z VRB01KT 2100 BR FEW023 25/25 Q1010 NOSIG=
27/09/2017 19:30:00Z	 SAID31 WIII 271930	METAR COR WIII 271930Z VRB01KT 2100 BR SCT023 25/25 Q1010 NOSIG=
27/09/2017 20:00:00Z	 SAID31 WIII 272000	METAR WIII 272000Z VRB01KT 2100 BR SCT023 25/25 Q1010 NOSIG=
27/09/2017 20:30:00Z	 SAID31 WIII 272030	METAR WIII 272030Z VRB02KT 2100 -RA BKN023 25/25 Q1010 NOSIG=
27/09/2017 21:00:00Z	 SAID31 WIII 272100	METAR WIII 272100Z VRB02KT 2900 -RA BKN023 25/25 Q1010 RESHRA NOSIG=
27/09/2017 21:30:00Z	 SAID31 WIII 272130	METAR WIII 272130Z 00000KT 2600 BR SCT020 25/25 Q1010 RERA NOSIG=
27/09/2017 22:00:00Z	 SAID31 WIII 272200	METAR WIII 272200Z VRB02KT 3500 BR SCT020 25/25 Q1011 NOSIG=
27/09/2017 22:30:00Z	 SAID31 WIII 272230	METAR WIII 272230Z 22003KT 2100 BR SCT020 25/25 Q1011 NOSIG=
27/09/2017 23:00:00Z	 SAID31 WIII 272300	METAR WIII 272300Z VRB03KT 2300 BR SCT019 25/25 Q1012 NOSIG=
27/09/2017 23:30:00Z	 SAID31 WIII 272330	METAR WIII 272330Z 00000KT 4000 -RA BKN019 26/25 Q1012 NOSIG=
28/09/2017 00:00:00Z	 SAID31 WIII 280000	METAR WIII 280000Z 32002KT 2400 BR BKN019 25/25 Q1012 NOSIG=
28/09/2017 00:30:00Z	 SAID31 WIII 280030	METAR WIII 280030Z 11004KT 3000 BR BKN020 26/25 Q1013 NOSIG=
28/09/2017 01:00:00Z	 SAID31 WIII 280100	METAR WIII 280100Z 09008KT 3500 -RA BKN020 25/25 Q1013 NOSIG=
28/09/2017 01:30:00Z	 SAID31 WIII 280130	METAR WIII 280130Z VRB04KT 4000 -RA BKN020 26/26 Q1013 NOSIG=
28/09/2017 02:00:00Z	 SAID31 WIII 280200	METAR WIII 280200Z VRB04KT 5000 SCT020 27/26 Q1012 RERA NOSIG=
28/09/2017 02:30:00Z	 SAID31 WIII 280230	METAR WIII 280230Z VRB04KT 7000 SCT020 28/26 Q1012 NOSIG=
28/09/2017 03:00:00Z	 SAID31 WIII 280300	METAR WIII 280300Z VRB04KT 8000 SCT020 29/25 Q1012 NOSIG=
28/09/2017 03:30:00Z	 SAID31 WIII 280330	METAR WIII 280330Z VRB04KT 9000 SCT020 30/25 Q1012 NOSIG=
28/09/2017 04:00:00Z	 SAID31 WIII 280400	METAR WIII 280400Z VRB05KT 9999 FEW020 31/25 Q1011 NOSIG=
28/09/2017 04:30:00Z	 SAID31 WIII 280430	METAR WIII 280430Z VRB05KT 9999 FEW021 31/25 Q1010 NOSIG=
28/09/2017 05:00:00Z	 SAID31 WIII 280500	METAR WIII 280500Z VRB03KT 9999 SCT020 31/25 Q1010 NOSIG=
28/09/2017 05:30:00Z	 SAID31 WIII 280530	METAR WIII 280530Z 03006KT 9000 SCT020 31/25 Q1009 NOSIG=
28/09/2017 06:00:00Z	 SAID31 WIII 280600	METAR WIII 280600Z 07007KT 9000 SCT020 31/26 Q1009 NOSIG=
28/09/2017 06:30:00Z	 SAID31 WIII 280630	METAR WIII 280630Z 07007KT 8000 FEW020 31/25 Q1008 NOSIG=
28/09/2017 07:00:00Z	 SAID31 WIII 280700	METAR WIII 280700Z 05008KT 9000 FEW020 31/25 Q1008 NOSIG=
28/09/2017 07:30:00Z	 SAID31 WIII 280730	METAR WIII 280730Z 05008KT 9999 FEW020 31/24 Q1008 NOSIG=
28/09/2017 08:00:00Z	 SAID31 WIII 280800	METAR WIII 280800Z 04008KT 9999 FEW020 30/24 Q1008 NOSIG=
28/09/2017 08:30:00Z	 SAID31 WIII 280830	METAR WIII 280830Z 04006KT 9999 FEW020 31/25 Q1008 NOSIG=
28/09/2017 09:00:00Z	 SAID31 WIII 280900	METAR WIII 280900Z 05007KT 9999 FEW020 30/25 Q1007 NOSIG=
28/09/2017 09:30:00Z	 SAID31 WIII 280930	METAR WIII 280930Z 04006KT 9999 FEW021 30/25 Q1008 NOSIG=
28/09/2017 10:00:00Z	 SAID31 WIII 281000	METAR WIII 281000Z 05006KT 9999 FEW021 29/25 Q1008 NOSIG=
28/09/2017 10:30:00Z	 SAID31 WIII 281030	METAR WIII 281030Z 05006KT 9999 FEW021 29/25 Q1008 NOSIG=
28/09/2017 11:00:00Z	 SAID31 WIII 281100	METAR WIII 281100Z 05005KT 9999 FEW021 28/25 Q1008 NOSIG=
28/09/2017 11:30:00Z	 SAID31 WIII 281130	METAR WIII 281130Z 06004KT 9999 FEW021 28/25 Q1009 NOSIG=
28/09/2017 12:00:00Z	 SAID31 WIII 281200	METAR WIII 281200Z 05002KT 9000 FEW022 28/25 Q1010 NOSIG=
28/09/2017 12:30:00Z	 SAID31 WIII 281230	METAR WIII 281230Z 03002KT 9000 FEW022 28/25 Q1010 NOSIG=
28/09/2017 13:00:00Z	 SAID31 WIII 281300	METAR WIII 281300Z VRB03KT 5000 FEW023 28/26 Q1011 NOSIG=
28/09/2017 13:30:00Z	 SAID31 WIII 281330	METAR WIII 281330Z VRB03KT 5000 FEW023 27/26 Q1011 NOSIG=
28/09/2017 14:00:00Z	 SAID31 WIII 281400	METAR WIII 281400Z VRB02KT 4300 SCT023 28/26 Q1011 NOSIG=
28/09/2017 14:30:00Z	 SAID31 WIII 281430	METAR WIII 281430Z 31002KT 3300 HZ SCT020 28/26 Q1011 NOSIG=
28/09/2017 15:00:00Z	 SAID31 WIII 281500	METAR WIII 281500Z 28004KT 4400 HZ SCT023 27/26 Q1011 NOSIG=
28/09/2017 15:30:00Z	 SAID31 WIII 281530	METAR WIII 281530Z 29003KT 4500 HZ FEW023 27/25 Q1011 NOSIG=
28/09/2017 16:00:00Z	 SAID31 WIII 281600	METAR WIII 281600Z VRB02KT 5000 HZ FEW023 27/24 Q1012 NOSIG=
28/09/2017 16:30:00Z	 SAID31 WIII 281630	METAR WIII 281630Z 26003KT 5000 HZ FEW022 26/24 Q1011 NOSIG=
28/09/2017 17:00:00Z	 SAID31 WIII 281700	METAR WIII 281700Z 24004KT 5000 HZ FEW023 26/25 Q1011 NOSIG=
28/09/2017 17:30:00Z	 SAID31 WIII 281730	METAR WIII 281730Z 24003KT 4800 HZ FEW022 26/25 Q1010 NOSIG=
28/09/2017 18:00:00Z	 SAID31 WIII 281800	METAR WIII 281800Z 22003KT 5000 HZ FEW022 26/25 Q1010 NOSIG=
28/09/2017 18:30:00Z	 SAID31 WIII 281830	METAR WIII 281830Z 20003KT 7000 FEW022 26/25 Q1010 NOSIG=
28/09/2017 19:00:00Z	 SAID31 WIII 281900	METAR WIII 281900Z 22003KT 8000 FEW022 26/25 Q1010 NOSIG=
28/09/2017 19:30:00Z	 SAID31 WIII 281930	METAR WIII 281930Z 19002KT 7000 FEW022 26/25 Q1010 NOSIG=
28/09/2017 20:00:00Z	 SAID31 WIII 282000	METAR WIII 282000Z 23002KT 8000 FEW023 26/25 Q1010 NOSIG=
28/09/2017 20:30:00Z	 SAID31 WIII 282030	METAR WIII 282030Z 22002KT 5000 BR FEW023 26/25 Q1010 NOSIG=
28/09/2017 21:00:00Z	 SAID31 WIII 282100	METAR WIII 282100Z 24002KT 6000 FEW023 26/25 Q1010 NOSIG=
28/09/2017 21:30:00Z	 SAID31 WIII 282130	METAR WIII 282130Z 22002KT 6000 FEW023 26/25 Q1010 NOSIG=
28/09/2017 22:00:00Z	 SAID31 WIII 282200	METAR WIII 282200Z 22002KT 6000 FEW023 25/25 Q1010 NOSIG=
28/09/2017 22:30:00Z	 SAID31 WIII 282230	METAR WIII 282230Z VRB02KT 6000 FEW023 26/25 Q1011 NOSIG=
28/09/2017 23:00:00Z	 SAID31 WIII 282300	METAR WIII 282300Z VRB03KT 5000 HZ FEW023 27/25 Q1011 NOSIG=
28/09/2017 23:30:00Z	 SAID31 WIII 282330	METAR WIII 282330Z 22003KT 4500 HZ FEW023 27/25 Q1011 NOSIG=
29/09/2017 00:00:00Z	 SAID31 WIII 290000	METAR WIII 290000Z 18005KT 5000 HZ FEW023 28/26 Q1011 NOSIG=
29/09/2017 00:30:00Z	 SAID31 WIII 290030	METAR WIII 290030Z 15006KT 5000 HZ FEW023 29/26 Q1012 NOSIG=
29/09/2017 01:00:00Z	 SAID31 WIII 290100	METAR WIII 290100Z 11007KT 070V150 6000 SCT022 30/26 Q1012 NOSIG=
29/09/2017 01:30:00Z	 SAID31 WIII 290130	METAR WIII 290130Z 11010KT 7000 SCT022 30/25 Q1012 NOSIG=
29/09/2017 02:00:00Z	 SAID31 WIII 290200	METAR WIII 290200Z 09010KT 070V130 9000 SCT020 31/25 Q1012 NOSIG=
29/09/2017 02:30:00Z	 SAID31 WIII 290230	METAR WIII 290230Z 07010KT 8000 SCT020 31/25 Q1012 NOSIG=
29/09/2017 03:00:00Z	 SAID31 WIII 290300	METAR WIII 290300Z 06010KT 9000 SCT020 32/26 Q1011 NOSIG=
29/09/2017 03:30:00Z	 SAID31 WIII 290330	METAR WIII 290330Z 05010KT 030V090 9999 SCT020 32/25 Q1011 NOSIG=
29/09/2017 04:00:00Z	 SAID31 WIII 290400	METAR WIII 290400Z 05011KT 9999 SCT022 32/26 Q1011 NOSIG=
29/09/2017 04:30:00Z	 SAID31 WIII 290430	METAR WIII 290430Z 05010KT 9999 FEW018 32/26 Q1010 NOSIG=
29/09/2017 05:00:00Z	 SAID31 WIII 290500	METAR WIII 290500Z 04011KT 9999 FEW018 32/26 Q1010 NOSIG=
29/09/2017 05:30:00Z	 SAID31 WIII 290530	METAR WIII 290530Z 05011KT 360V070 9999 FEW018 32/25 Q1010 NOSIG=
29/09/2017 06:00:00Z	 SAID31 WIII 290600	METAR WIII 290600Z 05010KT 010V080 9999 FEW018 32/25 Q1009 NOSIG=
29/09/2017 06:30:00Z	 SAID31 WIII 290630	METAR WIII 290630Z 04010KT 9999 FEW018 32/26 Q1009 NOSIG=
29/09/2017 07:00:00Z	 SAID31 WIII 290700	METAR WIII 290700Z 06011KT 9999 FEW018 32/26 Q1008 NOSIG=
29/09/2017 07:30:00Z	 SAID31 WIII 290730	METAR WIII 290730Z 05011KT 9999 FEW018 31/26 Q1008 NOSIG=
29/09/2017 08:00:00Z	 SAID31 WIII 290800	METAR WIII 290800Z 05010KT 9999 FEW018 31/26 Q1008 NOSIG=
29/09/2017 08:30:00Z	 SAID31 WIII 290830	METAR WIII 290830Z 05009KT 9999 FEW018 31/26 Q1008 NOSIG=
29/09/2017 09:00:00Z	 SAID31 WIII 290900	METAR WIII 290900Z 04008KT 9999 FEW018CB FEW020 31/25 Q1008 NOSIG RMK CB TO S=
29/09/2017 09:30:00Z	 SAID31 WIII 290930	METAR WIII 290930Z 06010KT 9000 FEW018CB SCT020 30/24 Q1008 NOSIG RMK CB TO S=
29/09/2017 10:00:00Z	 SAID31 WIII 291000	METAR WIII 291000Z 05010KT 9000 FEW018CB SCT021 30/25 Q1009 NOSIG RMK CB TO S=
29/09/2017 10:30:00Z	 SAID31 WIII 291030	METAR WIII 291030Z 07007KT 8000 FEW018CB SCT020 30/26 Q1009 NOSIG RMK CB TO S=
29/09/2017 11:00:00Z	 SAID31 WIII 291100	METAR WIII 291100Z VRB05KT 8000 FEW018CB SCT020 29/26 Q1009 NOSIG RMK CB TO S=
29/09/2017 11:30:00Z	 SAID31 WIII 291130	METAR WIII 291130Z 04004KT 8000 FEW018CB SCT020 29/26 Q1010 NOSIG RMK CB TO SE=
29/09/2017 12:00:00Z	 SAID31 WIII 291200	METAR WIII 291200Z VRB03KT 8000 FEW018CB SCT020 29/26 Q1010 NOSIG RMK CB TO S=
29/09/2017 12:30:00Z	 SAID31 WIII 291230	METAR WIII 291230Z 22010KT 180V240 7000 FEW018CB SCT022 28/25 Q1011 NOSIG RMK CB TO SE=
29/09/2017 13:00:00Z	 SAID31 WIII 291300	METAR WIII 291300Z 22008KT 7000 FEW018CB BKN022 27/25 Q1011 NOSIG RMK CB TO SW=
29/09/2017 13:30:00Z	 SAID31 WIII 291330	METAR WIII 291330Z 21009KT 5000 -RA FEW018CB BKN020 26/25 Q1011 NOSIG RMK CB TO S=
29/09/2017 14:00:00Z	 SAID31 WIII 291400	METAR WIII 291400Z 20006KT 180V350 5000 -RA BKN020 26/25 Q1012 NOSIG=
29/09/2017 14:30:00Z	 SAID31 WIII 291430	METAR WIII 291430Z 18004KT 5000 HZ BKN020 26/25 Q1011 RERA NOSIG=
29/09/2017 15:00:00Z	 SAID31 WIII 291500	METAR WIII 291500Z 21004KT 5000 -DZ BKN020 26/25 Q1012 NOSIG=
29/09/2017 15:30:00Z	 SAID31 WIII 291530	METAR WIII 291530Z 15006KT 100V180 5000 HZ BKN020 26/25 Q1012 NOSIG=
29/09/2017 16:00:00Z	 SAID31 WIII 291600	METAR WIII 291600Z 17006KT 5000 HZ SCT020 26/24 Q1012 NOSIG=
29/09/2017 16:30:00Z	 SAID31 WIII 291630	METAR WIII 291630Z 20004KT 5000 HZ SCT020 26/25 Q1012 NOSIG=
29/09/2017 17:00:00Z	 SAID31 WIII 291700	METAR WIII 291700Z 17004KT 5000 HZ SCT020 26/25 Q1012 NOSIG=
29/09/2017 17:30:00Z	 SAID31 WIII 291730	METAR WIII 291730Z 21002KT 5000 HZ SCT020 26/25 Q1011 NOSIG=
29/09/2017 18:00:00Z	 SAID31 WIII 291800	METAR WIII 291800Z 19003KT 5000 HZ SCT020 26/25 Q1011 NOSIG=
29/09/2017 18:30:00Z	 SAID31 WIII 291830	METAR WIII 291830Z VRB03KT 5000 HZ SCT020 26/25 Q1011 NOSIG=
29/09/2017 19:00:00Z	 SAID31 WIII 291900	METAR WIII 291900Z VRB03KT 5000 HZ SCT020 26/25 Q1011 NOSIG=
29/09/2017 19:30:00Z	 SAID31 WIII 291930	METAR WIII 291930Z 14004KT 5000 HZ SCT020 26/25 Q1011 NOSIG=
29/09/2017 20:00:00Z	 SAID31 WIII 292000	METAR WIII 292000Z 17004KT 5000 HZ SCT020 26/25 Q1011 NOSIG=
29/09/2017 20:30:00Z	 SAID31 WIII 292030	METAR WIII 292030Z 20003KT 5000 HZ FEW023 26/25 Q1010 NOSIG=
29/09/2017 21:00:00Z	 SAID31 WIII 292100	METAR WIII 292100Z 26003KT 5000 BR FEW023 26/25 Q1010 NOSIG=
29/09/2017 21:30:00Z	 SAID31 WIII 292130	METAR WIII 292130Z 17002KT 6000 FEW023 25/25 Q1011 NOSIG=
29/09/2017 22:00:00Z	 SAID31 WIII 292200	METAR WIII 292200Z 18003KT 5000 FEW023 25/25 Q1011 NOSIG=
29/09/2017 22:30:00Z	 SAID31 WIII 292230	METAR WIII 292230Z VRB02KT 6000 FEW023 26/25 Q1011 NOSIG=
29/09/2017 23:00:00Z	 SAID31 WIII 292300	METAR WIII 292300Z 20004KT 080V260 6000 FEW022 26/25 Q1011 NOSIG=
29/09/2017 23:30:00Z	 SAID31 WIII 292330	METAR WIII 292330Z VRB03KT 6000 FEW023 27/25 Q1012 NOSIG=
30/09/2017 00:00:00Z	 SAID31 WIII 300000	METAR WIII 300000Z VRB03KT 5000 HZ FEW023 27/25 Q1012 NOSIG=
30/09/2017 00:30:00Z	 SAID31 WIII 300030	METAR WIII 300030Z VRB02KT 5000 HZ FEW023 29/25 Q1012 NOSIG=
30/09/2017 01:00:00Z	 SAID31 WIII 300100	METAR WIII 300100Z VRB03KT 5000 HZ FEW023 29/25 Q1013 NOSIG=
30/09/2017 01:30:00Z	 SAID31 WIII 300130	METAR WIII 300130Z VRB02KT 5000 HZ FEW023 30/25 Q1013 NOSIG=
30/09/2017 02:00:00Z	 SAID31 WIII 300200	METAR WIII 300200Z VRB04KT 5000 HZ SCT022 31/25 Q1013 NOSIG=
30/09/2017 02:30:00Z	 SAID31 WIII 300230	METAR WIII 300230Z 06007KT 010V100 7000 SCT022 31/25 Q1013 NOSIG=
30/09/2017 03:00:00Z	 SAID31 WIII 300300	METAR WIII 300300Z 06007KT 030V110 8000 SCT020 32/25 Q1012 NOSIG=
30/09/2017 03:30:00Z	 SAID31 WIII 300330	METAR WIII 300330Z 06007KT 8000 SCT020 32/24 Q1012 NOSIG=
30/09/2017 04:00:00Z	 SAID31 WIII 300400	METAR WIII 300400Z 04007KT 350V080 8000 FEW020 31/24 Q1012 NOSIG=
30/09/2017 04:30:00Z	 SAID31 WIII 300430	METAR WIII 300430Z 02006KT 330V060 8000 FEW020 32/24 Q1011 NOSIG=
30/09/2017 05:00:00Z	 SAID31 WIII 300500	METAR WIII 300500Z 03008KT 350V060 9000 FEW020 32/24 Q1011 NOSIG=
30/09/2017 05:30:00Z	 SAID31 WIII 300530	METAR WIII 300530Z 04007KT 340V070 9999 FEW020 32/25 Q1010 NOSIG=
30/09/2017 06:00:00Z	 SAID31 WIII 300600	METAR WIII 300600Z 02007KT 330V060 9999 FEW020 32/25 Q1010 NOSIG=
30/09/2017 06:30:00Z	 SAID31 WIII 300630	METAR WIII 300630Z 01007KT 330V060 9999 FEW020 32/24 Q1010 NOSIG=
30/09/2017 07:00:00Z	 SAID31 WIII 300700	METAR WIII 300700Z 36007KT 320V050 9999 FEW020 32/24 Q1009 NOSIG=
30/09/2017 07:30:00Z	 SAID31 WIII 300730	METAR WIII 300730Z 01007KT 320V040 9999 FEW020 32/24 Q1009 NOSIG=
30/09/2017 08:00:00Z	 SAID31 WIII 300800	METAR WIII 300800Z 06007KT 9999 FEW020 32/24 Q1009 NOSIG=
30/09/2017 08:30:00Z	 SAID31 WIII 300830	METAR WIII 300830Z 03007KT 350V050 9999 FEW020 31/24 Q1008 NOSIG=
30/09/2017 09:00:00Z	 SAID31 WIII 300900	METAR WIII 300900Z VRB05KT 9999 FEW020 31/24 Q1009 NOSIG=
30/09/2017 09:30:00Z	 SAID31 WIII 300930	METAR WIII 300930Z VRB04KT 9999 FEW020 31/24 Q1009 NOSIG=
30/09/2017 10:00:00Z	 SAID31 WIII 301000	METAR WIII 301000Z VRB04KT 9999 FEW020 31/23 Q1009 NOSIG=
30/09/2017 10:30:00Z	 SAID31 WIII 301030	METAR WIII 301030Z VRB03KT 9000 FEW020 30/24 Q1010 NOSIG=
30/09/2017 11:00:00Z	 SAID31 WIII 301100	METAR WIII 301100Z 34004KT 8000 FEW020 30/25 Q1010 NOSIG=
30/09/2017 11:30:00Z	 SAID31 WIII 301130	METAR WIII 301130Z VRB03KT 8000 FEW020 29/24 Q1010 NOSIG=
30/09/2017 12:00:00Z	 SAID31 WIII 301200	METAR WIII 301200Z 26011KT 8000 FEW020 28/24 Q1011 NOSIG=
30/09/2017 12:30:00Z	 SAID31 WIII 301230	METAR WIII 301230Z 25009KT 8000 FEW020 28/24 Q1012 NOSIG=
30/09/2017 13:00:00Z	 SAID31 WIII 301300	METAR WIII 301300Z 26007KT 8000 FEW020 28/24 Q1012 NOSIG=
30/09/2017 13:30:00Z	 SAID31 WIII 301330	METAR WIII 301330Z 25007KT 7000 FEW018 28/23 Q1012 NOSIG=
30/09/2017 14:00:00Z	 SAID31 WIII 301400	METAR WIII 301400Z 26007KT 6000 FEW018 27/23 Q1012 NOSIG=
30/09/2017 14:30:00Z	 SAID31 WIII 301430	METAR WIII 301430Z VRB04KT 6000 FEW020 27/23 Q1012 NOSIG=
30/09/2017 15:30:00Z	 SAID31 WIII 301530	METAR WIII 301530Z 26006KT 5000 HZ FEW020 26/24 Q1012 NOSIG=
30/09/2017 16:00:00Z	 SAID31 WIII 301600	METAR WIII 301600Z 25004KT 5000 HZ FEW020 26/24 Q1012 NOSIG=
30/09/2017 16:30:00Z	 SAID31 WIII 301630	METAR WIII 301630Z 24005KT 5000 HZ FEW020 26/24 Q1012 NOSIG=
30/09/2017 17:00:00Z	 SAID31 WIII 301700	METAR WIII 301700Z 24004KT 6000 SCT020 26/24 Q1011 NOSIG=
30/09/2017 17:30:00Z	 SAID31 WIII 301730	METAR WIII 301730Z 22004KT 5000 HZ SCT022 26/24 Q1011 NOSIG=
30/09/2017 18:00:00Z	 SAID31 WIII 301800	METAR WIII 301800Z 26004KT 5000 HZ FEW020 26/24 Q1011 NOSIG=
30/09/2017 18:30:00Z	 SAID31 WIII 301830	METAR WIII 301830Z 23004KT 5000 HZ FEW020 26/24 Q1011 NOSIG=
30/09/2017 19:00:00Z	 SAID31 WIII 301900	METAR WIII 301900Z 25003KT 5000 HZ FEW020 26/24 Q1010 NOSIG=
30/09/2017 19:30:00Z	 SAID31 WIII 301930	METAR WIII 301930Z 25005KT 5000 HZ FEW020 25/24 Q1010 NOSIG=
30/09/2017 20:00:00Z	 SAID31 WIII 302000	METAR WIII 302000Z 25005KT 4000 HZ FEW020 25/24 Q1010 NOSIG=
30/09/2017 20:30:00Z	 SAID31 WIII 302030	METAR WIII 302030Z 26005KT 4800 BR FEW020 25/24 Q1010 NOSIG=
30/09/2017 21:00:00Z	 SAID31 WIII 302100	METAR WIII 302100Z 26005KT 6000 FEW020 25/24 Q1010 NOSIG=
30/09/2017 21:30:00Z	 SAID31 WIII 302130	METAR WIII 302130Z 25004KT 6000 FEW020 25/24 Q1010 NOSIG=
30/09/2017 22:00:00Z	 SAID31 WIII 302200	METAR WIII 302200Z 29005KT 6000 FEW020 25/24 Q1010 NOSIG=
30/09/2017 22:30:00Z	 SAID31 WIII 302230	METAR WIII 302230Z 25005KT 7000 SCT020 25/23 Q1011 NOSIG=
30/09/2017 23:00:00Z	 SAID31 WIII 302300	METAR WIII 302300Z 22005KT 7000 SCT020 26/23 Q1011 NOSIG=
30/09/2017 23:30:00Z	 SAID31 WIII 302330	METAR WIII 302330Z 25004KT 7000 SCT020 26/23 Q1011 NOSIG=
