01/08/2013 00:00:00Z	 SAID31 WIII 010000	METAR WIII 010000Z AUTO VRB03KT 7000 FEW060 26/22 Q1010=
01/08/2013 00:30:00Z	 SAID31 WIII 010030	METAR WIII 010030Z AUTO VRB03KT 5000 NCD 27/22 Q1010=
01/08/2013 01:00:00Z	 SAID31 WIII 010100	METAR WIII 010100Z AUTO VRB03KT 5000 NCD 28/22 Q1010=
01/08/2013 01:30:00Z	 SAID31 WIII 010130	METAR WIII 010130Z VRB04KT 6000 NCD 29/22 Q1010=
01/08/2013 02:00:00Z	 SAID31 WIII 010200	METAR WIII 010200Z 18004KT 5000 HZ SCT018 30/22 Q1010=
01/08/2013 02:30:00Z	 SAID31 WIII 010230	METAR WIII 010230Z 00000KT 5000 HZ SCT018 31/22 Q1010=
01/08/2013 03:00:00Z	 SAID31 WIII 010300	METAR WIII 010300Z 04005KT 5000 HZ SCT020 31/23 Q1010=
01/08/2013 03:30:00Z	 SAID31 WIII 010330	METAR WIII 010330Z 03006KT 5000 HZ SCT020 31/22 Q1010=
01/08/2013 04:00:00Z	 SAID31 WIII 010400	METAR WIII 010400Z 03007KT 4500 HZ SCT020 31/22 Q1009=
01/08/2013 04:30:00Z	 SAID31 WIII 010430	METAR WIII 010430Z 07007KT 7000 SCT020 32/22 Q1009=
01/08/2013 05:00:00Z	 SAID31 WIII 010500	METAR WIII 010500Z 36008KT 9999 SCT020 32/22 Q1008=
01/08/2013 05:30:00Z	 SAID31 WIII 010530	METAR WIII 010530Z 02006KT 9999 SCT020 32/21 Q1008=
01/08/2013 06:00:00Z	 SAID31 WIII 010600	METAR WIII 010600Z 04008KT 9999 SCT018 32/21 Q1008=
01/08/2013 06:30:00Z	 SAID31 WIII 010630	METAR WIII 010630Z 33007KT 9999 BKN020 31/21 Q1008=
01/08/2013 07:00:00Z	 SAID31 WIII 010700	METAR WIII 010700Z AUTO VRB05KT 9999 NCD 32/21 Q1007=
01/08/2013 07:30:00Z	 SAID31 WIII 010730	METAR WIII 010730Z AUTO 02006KT 9999 NCD 31/21 Q1007=
01/08/2013 08:00:00Z	 SAID31 WIII 010800	METAR WIII 010800Z 35006KT 9999 SCT020 31/21 Q1007=
01/08/2013 08:30:00Z	 SAID31 WIII 010830	METAR WIII 010830Z 35008KT 9999 SCT020 31/22 Q1007=
01/08/2013 09:00:00Z	 SAID31 WIII 010900	METAR WIII 010900Z VRB02KT 9999 BKN020 31/22 Q1007=
01/08/2013 09:30:00Z	 SAID31 WIII 010930	METAR WIII 010930Z 36006KT 9999 SCT020 30/22 Q1008=
01/08/2013 10:00:00Z	 SAID31 WIII 011000	METAR WIII 011000Z 36005KT 9999 SCT016 30/22 Q1008=
01/08/2013 10:30:00Z	 SAID31 WIII 011030	METAR WIII 011030Z 31006KT 7000 SCT018 29/22 Q1008=
01/08/2013 11:00:00Z	 SAID31 WIII 011100	METAR COR WIII 011100Z 32002KT 7000 SCT020 28/22 Q1009=
01/08/2013 11:30:00Z	 SAID31 WIII 011130	METAR WIII 011130Z 30003KT 5000 HZ SCT018 28/23 Q1009=
01/08/2013 12:00:00Z	 SAID31 WIII 011200	METAR WIII 011200Z 30003KT 4000 BR SCT018 28/23 Q1010=
01/08/2013 12:30:00Z	 SAID31 WIII 011230	METAR WIII 011230Z 33004KT 3000 BR BKN020 28/23 Q1010=
01/08/2013 13:00:00Z	 SAID31 WIII 011300	METAR WIII 011300Z 32004KT 4000 BR OVC022 28/24 Q1010=
01/08/2013 13:30:00Z	 SAID31 WIII 011330	METAR WIII 011330Z AUTO 20002KT 4000 BR BKN037 28/24 Q1011=
01/08/2013 14:00:00Z	 SAID31 WIII 011400	METAR WIII 011400Z VRB02KT 7000 SCT018 28/23 Q1011=
01/08/2013 14:30:00Z	 SAID31 WIII 011430	METAR WIII 011430Z 28003KT 4500 BR SCT018 27/24 Q1011=
01/08/2013 15:00:00Z	 SAID31 WIII 011500	METAR WIII 011500Z 30002KT 3000 BR BKN020 28/23 Q1011=
01/08/2013 15:30:00Z	 SAID31 WIII 011530	METAR WIII 011530Z 26002KT 2900 BR SCT020 27/24 Q1011=
01/08/2013 16:00:00Z	 SAID31 WIII 011600	METAR WIII 011600Z 00000KT 2500 BR SCT020 27/24 Q1011=
01/08/2013 16:30:00Z	 SAID31 WIII 011630	METAR WIII 011630Z 00000KT 2500 BR SCT020 27/23 Q1011=
01/08/2013 17:00:00Z	 SAID31 WIII 011700	METAR WIII 011700Z 13004KT 4500 BR SCT020 27/23 Q1011=
01/08/2013 17:30:00Z	 SAID31 WIII 011730	METAR WIII 011730Z 15005KT 6000 SCT018 27/23 Q1011=
01/08/2013 18:00:00Z	 SAID31 WIII 011800	METAR WIII 011800Z 12004KT 4500 BR FEW018 26/23 Q1010=
01/08/2013 18:30:00Z	 SAID31 WIII 011830	METAR WIII 011830Z AUTO 15003KT 3600 BR BKN140 26/23 Q1010=
01/08/2013 19:00:00Z	 SAID31 WIII 011900	METAR WIII 011900Z AUTO VRB03KT 4200 BR NCD 26/23 Q1010=
01/08/2013 19:30:00Z	 SAID31 WIII 011930	METAR WIII 011930Z 21003KT 3000 BR SCT020 26/23 Q1010=
01/08/2013 20:00:00Z	 SAID31 WIII 012000	METAR WIII 012000Z AUTO 20004KT 3300 BR BKN085 26/23 Q1010=
01/08/2013 20:30:00Z	 SAID31 WIII 012030	METAR WIII 012030Z 18004KT 3000 BR BKN022 26/23 Q1010=
01/08/2013 21:00:00Z	 SAID31 WIII 012100	METAR WIII 012100Z 19004KT 3500 BR SCT020 26/23 Q1010=
01/08/2013 21:30:00Z	 SAID31 WIII 012130	METAR WIII 012130Z 20002KT 3500 BR BKN020 26/23 Q1010=
01/08/2013 22:00:00Z	 SAID31 WIII 012200	METAR WIII 012200Z AUTO 36005KT 8000 FEW014 SCT024 BKN041 25/22 Q1011=
01/08/2013 22:30:00Z	 SAID31 WIII 012230	METAR WIII 012230Z 08008KT 5000 BR BKN020 25/23 Q1010=
01/08/2013 23:00:00Z	 SAID31 WIII 012300	METAR WIII 012300Z 02006KT 5000 BR OVC020 25/22 Q1011=
01/08/2013 23:30:00Z	 SAID31 WIII 012330	METAR WIII 012330Z 34002KT 5000 BR OVC020 25/21 Q1011=
02/08/2013 00:00:00Z	 SAID31 WIII 020000	METAR WIII 020000Z 20004KT 8000 SCT018 25/22 Q1011=
02/08/2013 00:30:00Z	 SAID31 WIII 020030	METAR WIII 020030Z VRB03KT 8000 FEW020 SCT130 26/22 Q1011=
02/08/2013 01:00:00Z	 SAID31 WIII 020100	METAR WIII 020100Z VRB03KT 8000 FEW020 SCT130 28/22 Q1012=
02/08/2013 01:30:00Z	 SAID31 WIII 020130	METAR WIII 020130Z 06007KT 7000 FEW020 29/22 Q1011=
02/08/2013 02:00:00Z	 SAID31 WIII 020200	METAR WIII 020200Z 04007KT 8000 FEW021 30/22 Q1012=
02/08/2013 02:30:00Z	 SAID31 WIII 020230	METAR WIII 020230Z 03006KT 8000 FEW021 31/22 Q1011=
02/08/2013 03:00:00Z	 SAID31 WIII 020300	METAR WIII 020300Z VRB05KT 8000 FEW021 32/23 Q1011=
02/08/2013 03:30:00Z	 SAID31 WIII 020330	METAR WIII 020330Z 35006KT 8000 SCT020 31/22 Q1011=
02/08/2013 04:00:00Z	 SAID31 WIII 020400	METAR WIII 020400Z 31006KT 7000 SCT020 32/22 Q1011=
02/08/2013 04:30:00Z	 SAID31 WIII 020430	METAR WIII 020430Z 36008KT 9000 SCT021 32/23 Q1010=
02/08/2013 05:00:00Z	 SAID31 WIII 020500	METAR WIII 020500Z 35005KT 9000 FEW020 32/22 Q1010=
02/08/2013 05:30:00Z	 SAID31 WIII 020530	METAR WIII 020530Z AUTO 31007KT 9999 NCD 32/22 Q1009=
02/08/2013 06:00:00Z	 SAID31 WIII 020600	METAR WIII 020600Z 36008KT 9999 FEW021 32/22 Q1009=
02/08/2013 06:30:00Z	 SAID31 WIII 020630	METAR WIII 020630Z 34006KT 9999 FEW022 32/21 Q1008=
02/08/2013 07:00:00Z	 SAID31 WIII 020700	METAR WIII 020700Z 35010KT 9999 FEW022 32/21 Q1008=
02/08/2013 07:30:00Z	 SAID31 WIII 020730	METAR WIII 020730Z 35008KT 9999 FEW022 32/22 Q1008=
02/08/2013 08:00:00Z	 SAID31 WIII 020800	METAR WIII 020800Z 36006KT 9999 FEW022 31/22 Q1008=
02/08/2013 08:30:00Z	 SAID31 WIII 020830	METAR WIII 020830Z 01009KT 9999 FEW020 31/22 Q1008=
02/08/2013 09:00:00Z	 SAID31 WIII 020900	METAR WIII 020900Z 01010KT 9999 FEW021 31/22 Q1008=
02/08/2013 09:30:00Z	 SAID31 WIII 020930	METAR WIII 020930Z 02007KT 9000 FEW021 30/22 Q1008=
02/08/2013 10:00:00Z	 SAID31 WIII 021000	METAR WIII 021000Z 36010KT 7000 FEW021 SCT110 29/22 Q1009=
02/08/2013 10:30:00Z	 SAID31 WIII 021030	METAR WIII 021030Z 03005KT 6000 SCT021 BKN100 29/22 Q1009=
02/08/2013 11:00:00Z	 SAID31 WIII 021100	METAR WIII 021100Z 35006KT 6000 SCT022 BKN100 29/22 Q1009=
02/08/2013 11:30:00Z	 SAID31 WIII 021130	METAR WIII 021130Z 35003KT 5000 HZ SCT022 BKN065 BKN110 28/22 Q1010=
02/08/2013 12:00:00Z	 SAID31 WIII 021200	METAR WIII 021200Z 30005KT 5000 HZ FEW021 SCT110 28/23 Q1010=
02/08/2013 12:30:00Z	 SAID31 WIII 021230	METAR WIII 021230Z AUTO 28002KT 4500 BR NCD 28/23 Q1011=
02/08/2013 13:00:00Z	 SAID31 WIII 021300	METAR WIII 021300Z AUTO 28002KT 4300 BR BKN100 BKN120 28/23 Q1011=
02/08/2013 13:30:00Z	 SAID31 WIII 021330	METAR WIII 021330Z 29002KT 5000 BR SCT021 28/23 Q1012=
02/08/2013 14:00:00Z	 SAID31 WIII 021400	METAR WIII 021400Z VRB03KT 4200 BR FEW022 28/23 Q1012=
02/08/2013 14:30:00Z	 SAID31 WIII 021430	METAR WIII 021430Z 20006KT 5000 SCT021 27/23 Q1012=
02/08/2013 15:30:00Z	 SAID31 WIII 021530	METAR WIII 021530Z VRB04KT 6000 FEW022 27/23 Q1012=
02/08/2013 16:00:00Z	 SAID31 WIII 021600	METAR WIII 021600Z 17005KT 6000 FEW022 27/23 Q1012=
02/08/2013 16:30:00Z	 SAID31 WIII 021630	METAR WIII 021630Z 20003KT 6000 FEW022 27/23 Q1012=
02/08/2013 17:00:00Z	 SAID31 WIII 021700	METAR WIII 021700Z 16005KT 5000 FEW022 26/23 Q1012=
02/08/2013 17:30:00Z	 SAID31 WIII 021730	METAR WIII 021730Z VRB03KT 5000 BR FEW022 26/22 Q1012=
02/08/2013 18:00:00Z	 SAID31 WIII 021800	METAR WIII 021800Z VRB02KT 5000 BR FEW022 26/22 Q1011=
02/08/2013 18:30:00Z	 SAID31 WIII 021830	METAR WIII 021830Z 00000KT 5000 BR FEW022 26/22 Q1011=
02/08/2013 19:00:00Z	 SAID31 WIII 021900	METAR WIII 021900Z VRB02KT 5000 FEW022 26/22 Q1011=
02/08/2013 19:30:00Z	 SAID31 WIII 021930	METAR WIII 021930Z AUTO 17003KT 5000 OVC095 26/22 Q1010=
02/08/2013 20:00:00Z	 SAID31 WIII 022000	METAR WIII 022000Z AUTO 21002KT 5000 SCT095 26/22 Q1010=
02/08/2013 20:30:00Z	 SAID31 WIII 022030	METAR WIII 022030Z AUTO 19002KT 5000 BKN095 26/22 Q1010=
02/08/2013 21:00:00Z	 SAID31 WIII 022100	METAR WIII 022100Z AUTO 15005KT 4200 BR SCT024 BKN095 26/22 Q1010=
02/08/2013 21:30:00Z	 SAID31 WIII 022130	METAR WIII 022130Z AUTO 19003KT 3900 BR FEW029 SCT042 26/22 Q1010=
02/08/2013 22:00:00Z	 SAID31 WIII 022200	METAR WIII 022200Z 00000KT 3000 BR FEW022 26/22 Q1010=
02/08/2013 22:30:00Z	 SAID31 WIII 022230	METAR WIII 022230Z AUTO VRB03KT 3100 BR SCT250 25/22 Q1010=
02/08/2013 23:00:00Z	 SAID31 WIII 022300	METAR WIII 022300Z VRB04KT 4100 BR FEW022 26/22 Q1011=
02/08/2013 23:30:00Z	 SAID31 WIII 022330	METAR WIII 022330Z 17004KT 4900 BR FEW022 27/22 Q1011=
03/08/2013 00:00:00Z	 SAID31 WIII 030000	METAR WIII 030000Z 16004KT 3500 BR FEW022 26/23 Q1011=
03/08/2013 00:30:00Z	 SAID31 WIII 030030	METAR WIII 030030Z AUTO 18004KT 3300 BR NCD 27/23 Q1011=
03/08/2013 01:00:00Z	 SAID31 WIII 030100	METAR WIII 030100Z AUTO 19004KT 2800 BR NCD 28/23 Q1011=
03/08/2013 01:30:00Z	 SAID31 WIII 030130	METAR WIII 030130Z VRB04KT 4000 HZ FEW024 29/22 Q1011=
03/08/2013 02:00:00Z	 SAID31 WIII 030200	METAR WIII 030200Z VRB05KT 4000 HZ FEW024 31/22 Q1011=
03/08/2013 02:30:00Z	 SAID31 WIII 030230	METAR WIII 030230Z 00000KT 6000 FEW024 31/22 Q1011=
03/08/2013 03:00:00Z	 SAID31 WIII 030300	METAR WIII 030300Z 05006KT 7000 FEW024 32/22 Q1011=
03/08/2013 03:30:00Z	 SAID31 WIII 030330	METAR WIII 030330Z 03008KT 8000 FEW024 32/22 Q1011=
03/08/2013 04:00:00Z	 SAID31 WIII 030400	METAR WIII 030400Z 04008KT 8000 FEW024 32/22 Q1010=
03/08/2013 04:30:00Z	 SAID31 WIII 030430	METAR WIII 030430Z 04009KT 7000 FEW024 32/23 Q1010=
03/08/2013 05:00:00Z	 SAID31 WIII 030500	METAR WIII 030500Z 06007KT 7000 FEW024 32/23 Q1009=
03/08/2013 05:30:00Z	 SAID31 WIII 030530	METAR WIII 030530Z 05009KT 9000 FEW024 32/23 Q1009=
03/08/2013 06:00:00Z	 SAID31 WIII 030600	METAR WIII 030600Z 05011KT 7000 FEW024 32/23 Q1009=
03/08/2013 06:30:00Z	 SAID31 WIII 030630	METAR WIII 030630Z 05009KT 9999 FEW024 31/23 Q1008=
03/08/2013 07:00:00Z	 SAID31 WIII 030700	METAR WIII 030700Z 05012KT 9999 FEW024 31/22 Q1008=
03/08/2013 07:30:00Z	 SAID31 WIII 030730	METAR WIII 030730Z 06010KT 9999 FEW024 32/22 Q1008=
03/08/2013 08:00:00Z	 SAID31 WIII 030800	METAR WIII 030800Z 06010KT 9999 FEW024 31/23 Q1008=
03/08/2013 08:30:00Z	 SAID31 WIII 030830	METAR WIII 030830Z 06009KT 9999 FEW024 31/23 Q1008=
03/08/2013 09:00:00Z	 SAID31 WIII 030900	METAR WIII 030900Z 07012KT 9999 FEW024 31/22 Q1008=
03/08/2013 09:30:00Z	 SAID31 WIII 030930	METAR WIII 030930Z 05010KT 9999 FEW024 30/22 Q1008=
03/08/2013 10:00:00Z	 SAID31 WIII 031000	METAR WIII 031000Z 06010KT 9999 FEW024 30/22 Q1008=
03/08/2013 10:30:00Z	 SAID31 WIII 031030	METAR WIII 031030Z 07011KT 9999 FEW024 29/22 Q1008=
03/08/2013 11:00:00Z	 SAID31 WIII 031100	METAR WIII 031100Z AUTO 07008KT 9999 NCD 28/23 Q1009=
03/08/2013 11:30:00Z	 SAID31 WIII 031130	METAR WIII 031130Z AUTO 07007KT 9999 NCD 28/23 Q1009=
03/08/2013 12:00:00Z	 SAID31 WIII 031200	METAR WIII 031200Z AUTO 08007KT 9999 NCD 28/23 Q1010=
03/08/2013 12:30:00Z	 SAID31 WIII 031230	METAR WIII 031230Z AUTO 08008KT 9999 NCD 28/23 Q1010=
03/08/2013 13:00:00Z	 SAID31 WIII 031300	METAR WIII 031300Z AUTO 08007KT 9999 NCD 28/23 Q1010=
03/08/2013 13:30:00Z	 SAID31 WIII 031330	METAR WIII 031330Z AUTO 08007KT 9999 NCD 28/23 Q1011=
03/08/2013 14:00:00Z	 SAID31 WIII 031400	METAR WIII 031400Z 08006KT 6000 FEW020 28/23 Q1011=
03/08/2013 16:30:00Z	 SAID31 WIII 031630	METAR WIII 031630Z 10004KT 5000 BR FEW020 27/24 Q1011=
03/08/2013 17:00:00Z	 SAID31 WIII 031700	METAR WIII 031700Z 11004KT 5000 BR FEW020 28/24 Q1011=
03/08/2013 17:30:00Z	 SAID31 WIII 031730	METAR WIII 031730Z VRB04KT 5000 BR SCT038 28/23 Q1011=
03/08/2013 18:00:00Z	 SAID31 WIII 031800	METAR WIII 031800Z 10005KT 5000 BR SCT020 28/23 Q1011=
03/08/2013 18:30:00Z	 SAID31 WIII 031830	METAR WIII 031830Z 11005KT 5000 BR BKN250 28/23 Q1011=
03/08/2013 19:00:00Z	 SAID31 WIII 031900	METAR WIII 031900Z VRB05KT 5000 BR FEW060 SCT250 28/23 Q1010=
03/08/2013 19:30:00Z	 SAID31 WIII 031930	METAR WIII 031930Z 15004KT 5000 BR FEW020 27/23 Q1010=
03/08/2013 20:00:00Z	 SAID31 WIII 032000	METAR WIII 032000Z VRB04KT 5000 BR SCT250 27/23 Q1010=
03/08/2013 20:30:00Z	 SAID31 WIII 032030	METAR WIII 032030Z 14003KT 5000 BR FEW250 26/23 Q1010=
03/08/2013 21:00:00Z	 SAID31 WIII 032100	METAR WIII 032100Z 00000KT 4200 BR FEW020 26/23 Q1010=
03/08/2013 21:30:00Z	 SAID31 WIII 032130	METAR WIII 032130Z AUTO VRB03KT 2300 BR BKN240 26/23 Q1010=
03/08/2013 22:00:00Z	 SAID31 WIII 032200	METAR WIII 032200Z AUTO 17004KT 2300 BR BKN240 26/23 Q1010=
03/08/2013 22:30:00Z	 SAID31 WIII 032230	METAR WIII 032230Z AUTO VRB03KT 2400 BR BKN240 26/23 Q1010=
03/08/2013 23:00:00Z	 SAID31 WIII 032300	METAR WIII 032300Z AUTO 19005KT 2400 BR BKN250 26/23 Q1010=
03/08/2013 23:30:00Z	 SAID31 WIII 032330	METAR WIII 032330Z AUTO VRB03KT 2800 BR FEW250 26/23 Q1011=
04/08/2013 00:00:00Z	 SAID31 WIII 040000	METAR WIII 040000Z AUTO 21004KT 2400 BR NCD 27/23 Q1011=
04/08/2013 00:30:00Z	 SAID31 WIII 040030	METAR WIII 040030Z AUTO 18004KT 2700 HZ NCD 28/23 Q1011=
04/08/2013 01:00:00Z	 SAID31 WIII 040100	METAR WIII 040100Z VRB02KT 7000 FEW022 29/23 Q1011=
04/08/2013 03:00:00Z	 SAID31 WIII 040300	METAR WIII 040300Z 07008KT 9999 FEW020 32/22 Q1011=
04/08/2013 03:30:00Z	 SAID31 WIII 040330	METAR WIII 040330Z 08008KT 9999 FEW020 32/22 Q1011=
04/08/2013 04:00:00Z	 SAID31 WIII 040400	METAR WIII 040400Z 07007KT 9999 FEW020 33/22 Q1010=
04/08/2013 04:30:00Z	 SAID31 WIII 040430	METAR WIII 040430Z 06007KT 9999 FEW022 33/22 Q1010=
04/08/2013 05:00:00Z	 SAID31 WIII 040500	METAR WIII 040500Z 05008KT 9999 FEW020 33/23 Q1010=
04/08/2013 05:30:00Z	 SAID31 WIII 040530	METAR WIII 040530Z 04008KT 9999 FEW022 33/23 Q1009=
04/08/2013 06:00:00Z	 SAID31 WIII 040600	METAR WIII 040600Z 03009KT 9999 FEW020 32/23 Q1009=
04/08/2013 06:30:00Z	 SAID31 WIII 040630	METAR WIII 040630Z AUTO 04011KT 9999 NCD 32/24 Q1008=
04/08/2013 07:00:00Z	 SAID31 WIII 040700	METAR WIII 040700Z AUTO 04010KT 9999 NCD 32/24 Q1008=
04/08/2013 07:30:00Z	 SAID31 WIII 040730	METAR WIII 040730Z AUTO 03009KT 9999 NCD 32/23 Q1008=
04/08/2013 08:00:00Z	 SAID31 WIII 040800	METAR WIII 040800Z 05009KT 9999 FEW020 32/23 Q1007=
04/08/2013 08:30:00Z	 SAID31 WIII 040830	METAR WIII 040830Z 05009KT 9999 NCD 31/23 Q1007=
04/08/2013 09:00:00Z	 SAID31 WIII 040900	METAR WIII 040900Z 04008KT 9999 FEW020 31/23 Q1007=
04/08/2013 09:30:00Z	 SAID31 WIII 040930	METAR WIII 040930Z 07008KT 9999 FEW020 30/23 Q1007=
04/08/2013 10:00:00Z	 SAID31 WIII 041000	METAR WIII 041000Z 06007KT 9999 NCD 30/23 Q1007=
04/08/2013 10:30:00Z	 SAID31 WIII 041030	METAR WIII 041030Z 06006KT 9999 FEW022 29/23 Q1008=
04/08/2013 11:00:00Z	 SAID31 WIII 041100	METAR WIII 041100Z 07009KT 9000 FEW020 29/23 Q1008=
04/08/2013 11:30:00Z	 SAID31 WIII 041130	METAR WIII 041130Z 08009KT 8000 FEW022 29/23 Q1009=
04/08/2013 12:00:00Z	 SAID31 WIII 041200	METAR WIII 041200Z 08009KT 8000 FEW022 28/23 Q1009=
04/08/2013 12:30:00Z	 SAID31 WIII 041230	METAR WIII 041230Z 08008KT 8000 FEW022 SCT055 28/23 Q1010=
04/08/2013 13:00:00Z	 SAID31 WIII 041300	METAR WIII 041300Z 09005KT 7000 FEW022 BKN055 28/23 Q1010=
04/08/2013 13:30:00Z	 SAID31 WIII 041330	METAR WIII 041330Z VRB03KT 7000 FEW022 BKN055 28/23 Q1010=
04/08/2013 14:00:00Z	 SAID31 WIII 041400	METAR WIII 041400Z VRB05KT 7000 FEW022 BKN055 29/22 Q1011=
04/08/2013 14:30:00Z	 SAID31 WIII 041430	METAR WIII 041430Z 15004KT 7000 FEW022 BKN060 28/22 Q1011=
04/08/2013 15:00:00Z	 SAID31 WIII 041500	METAR WIII 041500Z 18006KT 4200 HZ FEW021 28/23 Q1011=
04/08/2013 15:30:00Z	 SAID31 WIII 041530	METAR WIII 041530Z 20005KT 5000 HZ FEW021 27/23 Q1011=
04/08/2013 16:00:00Z	 SAID31 WIII 041600	METAR WIII 041600Z 18005KT 5000 HZ FEW021 27/23 Q1011=
04/08/2013 16:30:00Z	 SAID31 WIII 041630	METAR WIII 041630Z 19004KT 4800 HZ FEW021 26/23 Q1011=
04/08/2013 17:00:00Z	 SAID31 WIII 041700	METAR WIII 041700Z 19006KT 3400 HZ FEW021 26/23 Q1011=
04/08/2013 17:30:00Z	 SAID31 WIII 041730	METAR WIII 041730Z 20003KT 3000 BR FEW022 26/23 Q1011=
04/08/2013 18:00:00Z	 SAID31 WIII 041800	METAR WIII 041800Z 19004KT 3000 BR FEW022 26/23 Q1011=
04/08/2013 20:30:00Z	 SAID31 WIII 042030	METAR WIII 042030Z 22004KT 4000 BR SCT022 26/22 Q1010=
04/08/2013 21:00:00Z	 SAID31 WIII 042100	METAR WIII 042100Z 21004KT 4500 BR FEW022 26/22 Q1010=
04/08/2013 21:30:00Z	 SAID31 WIII 042130	METAR WIII 042130Z 19006KT 4500 BR FEW022 26/22 Q1010=
04/08/2013 22:00:00Z	 SAID31 WIII 042200	METAR WIII 042200Z 19005KT 5000 BR FEW021 25/22 Q1010=
04/08/2013 22:30:00Z	 SAID31 WIII 042230	METAR WIII 042230Z 19005KT 6000 FEW021 25/22 Q1010=
04/08/2013 23:00:00Z	 SAID31 WIII 042300	METAR WIII 042300Z VRB03KT 4600 BR FEW022 25/22 Q1010=
04/08/2013 23:30:00Z	 SAID31 WIII 042330	METAR WIII 042330Z 18004KT 3000 BR FEW022 26/22 Q1011=
05/08/2013 00:00:00Z	 SAID31 WIII 050000	METAR WIII 050000Z 19005KT 2800 BR FEW022 26/22 Q1011=
05/08/2013 00:30:00Z	 SAID31 WIII 050030	METAR WIII 050030Z AUTO 20004KT 3800 HZ FEW110 26/22 Q1012=
05/08/2013 01:00:00Z	 SAID31 WIII 050100	METAR WIII 050100Z AUTO VRB05KT 4200 HZ NCD 27/23 Q1012=
05/08/2013 01:30:00Z	 SAID31 WIII 050130	METAR WIII 050130Z 19004KT 3500 HZ FEW024 28/23 Q1012=
05/08/2013 02:00:00Z	 SAID31 WIII 050200	METAR WIII 050200Z 14003KT 3800 HZ FEW024 29/23 Q1012=
05/08/2013 02:30:00Z	 SAID31 WIII 050230	METAR WIII 050230Z 16003KT 4000 HZ FEW021CB FEW024 29/23 Q1012 RMK CB TO NE=
05/08/2013 03:00:00Z	 SAID31 WIII 050300	METAR WIII 050300Z 13004KT 4500 HZ FEW021CB FEW024 31/23 Q1012 RMK CB TO NE=
05/08/2013 03:30:00Z	 SAID31 WIII 050330	METAR WIII 050330Z 18003KT 6000 FEW024 32/23 Q1011=
05/08/2013 04:00:00Z	 SAID31 WIII 050400	METAR WIII 050400Z 00000KT 7000 FEW024 32/22 Q1011=
05/08/2013 04:30:00Z	 SAID31 WIII 050430	METAR WIII 050430Z 03006KT 6000 SCT040 33/23 Q1010=
05/08/2013 05:00:00Z	 SAID31 WIII 050500	METAR WIII 050500Z 05008KT 8000 FEW022 33/24 Q1010=
05/08/2013 05:30:00Z	 SAID31 WIII 050530	METAR WIII 050530Z 02009KT 8000 FEW024 32/22 Q1010=
05/08/2013 06:00:00Z	 SAID31 WIII 050600	METAR WIII 050600Z 04007KT 9000 FEW021CB FEW024 31/22 Q1009 RMK CB TO SW=
05/08/2013 06:30:00Z	 SAID31 WIII 050630	METAR WIII 050630Z 35005KT 9000 FEW021CB FEW024 32/23 Q1009 RMK CB TO E AND SW=
05/08/2013 07:00:00Z	 SAID31 WIII 050700	METAR WIII 050700Z 01006KT 9000 FEW025 31/22 Q1009=
05/08/2013 07:30:00Z	 SAID31 WIII 050730	METAR WIII 050730Z 04006KT 9999 SCT034 31/23 Q1008=
05/08/2013 08:00:00Z	 SAID31 WIII 050800	METAR WIII 050800Z 35004KT 9000 FEW024 32/23 Q1008=
05/08/2013 08:30:00Z	 SAID31 WIII 050830	METAR WIII 050830Z 02006KT 9999 FEW024 31/23 Q1008=
05/08/2013 09:00:00Z	 SAID31 WIII 050900	METAR WIII 050900Z 05006KT 9000 FEW024 30/23 Q1008=
05/08/2013 09:30:00Z	 SAID31 WIII 050930	METAR WIII 050930Z VRB03KT 9000 FEW023 30/23 Q1008=
05/08/2013 10:00:00Z	 SAID31 WIII 051000	METAR WIII 051000Z 04004KT 7000 FEW024 29/23 Q1008=
05/08/2013 10:30:00Z	 SAID31 WIII 051030	METAR WIII 051030Z 35002KT 7000 FEW024 29/23 Q1008=
05/08/2013 11:00:00Z	 SAID31 WIII 051100	METAR WIII 051100Z AUTO 00000KT 7000 NCD 29/23 Q1008=
05/08/2013 11:30:00Z	 SAID31 WIII 051130	METAR WIII 051130Z AUTO 01002KT 2700 BR NCD 28/23 Q1008=
05/08/2013 12:00:00Z	 SAID31 WIII 051200	METAR WIII 051200Z 00000KT 4000 HZ FEW024 28/24 Q1008=
05/08/2013 12:30:00Z	 SAID31 WIII 051230	METAR WIII 051230Z 32002KT 3000 HZ FEW024 28/24 Q1009=
05/08/2013 13:00:00Z	 SAID31 WIII 051300	METAR WIII 051300Z AUTO VRB02KT 2700 BR SCT048 28/24 Q1009=
05/08/2013 13:30:00Z	 SAID31 WIII 051330	METAR WIII 051330Z 34003KT 2600 BR FEW021 28/24 Q1010=
05/08/2013 14:00:00Z	 SAID31 WIII 051400	METAR WIII 051400Z 31003KT 2200 BR FEW021 28/24 Q1010=
05/08/2013 14:30:00Z	 SAID31 WIII 051430	METAR WIII 051430Z 29003KT 2600 BR FEW022 27/24 Q1010=
05/08/2013 15:00:00Z	 SAID31 WIII 051500	METAR WIII 051500Z 30002KT 2500 BR FEW021 27/24 Q1011=
05/08/2013 15:30:00Z	 SAID31 WIII 051530	METAR WIII 051530Z 30003KT 2500 BR FEW022 27/24 Q1011=
05/08/2013 16:00:00Z	 SAID31 WIII 051600	METAR WIII 051600Z 30002KT 2300 BR FEW021 27/24 Q1011=
05/08/2013 16:30:00Z	 SAID31 WIII 051630	METAR WIII 051630Z 27003KT 2300 BR FEW021 27/24 Q1011=
05/08/2013 17:00:00Z	 SAID31 WIII 051700	METAR WIII 051700Z 26003KT 2000 BR FEW021 27/24 Q1011=
05/08/2013 17:30:00Z	 SAID31 WIII 051730	METAR WIII 051730Z 00000KT 2400 BR SCT021 27/24 Q1011=
05/08/2013 18:30:00Z	 SAID31 WIII 051830	METAR WIII 051830Z 25002KT 2100 BR FEW022 27/24 Q1010=
05/08/2013 19:00:00Z	 SAID31 WIII 051900	METAR WIII 051900Z VRB02KT 2400 BR FEW022 27/24 Q1010=
05/08/2013 19:30:00Z	 SAID31 WIII 051930	METAR WIII 051930Z 20003KT 2300 BR FEW022 27/24 Q1010=
05/08/2013 20:00:00Z	 SAID31 WIII 052000	METAR WIII 052000Z 15002KT 2400 BR SCT085 27/24 Q1009=
05/08/2013 20:30:00Z	 SAID31 WIII 052030	METAR WIII 052030Z 20002KT 2300 BR FEW022 26/24 Q1009=
05/08/2013 21:00:00Z	 SAID31 WIII 052100	METAR WIII 052100Z AUTO 20003KT 2900 BR NCD 26/24 Q1009=
05/08/2013 21:30:00Z	 SAID31 WIII 052130	METAR WIII 052130Z AUTO VRB04KT 3700 BR NCD 26/24 Q1009=
05/08/2013 22:00:00Z	 SAID31 WIII 052200	METAR WIII 052200Z 17005KT 2600 BR FEW022 26/24 Q1009=
05/08/2013 23:00:00Z	 SAID31 WIII 052300	METAR WIII 052300Z VRB04KT 2700 BR FEW022 26/23 Q1009=
05/08/2013 23:30:00Z	 SAID31 WIII 052330	METAR WIII 052330Z VRB03KT 2500 BR FEW022 26/23 Q1010=
06/08/2013 00:00:00Z	 SAID31 WIII 060000	METAR WIII 060000Z VRB03KT 2500 BR FEW022 27/24 Q1010=
06/08/2013 00:30:00Z	 SAID31 WIII 060030	METAR WIII 060030Z VRB02KT 2300 HZ FEW022 28/24 Q1010=
06/08/2013 01:00:00Z	 SAID31 WIII 060100	METAR WIII 060100Z VRB02KT 5000 HZ FEW022 29/24 Q1011=
06/08/2013 01:30:00Z	 SAID31 WIII 060130	METAR WIII 060130Z VRB03KT 5000 HZ 30/24 Q1011=
06/08/2013 02:00:00Z	 SAID31 WIII 060200	METAR WIII 060200Z VRB02KT 6000 FEW022 30/23 Q1011=
06/08/2013 02:30:00Z	 SAID31 WIII 060230	METAR WIII 060230Z VRB02KT 5000 HZ FEW022 32/23 Q1011=
06/08/2013 03:00:00Z	 SAID31 WIII 060300	METAR WIII 060300Z VRB03KT 9999 FEW022 32/23 Q1010=
06/08/2013 03:30:00Z	 SAID31 WIII 060330	METAR WIII 060330Z VRB03KT 9999 FEW022 32/23 Q1010=
06/08/2013 04:00:00Z	 SAID31 WIII 060400	METAR WIII 060400Z VRB02KT 9999 FEW020 32/23 Q1010=
06/08/2013 04:30:00Z	 SAID31 WIII 060430	METAR WIII 060430Z VRB04KT 9999 FEW020 33/24 Q1009=
06/08/2013 05:00:00Z	 SAID31 WIII 060500	METAR WIII 060500Z 04006KT 9999 FEW020 34/24 Q1009=
06/08/2013 05:30:00Z	 SAID31 WIII 060530	METAR WIII 060530Z 01006KT 9999 FEW033 34/24 Q1008=
06/08/2013 06:00:00Z	 SAID31 WIII 060600	METAR WIII 060600Z AUTO 05009KT 6000 NCD 33/23 Q1008=
06/08/2013 06:30:00Z	 SAID31 WIII 060630	METAR WIII 060630Z AUTO 01008KT 7000 NCD 33/23 Q1007=
06/08/2013 07:00:00Z	 SAID31 WIII 060700	METAR WIII 060700Z AUTO 02006KT 8000 NCD 32/23 Q1007=
06/08/2013 07:30:00Z	 SAID31 WIII 060730	METAR WIII 060730Z VRB05KT 9000 FEW020 32/23 Q1007=
06/08/2013 08:00:00Z	 SAID31 WIII 060800	METAR WIII 060800Z 36008KT 9000 FEW018 31/23 Q1007=
06/08/2013 08:30:00Z	 SAID31 WIII 060830	METAR WIII 060830Z AUTO 02007KT 9000 NCD 31/23 Q1007=
06/08/2013 09:00:00Z	 SAID31 WIII 060900	METAR WIII 060900Z AUTO 36005KT 6000 NCD 30/23 Q1007=
06/08/2013 09:30:00Z	 SAID31 WIII 060930	METAR WIII 060930Z AUTO 02007KT 4600 BR NCD 30/24 Q1007=
06/08/2013 10:00:00Z	 SAID31 WIII 061000	METAR WIII 061000Z 02005KT 8000 FEW020 30/23 Q1007=
06/08/2013 10:30:00Z	 SAID31 WIII 061030	METAR WIII 061030Z AUTO 03004KT 9999 NCD 29/22 Q1008=
06/08/2013 11:30:00Z	 SAID31 WIII 061130	METAR WIII 061130Z 01004KT 7000 BKN049 29/23 Q1008=
06/08/2013 12:00:00Z	 SAID31 WIII 061200	METAR WIII 061200Z 32002KT 7000 FEW020 29/24 Q1009=
06/08/2013 12:30:00Z	 SAID31 WIII 061230	METAR WIII 061230Z VRB02KT 5000 BR SCT050 29/24 Q1009=
06/08/2013 13:00:00Z	 SAID31 WIII 061300	METAR WIII 061300Z 27003KT 5000 BR SCT025 BKN055 28/24 Q1010=
06/08/2013 13:30:00Z	 SAID31 WIII 061330	METAR WIII 061330Z 00000KT 5000 BR FEW055 29/24 Q1010=
06/08/2013 14:00:00Z	 SAID31 WIII 061400	METAR WIII 061400Z 36002KT 5000 BR FEW027 28/24 Q1010=
06/08/2013 14:30:00Z	 SAID31 WIII 061430	METAR WIII 061430Z 28002KT 5000 BR BKN027 BKN035 28/24 Q1010=
06/08/2013 15:00:00Z	 SAID31 WIII 061500	METAR WIII 061500Z 29004KT 5000 BR SCT023 28/24 Q1011=
06/08/2013 15:30:00Z	 SAID31 WIII 061530	METAR WIII 061530Z 29002KT 5000 BR FEW020 28/24 Q1011=
06/08/2013 16:00:00Z	 SAID31 WIII 061600	METAR WIII 061600Z 27002KT 4000 BR SCT020 27/24 Q1011=
06/08/2013 16:30:00Z	 SAID31 WIII 061630	METAR WIII 061630Z 27003KT 4000 BR FEW018 27/24 Q1011=
06/08/2013 17:00:00Z	 SAID31 WIII 061700	METAR WIII 061700Z VRB02KT 4000 BR SCT020 27/24 Q1011=
06/08/2013 17:30:00Z	 SAID31 WIII 061730	METAR WIII 061730Z 20006KT 3000 BR FEW018 27/24 Q1010=
06/08/2013 18:00:00Z	 SAID31 WIII 061800	METAR WIII 061800Z 21005KT 4000 VCTS BR FEW016CB SCT018 27/24 Q1011 R MK CB TO E AND NE=
06/08/2013 18:30:00Z	 SAID31 WIII 061830	METAR WIII 061830Z 09008KT 4000 VCTS BR FEW016CB SCT018 26/23 Q1010 R MK CB TO NE AND E=
06/08/2013 19:00:00Z	 SAID31 WIII 061900	METAR WIII 061900Z 05005KT 3000 TSRA FEW016CB BKN022 OVC029 26/24 Q10 10 RMK CB TO NE AND E=
06/08/2013 19:30:00Z	 SAID31 WIII 061930	METAR WIII 061930Z 08008KT TSRA FEW016CB BKN036 BKN046 OVC074 26/24 Q 1010 RMK CB TO N AND NE=
06/08/2013 20:00:00Z	 SAID31 WIII 062000	METAR WIII 062000Z 11006KT 3000 TSRA FEW016CB OVC020 25/23 Q1010 RMK CB TO NE AND E=
06/08/2013 20:30:00Z	 SAID31 WIII 062030	METAR WIII 062030Z VRB04KT 3000 VCTS RA FEW016CB OVC018 25/23 Q1010 RMK CB TO NE AND E=
06/08/2013 21:00:00Z	 SAID31 WIII 062100	METAR WIII 062100Z 12003KT 3000 BR FEW023 BKN035 25/23 Q1010=
06/08/2013 21:30:00Z	 SAID31 WIII 062130	METAR WIII 062130Z AUTO VRB04KT 9000 BKN240 25/23 Q1010=
06/08/2013 22:00:00Z	 SAID31 WIII 062200	METAR WIII 062200Z AUTO VRB03KT 9000 FEW090 BKN230 25/23 Q1010=
06/08/2013 22:30:00Z	 SAID31 WIII 062230	METAR WIII 062230Z AUTO VRB04KT 9000 FEW055 BKN091 BKN240 25/23 Q1010=
06/08/2013 23:00:00Z	 SAID31 WIII 062300	METAR WIII 062300Z VRB04KT 5000 BR FEW018 25/23 Q1010=
06/08/2013 23:30:00Z	 SAID31 WIII 062330	METAR WIII 062330Z VRB04KT 5000 BR SCT020 25/23 Q1010=
07/08/2013 00:00:00Z	 SAID31 WIII 070000	METAR WIII 070000Z VRB03KT 5000 HZ SCT028 26/23 Q1011=
07/08/2013 02:30:00Z	 SAID31 WIII 070230	METAR WIII 070230Z 27003KT 8000 SCT070 31/23 Q1011=
07/08/2013 03:00:00Z	 SAID31 WIII 070300	METAR WIII 070300Z 26003KT 8000 FEW024 32/23 Q1011=
07/08/2013 03:30:00Z	 SAID31 WIII 070330	METAR WIII 070330Z VRB03KT 8000 FEW023 32/23 Q1010=
07/08/2013 04:00:00Z	 SAID31 WIII 070400	METAR WIII 070400Z 03003KT 8000 FEW024 33/23 Q1010=
07/08/2013 04:30:00Z	 SAID31 WIII 070430	METAR WIII 070430Z 36006KT 8000 FEW023 33/24 Q1010=
07/08/2013 05:00:00Z	 SAID31 WIII 070500	METAR WIII 070500Z 36008KT 9000 SCT022 33/24 Q1009=
07/08/2013 05:30:00Z	 SAID31 WIII 070530	METAR WIII 070530Z 35006KT 9999 FEW023 32/23 Q1009=
07/08/2013 06:00:00Z	 SAID31 WIII 070600	METAR WIII 070600Z 33007KT 9999 FEW024 32/24 Q1008=
07/08/2013 06:30:00Z	 SAID31 WIII 070630	METAR WIII 070630Z 33004KT 9999 FEW023 32/23 Q1008=
07/08/2013 07:00:00Z	 SAID31 WIII 070700	METAR WIII 070700Z 03006KT 9999 FEW024 33/23 Q1007=
07/08/2013 07:30:00Z	 SAID31 WIII 070730	METAR WIII 070730Z 36007KT 9999 FEW024 33/23 Q1007=
07/08/2013 08:00:00Z	 SAID31 WIII 070800	METAR WIII 070800Z 35007KT 9999 FEW024 32/23 Q1007=
07/08/2013 08:30:00Z	 SAID31 WIII 070830	METAR WIII 070830Z 36008KT 9999 FEW024 32/23 Q1007=
07/08/2013 09:00:00Z	 SAID31 WIII 070900	METAR WIII 070900Z 34006KT 9999 FEW024 31/23 Q1007=
07/08/2013 09:30:00Z	 SAID31 WIII 070930	METAR WIII 070930Z 02008KT 9999 FEW021CB FEW024 31/23 Q1008 RMK CB TO S AND SW=
07/08/2013 10:00:00Z	 SAID31 WIII 071000	METAR WIII 071000Z 36005KT 9000 FEW020CB SCT021 30/23 Q1008 RMK CB TO S=
07/08/2013 10:30:00Z	 SAID31 WIII 071030	METAR WIII 071030Z 32004KT 9000 FEW021CB SCT024 30/24 Q1008 RMK CB TO S=
07/08/2013 11:00:00Z	 SAID31 WIII 071100	METAR WIII 071100Z VRB03KT 3600 HZ FEW021CB SCT022 28/24 Q1009 RMK CB TO S AND PREC TO S=
07/08/2013 11:30:00Z	 SAID31 WIII 071130	METAR COR WIII 071130Z 25004KT 7000 FEW021CB SCT023 27/25 Q1010 RMK C B TO S AND VC PREC TO S=
07/08/2013 12:00:00Z	 SAID31 WIII 071200	METAR WIII 071200Z 20018KT 4000 -TSRA FEW020CB BKN022 25/22 Q1010 RMK CB TO SW=
07/08/2013 12:30:00Z	 SAID31 WIII 071230	METAR WIII 071230Z 22007KT 7000 -TSRA FEW020CB SCT023 24/22 Q1011 RMK CB TO W AND NW=
07/08/2013 13:00:00Z	 SAID31 WIII 071300	METAR WIII 071300Z 25006KT 7000 -TSRA FEW019CB SCT020 24/22 Q1011 RMK CB TO W AND NW=
07/08/2013 13:30:00Z	 SAID31 WIII 071330	METAR WIII 071330Z VRB03KT 5000 -TSRA FEW019CB SCT020 24/22 Q1012 RMK CB TO NW=
07/08/2013 14:00:00Z	 SAID31 WIII 071400	METAR WIII 071400Z VRB02KT 6000 VCTS FEW020CB SCT020 25/22 Q1012 RMK CB TO NW=
07/08/2013 14:30:00Z	 SAID31 WIII 071430	METAR WIII 071430Z 26003KT 4900 BR SCT020 25/23 Q1012=
07/08/2013 15:00:00Z	 SAID31 WIII 071500	METAR WIII 071500Z VRB05KT 4800 BR SCT020 25/22 Q1012=
07/08/2013 15:30:00Z	 SAID31 WIII 071530	METAR WIII 071530Z VRB04KT 2800 BR SCT020 25/23 Q1012=
07/08/2013 16:00:00Z	 SAID31 WIII 071600	METAR WIII 071600Z VRB02KT 3500 BR SCT020 25/22 Q1012=
07/08/2013 16:30:00Z	 SAID31 WIII 071630	METAR WIII 071630Z VRB03KT 3200 BR FEW021 25/23 Q1012=
07/08/2013 17:00:00Z	 SAID31 WIII 071700	METAR WIII 071700Z VRB04KT 4100 BR FEW022 25/23 Q1012=
07/08/2013 17:30:00Z	 SAID31 WIII 071730	METAR WIII 071730Z VRB02KT 2900 BR SCT021 26/23 Q1011=
07/08/2013 18:00:00Z	 SAID31 WIII 071800	METAR WIII 071800Z VRB02KT 3000 BR SCT021 26/23 Q1011=
07/08/2013 18:30:00Z	 SAID31 WIII 071830	METAR WIII 071830Z VRB02KT 2600 BR FEW022 SCT083 26/23 Q1011=
07/08/2013 19:00:00Z	 SAID31 WIII 071900	METAR WIII 071900Z VRB03KT 2100 BR FEW022 25/23 Q1010=
07/08/2013 19:30:00Z	 SAID31 WIII 071930	METAR WIII 071930Z 21004KT 2400 BR FEW022 25/23 Q1010=
07/08/2013 20:00:00Z	 SAID31 WIII 072000	METAR WIII 072000Z VRB03KT 2800 BR FEW022 25/23 Q1010=
07/08/2013 20:30:00Z	 SAID31 WIII 072030	METAR WIII 072030Z AUTO VRB03KT 3100 BR BKN049 25/23 Q1010=
07/08/2013 21:00:00Z	 SAID31 WIII 072100	METAR WIII 072100Z AUTO 20002KT 4200 BR FEW055 BKN081 25/23 Q1010=
07/08/2013 21:30:00Z	 SAID31 WIII 072130	METAR WIII 072130Z AUTO VRB04KT 2500 BR SCT055 BKN084 25/23 Q1010=
07/08/2013 22:00:00Z	 SAID31 WIII 072200	METAR WIII 072200Z AUTO 28005KT 2300 BR BKN046 BKN055 BKN068 25/23 Q1 011=
07/08/2013 22:30:00Z	 SAID31 WIII 072230	METAR WIII 072230Z AUTO 27003KT 2300 BR BKN010 BKN044 25/23 Q1011=
07/08/2013 23:00:00Z	 SAID31 WIII 072300	METAR WIII 072300Z AUTO 29003KT 3300 BR SCT060 25/23 Q1011=
07/08/2013 23:30:00Z	 SAID31 WIII 072330	METAR WIII 072330Z AUTO 29004KT 4400 BR FEW060 25/23 Q1011=
08/08/2013 00:00:00Z	 SAID31 WIII 080000	METAR WIII 080000Z AUTO 27005KT 9999 NCD 25/23 Q1011=
08/08/2013 00:30:00Z	 SAID31 WIII 080030	METAR WIII 080030Z AUTO 26008KT 9999 NCD 26/23 Q1011=
08/08/2013 01:00:00Z	 SAID31 WIII 080100	METAR WIII 080100Z AUTO 26006KT 9999 NCD 27/23 Q1012=
08/08/2013 01:30:00Z	 SAID31 WIII 080130	METAR WIII 080130Z 26006KT 8000 NCD 28/24 Q1012=
08/08/2013 02:00:00Z	 SAID31 WIII 080200	METAR WIII 080200Z 27005KT 9999 FEW024 29/24 Q1012=
08/08/2013 02:30:00Z	 SAID31 WIII 080230	METAR WIII 080230Z 28005KT 9999 FEW024 30/24 Q1012=
08/08/2013 03:00:00Z	 SAID31 WIII 080300	METAR WIII 080300Z VRB03KT 9999 FEW020 31/23 Q1011=
08/08/2013 03:30:00Z	 SAID31 WIII 080330	METAR WIII 080330Z VRB04KT 9999 FEW023 31/24 Q1011=
08/08/2013 04:00:00Z	 SAID31 WIII 080400	METAR WIII 080400Z VRB05KT 9999 SCT023 32/24 Q1011=
08/08/2013 04:30:00Z	 SAID31 WIII 080430	METAR WIII 080430Z 06003KT 9999 FEW023 33/24 Q1010=
08/08/2013 05:00:00Z	 SAID31 WIII 080500	METAR WIII 080500Z VRB05KT 9999 SCT024 33/24 Q1010=
08/08/2013 05:30:00Z	 SAID31 WIII 080530	METAR WIII 080530Z 33005KT 9999 SCT024 32/24 Q1009=
08/08/2013 06:00:00Z	 SAID31 WIII 080600	METAR WIII 080600Z 02007KT 9000 SCT023 32/24 Q1009=
08/08/2013 06:30:00Z	 SAID31 WIII 080630	METAR WIII 080630Z VRB05KT 9999 FEW023 33/24 Q1009=
08/08/2013 07:00:00Z	 SAID31 WIII 080700	METAR WIII 080700Z 03005KT 9999 FEW023 33/25 Q1008=
08/08/2013 07:30:00Z	 SAID31 WIII 080730	METAR WIII 080730Z AUTO VRB05KT 9999 FEW140 32/24 Q1007=
08/08/2013 08:00:00Z	 SAID31 WIII 080800	METAR WIII 080800Z AUTO 02006KT 9999 NCD 33/24 Q1007=
08/08/2013 08:30:00Z	 SAID31 WIII 080830	METAR WIII 080830Z 36007KT 9999 FEW024 32/24 Q1007=
08/08/2013 09:00:00Z	 SAID31 WIII 080900	METAR WIII 080900Z 01007KT 9999 FEW020CB FEW022 32/24 Q1007 RMK CB TO SE=
08/08/2013 09:30:00Z	 SAID31 WIII 080930	METAR WIII 080930Z 01007KT 7000 VCTS FEW020CB SCT022 31/24 Q1008 RMK CB TO SE AND S=
08/08/2013 10:00:00Z	 SAID31 WIII 081000	METAR WIII 081000Z VRB05KT 8000 VCTS FEW020CB SCT024 31/24 Q1008 RMK CB TO E AND S=
08/08/2013 10:30:00Z	 SAID31 WIII 081030	METAR WIII 081030Z 18015KT 4000 TSRA SCT020CB BKN021 27/22 Q1009 RMK CB OVER THE FIELD=
08/08/2013 11:00:00Z	 SAID31 WIII 081100	METAR WIII 081100Z 33012KT 0800 +TSRA BKN020CB OVC022 23/21 Q1010 RMK CB OVER THE FIELD=
08/08/2013 11:30:00Z	 SAID31 WIII 081130	METAR WIII 081130Z 03007KT 3000 TSRA SCT020CB BKN021 23/22 Q1010 RMK CB OVER THE FIELD=
08/08/2013 12:00:00Z	 SAID31 WIII 081200	METAR WIII 081200Z 08008KT 4500 -TSRA FEW020CB BKN023 23/22 Q1011 RMK CB TO NE AND E=
08/08/2013 12:30:00Z	 SAID31 WIII 081230	METAR WIII 081230Z 13004KT 5000 -TSRA FEW020CB BKN023 24/22 Q1011 RMK CB TO E=
08/08/2013 13:30:00Z	 SAID31 WIII 081330	METAR WIII 081330Z 10008KT 3000 -RA OVC020 25/23 Q1011=
08/08/2013 14:00:00Z	 SAID31 WIII 081400	METAR WIII 081400Z 08006KT 3000 -RA SCT018 OVC110 25/22 Q1012=
08/08/2013 14:30:00Z	 SAID31 WIII 081430	METAR WIII 081430Z 08006KT 3000 BR SCT020 OVC110 25/22 Q1012=
08/08/2013 15:00:00Z	 SAID31 WIII 081500	METAR WIII 081500Z VRB03KT 3000 BR BKN120 25/23 Q1012=
08/08/2013 15:30:00Z	 SAID31 WIII 081530	METAR WIII 081530Z VRB02KT 4000 BR FEW018 25/23 Q1012=
08/08/2013 16:00:00Z	 SAID31 WIII 081600	METAR WIII 081600Z VRB04KT 4000 BR FEW018 25/23 Q1012=
08/08/2013 16:30:00Z	 SAID31 WIII 081630	METAR WIII 081630Z VRB02KT 4000 BR FEW020 25/23 Q1012=
08/08/2013 17:00:00Z	 SAID31 WIII 081700	METAR WIII 081700Z 13004KT 4000 BR FEW020 25/22 Q1011=
08/08/2013 17:30:00Z	 SAID31 WIII 081730	METAR WIII 081730Z VRB03KT 4000 BR FEW018 25/22 Q1011=
08/08/2013 18:00:00Z	 SAID31 WIII 081800	METAR WIII 081800Z VRB03KT 4000 BR FEW020 SCT150 25/23 Q1011=
08/08/2013 18:30:00Z	 SAID31 WIII 081830	METAR WIII 081830Z VRB02KT 4000 BR FEW020 25/22 Q1010=
08/08/2013 19:00:00Z	 SAID31 WIII 081900	METAR WIII 081900Z VRB04KT 4000 BR FEW020 25/23 Q1010=
08/08/2013 19:30:00Z	 SAID31 WIII 081930	METAR WIII 081930Z AUTO 17007KT 7000 BKN150 BKN240 24/22 Q1010=
08/08/2013 20:00:00Z	 SAID31 WIII 082000	METAR WIII 082000Z AUTO 17007KT 9999 FEW150 SCT210 OVC240 24/21 Q1009=
08/08/2013 20:30:00Z	 SAID31 WIII 082030	METAR WIII 082030Z AUTO 18007KT 9999 FEW150 OVC250 24/21 Q1009=
08/08/2013 21:00:00Z	 SAID31 WIII 082100	METAR WIII 082100Z AUTO 19004KT 9999 OVC250 24/21 Q1009=
08/08/2013 21:30:00Z	 SAID31 WIII 082130	METAR WIII 082130Z AUTO 16004KT 9999 BKN250 24/21 Q1009=
08/08/2013 22:00:00Z	 SAID31 WIII 082200	METAR WIII 082200Z AUTO VRB02KT 9999 BKN250 24/21 Q1009=
08/08/2013 22:30:00Z	 SAID31 WIII 082230	METAR WIII 082230Z AUTO 17004KT 9999 BKN250 24/21 Q1009=
08/08/2013 23:00:00Z	 SAID31 WIII 082300	METAR WIII 082300Z AUTO 18004KT 9999 BKN250 24/21 Q1010=
08/08/2013 23:30:00Z	 SAID31 WIII 082330	METAR WIII 082330Z AUTO VRB05KT 9999 FEW022 SCT240 25/21 Q1010=
09/08/2013 00:00:00Z	 SAID31 WIII 090000	METAR WIII 090000Z 19005KT 5000 BR FEW020 25/21 Q1010=
09/08/2013 00:30:00Z	 SAID31 WIII 090030	METAR WIII 090030Z VRB03KT 5000 BR FEW020 25/21 Q1010=
09/08/2013 01:00:00Z	 SAID31 WIII 090100	METAR WIII 090100Z 18003KT 6000 FEW020 26/21 Q1011=
09/08/2013 01:30:00Z	 SAID31 WIII 090130	METAR WIII 090130Z 16005KT 8000 FEW024 28/22 Q1011=
09/08/2013 02:00:00Z	 SAID31 WIII 090200	METAR WIII 090200Z 12005KT 9000 FEW023 29/22 Q1010=
09/08/2013 02:30:00Z	 SAID31 WIII 090230	METAR WIII 090230Z 08005KT 9000 FEW020 30/23 Q1010=
09/08/2013 03:00:00Z	 SAID31 WIII 090300	METAR WIII 090300Z 08008KT 9000 SCT024 30/23 Q1010=
09/08/2013 03:30:00Z	 SAID31 WIII 090330	METAR WIII 090330Z 08011KT 9999 FEW024 30/24 Q1010=
09/08/2013 04:00:00Z	 SAID31 WIII 090400	METAR WIII 090400Z 09013KT 9999 FEW024 31/24 Q1010=
09/08/2013 04:30:00Z	 SAID31 WIII 090430	METAR WIII 090430Z 09009KT 9999 FEW022 31/25 Q1009=
09/08/2013 05:00:00Z	 SAID31 WIII 090500	METAR WIII 090500Z 08010KT 9999 FEW022 32/24 Q1009=
09/08/2013 05:30:00Z	 SAID31 WIII 090530	METAR WIII 090530Z 07012KT 9999 FEW023 31/24 Q1008=
09/08/2013 06:00:00Z	 SAID31 WIII 090600	METAR WIII 090600Z 07009KT 9999 FEW024 31/23 Q1008=
09/08/2013 06:30:00Z	 SAID31 WIII 090630	METAR WIII 090630Z 04008KT 9999 FEW023 32/23 Q1008=
09/08/2013 07:00:00Z	 SAID31 WIII 090700	METAR WIII 090700Z 05010KT 9999 FEW023 32/23 Q1007=
09/08/2013 07:30:00Z	 SAID31 WIII 090730	METAR WIII 090730Z 04008KT 9999 FEW024 32/23 Q1007=
09/08/2013 08:00:00Z	 SAID31 WIII 090800	METAR WIII 090800Z 05008KT 9999 FEW021CB FEW023 31/23 Q1006 RMK CB TO NW=
09/08/2013 08:30:00Z	 SAID31 WIII 090830	METAR COR WIII 090830Z 05008KT 9999 FEW021CB FEW023 31/23 Q1006 RMK C B TO NW=
09/08/2013 09:00:00Z	 SAID31 WIII 090900	METAR WIII 090900Z 05007KT 9999 FEW024 30/23 Q1007=
09/08/2013 09:30:00Z	 SAID31 WIII 090930	METAR WIII 090930Z 05006KT 9999 FEW023 29/23 Q1007=
09/08/2013 10:00:00Z	 SAID31 WIII 091000	METAR WIII 091000Z 05007KT 9999 FEW023 29/22 Q1007=
09/08/2013 10:30:00Z	 SAID31 WIII 091030	METAR WIII 091030Z 05006KT 9999 FEW024 28/22 Q1008=
09/08/2013 11:00:00Z	 SAID31 WIII 091100	METAR WIII 091100Z 05004KT 8000 FEW024 28/22 Q1008=
09/08/2013 11:30:00Z	 SAID31 WIII 091130	METAR WIII 091130Z 03002KT 6000 FEW024 27/22 Q1008=
09/08/2013 12:00:00Z	 SAID31 WIII 091200	METAR WIII 091200Z 05003KT 5000 HZ FEW023 27/22 Q1008=
09/08/2013 12:30:00Z	 SAID31 WIII 091230	METAR WIII 091230Z 05003KT 4000 BR FEW022 27/23 Q1009=
09/08/2013 13:00:00Z	 SAID31 WIII 091300	METAR WIII 091300Z 06003KT 8000 FEW022 27/22 Q1009=
09/08/2013 13:30:00Z	 SAID31 WIII 091330	METAR WIII 091330Z 00000KT 7000 FEW022 27/23 Q1010=
09/08/2013 14:00:00Z	 SAID31 WIII 091400	METAR WIII 091400Z 00000KT 7000 FEW022 26/23 Q1010=
09/08/2013 14:30:00Z	 SAID31 WIII 091430	METAR WIII 091430Z 00000KT 6000 FEW022 26/23 Q1010=
09/08/2013 15:00:00Z	 SAID31 WIII 091500	METAR WIII 091500Z 28003KT 4200 BR FEW022 26/23 Q1011=
09/08/2013 15:30:00Z	 SAID31 WIII 091530	METAR WIII 091530Z 27005KT 3300 BR FEW022 26/23 Q1011=
09/08/2013 16:00:00Z	 SAID31 WIII 091600	METAR WIII 091600Z 26005KT 3100 BR FEW022 26/23 Q1011=
09/08/2013 16:30:00Z	 SAID31 WIII 091630	METAR WIII 091630Z 25007KT 4400 BR FEW022 26/23 Q1011=
09/08/2013 17:00:00Z	 SAID31 WIII 091700	METAR WIII 091700Z AUTO 24006KT 9000 SCT050 26/23 Q1011=
09/08/2013 17:30:00Z	 SAID31 WIII 091730	METAR WIII 091730Z AUTO 24008KT 9999 SCT055 26/23 Q1011=
09/08/2013 18:00:00Z	 SAID31 WIII 091800	METAR WIII 091800Z AUTO 25008KT 9999 FEW043 OVC055 25/23 Q1011=
09/08/2013 18:30:00Z	 SAID31 WIII 091830	METAR WIII 091830Z AUTO 25007KT 9999 FEW060 25/23 Q1010=
09/08/2013 19:00:00Z	 SAID31 WIII 091900	METAR WIII 091900Z AUTO 24007KT 9999 NCD 25/22 Q1010=
09/08/2013 19:30:00Z	 SAID31 WIII 091930	METAR WIII 091930Z AUTO 24006KT 9999 NCD 25/22 Q1010=
09/08/2013 20:00:00Z	 SAID31 WIII 092000	METAR WIII 092000Z 25005KT 9999 NCD 24/22 Q1010=
09/08/2013 20:30:00Z	 SAID31 WIII 092030	METAR WIII 092030Z 22006KT 5000 NCD 25/22 Q1009=
09/08/2013 22:00:00Z	 SAID31 WIII 092200	METAR WIII 092200Z 26004KT 5000 NCD 24/22 Q1010=
09/08/2013 22:30:00Z	 SAID31 WIII 092230	METAR WIII 092230Z 28002KT 5000 FEW022 24/22 Q1010=
09/08/2013 23:00:00Z	 SAID31 WIII 092300	METAR WIII 092300Z VRB04KT 5000 FEW022 25/22 Q1010=
09/08/2013 23:30:00Z	 SAID31 WIII 092330	METAR WIII 092330Z VRB03KT 5000 FEW022 25/23 Q1011=
10/08/2013 00:00:00Z	 SAID31 WIII 100000	METAR WIII 100000Z VRB03KT 5000 FEW022 25/23 Q1011=
10/08/2013 00:30:00Z	 SAID31 WIII 100030	METAR WIII 100030Z AUTO VRB04KT 6000 NCD 26/23 Q1011=
10/08/2013 01:00:00Z	 SAID31 WIII 100100	METAR WIII 100100Z VRB02KT 5000 BR FEW020 28/23 Q1011=
10/08/2013 01:30:00Z	 SAID31 WIII 100130	METAR WIII 100130Z VRB03KT 5000 BR FEW022 28/23 Q1012=
10/08/2013 02:00:00Z	 SAID31 WIII 100200	METAR WIII 100200Z VRB04KT 6000 FEW022 29/23 Q1011=
10/08/2013 02:30:00Z	 SAID31 WIII 100230	METAR WIII 100230Z VRB02KT 8000 FEW022 30/22 Q1011=
10/08/2013 03:00:00Z	 SAID31 WIII 100300	METAR WIII 100300Z VRB02KT 9999 FEW024 31/22 Q1011=
10/08/2013 03:30:00Z	 SAID31 WIII 100330	METAR WIII 100330Z VRB02KT 9999 FEW024 32/22 Q1010=
10/08/2013 04:00:00Z	 SAID31 WIII 100400	METAR WIII 100400Z VRB02KT 9999 FEW022 33/22 Q1010=
10/08/2013 04:30:00Z	 SAID31 WIII 100430	METAR WIII 100430Z VRB02KT 9999 NCD 34/22 Q1010=
10/08/2013 05:00:00Z	 SAID31 WIII 100500	METAR WIII 100500Z 01006KT 9999 NCD 33/23 Q1009=
10/08/2013 05:30:00Z	 SAID31 WIII 100530	METAR WIII 100530Z 35006KT 9999 NCD 33/24 Q1009=
10/08/2013 06:00:00Z	 SAID31 WIII 100600	METAR WIII 100600Z 01007KT 9999 FEW022 33/23 Q1008=
10/08/2013 06:30:00Z	 SAID31 WIII 100630	METAR WIII 100630Z 01008KT 9999 FEW022 33/22 Q1008=
10/08/2013 07:00:00Z	 SAID31 WIII 100700	METAR WIII 100700Z 02007KT 9999 FEW020 33/22 Q1007=
10/08/2013 07:30:00Z	 SAID31 WIII 100730	METAR WIII 100730Z 01008KT 9999 FEW022 33/22 Q1007=
10/08/2013 08:00:00Z	 SAID31 WIII 100800	METAR WIII 100800Z 36006KT 9999 FEW024 32/22 Q1007=
10/08/2013 08:30:00Z	 SAID31 WIII 100830	METAR WIII 100830Z 01007KT 9999 FEW022 32/22 Q1007=
10/08/2013 09:00:00Z	 SAID31 WIII 100900	METAR WIII 100900Z 36006KT 9999 FEW022 32/22 Q1007=
10/08/2013 09:30:00Z	 SAID31 WIII 100930	METAR WIII 100930Z 35006KT 9999 FEW018CB FEW020 31/22 Q1007 RMK CB TO S=
10/08/2013 10:00:00Z	 SAID31 WIII 101000	METAR WIII 101000Z AUTO VRB03KT 9999 NCD 30/22 Q1008=
10/08/2013 10:30:00Z	 SAID31 WIII 101030	METAR COR WIII 101030Z 36004KT 9000 FEW018CB FEW020 30/23 Q1008 RMK C B TO SW=
10/08/2013 11:00:00Z	 SAID31 WIII 101100	METAR WIII 101100Z 32005KT 7000 FEW16CB SCT020 29/23 Q1008 RMK CB TO SW=
10/08/2013 11:30:00Z	 SAID31 WIII 101130	METAR WIII 101130Z 06002KT 6000 SCT018 28/23 Q1009=
10/08/2013 12:00:00Z	 SAID31 WIII 101200	METAR WIII 101200Z 01002KT 6000 SCT020 29/23 Q1009=
10/08/2013 12:30:00Z	 SAID31 WIII 101230	METAR WIII 101230Z 00000KT 5000 BR BKN140 28/23 Q1009=
10/08/2013 13:00:00Z	 SAID31 WIII 101300	METAR WIII 101300Z 00000KT 5000 BR FEW048 SCT140 28/23 Q1010=
10/08/2013 13:30:00Z	 SAID31 WIII 101330	METAR WIII 101330Z 00000KT 5000 BR FEW020 28/23 Q1010=
10/08/2013 14:00:00Z	 SAID31 WIII 101400	METAR WIII 101400Z VRB03KT 5000 BR FEW022 27/23 Q1010=
10/08/2013 14:30:00Z	 SAID31 WIII 101430	METAR WIII 101430Z 18004KT 5000 BR FEW022 27/22 Q1011=
10/08/2013 15:00:00Z	 SAID31 WIII 101500	METAR WIII 101500Z 16004KT 5000 BR SCT190 27/22 Q1011=
10/08/2013 15:30:00Z	 SAID31 WIII 101530	METAR WIII 101530Z AUTO 19004KT 8000 NCD 27/22 Q1011=
10/08/2013 16:00:00Z	 SAID31 WIII 101600	METAR WIII 101600Z AUTO VRB04KT 7000 NCD 27/22 Q1011=
10/08/2013 16:30:00Z	 SAID31 WIII 101630	METAR WIII 101630Z 00000KT 5000 BR FEW020 27/22 Q1011=
10/08/2013 17:00:00Z	 SAID31 WIII 101700	METAR WIII 101700Z 21003KT 5000 BR FEW020 26/22 Q1011=
10/08/2013 17:30:00Z	 SAID31 WIII 101730	METAR WIII 101730Z VRB02KT 5000 BR FEW018 27/22 Q1011=
10/08/2013 18:00:00Z	 SAID31 WIII 101800	METAR WIII 101800Z VRB03KT 5000 BR FEW022 26/22 Q1011=
10/08/2013 18:30:00Z	 SAID31 WIII 101830	METAR WIII 101830Z 21004KT 5000 BR SCT020 26/22 Q1011=
10/08/2013 19:00:00Z	 SAID31 WIII 101900	METAR WIII 101900Z VRB05KT 5000 BR SCT020 26/23 Q1010=
10/08/2013 19:30:00Z	 SAID31 WIII 101930	METAR WIII 101930Z AUTO 22003KT 6000 NCD 25/22 Q1010=
10/08/2013 20:00:00Z	 SAID31 WIII 102000	METAR WIII 102000Z AUTO 18002KT 6000 FEW060 25/23 Q1010=
10/08/2013 20:30:00Z	 SAID31 WIII 102030	METAR WIII 102030Z AUTO 19002KT 6000 NCD 25/23 Q1010=
10/08/2013 21:00:00Z	 SAID31 WIII 102100	METAR WIII 102100Z AUTO 18004KT 5000 NCD 25/23 Q1010=
10/08/2013 21:30:00Z	 SAID31 WIII 102130	METAR WIII 102130Z AUTO 00000KT 5000 NCD 25/23 Q1010=
10/08/2013 22:00:00Z	 SAID31 WIII 102200	METAR WIII 102200Z AUTO 19003KT 6000 NCD 25/23 Q1010=
10/08/2013 22:30:00Z	 SAID31 WIII 102230	METAR WIII 102230Z AUTO VRB02KT 5000 NCD 25/23 Q1010=
10/08/2013 23:00:00Z	 SAID31 WIII 102300	METAR WIII 102300Z VRB04KT 5000 BR FEW022 25/22 Q1011=
10/08/2013 23:30:00Z	 SAID31 WIII 102330	METAR WIII 102330Z VRB04KT 5000 BR FEW022 26/22 Q1011=
11/08/2013 00:00:00Z	 SAID31 WIII 110000	METAR WIII 110000Z 15005KT 5000 BR FEW022 26/22 Q1011=
11/08/2013 00:30:00Z	 SAID31 WIII 110030	METAR WIII 110030Z AUTO VRB05KT 5000 NCD 26/22 Q1012=
11/08/2013 01:00:00Z	 SAID31 WIII 110100	METAR WIII 110100Z AUTO VRB05KT 6000 NCD 27/22 Q1012=
11/08/2013 01:30:00Z	 SAID31 WIII 110130	METAR WIII 110130Z 13004KT 6000 NCD 29/23 Q1012=
11/08/2013 02:00:00Z	 SAID31 WIII 110200	METAR WIII 110200Z 12005KT 8000 FEW026 31/22 Q1011=
11/08/2013 02:30:00Z	 SAID31 WIII 110230	METAR WIII 110230Z VRB03KT 9999 NCD 31/21 Q1011=
11/08/2013 03:00:00Z	 SAID31 WIII 110300	METAR WIII 110300Z VRB03KT 9999 FEW025 33/21 Q1011=
11/08/2013 03:30:00Z	 SAID31 WIII 110330	METAR WIII 110330Z 00000KT 9999 FEW024 32/21 Q1011=
11/08/2013 04:00:00Z	 SAID31 WIII 110400	METAR WIII 110400Z 33005KT 9999 FEW025 33/22 Q1010=
11/08/2013 04:30:00Z	 SAID31 WIII 110430	METAR WIII 110430Z 04006KT 9999 FEW024 33/22 Q1010=
11/08/2013 05:00:00Z	 SAID31 WIII 110500	METAR WIII 110500Z 02008KT 9999 FEW024 33/22 Q1009=
11/08/2013 05:30:00Z	 SAID31 WIII 110530	METAR WIII 110530Z 04007KT 9000 FEW024 33/23 Q1009=
11/08/2013 06:00:00Z	 SAID31 WIII 110600	METAR WIII 110600Z 04008KT 9999 FEW024 33/23 Q1008=
11/08/2013 06:30:00Z	 SAID31 WIII 110630	METAR WIII 110630Z 05007KT 9999 FEW024 33/24 Q1008=
11/08/2013 07:00:00Z	 SAID31 WIII 110700	METAR WIII 110700Z 02008KT 9999 FEW024 32/23 Q1008=
11/08/2013 07:30:00Z	 SAID31 WIII 110730	METAR WIII 110730Z 03009KT 9999 NCD 32/24 Q1007=
11/08/2013 08:00:00Z	 SAID31 WIII 110800	METAR WIII 110800Z 04008KT 9999 FEW026 31/24 Q1007=
11/08/2013 08:30:00Z	 SAID31 WIII 110830	METAR WIII 110830Z 03008KT 7000 FEW024 31/24 Q1007=
11/08/2013 09:00:00Z	 SAID31 WIII 110900	METAR WIII 110900Z 04007KT 6000 FEW024 31/24 Q1007=
11/08/2013 09:30:00Z	 SAID31 WIII 110930	METAR WIII 110930Z 04006KT 6000 FEW024 30/24 Q1007=
11/08/2013 10:00:00Z	 SAID31 WIII 111000	METAR WIII 111000Z 04006KT 8000 FEW024 30/24 Q1007=
11/08/2013 10:30:00Z	 SAID31 WIII 111030	METAR WIII 111030Z 05004KT 7000 FEW024 29/24 Q1007=
11/08/2013 11:00:00Z	 SAID31 WIII 111100	METAR WIII 111100Z 03004KT 5000 HZ FEW024 29/24 Q1008=
11/08/2013 11:30:00Z	 SAID31 WIII 111130	METAR WIII 111130Z 35003KT 3000 HZ FEW021CB FEW022 29/24 Q1008 RMK CB TO S=
11/08/2013 12:00:00Z	 SAID31 WIII 111200	METAR WIII 111200Z 02002KT 5000 HZ FEW021CB FEW024 29/24 Q1009 RMK CB TO S=
11/08/2013 12:30:00Z	 SAID31 WIII 111230	METAR WIII 111230Z 01003KT 5000 HZ FEW023 29/24 Q1009=
11/08/2013 13:00:00Z	 SAID31 WIII 111300	METAR WIII 111300Z 03004KT 7000 FEW025 28/24 Q1010=
11/08/2013 13:30:00Z	 SAID31 WIII 111330	METAR WIII 111330Z 02003KT 7000 FEW024 28/24 Q1010=
11/08/2013 14:00:00Z	 SAID31 WIII 111400	METAR WIII 111400Z 03003KT 8000 FEW029 28/24 Q1010=
11/08/2013 14:30:00Z	 SAID31 WIII 111430	METAR WIII 111430Z 04004KT 8000 FEW020CB FEW024 28/24 Q1010 RMK CB TO SW=
11/08/2013 15:00:00Z	 SAID31 WIII 111500	METAR WIII 111500Z 03004KT 8000 FEW024 28/24 Q1010=
11/08/2013 15:30:00Z	 SAID31 WIII 111530	METAR WIII 111530Z 05004KT 8000 FEW021 28/24 Q1011=
11/08/2013 16:00:00Z	 SAID31 WIII 111600	METAR WIII 111600Z 00000KT 8000 VCTS FEW020CB FEW021 28/24 Q1011 RMK CB TO SW=
11/08/2013 16:30:00Z	 SAID31 WIII 111630	METAR WIII 111630Z VRB02KT 8000 SCT021 27/24 Q1010=
11/08/2013 17:00:00Z	 SAID31 WIII 111700	METAR WIII 111700Z VRB05KT 8000 SCT023 28/24 Q1011=
11/08/2013 17:30:00Z	 SAID31 WIII 111730	METAR WIII 111730Z 15005KT 8000 SCT020 28/23 Q1010=
11/08/2013 18:00:00Z	 SAID31 WIII 111800	METAR WIII 111800Z VRB04KT 8000 FEW021 SCT036 27/23 Q1010=
11/08/2013 18:30:00Z	 SAID31 WIII 111830	METAR WIII 111830Z 14006KT 7000 SCT021 27/23 Q1010=
11/08/2013 19:00:00Z	 SAID31 WIII 111900	METAR WIII 111900Z VRB05KT 6000 FEW021 27/23 Q1009=
11/08/2013 19:30:00Z	 SAID31 WIII 111930	METAR WIII 111930Z 17003KT 6000 FEW021 27/23 Q1009=
11/08/2013 20:00:00Z	 SAID31 WIII 112000	METAR WIII 112000Z 25008KT 4700 VCTS FEW020CB SCT021 26/23 Q1010 RMK CB TO W=
11/08/2013 20:30:00Z	 SAID31 WIII 112030	METAR WIII 112030Z 26008KT 5000 SCT021 26/23 Q1010=
11/08/2013 21:00:00Z	 SAID31 WIII 112100	METAR WIII 112100Z AUTO VRB02KT 7000 NCD 25/23 Q1010=
11/08/2013 21:30:00Z	 SAID31 WIII 112130	METAR WIII 112130Z AUTO 16003KT 9000 SCT055 BKN079 25/23 Q1010=
11/08/2013 22:00:00Z	 SAID31 WIII 112200	METAR WIII 112200Z AUTO VRB03KT 9999 SCT060 BKN071 26/23 Q1010=
11/08/2013 22:30:00Z	 SAID31 WIII 112230	METAR WIII 112230Z AUTO 21004KT 9000 FEW022 SCT065 26/23 Q1010=
11/08/2013 23:00:00Z	 SAID31 WIII 112300	METAR WIII 112300Z VRB04KT 7000 FEW022 25/22 Q1010=
11/08/2013 23:30:00Z	 SAID31 WIII 112330	METAR WIII 112330Z VRB03KT 6000 FEW022 25/23 Q1010=
12/08/2013 00:00:00Z	 SAID31 WIII 120000	METAR WIII 120000Z VRB02KT 6000 FEW022 27/23 Q1010=
12/08/2013 00:30:00Z	 SAID31 WIII 120030	METAR WIII 120030Z AUTO 00000KT 6000 NCD 27/23 Q1010=
12/08/2013 01:00:00Z	 SAID31 WIII 120100	METAR WIII 120100Z VRB02KT 5000 HZ NCD 28/23 Q1010=
12/08/2013 01:30:00Z	 SAID31 WIII 120130	METAR WIII 120130Z VRB03KT 6000 NCD 29/23 Q1010=
12/08/2013 02:00:00Z	 SAID31 WIII 120200	METAR WIII 120200Z 00000KT 8000 NCD 31/23 Q1010=
12/08/2013 02:30:00Z	 SAID31 WIII 120230	METAR WIII 120230Z VRB02KT 8000 FEW022 31/23 Q1010=
12/08/2013 03:00:00Z	 SAID31 WIII 120300	METAR WIII 120300Z VRB02KT 9999 FEW022 32/23 Q1010=
12/08/2013 03:30:00Z	 SAID31 WIII 120330	METAR WIII 120330Z VRB04KT 9999 FEW034 33/24 Q1010=
12/08/2013 04:00:00Z	 SAID31 WIII 120400	METAR WIII 120400Z VRB04KT 9999 FEW037 SCT047 33/23 Q1009=
12/08/2013 04:30:00Z	 SAID31 WIII 120430	METAR WIII 120430Z VRB04KT 9999 SCT037 32/23 Q1009=
12/08/2013 05:00:00Z	 SAID31 WIII 120500	METAR WIII 120500Z VRB05KT 9999 SCT033 32/24 Q1008=
12/08/2013 05:30:00Z	 SAID31 WIII 120530	METAR WIII 120530Z VRB03KT 9999 BKN036 32/24 Q1008=
12/08/2013 06:00:00Z	 SAID31 WIII 120600	METAR WIII 120600Z VRB03KT 9999 FEW030 33/24 Q1007=
12/08/2013 06:30:00Z	 SAID31 WIII 120630	METAR WIII 120630Z VRB05KT 9999 FEW036 33/24 Q1007=
12/08/2013 07:00:00Z	 SAID31 WIII 120700	METAR WIII 120700Z AUTO 03010KT 8000 FEW048 32/24 Q1006=
12/08/2013 07:30:00Z	 SAID31 WIII 120730	METAR WIII 120730Z 02007KT 9999 FEW022 31/24 Q1006=
12/08/2013 08:00:00Z	 SAID31 WIII 120800	METAR WIII 120800Z 03010KT 9999 FEW044 32/24 Q1006=
12/08/2013 08:30:00Z	 SAID31 WIII 120830	METAR WIII 120830Z 05010KT 9999 FEW027 31/23 Q1007=
12/08/2013 09:00:00Z	 SAID31 WIII 120900	METAR WIII 120900Z 02008KT 9999 FEW042 31/23 Q1007=
12/08/2013 10:30:00Z	 SAID31 WIII 121030	METAR WIII 121030Z 06004KT 9000 FEW036 29/22 Q1008=
12/08/2013 11:00:00Z	 SAID31 WIII 121100	METAR WIII 121100Z 06007KT 9000 BKN035 BKN055 29/21 Q1008=
12/08/2013 11:30:00Z	 SAID31 WIII 121130	METAR WIII 121130Z 05005KT 8000 BKN035 28/22 Q1008=
12/08/2013 12:00:00Z	 SAID31 WIII 121200	METAR WIII 121200Z 07004KT 8000 SCT037 SCT049 28/22 Q1009=
12/08/2013 12:30:00Z	 SAID31 WIII 121230	METAR WIII 121230Z 08006KT 8000 SCT045 28/22 Q1009=
12/08/2013 13:00:00Z	 SAID31 WIII 121300	METAR WIII 121300Z 08008KT 6000 BKN030 29/21 Q1010=
12/08/2013 14:00:00Z	 SAID31 WIII 121400	METAR WIII 121400Z 10006KT 5000 BR SCT022 29/21 Q1010=
12/08/2013 14:30:00Z	 SAID31 WIII 121430	METAR WIII 121430Z 09006KT 5000 BR FEW043 SCT055 28/20 Q1010=
12/08/2013 15:00:00Z	 SAID31 WIII 121500	METAR WIII 121500Z AUTO VRB02KT 9999 BKN043 BKN055 29/20 Q1010=
12/08/2013 15:30:00Z	 SAID31 WIII 121530	METAR WIII 121530Z AUTO 10008KT 9999 BKN060 28/20 Q1010=
12/08/2013 16:00:00Z	 SAID31 WIII 121600	METAR WIII 121600Z VRB05KT 5000 BR SCT060 28/21 Q1010=
12/08/2013 16:30:00Z	 SAID31 WIII 121630	METAR WIII 121630Z 07005KT 5000 BR FEW020 27/21 Q1010=
12/08/2013 17:00:00Z	 SAID31 WIII 121700	METAR WIII 121700Z 09007KT 5000 BR FEW020 27/21 Q1010=
12/08/2013 17:30:00Z	 SAID31 WIII 121730	METAR WIII 121730Z 07007KT 5000 BR FEW024 27/20 Q1010=
12/08/2013 18:00:00Z	 SAID31 WIII 121800	METAR WIII 121800Z 07005KT 5000 BR FEW024 27/20 Q1010=
12/08/2013 19:00:00Z	 SAID31 WIII 121900	METAR WIII 121900Z 08005KT 4000 BR FEW020 25/20 Q1010=
12/08/2013 19:30:00Z	 SAID31 WIII 121930	METAR WIII 121930Z AUTO VRB03KT 9999 NCD 26/20 Q1010=
12/08/2013 20:00:00Z	 SAID31 WIII 122000	METAR WIII 122000Z AUTO 19004KT 8000 BKN043 25/21 Q1009=
12/08/2013 20:30:00Z	 SAID31 WIII 122030	METAR WIII 122030Z AUTO 00000KT 6000 OVC047 26/22 Q1010=
12/08/2013 21:00:00Z	 SAID31 WIII 122100	METAR WIII 122100Z AUTO 15003KT 5000 SCT049 25/22 Q1009=
12/08/2013 21:30:00Z	 SAID31 WIII 122130	METAR WIII 122130Z AUTO 15003KT 4200 BR NCD 24/22 Q1009=
12/08/2013 22:00:00Z	 SAID31 WIII 122200	METAR WIII 122200Z AUTO 13004KT 4100 BR NCD 24/21 Q1009=
12/08/2013 22:30:00Z	 SAID31 WIII 122230	METAR WIII 122230Z VRB05KT 5000 BR FEW022 24/21 Q1009=
12/08/2013 23:00:00Z	 SAID31 WIII 122300	METAR WIII 122300Z VRB04KT 5000 BR FEW024 24/21 Q1010=
12/08/2013 23:30:00Z	 SAID31 WIII 122330	METAR WIII 122330Z VRB05KT 5000 BR FEW022 24/20 Q1010=
13/08/2013 00:00:00Z	 SAID31 WIII 130000	METAR WIII 130000Z 15006KT 5000 BR FEW024 25/19 Q1010=
13/08/2013 00:30:00Z	 SAID31 WIII 130030	METAR WIII 130030Z 16008KT 6000 FEW024 26/19 Q1010=
13/08/2013 01:00:00Z	 SAID31 WIII 130100	METAR WIII 130100Z AUTO VRB05KT 9999 NCD 28/19 Q1010=
13/08/2013 01:30:00Z	 SAID31 WIII 130130	METAR WIII 130130Z 16006KT 8000 FEW024 29/20 Q1010=
13/08/2013 02:00:00Z	 SAID31 WIII 130200	METAR WIII 130200Z 13004KT 8000 FEW024 30/20 Q1011=
13/08/2013 02:30:00Z	 SAID31 WIII 130230	METAR WIII 130230Z VRB02KT 9000 FEW021 30/19 Q1010=
13/08/2013 03:00:00Z	 SAID31 WIII 130300	METAR WIII 130300Z VRB03KT 9999 FEW024 31/20 Q1010=
13/08/2013 03:30:00Z	 SAID31 WIII 130330	METAR WIII 130330Z 00000KT 9999 FEW023 32/19 Q1009=
13/08/2013 04:00:00Z	 SAID31 WIII 130400	METAR WIII 130400Z 23004KT 9000 FEW024 32/20 Q1009=
13/08/2013 04:30:00Z	 SAID31 WIII 130430	METAR WIII 130430Z VRB05KT 7000 FEW024 31/21 Q1009=
13/08/2013 05:00:00Z	 SAID31 WIII 130500	METAR WIII 130500Z 02005KT 8000 FEW024 32/21 Q1008=
13/08/2013 05:30:00Z	 SAID31 WIII 130530	METAR WIII 130530Z 04009KT 9000 FEW024 31/21 Q1008=
13/08/2013 06:00:00Z	 SAID31 WIII 130600	METAR WIII 130600Z 05009KT 9000 FEW024 32/22 Q1008=
13/08/2013 06:30:00Z	 SAID31 WIII 130630	METAR WIII 130630Z 04009KT 9999 FEW024 32/21 Q1007=
13/08/2013 07:00:00Z	 SAID31 WIII 130700	METAR WIII 130700Z 04008KT 9999 FEW024 31/21 Q1007=
13/08/2013 07:30:00Z	 SAID31 WIII 130730	METAR WIII 130730Z 03005KT 8000 FEW024 31/21 Q1007=
13/08/2013 08:00:00Z	 SAID31 WIII 130800	METAR WIII 130800Z 02005KT 9999 FEW025 31/21 Q1007=
13/08/2013 08:30:00Z	 SAID31 WIII 130830	METAR WIII 130830Z 05007KT 9999 BKN024 31/20 Q1006=
13/08/2013 09:00:00Z	 SAID31 WIII 130900	METAR WIII 130900Z 06006KT 9999 FEW023 31/20 Q1006=
13/08/2013 09:30:00Z	 SAID31 WIII 130930	METAR WIII 130930Z 06007KT 9999 NCD 30/20 Q1007=
13/08/2013 10:00:00Z	 SAID31 WIII 131000	METAR WIII 131000Z 04007KT 8000 FEW024 29/20 Q1007=
13/08/2013 10:30:00Z	 SAID31 WIII 131030	METAR WIII 131030Z 06007KT 8000 FEW024 29/20 Q1008=
13/08/2013 11:00:00Z	 SAID31 WIII 131100	METAR WIII 131100Z 07004KT 7000 SCT023 28/20 Q1008=
13/08/2013 11:30:00Z	 SAID31 WIII 131130	METAR WIII 131130Z 06004KT 7000 SCT023 27/20 Q1008=
13/08/2013 12:00:00Z	 SAID31 WIII 131200	METAR WIII 131200Z 07006KT 7000 SCT023 26/20 Q1008=
13/08/2013 12:30:00Z	 SAID31 WIII 131230	METAR WIII 131230Z 09005KT 7000 FEW023 27/20 Q1009=
13/08/2013 13:00:00Z	 SAID31 WIII 131300	METAR WIII 131300Z 10006KT 7000 FEW024 28/19 Q1009=
13/08/2013 13:30:00Z	 SAID31 WIII 131330	METAR WIII 131330Z 11005KT 9000 FEW022 28/19 Q1009=
13/08/2013 14:00:00Z	 SAID31 WIII 131400	METAR WIII 131400Z 10006KT 7000 FEW022 28/19 Q1010=
13/08/2013 14:30:00Z	 SAID31 WIII 131430	METAR WIII 131430Z VRB05KT 8000 SCT023 28/19 Q1010=
13/08/2013 15:00:00Z	 SAID31 WIII 131500	METAR WIII 131500Z 11007KT 7000 SCT022 27/19 Q1010=
13/08/2013 15:30:00Z	 SAID31 WIII 131530	METAR WIII 131530Z 11006KT 7000 SCT022 27/19 Q1011=
13/08/2013 16:00:00Z	 SAID31 WIII 131600	METAR WIII 131600Z 11006KT 7000 SCT022 27/19 Q1011=
13/08/2013 16:30:00Z	 SAID31 WIII 131630	METAR WIII 131630Z VRB05KT 7000 SCT022 27/19 Q1010=
13/08/2013 17:00:00Z	 SAID31 WIII 131700	METAR WIII 131700Z 13007KT 7000 FEW022 27/19 Q1010=
13/08/2013 17:30:00Z	 SAID31 WIII 131730	METAR WIII 131730Z 13006KT 7000 FEW022 27/19 Q1010=
13/08/2013 18:00:00Z	 SAID31 WIII 131800	METAR WIII 131800Z VRB05KT 7000 FEW022 26/19 Q1010=
13/08/2013 18:30:00Z	 SAID31 WIII 131830	METAR WIII 131830Z 13006KT 8000 FEW022 25/19 Q1009=
13/08/2013 19:00:00Z	 SAID31 WIII 131900	METAR WIII 131900Z AUTO VRB04KT 9999 NCD 25/19 Q1009=
13/08/2013 20:00:00Z	 SAID31 WIII 132000	METAR WIII 132000Z AUTO 19003KT 9000 NCD 24/19 Q1009=
13/08/2013 20:30:00Z	 SAID31 WIII 132030	METAR WIII 132030Z AUTO 19003KT 9999 BKN060 25/19 Q1009=
13/08/2013 21:00:00Z	 SAID31 WIII 132100	METAR WIII 132100Z AUTO VRB03KT 9999 OVC060 25/19 Q1009=
13/08/2013 21:30:00Z	 SAID31 WIII 132130	METAR WIII 132130Z AUTO 19004KT 9000 SCT060 24/19 Q1010=
13/08/2013 22:00:00Z	 SAID31 WIII 132200	METAR WIII 132200Z AUTO 18005KT 8000 NCD 24/19 Q1010=
13/08/2013 22:30:00Z	 SAID31 WIII 132230	METAR WIII 132230Z AUTO 16004KT 7000 NCD 24/19 Q1010=
13/08/2013 23:00:00Z	 SAID31 WIII 132300	METAR WIII 132300Z AUTO 14006KT 6000 NCD 24/19 Q1010=
13/08/2013 23:30:00Z	 SAID31 WIII 132330	METAR WIII 132330Z VRB05KT 6000 FEW022 24/19 Q1011=
14/08/2013 00:00:00Z	 SAID31 WIII 140000	METAR WIII 140000Z AUTO VRB04KT 8000 FEW060 25/19 Q1011=
14/08/2013 00:30:00Z	 SAID31 WIII 140030	METAR WIII 140030Z 19007KT 6000 FEW022 25/19 Q1011=
14/08/2013 01:00:00Z	 SAID31 WIII 140100	METAR WIII 140100Z 20007KT 8000 FEW022 27/19 Q1012=
14/08/2013 01:30:00Z	 SAID31 WIII 140130	METAR WIII 140130Z 19007KT 8000 FEW060 29/19 Q1011=
14/08/2013 02:00:00Z	 SAID31 WIII 140200	METAR WIII 140200Z 16007KT 9999 FEW022 30/19 Q1011=
14/08/2013 02:30:00Z	 SAID31 WIII 140230	METAR WIII 140230Z AUTO 16007KT 9999 FEW060 31/20 Q1011=
14/08/2013 03:00:00Z	 SAID31 WIII 140300	METAR WIII 140300Z AUTO 13007KT 9999 BKN047 BKN065 30/19 Q1011=
14/08/2013 03:30:00Z	 SAID31 WIII 140330	METAR WIII 140330Z AUTO 10006KT 9999 SCT047 BKN065 31/20 Q1011=
14/08/2013 04:00:00Z	 SAID31 WIII 140400	METAR WIII 140400Z 08006KT 9999 SCT020 32/20 Q1010=
14/08/2013 04:30:00Z	 SAID31 WIII 140430	METAR WIII 140430Z AUTO 08009KT 9999 SCT055 32/20 Q1010=
14/08/2013 05:00:00Z	 SAID31 WIII 140500	METAR WIII 140500Z AUTO 07006KT 9999 FEW050 33/20 Q1010=
14/08/2013 05:30:00Z	 SAID31 WIII 140530	METAR WIII 140530Z AUTO 07010KT 9999 NCD 33/20 Q1009=
14/08/2013 06:00:00Z	 SAID31 WIII 140600	METAR WIII 140600Z 06009KT 9999 FEW020 33/20 Q1009=
14/08/2013 06:30:00Z	 SAID31 WIII 140630	METAR WIII 140630Z 06010KT 9999 FEW022 33/21 Q1008=
14/08/2013 07:00:00Z	 SAID31 WIII 140700	METAR WIII 140700Z 04007KT 9999 FEW022 32/20 Q1008=
14/08/2013 07:30:00Z	 SAID31 WIII 140730	METAR WIII 140730Z 02008KT 9999 FEW020 32/21 Q1007=
14/08/2013 08:00:00Z	 SAID31 WIII 140800	METAR WIII 140800Z 04009KT 9999 FEW022 32/21 Q1007=
14/08/2013 08:30:00Z	 SAID31 WIII 140830	METAR WIII 140830Z 03009KT 9999 FEW024 31/21 Q1007=
14/08/2013 09:00:00Z	 SAID31 WIII 140900	METAR WIII 140900Z 04007KT 9999 SCT075 32/21 Q1008=
14/08/2013 09:30:00Z	 SAID31 WIII 140930	METAR WIII 140930Z 03007KT 9999 FEW018 31/21 Q1008=
14/08/2013 10:00:00Z	 SAID31 WIII 141000	METAR WIII 141000Z AUTO 05006KT 9999 FEW075 30/22 Q1008=
14/08/2013 10:30:00Z	 SAID31 WIII 141030	METAR WIII 141030Z AUTO 05008KT 9999 SCT080 30/22 Q1009=
14/08/2013 11:00:00Z	 SAID31 WIII 141100	METAR WIII 141100Z AUTO 07008KT 9999 BKN080 29/21 Q1009=
14/08/2013 11:30:00Z	 SAID31 WIII 141130	METAR WIII 141130Z 07009KT 7000 SCT024 29/21 Q1009=
14/08/2013 12:00:00Z	 SAID31 WIII 141200	METAR WIII 141200Z 08008KT 7000 SCT020 28/21 Q1010=
14/08/2013 12:30:00Z	 SAID31 WIII 141230	METAR WIII 141230Z 09007KT 6000 SCT020 28/20 Q1010=
14/08/2013 13:00:00Z	 SAID31 WIII 141300	METAR WIII 141300Z VRB05KT 5000 BR BKN060 OVC083 29/20 Q1011=
14/08/2013 13:30:00Z	 SAID31 WIII 141330	METAR WIII 141330Z 11003KT 5000 BR BKN060 28/21 Q1011=
14/08/2013 14:00:00Z	 SAID31 WIII 141400	METAR WIII 141400Z 10006KT 5000 BR SCT022 29/20 Q1011=
14/08/2013 14:30:00Z	 SAID31 WIII 141430	METAR WIII 141430Z VRB05KT 5000 BR BKN055 OVC087 29/20 Q1011=
14/08/2013 15:00:00Z	 SAID31 WIII 141500	METAR WIII 141500Z 22005KT 5000 BR SCT022 29/21 Q1012=
14/08/2013 15:30:00Z	 SAID31 WIII 141530	METAR WIII 141530Z AUTO 25003KT 3800 BR BKN060 BKN074 OVC088 28/22 Q1 012=
14/08/2013 16:00:00Z	 SAID31 WIII 141600	METAR WIII 141600Z 25005KT 5000 BR BKN060 OVC085 27/21 Q1011=
14/08/2013 16:30:00Z	 SAID31 WIII 141630	METAR WIII 141630Z AUTO 25006KT 6000 FEW065 BKN086 27/21 Q1011=
14/08/2013 17:00:00Z	 SAID31 WIII 141700	METAR WIII 141700Z AUTO 19005KT 5000 SCT085 27/21 Q1011=
14/08/2013 17:30:00Z	 SAID31 WIII 141730	METAR WIII 141730Z AUTO 21006KT 6000 FEW085 27/21 Q1011=
14/08/2013 18:00:00Z	 SAID31 WIII 141800	METAR WIII 141800Z AUTO VRB03KT 6000 FEW085 26/21 Q1010=
14/08/2013 19:00:00Z	 SAID31 WIII 141900	METAR WIII 141900Z 22006KT 4800 BR FEW020 26/21 Q1010=
14/08/2013 19:30:00Z	 SAID31 WIII 141930	METAR WIII 141930Z VRB03KT 4000 BR SCT085 25/21 Q1010=
14/08/2013 20:00:00Z	 SAID31 WIII 142000	METAR WIII 142000Z AUTO 18004KT 4700 BR NCD 26/21 Q1010=
14/08/2013 20:30:00Z	 SAID31 WIII 142030	METAR WIII 142030Z AUTO 19004KT 5000 BR FEW050 25/21 Q1010=
14/08/2013 21:00:00Z	 SAID31 WIII 142100	METAR WIII 142100Z AUTO 18004KT 5000 BR SCT050 25/21 Q1010=
14/08/2013 21:30:00Z	 SAID31 WIII 142130	METAR WIII 142130Z AUTO 17003KT 5000 BR NCD 25/21 Q1010=
14/08/2013 22:00:00Z	 SAID31 WIII 142200	METAR WIII 142200Z AUTO 18004KT 6000 NCD 25/21 Q1010=
14/08/2013 22:30:00Z	 SAID31 WIII 142230	METAR WIII 142230Z AUTO 20004KT 5000 NCD 25/21 Q1011=
14/08/2013 23:00:00Z	 SAID31 WIII 142300	METAR WIII 142300Z AUTO 19005KT 7000 NCD 25/21 Q1011=
14/08/2013 23:30:00Z	 SAID31 WIII 142330	METAR WIII 142330Z 20004KT 5000 BR FEW024 26/21 Q1012=
15/08/2013 00:00:00Z	 SAID31 WIII 150000	METAR WIII 150000Z VRB04KT 5000 BR FEW022 26/21 Q1012=
15/08/2013 00:30:00Z	 SAID31 WIII 150030	METAR WIII 150030Z AUTO VRB03KT 5000 NCD 27/22 Q1012=
15/08/2013 01:00:00Z	 SAID31 WIII 150100	METAR WIII 150100Z AUTO VRB03KT 5000 BR NCD 28/22 Q1013=
15/08/2013 01:30:00Z	 SAID31 WIII 150130	METAR WIII 150130Z 21003KT 5000 HZ FEW024 30/22 Q1013=
15/08/2013 02:00:00Z	 SAID31 WIII 150200	METAR WIII 150200Z 12004KT 6000 FEW024 31/22 Q1013=
15/08/2013 02:30:00Z	 SAID31 WIII 150230	METAR WIII 150230Z 10006KT 7000 FEW024 31/22 Q1012=
15/08/2013 03:00:00Z	 SAID31 WIII 150300	METAR WIII 150300Z 12009KT 8000 FEW023 32/21 Q1012=
15/08/2013 03:30:00Z	 SAID31 WIII 150330	METAR WIII 150330Z 11013KT 9999 FEW024 33/21 Q1012=
15/08/2013 04:00:00Z	 SAID31 WIII 150400	METAR WIII 150400Z 08013KT 9999 FEW024 33/22 Q1011=
15/08/2013 04:30:00Z	 SAID31 WIII 150430	METAR WIII 150430Z 07013KT 9999 FEW024 33/22 Q1011=
15/08/2013 05:00:00Z	 SAID31 WIII 150500	METAR WIII 150500Z 06016KT 9999 FEW023 33/22 Q1010=
15/08/2013 06:00:00Z	 SAID31 WIII 150600	METAR WIII 150600Z 06014KT 9999 FEW024 33/22 Q1010=
15/08/2013 06:30:00Z	 SAID31 WIII 150630	METAR WIII 150630Z 06015KT 9999 FEW021CB FEW024 32/22 Q1009 RMK CB TO N=
15/08/2013 07:00:00Z	 SAID31 WIII 150700	METAR WIII 150700Z 07014KT 9999 FEW024 32/23 Q1009=
15/08/2013 07:30:00Z	 SAID31 WIII 150730	METAR WIII 150730Z 08013KT 9999 FEW024 32/22 Q1009=
15/08/2013 08:00:00Z	 SAID31 WIII 150800	METAR WIII 150800Z 07016KT 9999 FEW023 31/22 Q1009=
15/08/2013 08:30:00Z	 SAID31 WIII 150830	METAR WIII 150830Z 08018KT 9999 FEW023 31/23 Q1009=
15/08/2013 09:00:00Z	 SAID31 WIII 150900	METAR WIII 150900Z 07014KT 9999 FEW023 30/23 Q1010=
15/08/2013 09:30:00Z	 SAID31 WIII 150930	METAR WIII 150930Z 08016KT 9999 FEW024 30/23 Q1010=
15/08/2013 10:00:00Z	 SAID31 WIII 151000	METAR WIII 151000Z 06015KT 8000 FEW024 BKN080 30/23 Q1011=
15/08/2013 10:30:00Z	 SAID31 WIII 151030	METAR WIII 151030Z 03014KT 7000 SCT023 BKN039 27/22 Q1011=
15/08/2013 11:00:00Z	 SAID31 WIII 151100	METAR WIII 151100Z 03014KT 6000 -RA SCT022 26/22 Q1012=
15/08/2013 11:30:00Z	 SAID31 WIII 151130	METAR WIII 151130Z 03006KT 6000 -RA SCT021 26/23 Q1012=
15/08/2013 12:00:00Z	 SAID31 WIII 151200	METAR WIII 151200Z 02005KT 8000 FEW023 26/22 Q1012=
15/08/2013 12:30:00Z	 SAID31 WIII 151230	METAR WIII 151230Z VRB04KT 7000 FEW024 26/23 Q1012=
15/08/2013 13:00:00Z	 SAID31 WIII 151300	METAR WIII 151300Z 00000KT 9000 FEW022 26/22 Q1012=
15/08/2013 13:30:00Z	 SAID31 WIII 151330	METAR WIII 151330Z 13004KT 7000 FEW022 26/23 Q1012=
15/08/2013 14:00:00Z	 SAID31 WIII 151400	METAR WIII 151400Z 13004KT 9000 FEW024 26/24 Q1012=
15/08/2013 14:30:00Z	 SAID31 WIII 151430	METAR WIII 151430Z VRB05KT 9000 FEW022 26/23 Q1012=
15/08/2013 15:00:00Z	 SAID31 WIII 151500	METAR WIII 151500Z 15005KT 7000 FEW022 26/23 Q1012=
15/08/2013 15:30:00Z	 SAID31 WIII 151530	METAR WIII 151530Z 17004KT 7000 FEW022 26/23 Q1012=
15/08/2013 16:00:00Z	 SAID31 WIII 151600	METAR WIII 151600Z 18006KT 8000 FEW022 26/23 Q1012=
15/08/2013 16:30:00Z	 SAID31 WIII 151630	METAR WIII 151630Z 18005KT 9000 FEW022 26/23 Q1012=
15/08/2013 18:00:00Z	 SAID31 WIII 151800	METAR WIII 151800Z 13002KT 8000 NCD 25/23 Q1010=
15/08/2013 18:30:00Z	 SAID31 WIII 151830	METAR WIII 151830Z AUTO VRB03KT 3800 BR NCD 24/22 Q1010=
15/08/2013 19:00:00Z	 SAID31 WIII 151900	METAR WIII 151900Z AUTO 15003KT 5000 BKN230 25/23 Q1010=
15/08/2013 19:30:00Z	 SAID31 WIII 151930	METAR WIII 151930Z AUTO 00000KT 5000 SCT230 25/23 Q1010=
15/08/2013 20:00:00Z	 SAID31 WIII 152000	METAR WIII 152000Z 18003KT 5000 FEW0225 25/23 Q1010=
15/08/2013 20:30:00Z	 SAID31 WIII 152030	METAR WIII 152030Z AUTO 16004KT 5000 BR BKN220 24/23 Q1010=
15/08/2013 21:00:00Z	 SAID31 WIII 152100	METAR WIII 152100Z AUTO 18003KT 6000 BKN220 25/23 Q1010=
15/08/2013 21:30:00Z	 SAID31 WIII 152130	METAR WIII 152130Z AUTO 14003KT 5000 NCD 25/23 Q1010=
15/08/2013 22:00:00Z	 SAID31 WIII 152200	METAR WIII 152200Z AUTO 17002KT 5000 BR NCD 25/22 Q1010=
15/08/2013 22:30:00Z	 SAID31 WIII 152230	METAR WIII 152230Z 17004KT 4800 BR NCD 25/23 Q1010=
15/08/2013 23:00:00Z	 SAID31 WIII 152300	METAR WIII 152300Z VRB03KT 5000 BR NCD 25/23 Q1011=
15/08/2013 23:30:00Z	 SAID31 WIII 152330	METAR WIII 152330Z VRB04T 4900 HZ NCD 26/22 Q1011=
16/08/2013 00:00:00Z	 SAID31 WIII 160000	METAR WIII 160000Z VRB04KT 4900 HZ NCD 27/22 Q1011=
16/08/2013 00:30:00Z	 SAID31 WIII 160030	METAR WIII 160030Z 12006KT 6000 NCD 28/23 Q1011=
16/08/2013 01:00:00Z	 SAID31 WIII 160100	METAR WIII 160100Z 13008KT 7000 NCD 29/22 Q1011=
16/08/2013 01:30:00Z	 SAID31 WIII 160130	METAR WIII 160130Z 15006KT 9999 FEW024 30/23 Q1011=
16/08/2013 02:00:00Z	 SAID31 WIII 160200	METAR WIII 160200Z AUTO 11008KT 9999 NCD 31/22 Q1011=
16/08/2013 02:30:00Z	 SAID31 WIII 160230	METAR WIII 160230Z 10010KT 9999 NCD 32/23 Q1011=
16/08/2013 03:00:00Z	 SAID31 WIII 160300	METAR WIII 160300Z 08008KT 9999 FEW024 32/23 Q1010=
16/08/2013 03:30:00Z	 SAID31 WIII 160330	METAR WIII 160330Z 08009KT 9999 FEW024 32/23 Q1010=
16/08/2013 04:00:00Z	 SAID31 WIII 160400	METAR WIII 160400Z 08010KT 9999 FEW024 33/23 Q1010=
16/08/2013 04:30:00Z	 SAID31 WIII 160430	METAR WIII 160430Z 06010KT 9999 FEW020 33/24 Q1009=
16/08/2013 05:00:00Z	 SAID31 WIII 160500	METAR WIII 160500Z 06012KT 9999 FEW022 33/24 Q1009=
16/08/2013 05:30:00Z	 SAID31 WIII 160530	METAR WIII 160530Z AUTO 06013KT 9999 NCD 33/23 Q1008=
16/08/2013 06:00:00Z	 SAID31 WIII 160600	METAR WIII 160600Z 04011KT 9999 FEW024 33/23 Q1008=
16/08/2013 06:30:00Z	 SAID31 WIII 160630	METAR WIII 160630Z 05009KT 9999 FEW024 32/25 Q1008=
16/08/2013 07:00:00Z	 SAID31 WIII 160700	METAR WIII 160700Z 05013KT 9999 FEW022 32/24 Q1007=
16/08/2013 07:30:00Z	 SAID31 WIII 160730	METAR WIII 160730Z 06014KT 9999 FEW022 32/24 Q1007=
16/08/2013 08:00:00Z	 SAID31 WIII 160800	METAR WIII 160800Z 04011KT 9999 FEW024 32/24 Q1007=
16/08/2013 08:30:00Z	 SAID31 WIII 160830	METAR WIII 160830Z 05013KT 9999 FEW024 31/24 Q1007=
16/08/2013 09:00:00Z	 SAID31 WIII 160900	METAR WIII 160900Z 06013KT 9999 FEW018CB FEW020 31/24 Q1007 RMK CB TO SW=
16/08/2013 09:30:00Z	 SAID31 WIII 160930	METAR WIII 160930Z 05010KT 9999 FEW018CB FEW020 31/24 Q1007 RMK CB TO SW=
16/08/2013 10:00:00Z	 SAID31 WIII 161000	METAR WIII 161000Z 07013KT 9999 FEW022 31/24 Q1008=
16/08/2013 10:30:00Z	 SAID31 WIII 161030	METAR WIII 161030Z AUTO 06011KT 9999 NCD 30/24 Q1008=
16/08/2013 11:00:00Z	 SAID31 WIII 161100	METAR WIII 161100Z AUTO 06009KT 9999 FEW020 29/25 Q1008=
16/08/2013 11:30:00Z	 SAID31 WIII 161130	METAR WIII 161130Z 06008KT 8000 FEW018 29/25 Q1009=
16/08/2013 12:00:00Z	 SAID31 WIII 161200	METAR WIII 161200Z 07007KT 8000 SCT018 29/24 Q1009=
16/08/2013 12:30:00Z	 SAID31 WIII 161230	METAR WIII 161230Z AUTO 08006KT 9999 FEW022 28/24 Q1010=
16/08/2013 13:00:00Z	 SAID31 WIII 161300	METAR WIII 161300Z AUTO 08008KT 9999 FEW075 28/23 Q1010=
16/08/2013 13:30:00Z	 SAID31 WIII 161330	METAR WIII 161330Z AUTO 10005KT 9999 BKN075 28/24 Q1011=
16/08/2013 14:00:00Z	 SAID31 WIII 161400	METAR WIII 161400Z AUTO 09004KT 9999 OVC075 27/24 Q1011=
16/08/2013 14:30:00Z	 SAID31 WIII 161430	METAR WIII 161430Z AUTO 12004KT 9999 FEW080 27/24 Q1011=
16/08/2013 15:00:00Z	 SAID31 WIII 161500	METAR WIII 161500Z VRB02KT 5000 BR FEW022 28/24 Q1011=
16/08/2013 15:30:00Z	 SAID31 WIII 161530	METAR WIII 161530Z VRB04KT 5000 BR FEW022 28/24 Q1012=
16/08/2013 16:00:00Z	 SAID31 WIII 161600	METAR WIII 161600Z VRB02KT 5000 BR FEW024 28/23 Q1012=
16/08/2013 16:30:00Z	 SAID31 WIII 161630	METAR WIII 161630Z 26003KT 4000 BR FEW022 27/23 Q1012=
16/08/2013 17:00:00Z	 SAID31 WIII 161700	METAR WIII 161700Z 27005KT 4000 BR FEW020 26/23 Q1011=
16/08/2013 17:30:00Z	 SAID31 WIII 161730	METAR WIII 161730Z 28004KT 4000 BR FEW028 SCT050 26/23 Q1011=
16/08/2013 18:00:00Z	 SAID31 WIII 161800	METAR WIII 161800Z AUTO 26006KT 3100 BR FEW028 BKN050 26/23 Q1011=
16/08/2013 18:30:00Z	 SAID31 WIII 161830	METAR WIII 161830Z AUTO 26005KT 3400 BR FEW050 26/23 Q1011=
16/08/2013 19:00:00Z	 SAID31 WIII 161900	METAR WIII 161900Z AUTO 23003KT 3600 BR FEW050 26/23 Q1010=
16/08/2013 19:30:00Z	 SAID31 WIII 161930	METAR WIII 161930Z AUTO 19002KT 5000 SCT048 26/23 Q1010=
16/08/2013 20:00:00Z	 SAID31 WIII 162000	METAR WIII 162000Z AUTO VRB02KT 5000 NCD 26/23 Q1010=
16/08/2013 20:30:00Z	 SAID31 WIII 162030	METAR WIII 162030Z AUTO 5000 BR NCD 26/23 Q1010=
16/08/2013 21:00:00Z	 SAID31 WIII 162100	METAR WIII 162100Z AUTO 5000 BR NCD 26/23 Q1010=
16/08/2013 21:30:00Z	 SAID31 WIII 162130	METAR WIII 162130Z AUTO 16005KT 4500 BR NCD Q1009=
16/08/2013 22:00:00Z	 SAID31 WIII 162200	METAR WIII 162200Z AUTO 16004KT 4100 BR NCD 26/23 Q1010=
16/08/2013 22:30:00Z	 SAID31 WIII 162230	METAR WIII 162230Z AUTO 16003KT 4900 BR NCD 26/23 Q1010=
16/08/2013 23:00:00Z	 SAID31 WIII 162300	METAR WIII 162300Z AUTO 15007KT 5000 NCD 27/23 Q1010=
16/08/2013 23:30:00Z	 SAID31 WIII 162330	METAR WIII 162330Z VRB03KT 5000 BR FEW022 27/23 Q1010=
17/08/2013 00:00:00Z	 SAID31 WIII 170000	METAR WIII 170000Z VRB03KT 5000 HZ FEW024 27/23 Q1010=
17/08/2013 00:30:00Z	 SAID31 WIII 170030	METAR WIII 170030Z AUTO VRB02KT 2200 HZ NCD 27/24 Q1011=
17/08/2013 01:00:00Z	 SAID31 WIII 170100	METAR WIII 170100Z AUTO VRB02KT 3100 HZ NCD 29/24 Q1012=
17/08/2013 01:30:00Z	 SAID31 WIII 170130	METAR WIII 170130Z 09006KT 5000 HZ FEW024 30/23 Q1012=
17/08/2013 02:00:00Z	 SAID31 WIII 170200	METAR WIII 170200Z 08010KT 8000 FEW024 31/23 Q1011=
17/08/2013 02:30:00Z	 SAID31 WIII 170230	METAR WIII 170230Z 07010KT 9999 FEW024 32/23 Q1011=
17/08/2013 03:00:00Z	 SAID31 WIII 170300	METAR WIII 170300Z 07012KT 9999 FEW024 32/23 Q1011=
17/08/2013 03:30:00Z	 SAID31 WIII 170330	METAR WIII 170330Z 07008KT 9999 FEW022 32/24 Q1011=
17/08/2013 04:00:00Z	 SAID31 WIII 170400	METAR WIII 170400Z 06009KT 9999 FEW024 32/23 Q1010=
17/08/2013 04:30:00Z	 SAID31 WIII 170430	METAR WIII 170430Z 04008KT 9999 FEW023 33/24 Q1010=
17/08/2013 05:00:00Z	 SAID31 WIII 170500	METAR WIII 170500Z 04008KT 9999 FEW022 33/24 Q1009=
17/08/2013 05:30:00Z	 SAID31 WIII 170530	METAR WIII 170530Z 03010KT 9999 FEW022 32/24 Q1009=
17/08/2013 06:00:00Z	 SAID31 WIII 170600	METAR WIII 170600Z 03010KT 9999 NCD 32/24 Q1008=
17/08/2013 06:30:00Z	 SAID31 WIII 170630	METAR WIII 170630Z 04012KT 9999 NCD 32/23 Q1008=
17/08/2013 07:00:00Z	 SAID31 WIII 170700	METAR WIII 170700Z 03008KT 9999 FEW024 32/24 Q1007=
17/08/2013 07:30:00Z	 SAID31 WIII 170730	METAR WIII 170730Z 05009KT 9999 FEW020CB FEW022 32/24 Q1007 RMK CB TO S=
17/08/2013 08:00:00Z	 SAID31 WIII 170800	METAR WIII 170800Z 04010KT 9999 FEW021CB FEW023 32/24 Q1007 RMK CB TO S=
17/08/2013 08:30:00Z	 SAID31 WIII 170830	METAR WIII 170830Z 04008KT 9999 FEW021CB FEW022 32/24 Q1007 RMK CB TO E=
17/08/2013 09:00:00Z	 SAID31 WIII 170900	METAR WIII 170900Z 04007KT 9999 FEW021CB FEW022 32/24 Q1007 RMK CB TO SE=
17/08/2013 09:30:00Z	 SAID31 WIII 170930	METAR WIII 170930Z 05008KT 9999 FEW021CB FEW024 31/24 Q1007 RMK CB TO SE=
17/08/2013 10:00:00Z	 SAID31 WIII 171000	METAR WIII 171000Z 04008KT 9999 FEW021CB FEW023 30/24 Q1007 RMK CB TO S=
17/08/2013 10:30:00Z	 SAID31 WIII 171030	METAR WIII 171030Z 04006KT 9999 FEW021CB FEW023 30/24 Q1008 RMK CB TO S=
17/08/2013 11:00:00Z	 SAID31 WIII 171100	METAR WIII 171100Z 05006KT 6000 VCTS FEW020CB FEW022 29/24 Q1008 RMK CB TO SE AND SW=
17/08/2013 11:30:00Z	 SAID31 WIII 171130	METAR WIII 171130Z 05002KT 6000 VCTS FEW021CB FEW023 29/24 Q1009 RMK CB TO S AND W=
17/08/2013 12:00:00Z	 SAID31 WIII 171200	METAR WIII 171200Z 14009KT 7000 -TSRA FEW020CB BKN023 28/22 Q1010 RMK CB TO SE AND SW=
17/08/2013 12:30:00Z	 SAID31 WIII 171230	METAR WIII 171230Z 27003KT 4000 -RA FEW021CB SCT023 25/23 Q1010 RETS RMK CB TO SW=
17/08/2013 13:00:00Z	 SAID31 WIII 171300	METAR WIII 171300Z 00000KT 4000 -RA FEW021CB SCT023 25/23 Q1010 RMK C B TO SW=
17/08/2013 13:30:00Z	 SAID31 WIII 171330	METAR WIII 171330Z 23007KT 6000 -RA FEW021CB SCT023 26/23 Q1011 RMK C B TO SW=
17/08/2013 14:00:00Z	 SAID31 WIII 171400	METAR WIII 171400Z 21006KT 7000 FEW021CB SCT023 26/22 Q1011 RMK CB TO SW=
17/08/2013 14:30:00Z	 SAID31 WIII 171430	METAR WIII 171430Z 20003KT 7000 FEW021CB SCT023 25/22 Q1012 RMK CB TO W=
17/08/2013 15:00:00Z	 SAID31 WIII 171500	METAR WIII 171500Z 23006KT 7000 SCT023 26/22 Q1012=
17/08/2013 15:30:00Z	 SAID31 WIII 171530	METAR WIII 171530Z 23005KT 7000 SCT023 26/22 Q1012=
17/08/2013 16:00:00Z	 SAID31 WIII 171600	METAR WIII 171600Z VRB04KT 7000 SCT023 26/22 Q1012=
17/08/2013 16:30:00Z	 SAID31 WIII 171630	METAR WIII 171630Z VRB04KT 7000 SCT023 26/22 Q1012=
17/08/2013 17:00:00Z	 SAID31 WIII 171700	METAR WIII 171700Z AUTO 20004KT 9999 FEW023 SCT029 SCT140 BKN160 26/2 2 Q1012=
17/08/2013 17:30:00Z	 SAID31 WIII 171730	METAR WIII 171730Z AUTO VRB05KT 9999 BKN020 BKN026 BKN055 26/23 Q1011=
17/08/2013 18:00:00Z	 SAID31 WIII 171800	METAR WIII 171800Z 23009KT 7000 FEW019CB SCT020 26/23 Q1011 RMK CB T O W=
17/08/2013 18:30:00Z	 SAID31 WIII 171830	METAR WIII 171830Z 25004KT 7000 FEW019CB SCT023 25/23 Q1011 RMK CB T O SW=
17/08/2013 19:00:00Z	 SAID31 WIII 171900	METAR WIII 171900Z 25002KT 6000 FEW019CB SCT023 25/23 Q1011 RMK CB T O SW=
17/08/2013 19:30:00Z	 SAID31 WIII 171930	METAR WIII 171930Z VRB03KT 6000 FEW019CB FEW023 25/23 Q1011 RMK CB TO NW=
17/08/2013 20:00:00Z	 SAID31 WIII 172000	METAR WIII 172000Z VRB03KT 6000 SCT023 25/23 Q1011=
17/08/2013 20:30:00Z	 SAID31 WIII 172030	METAR WIII 172030Z 00000KT 6000 FEW019CB SCT022 25/23 Q1011 RMK CB T O NW=
17/08/2013 21:00:00Z	 SAID31 WIII 172100	METAR WIII 172100Z 19002KT 6000 SCT023 25/23 Q1011=
17/08/2013 21:30:00Z	 SAID31 WIII 172130	METAR WIII 172130Z VRB02KT 6000 FEW019CB SCT023 25/23 Q1011 RMK CB TO NE=
17/08/2013 22:00:00Z	 SAID31 WIII 172200	METAR WIII 172200Z VRB03KT 6000 SCT023 25/23 Q1011=
17/08/2013 22:30:00Z	 SAID31 WIII 172230	METAR WIII 172230Z 15003KT 6000 SCT023 25/23 Q1011=
17/08/2013 23:00:00Z	 SAID31 WIII 172300	METAR WIII 172300Z 22006KT 6000 FEW023 25/22 Q1011=
17/08/2013 23:30:00Z	 SAID31 WIII 172330	METAR WIII 172330Z VRB05KT 5000 HZ FEW024 26/22 Q1012=
18/08/2013 00:00:00Z	 SAID31 WIII 180000	METAR WIII 180000Z 21004KT 5000 HZ NCD 27/22 Q1012=
18/08/2013 00:30:00Z	 SAID31 WIII 180030	METAR WIII 180030Z AUTO VRB02KT 9999 SCT035 27/23 Q1012=
18/08/2013 01:00:00Z	 SAID31 WIII 180100	METAR WIII 180100Z AUTO VRB03KT 9999 NCD 29/23 Q1012=
18/08/2013 01:30:00Z	 SAID31 WIII 180130	METAR WIII 180130Z AUTO VRB03KT 8000 NCD 30/24 Q1012=
18/08/2013 02:00:00Z	 SAID31 WIII 180200	METAR WIII 180200Z 14004KT 8000 SCT020 31/23 Q1012=
18/08/2013 02:30:00Z	 SAID31 WIII 180230	METAR WIII 180230Z 15006KT 9999 FEW020 32/23 Q1012=
18/08/2013 03:00:00Z	 SAID31 WIII 180300	METAR WIII 180300Z 12006KT 8000 SCT018 32/23 Q1011=
18/08/2013 03:30:00Z	 SAID31 WIII 180330	METAR WIII 180330Z 14004KT 7000 SCT018 33/23 Q1011=
18/08/2013 04:00:00Z	 SAID31 WIII 180400	METAR WIII 180400Z 03007KT 7000 BKN020 32/23 Q1011=
18/08/2013 04:30:00Z	 SAID31 WIII 180430	METAR WIII 180430Z 01009KT 8000 SCT018 32/23 Q1010=
18/08/2013 05:00:00Z	 SAID31 WIII 180500	METAR WIII 180500Z 04008KT 9999 SCT018 32/24 Q1010=
18/08/2013 05:30:00Z	 SAID31 WIII 180530	METAR WIII 180530Z 03009KT 9999 SCT018 33/24 Q1009=
18/08/2013 06:00:00Z	 SAID31 WIII 180600	METAR WIII 180600Z 36008KT 9999 SCT018 32/24 Q1009=
18/08/2013 06:30:00Z	 SAID31 WIII 180630	METAR WIII 180630Z 02009KT 9999 SCT018 32/23 Q1008=
18/08/2013 07:00:00Z	 SAID31 WIII 180700	METAR WIII 180700Z 03010KT 9999 SCT018 32/23 Q1007=
18/08/2013 07:30:00Z	 SAID31 WIII 180730	METAR WIII 180730Z 01012KT 9999 SCT018 32/24 Q1007=
18/08/2013 08:00:00Z	 SAID31 WIII 180800	METAR WIII 180800Z 04010KT 9999 SCT018 32/24 Q1007=
18/08/2013 08:30:00Z	 SAID31 WIII 180830	METAR WIII 180830Z 36010KT 9999 FEW018CB SCT020 31/24 Q1007=
18/08/2013 09:00:00Z	 SAID31 WIII 180900	METAR WIII 180900Z 35009KT 9999 SCT018 31/24 Q1007=
18/08/2013 09:30:00Z	 SAID31 WIII 180930	METAR WIII 180930Z 35010KT 9999 FEW018CB SCT018 31/24 Q1007=
18/08/2013 10:00:00Z	 SAID31 WIII 181000	METAR WIII 181000Z 03009KT 9999 FEW018CB SCT020 30/24 Q1007=
18/08/2013 10:30:00Z	 SAID31 WIII 181030	METAR WIII 181030Z 01007KT 9999 FEW018CB BKN020 29/24 Q1008=
18/08/2013 11:00:00Z	 SAID31 WIII 181100	METAR WIII 181100Z 35007KT 8000 SCT018 29/24 Q1008=
18/08/2013 11:30:00Z	 SAID31 WIII 181130	METAR WIII 181130Z 02006KT 6000 SCT020 29/24 Q1009=
18/08/2013 12:00:00Z	 SAID31 WIII 181200	METAR WIII 181200Z 06003KT 7000 BKN020 29/24 Q1010=
18/08/2013 12:30:00Z	 SAID31 WIII 181230	METAR WIII 181230Z AUTO 06003KT 8000 BKN055 BKN074 29/24 Q1010=
18/08/2013 13:00:00Z	 SAID31 WIII 181300	METAR WIII 181300Z AUTO 01002KT 9999 SCT055 28/24 Q1010=
18/08/2013 13:30:00Z	 SAID31 WIII 181330	METAR WIII 181330Z 13008G18KT 5000 RA BKN018 28/23 Q1010=
18/08/2013 14:00:00Z	 SAID31 WIII 181400	METAR WIII 181400Z 13007KT 5000 -RA OVC018 27/23 Q1011=
18/08/2013 14:30:00Z	 SAID31 WIII 181430	METAR WIII 181430Z 18006KT 6000 OVC020 27/24 Q1011=
18/08/2013 15:00:00Z	 SAID31 WIII 181500	METAR WIII 181500Z 21005KT 5000 HZ FEW016CB BKN018 27/23 Q1011=
18/08/2013 15:30:00Z	 SAID31 WIII 181530	METAR WIII 181530Z 21005KT 6000 BKN020 26/23 Q1011=
18/08/2013 16:00:00Z	 SAID31 WIII 181600	METAR WIII 181600Z 19004KT 6000 BKN018 26/23 Q1011=
18/08/2013 16:30:00Z	 SAID31 WIII 181630	METAR WIII 181630Z 19003KT 7000 BKN018 26/23 Q1011=
18/08/2013 17:00:00Z	 SAID31 WIII 181700	METAR WIII 181700Z 16004KT 7000 FEW018CB BKN020 26/23 Q1011=
18/08/2013 17:30:00Z	 SAID31 WIII 181730	METAR WIII 181730Z 25004KT 6000 BKN018 26/23 Q1010=
18/08/2013 18:00:00Z	 SAID31 WIII 181800	METAR WIII 181800Z 22004KT 5000 BR SCT018 26/23 Q1010=
18/08/2013 18:30:00Z	 SAID31 WIII 181830	METAR WIII 181830Z AUTO 20003KT 6000 BKN070 25/23 Q1010=
18/08/2013 19:00:00Z	 SAID31 WIII 181900	METAR WIII 181900Z AUTO 28003KT 3100 BR NCD 25/23 Q1009=
18/08/2013 19:30:00Z	 SAID31 WIII 181930	METAR WIII 181930Z AUTO VRB02KT 2400 BR NCD 25/23 Q1009=
18/08/2013 20:00:00Z	 SAID31 WIII 182000	METAR WIII 182000Z 24005KT 2000 BR SCT018 25/23 Q1009=
18/08/2013 20:30:00Z	 SAID31 WIII 182030	METAR WIII 182030Z 20003KT 3000 BR SCT020 25/23 Q1009=
18/08/2013 21:00:00Z	 SAID31 WIII 182100	METAR WIII 182100Z 20004KT 2500 BR SCT018 25/23 Q1009=
18/08/2013 21:30:00Z	 SAID31 WIII 182130	METAR WIII 182130Z 15002KT 3000 BR FEW018 25/23 Q1009=
18/08/2013 22:00:00Z	 SAID31 WIII 182200	METAR WIII 182200Z 16005KT 3500 BR FEW018 24/23 Q1010=
18/08/2013 22:30:00Z	 SAID31 WIII 182230	METAR WIII 182230Z 21005KT 5000 BR FEW020 24/22 Q1010=
18/08/2013 23:00:00Z	 SAID31 WIII 182300	METAR WIII 182300Z 16006KT 5000 BR FEW020 25/22 Q1010=
18/08/2013 23:30:00Z	 SAID31 WIII 182330	METAR WIII 182330Z 17007KT 5000 BR FEW020 25/22 Q1010=
19/08/2013 00:00:00Z	 SAID31 WIII 190000	METAR WIII 190000Z 19007KT 5000 HZ FEW020 26/22 Q1011=
19/08/2013 00:30:00Z	 SAID31 WIII 190030	METAR WIII 190030Z AUTO 16006KT 8000 NCD 27/22 Q1011=
19/08/2013 01:00:00Z	 SAID31 WIII 190100	METAR WIII 190100Z 16006KT 8000 FEW024 28/22 Q1011=
19/08/2013 01:30:00Z	 SAID31 WIII 190130	METAR WIII 190130Z 14004KT 9000 FEW024 29/22 Q1012=
19/08/2013 02:00:00Z	 SAID31 WIII 190200	METAR WIII 190200Z 17006KT 9999 NCD 31/21 Q1011=
19/08/2013 02:30:00Z	 SAID31 WIII 190230	METAR WIII 190230Z 12005KT 9999 NCD 31/20 Q1011=
19/08/2013 03:00:00Z	 SAID31 WIII 190300	METAR WIII 190300Z 05005KT 9999 NCD 32/19 Q1011=
19/08/2013 03:30:00Z	 SAID31 WIII 190330	METAR WIII 190330Z 02004KT 9999 NCD 33/19 Q1011=
19/08/2013 04:00:00Z	 SAID31 WIII 190400	METAR WIII 190400Z 08008KT 9999 NCD 32/18 Q1010=
19/08/2013 04:30:00Z	 SAID31 WIII 190430	METAR WIII 190430Z 03009KT 9999 NCD 33/18 Q1010=
19/08/2013 05:00:00Z	 SAID31 WIII 190500	METAR WIII 190500Z 03009KT 9999 NCD 33/19 Q1009=
19/08/2013 05:30:00Z	 SAID31 WIII 190530	METAR WIII 190530Z 05007KT 9999 NCD 33/18 Q1009=
19/08/2013 06:00:00Z	 SAID31 WIII 190600	METAR WIII 190600Z 04008KT 9999 NCD 33/20 Q1009=
19/08/2013 06:30:00Z	 SAID31 WIII 190630	METAR WIII 190630Z 03011KT 9999 NCD 32/20 Q1008=
19/08/2013 07:00:00Z	 SAID31 WIII 190700	METAR WIII 190700Z 03008KT 9999 NCD 32/20 Q1008=
19/08/2013 07:30:00Z	 SAID31 WIII 190730	METAR WIII 190730Z 05007KT 9999 NCD 32/21 Q1007=
19/08/2013 08:00:00Z	 SAID31 WIII 190800	METAR WIII 190800Z 02006KT 9999 NCD 32/21 Q1007=
19/08/2013 08:30:00Z	 SAID31 WIII 190830	METAR WIII 190830Z 02006KT 9999 NCD 32/20 Q1007=
19/08/2013 09:00:00Z	 SAID31 WIII 190900	METAR WIII 190900Z 04006KT 9999 NCD 31/20 Q1007=
19/08/2013 09:30:00Z	 SAID31 WIII 190930	METAR WIII 190930Z 03005KT 9999 NCD 31/20 Q1008=
19/08/2013 10:00:00Z	 SAID31 WIII 191000	METAR WIII 191000Z 06007KT 9999 NCD 30/20 Q1008=
19/08/2013 10:30:00Z	 SAID31 WIII 191030	METAR WIII 191030Z 06008KT 9999 NCD 30/20 Q1008=
19/08/2013 11:00:00Z	 SAID31 WIII 191100	METAR WIII 191100Z 08008KT 8000 NCD 28/20 Q1009=
19/08/2013 11:30:00Z	 SAID31 WIII 191130	METAR WIII 191130Z 07006KT 8000 NCD 28/21 Q1009=
19/08/2013 12:00:00Z	 SAID31 WIII 191200	METAR WIII 191200Z 07005KT 8000 NCD 28/21 Q1010=
19/08/2013 12:30:00Z	 SAID31 WIII 191230	METAR WIII 191230Z AUTO 08004KT 9999 NCD 28/21 Q1010=
19/08/2013 13:00:00Z	 SAID31 WIII 191300	METAR WIII 191300Z AUTO 08004KT 9999 NCD 27/21 Q1010=
19/08/2013 13:30:00Z	 SAID31 WIII 191330	METAR WIII 191330Z 08005KT 8000 FEW022 27/22 Q1011=
19/08/2013 14:00:00Z	 SAID31 WIII 191400	METAR WIII 191400Z 08006KT 8000 FEW022 27/22 Q1011=
19/08/2013 14:30:00Z	 SAID31 WIII 191430	METAR WIII 191430Z 09004KT 9000 FEW022 27/22 Q1011=
19/08/2013 15:00:00Z	 SAID31 WIII 191500	METAR WIII 191500Z 11004KT 8000 FEW022 28/22 Q1012=
19/08/2013 15:30:00Z	 SAID31 WIII 191530	METAR WIII 191530Z VRB04KT 9000 FEW022 28/22 Q1012=
19/08/2013 16:00:00Z	 SAID31 WIII 191600	METAR WIII 191600Z VRB04KT 9000 FEW022 28/21 Q1012=
19/08/2013 16:30:00Z	 SAID31 WIII 191630	METAR WIII 191630Z 11004KT 8000 FEW022 28/21 Q1012=
19/08/2013 17:00:00Z	 SAID31 WIII 191700	METAR WIII 191700Z 12004KT 8000 FEW022 27/21 Q1011=
19/08/2013 17:30:00Z	 SAID31 WIII 191730	METAR WIII 191730Z 12003KT 8000 FEW022 26/21 Q1011=
19/08/2013 18:00:00Z	 SAID31 WIII 191800	METAR WIII 191800Z 18003KT 8000 FEW022 26/22 Q1011=
19/08/2013 18:30:00Z	 SAID31 WIII 191830	METAR WIII 191830Z AUTO 19003KT 9999 BKN037 OVC044 27/22 Q1011=
19/08/2013 19:00:00Z	 SAID31 WIII 191900	METAR WIII 191900Z AUTO 18006KT 9000 SCT050 OVC065 27/21 Q1011=
19/08/2013 19:30:00Z	 SAID31 WIII 191930	METAR WIII 191930Z AUTO 14004KT 9999 SCT070 26/21 Q1010=
19/08/2013 20:00:00Z	 SAID31 WIII 192000	METAR WIII 192000Z AUTO 14004KT 8000 NCD 26/21 Q1010=
19/08/2013 20:30:00Z	 SAID31 WIII 192030	METAR WIII 192030Z AUTO 20002KT 9000 NCD 25/21 Q1010=
19/08/2013 21:00:00Z	 SAID31 WIII 192100	METAR WIII 192100Z AUTO 21004KT 9999 NCD 25/21 Q1010=
19/08/2013 21:30:00Z	 SAID31 WIII 192130	METAR WIII 192130Z AUTO 21004KT 9999 NCD 25/21 Q1010=
19/08/2013 22:00:00Z	 SAID31 WIII 192200	METAR WIII 192200Z AUTO VRB02KT 9999 BKN075 25/21 Q1010=
19/08/2013 22:30:00Z	 SAID31 WIII 192230	METAR WIII 192230Z VRB02KT 8000 FEW022 25/21 Q1011=
19/08/2013 23:00:00Z	 SAID31 WIII 192300	METAR WIII 192300Z VRB03KT 7000 FEW022 25/21 Q1011=
19/08/2013 23:30:00Z	 SAID31 WIII 192330	METAR WIII 192330Z VRB03KT 7000 FEW022 26/22 Q1011=
20/08/2013 00:00:00Z	 SAID31 WIII 200000	METAR WIII 200000Z VRB05KT 7000 FEW022 26/22 Q1012=
20/08/2013 00:30:00Z	 SAID31 WIII 200030	METAR WIII 200030Z AUTO VRB05KT 9999 FEW085 27/21 Q1012=
20/08/2013 01:00:00Z	 SAID31 WIII 200100	METAR WIII 200100Z AUTO 20004KT 9000 NCD 28/21 Q1012=
20/08/2013 01:30:00Z	 SAID31 WIII 200130	METAR WIII 200130Z AUTO VRB04KT 9000 NCD 28/21 Q1012=
20/08/2013 02:00:00Z	 SAID31 WIII 200200	METAR WIII 200200Z AUTO VRB03KT 9999 FEW070 30/21 Q1012=
20/08/2013 02:30:00Z	 SAID31 WIII 200230	METAR WIII 200230Z VRB02KT 7000 FEW018 30/21 Q1012=
20/08/2013 03:00:00Z	 SAID31 WIII 200300	METAR WIII 200300Z 17004KT 7000 SCT018 31/21 Q1012=
20/08/2013 03:30:00Z	 SAID31 WIII 200330	METAR WIII 200330Z 24002KT 7000 SCT018 31/21 Q1012=
20/08/2013 04:00:00Z	 SAID31 WIII 200400	METAR WIII 200400Z 28004KT 7000 SCT018 31/21 Q1011=
20/08/2013 04:30:00Z	 SAID31 WIII 200430	METAR WIII 200430Z 18002KT 7000 SCT018 33/21 Q1011=
20/08/2013 05:00:00Z	 SAID31 WIII 200500	METAR WIII 200500Z 31003KT 8000 SCT018 33/21 Q1010=
20/08/2013 05:30:00Z	 SAID31 WIII 200530	METAR WIII 200530Z AUTO VRB04KT 8000 NCD 34/22 Q1009=
20/08/2013 06:00:00Z	 SAID31 WIII 200600	METAR COR WIII 200600Z 02012KT 8000 SCT018 32/22 Q1009=
20/08/2013 06:30:00Z	 SAID31 WIII 200630	METAR WIII 200630Z AUTO 04008KT 9000 NCD 32/22 Q1009=
20/08/2013 07:00:00Z	 SAID31 WIII 200700	METAR WIII 200700Z AUTO 04008KT 9999 NCD 32/21 Q1008=
20/08/2013 07:30:00Z	 SAID31 WIII 200730	METAR WIII 200730Z AUTO 02006KT 9999 NCD 32/21 Q1008=
20/08/2013 08:00:00Z	 SAID31 WIII 200800	METAR WIII 200800Z AUTO 02007KT 9999 FEW075 31/21 Q1008=
20/08/2013 08:30:00Z	 SAID31 WIII 200830	METAR WIII 200830Z 04007KT 9999 FEW018 31/21 Q1008=
20/08/2013 09:00:00Z	 SAID31 WIII 200900	METAR WIII 200900Z 02008KT 9999 SCT018 31/21 Q1008=
20/08/2013 09:30:00Z	 SAID31 WIII 200930	METAR WIII 200930Z 03007KT 9999 SCT018 30/21 Q1008=
20/08/2013 10:00:00Z	 SAID31 WIII 201000	METAR WIII 201000Z 30006KT 9999 SCT018 30/21 Q1008=
20/08/2013 10:30:00Z	 SAID31 WIII 201030	METAR WIII 201030Z 34006KT 9999 FEW018 29/21 Q1008=
20/08/2013 11:00:00Z	 SAID31 WIII 201100	METAR WIII 201100Z 34006KT 4500 BR FEW018 29/21 Q1009=
20/08/2013 11:30:00Z	 SAID31 WIII 201130	METAR WIII 201130Z AUTO 02003KT 6000 NCD 28/22 Q1009=
20/08/2013 12:00:00Z	 SAID31 WIII 201200	METAR WIII 201200Z 36007KT 5000 HZ SCT018 28/22 Q1010=
20/08/2013 12:30:00Z	 SAID31 WIII 201230	METAR WIII 201230Z AUTO 03002KT 3600 BR NCD 28/22 Q1010=
20/08/2013 13:00:00Z	 SAID31 WIII 201300	METAR WIII 201300Z AUTO 05004KT 6000 NCD 28/22 Q1010=
20/08/2013 13:30:00Z	 SAID31 WIII 201330	METAR WIII 201330Z AUTO 05004KT 6000 FEW038 27/22 Q1011=
20/08/2013 14:00:00Z	 SAID31 WIII 201400	METAR WIII 201400Z 06003KT 6000 FEW038 27/22 Q1011=
20/08/2013 14:30:00Z	 SAID31 WIII 201430	METAR WIII 201430Z 04003KT 5000 BR FEW022 27/22 Q1011=
20/08/2013 15:00:00Z	 SAID31 WIII 201500	METAR WIII 201500Z VRB02KT 5000 BR FEW022 27/23 Q1012=
20/08/2013 15:30:00Z	 SAID31 WIII 201530	METAR WIII 201530Z VRB03KT 5000 BR FEW024 27/22 Q1012=
20/08/2013 16:00:00Z	 SAID31 WIII 201600	METAR WIII 201600Z VRB03KT 5000 BR FEW045 SCT055 27/22 Q1012=
20/08/2013 16:30:00Z	 SAID31 WIII 201630	METAR WIII 201630Z 00000KT 5000 BR BKN043 OVC050 28/23 Q1012=
20/08/2013 17:00:00Z	 SAID31 WIII 201700	METAR WIII 201700Z 13004KT 5000 BR BKN046 BKN055 28/23 Q1011=
20/08/2013 17:30:00Z	 SAID31 WIII 201730	METAR WIII 201730Z 11002KT 5000 BR SCT045 27/23 Q1011=
20/08/2013 18:00:00Z	 SAID31 WIII 201800	METAR WIII 201800Z 11002KT 5000 BR SCT020 26/23 Q1011=
20/08/2013 18:30:00Z	 SAID31 WIII 201830	METAR WIII 201830Z 19004KT 5000 BR SCT030 26/22 Q1010=
20/08/2013 19:00:00Z	 SAID31 WIII 201900	METAR WIII 201900Z 17002KT 4000 BR BKN028 26/22 Q1010=
20/08/2013 19:30:00Z	 SAID31 WIII 201930	METAR WIII 201930Z 18004KT 3700 BR FEW028 26/22 Q1010=
20/08/2013 20:00:00Z	 SAID31 WIII 202000	METAR WIII 202000Z 19004KT 4400 BR NCD 26/22 Q1010=
20/08/2013 20:30:00Z	 SAID31 WIII 202030	METAR WIII 202030Z 18005KT 4600 BR FEW018 25/22 Q1010=
20/08/2013 21:00:00Z	 SAID31 WIII 202100	METAR WIII 202100Z AUTO 19005KT 5000 FEW035 25/22 Q1010=
20/08/2013 21:30:00Z	 SAID31 WIII 202130	METAR WIII 202130Z AUTO 17004KT 5000 BKN031 25/22 Q1010=
20/08/2013 22:00:00Z	 SAID31 WIII 202200	METAR WIII 202200Z AUTO 17004KT 5000 FEW026 25/22 Q1010=
20/08/2013 22:30:00Z	 SAID31 WIII 202230	METAR WIII 202230Z AUTO 16004KT 5000 BR NCD 25/22 Q1010=
20/08/2013 23:00:00Z	 SAID31 WIII 202300	METAR WIII 202300Z VRB03KT 5000 BR FEW024 25/22 Q1011=
20/08/2013 23:30:00Z	 SAID31 WIII 202330	METAR WIII 202330Z VRB04KT 5000 BR FEW024 26/22 Q1011=
21/08/2013 00:00:00Z	 SAID31 WIII 210000	METAR WIII 210000Z VRB04KT 5000 BR FEW024 26/22 Q1011=
21/08/2013 00:30:00Z	 SAID31 WIII 210030	METAR WIII 210030Z 18004KT 3500 HZ FEW022 27/22 Q1011=
21/08/2013 01:00:00Z	 SAID31 WIII 210100	METAR WIII 210100Z 15005KT 3600 HZ FEW022 28/22 Q1012=
21/08/2013 01:30:00Z	 SAID31 WIII 210130	METAR WIII 210130Z VRB04KT 4000 HZ FEW022 30/23 Q1012=
21/08/2013 02:00:00Z	 SAID31 WIII 210200	METAR WIII 210200Z VRB04KT 4500 HZ FEW022 31/22 Q1011=
21/08/2013 02:30:00Z	 SAID31 WIII 210230	METAR WIII 210230Z VRB04KT 5000 HZ FEW022 31/22 Q1011=
21/08/2013 03:00:00Z	 SAID31 WIII 210300	METAR WIII 210300Z VRB03KT 5000 HZ SCT022 31/22 Q1011=
21/08/2013 03:30:00Z	 SAID31 WIII 210330	METAR WIII 210330Z VRB04KT 4500 HZ SCT022 32/23 Q1011=
21/08/2013 04:00:00Z	 SAID31 WIII 210400	METAR WIII 210400Z 36004KT 5000 FEW022 31/22 Q1010=
21/08/2013 04:30:00Z	 SAID31 WIII 210430	METAR WIII 210430Z 05008KT 5000 HZ FEW023 33/22 Q1010=
21/08/2013 05:00:00Z	 SAID31 WIII 210500	METAR WIII 210500Z 02008KT 6000 FEW023 33/22 Q1009=
21/08/2013 05:30:00Z	 SAID31 WIII 210530	METAR WIII 210530Z 04008KT 6000 FEW023 33/22 Q1009=
21/08/2013 06:00:00Z	 SAID31 WIII 210600	METAR WIII 210600Z 03009KT 6000 FEW023 33/22 Q1008=
21/08/2013 06:30:00Z	 SAID31 WIII 210630	METAR WIII 210630Z 05009KT 7000 FEW023 33/23 Q1008=
21/08/2013 07:00:00Z	 SAID31 WIII 210700	METAR WIII 210700Z 04009KT 7000 FEW023 32/23 Q1007=
21/08/2013 07:30:00Z	 SAID31 WIII 210730	METAR WIII 210730Z 04008KT 8000 FEW023 32/23 Q1007=
21/08/2013 08:00:00Z	 SAID31 WIII 210800	METAR WIII 210800Z 04008KT 8000 FEW023 32/23 Q1007=
21/08/2013 08:30:00Z	 SAID31 WIII 210830	METAR WIII 210830Z 05009KT 8000 FEW023 31/23 Q1007=
21/08/2013 09:00:00Z	 SAID31 WIII 210900	METAR WIII 210900Z 05009KT 8000 FEW023 31/22 Q1007=
21/08/2013 09:30:00Z	 SAID31 WIII 210930	METAR WIII 210930Z 04012KT 8000 FEW022 30/22 Q1008=
21/08/2013 10:00:00Z	 SAID31 WIII 211000	METAR WIII 211000Z 04009KT 8000 FEW022 29/22 Q1008=
21/08/2013 10:30:00Z	 SAID31 WIII 211030	METAR WIII 211030Z 05006KT 7000 FEW022 29/23 Q1008=
21/08/2013 11:00:00Z	 SAID31 WIII 211100	METAR WIII 211100Z 04008KT 7000 FEW020CB FEW022 28/23 Q1008 RMK CB TO S=
21/08/2013 11:30:00Z	 SAID31 WIII 211130	METAR WIII 211130Z 05006KT 7000 FEW023 28/22 Q1009=
21/08/2013 12:00:00Z	 SAID31 WIII 211200	METAR WIII 211200Z 06006KT 7000 FEW023 28/22 Q1009=
21/08/2013 12:30:00Z	 SAID31 WIII 211230	METAR WIII 211230Z AUTO 07005KT 9999 NCD 28/23 Q1009=
21/08/2013 13:00:00Z	 SAID31 WIII 211300	METAR WIII 211300Z AUTO 08006KT 9999 BKN055 27/22 Q1010=
21/08/2013 13:30:00Z	 SAID31 WIII 211330	METAR WIII 211330Z AUTO 08002KT 4200 BR BKN055 27/23 Q1010=
21/08/2013 14:00:00Z	 SAID31 WIII 211400	METAR WIII 211400Z 10003KT 6000 FEW022 27/23 Q1010=
21/08/2013 14:30:00Z	 SAID31 WIII 211430	METAR WIII 211430Z 09006KT 6000 NCD 27/23 Q1011=
21/08/2013 15:00:00Z	 SAID31 WIII 211500	METAR WIII 211500Z 09004KT 5000 NCD 27/22 Q1011=
21/08/2013 15:30:00Z	 SAID31 WIII 211530	METAR WIII 211530Z 10005KT 5000 BR FEW022 27/23 Q1011=
21/08/2013 16:00:00Z	 SAID31 WIII 211600	METAR WIII 211600Z 08004KT 6000 FEW022 27/23 Q1011=
21/08/2013 17:00:00Z	 SAID31 WIII 211700	METAR WIII 211700Z 00000KT 4600 BR FEW022 27/23 Q1011=
21/08/2013 17:30:00Z	 SAID31 WIII 211730	METAR WIII 211730Z 10002KT 4200 BR FEW022 27/23 Q1010=
21/08/2013 18:00:00Z	 SAID31 WIII 211800	METAR WIII 211800Z 10002KT 4200 BR FEW022 27/23 Q1010=
21/08/2013 18:30:00Z	 SAID31 WIII 211830	METAR WIII 211830Z AUTO 14003KT 5000 BR SCT023 BKN030 26/23 Q1010=
21/08/2013 19:00:00Z	 SAID31 WIII 211900	METAR WIII 211900Z AUTO 15003KT 4300 BR BKN032 27/23 Q1010=
21/08/2013 19:30:00Z	 SAID31 WIII 211930	METAR WIII 211930Z AUTO 17003KT 5000 BR OVC032 27/23 Q1010=
21/08/2013 20:00:00Z	 SAID31 WIII 212000	METAR WIII 212000Z 20003KT 3600 BR FEW022 26/23 Q1010=
21/08/2013 20:30:00Z	 SAID31 WIII 212030	METAR WIII 212030Z AUTO 26002KT 2700 BR BKN032 26/23 Q1010=
21/08/2013 21:00:00Z	 SAID31 WIII 212100	METAR WIII 212100Z AUTO 19006KT 3400 BR BKN034 BKN042 26/23 Q1010=
21/08/2013 21:30:00Z	 SAID31 WIII 212130	METAR WIII 212130Z AUTO 17006KT 4300 BR NCD 26/23 Q1010=
21/08/2013 22:00:00Z	 SAID31 WIII 212200	METAR WIII 212200Z AUTO VRB04KT 4600 BR FEW035 26/22 Q1010=
21/08/2013 22:30:00Z	 SAID31 WIII 212230	METAR WIII 212230Z 18003KT 4900 BR FEW022 26/22 Q1011=
21/08/2013 23:00:00Z	 SAID31 WIII 212300	METAR WIII 212300Z VRB03KT 5000 BR FEW022 26/22 Q1011=
21/08/2013 23:30:00Z	 SAID31 WIII 212330	METAR WIII 212330Z VRB04KT 4900 HZ FEW023 26/22 Q1011=
22/08/2013 00:00:00Z	 SAID31 WIII 220000	METAR WIII 220000Z VRB03KT 4000 HZ FEW022 27/22 Q1011=
22/08/2013 00:30:00Z	 SAID31 WIII 220030	METAR WIII 220030Z AUTO VRB05KT 3600 HZ NCD 28/22 Q1012=
22/08/2013 01:00:00Z	 SAID31 WIII 220100	METAR WIII 220100Z AUTO VRB05KT 3100 HZ NCD 29/23 Q1012=
22/08/2013 01:30:00Z	 SAID31 WIII 220130	METAR WIII 220130Z AUTO 21004KT 4000 HZ NCD 30/23 Q1012=
22/08/2013 02:00:00Z	 SAID31 WIII 220200	METAR WIII 220200Z 22004KT 5000 HZ SCT018 30/23 Q1012=
22/08/2013 02:30:00Z	 SAID31 WIII 220230	METAR WIII 220230Z 14004KT 6000 SCT018 31/23 Q1011=
22/08/2013 03:00:00Z	 SAID31 WIII 220300	METAR WIII 220300Z 18007KT 7000 SCT018 32/22 Q1011=
22/08/2013 03:30:00Z	 SAID31 WIII 220330	METAR WIII 220330Z 12007KT 7000 SCT018 33/21 Q1010=
22/08/2013 04:00:00Z	 SAID31 WIII 220400	METAR WIII 220400Z 13006KT 7000 FEW018 34/21 Q1009=
22/08/2013 04:30:00Z	 SAID31 WIII 220430	METAR WIII 220430Z 05005KT 5000 HZ SCT018 34/22 Q1009=
22/08/2013 05:00:00Z	 SAID31 WIII 220500	METAR WIII 220500Z 03006KT 7000 SCT018 34/22 Q1008=
22/08/2013 05:30:00Z	 SAID31 WIII 220530	METAR WIII 220530Z 04007KT 7000 SCT018 33/22 Q1008=
22/08/2013 06:00:00Z	 SAID31 WIII 220600	METAR WIII 220600Z 01011KT 8000 SCT018 34/21 Q1008=
22/08/2013 06:30:00Z	 SAID31 WIII 220630	METAR WIII 220630Z AUTO 04009KT 8000 NCD 34/21 Q1007=
22/08/2013 07:00:00Z	 SAID31 WIII 220700	METAR WIII 220700Z AUTO 04009KT 9000 NCD 34/22 Q1007=
22/08/2013 07:30:00Z	 SAID31 WIII 220730	METAR WIII 220730Z AUTO 03009KT 9999 NCD 34/22 Q1006=
22/08/2013 08:00:00Z	 SAID31 WIII 220800	METAR WIII 220800Z 03012KT 8000 SCT018 34/23 Q1006=
22/08/2013 08:30:00Z	 SAID31 WIII 220830	METAR WIII 220830Z 03006KT 8000 SCT018 32/23 Q1006=
22/08/2013 09:00:00Z	 SAID31 WIII 220900	METAR WIII 220900Z 36012KT 8000 SCT018 32/23 Q1006=
22/08/2013 10:00:00Z	 SAID31 WIII 221000	METAR WIII 221000Z AUTO 01008KT 9999 NCD 31/22 Q1006=
22/08/2013 10:30:00Z	 SAID31 WIII 221030	METAR WIII 221030Z AUTO 03006KT 7000 NCD 30/22 Q1007=
22/08/2013 11:00:00Z	 SAID31 WIII 221100	METAR WIII 221100Z 04007KT 7000 FEW018 29/22 Q1007=
22/08/2013 11:30:00Z	 SAID31 WIII 221130	METAR WIII 221130Z 32004KT 5000 HZ SCT018 28/22 Q1008=
22/08/2013 12:00:00Z	 SAID31 WIII 221200	METAR WIII 221200Z 36006KT 3000 BR FEW018 28/22 Q1009=
22/08/2013 12:30:00Z	 SAID31 WIII 221230	METAR WIII 221230Z 32004KT 4000 BR FEW018 28/22 Q1009=
22/08/2013 13:00:00Z	 SAID31 WIII 221300	METAR WIII 221300Z 36003KT 2500 BR FEW018 27/23 Q1010=
22/08/2013 13:30:00Z	 SAID31 WIII 221330	METAR WIII 221330Z AUTO VRB03KT 2800 BR NCD 27/23 Q1010=
22/08/2013 14:00:00Z	 SAID31 WIII 221400	METAR WIII 221400Z AUTO 30002KT 2500 BR NCD 27/23 Q1011=
22/08/2013 14:30:00Z	 SAID31 WIII 221430	METAR WIII 221430Z 27004KT 2500 BR FEW018 27/23 Q1011=
22/08/2013 15:00:00Z	 SAID31 WIII 221500	METAR WIII 221500Z 27004KT 2500 BR FEW018 27/23 Q1011=
22/08/2013 15:30:00Z	 SAID31 WIII 221530	METAR WIII 221530Z 27003KT 2500 BR SCT018 27/23 Q1011=
22/08/2013 16:00:00Z	 SAID31 WIII 221600	METAR WIII 221600Z 28004KT 3000 BR BKN018 27/23 Q1011=
22/08/2013 16:30:00Z	 SAID31 WIII 221630	METAR WIII 221630Z 29003KT 4500 BR BKN018 27/23 Q1011=
22/08/2013 17:00:00Z	 SAID31 WIII 221700	METAR WIII 221700Z 26003KT 4500 BR BKN018 27/23 Q1011=
22/08/2013 17:30:00Z	 SAID31 WIII 221730	METAR WIII 221730Z 27006KT 5000 BR BKN018 27/23 Q1011=
22/08/2013 18:00:00Z	 SAID31 WIII 221800	METAR WIII 221800Z 29004KT 5000 BR SCT018 27/23 Q1011=
22/08/2013 18:30:00Z	 SAID31 WIII 221830	METAR WIII 221830Z AUTO 29004KT 5000 BKN028 BKN050 27/23 Q1011=
22/08/2013 19:00:00Z	 SAID31 WIII 221900	METAR WIII 221900Z AUTO 25003KT 3900 BR BKN026 BKN030 BKN035 27/23 Q1 011=
22/08/2013 19:30:00Z	 SAID31 WIII 221930	METAR WIII 221930Z AUTO 26004KT 2400 BR FEW026 SCT032 27/23 Q1011=
22/08/2013 20:00:00Z	 SAID31 WIII 222000	METAR WIII 222000Z 21004KT 2400 BR BKN018 26/23 Q1011=
22/08/2013 20:30:00Z	 SAID31 WIII 222030	METAR WIII 222030Z AUTO 00000KT 2300 BR NCD 26/23 Q1011=
22/08/2013 21:00:00Z	 SAID31 WIII 222100	METAR WIII 222100Z 16003KT 2000 BR SCT018 26/23 Q1011=
22/08/2013 21:30:00Z	 SAID31 WIII 222130	METAR WIII 222130Z AUTO 17003KT 2200 BR FEW027 26/23 Q1011=
22/08/2013 22:00:00Z	 SAID31 WIII 222200	METAR WIII 222200Z 14004KT 2000 BR BKN020 26/23 Q1011=
22/08/2013 22:30:00Z	 SAID31 WIII 222230	METAR WIII 222230Z AUTO 21003KT 2200 BR BKN025 25/23 Q1011=
22/08/2013 23:00:00Z	 SAID31 WIII 222300	METAR WIII 222300Z AUTO VRB05KT 2300 BR NCD 26/23 Q1011=
22/08/2013 23:30:00Z	 SAID31 WIII 222330	METAR WIII 222330Z VRB02KT 2500 BR FEW020 26/23 Q1011=
23/08/2013 00:00:00Z	 SAID31 WIII 230000	METAR WIII 230000Z 18005KT 2500 BR FEW020 27/23 Q1012=
23/08/2013 00:30:00Z	 SAID31 WIII 230030	METAR WIII 230030Z AUTO 19006KT 3400 BR NCD 27/23 Q1012=
23/08/2013 01:00:00Z	 SAID31 WIII 230100	METAR WIII 230100Z VRB04KT 6000 FEW024 29/23 Q1012=
23/08/2013 01:30:00Z	 SAID31 WIII 230130	METAR WIII 230130Z 21005KT 8000 FEW024 30/22 Q1012=
23/08/2013 02:00:00Z	 SAID31 WIII 230200	METAR WIII 230200Z VRB03KT 9999 FEW022 31/22 Q1012=
23/08/2013 02:30:00Z	 SAID31 WIII 230230	METAR WIII 230230Z VRB05KT 9999 FEW022 32/22 Q1011=
23/08/2013 03:00:00Z	 SAID31 WIII 230300	METAR WIII 230300Z 15006KT 9999 NCD 33/21 Q1011=
23/08/2013 03:30:00Z	 SAID31 WIII 230330	METAR WIII 230330Z VRB04KT 9999 FEW046 34/21 Q1011=
23/08/2013 04:00:00Z	 SAID31 WIII 230400	METAR WIII 230400Z AUTO VRB04KT 9999 FEW049 34/21 Q1010=
23/08/2013 04:30:00Z	 SAID31 WIII 230430	METAR WIII 230430Z 01007KT 9000 FEW055 33/23 Q1010=
23/08/2013 05:00:00Z	 SAID31 WIII 230500	METAR WIII 230500Z 01006KT 9000 FEW024 34/23 Q1010=
23/08/2013 07:30:00Z	 SAID31 WIII 230730	METAR WIII 230730Z 03008KT 9999 FEW024 34/22 Q1008=
23/08/2013 08:00:00Z	 SAID31 WIII 230800	METAR WIII 230800Z 02008KT 9999 FEW024 33/22 Q1008=
23/08/2013 08:30:00Z	 SAID31 WIII 230830	METAR WIII 230830Z 02008KT 9999 FEW024 32/23 Q1008=
23/08/2013 09:00:00Z	 SAID31 WIII 230900	METAR WIII 230900Z 06008KT 9999 FEW024 32/21 Q1008=
23/08/2013 09:30:00Z	 SAID31 WIII 230930	METAR WIII 230930Z 03008KT 9999 FEW024 32/21 Q1008=
23/08/2013 10:00:00Z	 SAID31 WIII 231000	METAR WIII 231000Z AUTO 04008KT 9999 NCD 31/21 Q1009=
23/08/2013 10:30:00Z	 SAID31 WIII 231030	METAR WIII 231030Z 04008KT 9999 FEW022 30/21 Q1009=
23/08/2013 11:00:00Z	 SAID31 WIII 231100	METAR WIII 231100Z AUTO 05005KT 9999 NCD 29/21 Q1009=
23/08/2013 11:30:00Z	 SAID31 WIII 231130	METAR WIII 231130Z 04003KT 9000 FEW024 28/22 Q1009=
23/08/2013 12:00:00Z	 SAID31 WIII 231200	METAR WIII 231200Z 02002KT 8000 FEW024 28/22 Q1010=
23/08/2013 12:30:00Z	 SAID31 WIII 231230	METAR WIII 231230Z AUTO 01002KT 5000 NCD 27/22 Q1010=
23/08/2013 13:00:00Z	 SAID31 WIII 231300	METAR WIII 231300Z AUTO 32002KT 3700 BR NCD 27/23 Q1010=
23/08/2013 13:30:00Z	 SAID31 WIII 231330	METAR WIII 231330Z 34002KT 6000 BR NCD 27/23 Q1011=
23/08/2013 14:00:00Z	 SAID31 WIII 231400	METAR WIII 231400Z 34002KT 4800 HZ NCD 27/23 Q1011=
23/08/2013 14:30:00Z	 SAID31 WIII 231430	METAR WIII 231430Z 33002KT 4500 HZ NCD 26/23 Q1011=
23/08/2013 15:00:00Z	 SAID31 WIII 231500	METAR WIII 231500Z VRB02KT 4200 BR FEW022 26/23 Q1011=
23/08/2013 15:30:00Z	 SAID31 WIII 231530	METAR WIII 231530Z 00000KT 4100 BR FEW022 27/23 Q1011=
23/08/2013 16:00:00Z	 SAID31 WIII 231600	METAR WIII 231600Z 00000KT 3700 BR FEW022 27/24 Q1011=
23/08/2013 16:30:00Z	 SAID31 WIII 231630	METAR WIII 231630Z 00000KT 4000 BR FEW022 27/23 Q1011=
23/08/2013 17:00:00Z	 SAID31 WIII 231700	METAR WIII 231700Z 08004KT 5000 FEW022 27/22 Q1011=
23/08/2013 17:30:00Z	 SAID31 WIII 231730	METAR WIII 231730Z 11002KT 6000 FEW022 28/22 Q1011=
23/08/2013 18:00:00Z	 SAID31 WIII 231800	METAR WIII 231800Z 00000KT 5000 FEW022 28/23 Q1011=
23/08/2013 18:30:00Z	 SAID31 WIII 231830	METAR WIII 231830Z AUTO 16004KT 9999 SCT033 SCT060 28/22 Q1010=
23/08/2013 19:00:00Z	 SAID31 WIII 231900	METAR WIII 231900Z AUTO VRB05KT 3800 HZ FEW034 SCT042 27/23 Q1010=
23/08/2013 19:30:00Z	 SAID31 WIII 231930	METAR WIII 231930Z AUTO VRB03KT 2800 BR FEW034 27/23 Q1010=
23/08/2013 20:00:00Z	 SAID31 WIII 232000	METAR WIII 232000Z AUTO 21003KT 2500 BR NCD 26/22 Q1010=
23/08/2013 20:30:00Z	 SAID31 WIII 232030	METAR WIII 232030Z AUTO 18002KT 2900 BR NCD 26/22 Q1010=
23/08/2013 21:00:00Z	 SAID31 WIII 232100	METAR WIII 232100Z AUTO 15002KT 2800 BR NCD 26/22 Q1010=
23/08/2013 21:30:00Z	 SAID31 WIII 232130	METAR WIII 232130Z AUTO 14002KT 3100 BR NCD 25/22 Q1010=
23/08/2013 22:00:00Z	 SAID31 WIII 232200	METAR WIII 232200Z AUTO 18002KT 3500 BR NCD 25/22 Q1011=
23/08/2013 22:30:00Z	 SAID31 WIII 232230	METAR WIII 232230Z AUTO 20005KT 3900 BR NCD 25/22 Q1011=
23/08/2013 23:00:00Z	 SAID31 WIII 232300	METAR WIII 232300Z AUTO VRB05KT 3500 BR NCD 25/22 Q1011=
23/08/2013 23:30:00Z	 SAID31 WIII 232330	METAR WIII 232330Z 20005KT 4000 BR NCD 26/22 Q1011=
24/08/2013 00:00:00Z	 SAID31 WIII 240000	METAR WIII 240000Z 20006KT 3900 BR NCD 26/22 Q1012=
24/08/2013 00:30:00Z	 SAID31 WIII 240030	METAR WIII 240030Z AUTO 18005KT 5000 BR NCD 27/22 Q1012=
24/08/2013 01:00:00Z	 SAID31 WIII 240100	METAR WIII 240100Z AUTO VRB04KT 5000 NCD 29/22 Q1012=
24/08/2013 01:30:00Z	 SAID31 WIII 240130	METAR WIII 240130Z AUTO VRB04KT 8000 NCD 30/22 Q1012=
24/08/2013 02:00:00Z	 SAID31 WIII 240200	METAR WIII 240200Z 14005KT 7000 FEW020 32/21 Q1012=
24/08/2013 02:30:00Z	 SAID31 WIII 240230	METAR WIII 240230Z 08009KT 8000 FEW018 33/20 Q1012=
24/08/2013 03:00:00Z	 SAID31 WIII 240300	METAR WIII 240300Z AUTO 08010KT 9999 NCD 33/19 Q1011=
24/08/2013 03:30:00Z	 SAID31 WIII 240330	METAR WIII 240330Z 06006G16KT 9999 FEW018 33/20 Q1011=
24/08/2013 04:00:00Z	 SAID31 WIII 240400	METAR WIII 240400Z 07009G19KT 9999 SCT018 33/19 Q1010=
24/08/2013 04:30:00Z	 SAID31 WIII 240430	METAR WIII 240430Z 03010G20KT 9999 SCT020 33/19 Q1010=
24/08/2013 05:00:00Z	 SAID31 WIII 240500	METAR WIII 240500Z 07013G23KT 9999 SCT018 34/18 Q1010=
24/08/2013 05:30:00Z	 SAID31 WIII 240530	METAR WIII 240530Z 06014G24KT 9999 SCT018 34/17 Q1009=
24/08/2013 06:00:00Z	 SAID31 WIII 240600	METAR COR WIII 240600Z 03009G19KT 9999 SCT018 34/19 Q1009=
24/08/2013 06:30:00Z	 SAID31 WIII 240630	METAR WIII 240630Z 04010G20KT 9999 SCT018 34/19 Q1008=
24/08/2013 07:00:00Z	 SAID31 WIII 240700	METAR WIII 240700Z 06011G21KT 9999 SCT018 33/20 Q1008=
24/08/2013 07:30:00Z	 SAID31 WIII 240730	METAR WIII 240730Z 04012G22KT 9999 SCT018 33/22 Q1008=
24/08/2013 08:00:00Z	 SAID31 WIII 240800	METAR WIII 240800Z 06010G20KT 9999 SCT018 32/21 Q1007=
24/08/2013 08:30:00Z	 SAID31 WIII 240830	METAR WIII 240830Z 06010G20KT 9999 SCT018 32/21 Q1007=
24/08/2013 09:00:00Z	 SAID31 WIII 240900	METAR WIII 240900Z 04010G20KT 9999 SCT018 32/20 Q1007=
24/08/2013 09:30:00Z	 SAID31 WIII 240930	METAR WIII 240930Z 07009G19KT 9999 SCT018 31/19 Q1007=
24/08/2013 10:00:00Z	 SAID31 WIII 241000	METAR WIII 241000Z 06010G20KT 9999 SCT018 31/20 Q1008=
24/08/2013 10:30:00Z	 SAID31 WIII 241030	METAR WIII 241030Z 07008G18KT 9999 FEW018 29/19 Q1008=
24/08/2013 11:00:00Z	 SAID31 WIII 241100	METAR WIII 241100Z 07007G17KT 9999 FEW018 29/18 Q1008=
24/08/2013 11:30:00Z	 SAID31 WIII 241130	METAR WIII 241130Z 07009G19KT 8000 SCT018 28/20 Q1009=
24/08/2013 12:00:00Z	 SAID31 WIII 241200	METAR WIII 241200Z 08006G16KT 9999 SCT018 28/21 Q1009=
24/08/2013 12:30:00Z	 SAID31 WIII 241230	METAR WIII 241230Z 08014KT 8000 FEW020 28/21 Q1009=
24/08/2013 13:00:00Z	 SAID31 WIII 241300	METAR WIII 241300Z 09014KT 8000 FEW020 27/21 Q1010=
24/08/2013 13:30:00Z	 SAID31 WIII 241330	METAR WIII 241330Z 08013KT 8000 FEW021 27/20 Q1010=
24/08/2013 14:00:00Z	 SAID31 WIII 241400	METAR WIII 241400Z 12009KT 8000 FEW021 27/21 Q1011=
24/08/2013 14:30:00Z	 SAID31 WIII 241430	METAR WIII 241430Z 13009KT 8000 FEW020 27/21 Q1011=
24/08/2013 15:00:00Z	 SAID31 WIII 241500	METAR WIII 241500Z 12007KT 8000 FEW021 27/21 Q1011=
24/08/2013 15:30:00Z	 SAID31 WIII 241530	METAR WIII 241530Z 12008KT 8000 FEW021 27/21 Q1012=
24/08/2013 16:00:00Z	 SAID31 WIII 241600	METAR WIII 241600Z 12009KT 7000 FEW022 26/21 Q1012=
24/08/2013 16:30:00Z	 SAID31 WIII 241630	METAR WIII 241630Z 11008KT 6000 FEW022 27/21 Q1011=
24/08/2013 17:00:00Z	 SAID31 WIII 241700	METAR WIII 241700Z VRB05KT 6000 FEW022 27/21 Q1011=
24/08/2013 17:30:00Z	 SAID31 WIII 241730	METAR WIII 241730Z 11006KT 6000 FEW022 27/21 Q1011=
24/08/2013 18:00:00Z	 SAID31 WIII 241800	METAR WIII 241800Z 12006KT 6000 FEW022 26/21 Q1011=
24/08/2013 18:30:00Z	 SAID31 WIII 241830	METAR WIII 241830Z 14005KT 6000 FEW022 26/21 Q1010=
24/08/2013 19:00:00Z	 SAID31 WIII 241900	METAR WIII 241900Z VRB03KT 6000 FEW022 26/21 Q1010=
24/08/2013 19:30:00Z	 SAID31 WIII 241930	METAR WIII 241930Z 19003KT 6000 FEW021 25/21 Q1010=
24/08/2013 20:00:00Z	 SAID31 WIII 242000	METAR WIII 242000Z 25003KT 5000 HZ FEW022 24/21 Q1010=
24/08/2013 20:30:00Z	 SAID31 WIII 242030	METAR WIII 242030Z 26007KT 3900 BR FEW022 24/21 Q1011=
24/08/2013 21:00:00Z	 SAID31 WIII 242100	METAR WIII 242100Z 25004KT 3600 BR FEW022 23/20 Q1011=
24/08/2013 21:30:00Z	 SAID31 WIII 242130	METAR WIII 242130Z 24002KT 4100 BR FEW020 24/21 Q1011=
24/08/2013 22:00:00Z	 SAID31 WIII 242200	METAR WIII 242200Z 23003KT 3500 BR FEW022 23/21 Q1011=
24/08/2013 22:30:00Z	 SAID31 WIII 242230	METAR WIII 242230Z 20003KT 3500 BR FEW022 24/21 Q1011=
24/08/2013 23:00:00Z	 SAID31 WIII 242300	METAR WIII 242300Z 20004KT 2300 BR FEW022 24/21 Q1011=
24/08/2013 23:30:00Z	 SAID31 WIII 242330	METAR WIII 242330Z VRB05KT 2500 BR FEW022 24/21 Q1012=
25/08/2013 00:00:00Z	 SAID31 WIII 250000	METAR WIII 250000Z 19005KT 2600 BR FEW022 25/21 Q1012=
25/08/2013 00:30:00Z	 SAID31 WIII 250030	METAR WIII 250030Z AUTO VRB04KT 4800 BR NCD 26/21 Q1012=
25/08/2013 01:00:00Z	 SAID31 WIII 250100	METAR WIII 250100Z AUTO 18006KT 4100 HZ NCD 27/21 Q1012=
25/08/2013 01:30:00Z	 SAID31 WIII 250130	METAR WIII 250130Z 18007KT 5000 NCD 28/21 Q1012=
25/08/2013 02:00:00Z	 SAID31 WIII 250200	METAR WIII 250200Z VRB04KT 6000 NCD 30/21 Q1012=
25/08/2013 02:30:00Z	 SAID31 WIII 250230	METAR WIII 250230Z AUTO 20006KT 7000 NCD 31/21 Q1012=
25/08/2013 03:00:00Z	 SAID31 WIII 250300	METAR WIII 250300Z AUTO 09009KT 9999 NCD 33/20 Q1012=
25/08/2013 03:30:00Z	 SAID31 WIII 250330	METAR WIII 250330Z 06011KT 9999 NCD 33/18 Q1011=
25/08/2013 04:00:00Z	 SAID31 WIII 250400	METAR WIII 250400Z 07012KT 9000 FEW065 33/19 Q1011=
25/08/2013 04:30:00Z	 SAID31 WIII 250430	METAR WIII 250430Z 07016KT 9999 NCD 33/19 Q1010=
25/08/2013 05:00:00Z	 SAID31 WIII 250500	METAR WIII 250500Z 07016KT 9999 FEW022 33/19 Q1010=
25/08/2013 05:30:00Z	 SAID31 WIII 250530	METAR WIII 250530Z 06013KT 9999 FEW022 33/19 Q1010=
25/08/2013 06:00:00Z	 SAID31 WIII 250600	METAR WIII 250600Z 06014KT 9999 NCD 34/17 Q1009=
25/08/2013 06:30:00Z	 SAID31 WIII 250630	METAR WIII 250630Z 06013KT 9999 NCD 34/19 Q1008=
25/08/2013 07:00:00Z	 SAID31 WIII 250700	METAR WIII 250700Z 06014KT 9999 FEW022 33/19 Q1008=
25/08/2013 07:30:00Z	 SAID31 WIII 250730	METAR WIII 250730Z 05010KT 9999 FEW022 33/21 Q1008=
25/08/2013 08:00:00Z	 SAID31 WIII 250800	METAR WIII 250800Z 05013KT 9999 FEW023 32/22 Q1007=
25/08/2013 08:30:00Z	 SAID31 WIII 250830	METAR WIII 250830Z 05014KT 9999 FEW023 31/21 Q1007=
25/08/2013 09:00:00Z	 SAID31 WIII 250900	METAR WIII 250900Z 06014KT 9999 FEW023 31/21 Q1007=
25/08/2013 09:30:00Z	 SAID31 WIII 250930	METAR WIII 250930Z 07015KT 9999 NCD 30/22 Q1007=
25/08/2013 10:00:00Z	 SAID31 WIII 251000	METAR WIII 251000Z 08014KT 9999 NCD 30/22 Q1008=
25/08/2013 10:30:00Z	 SAID31 WIII 251030	METAR WIII 251030Z 07012KT 9999 NCD 29/22 Q1008=
25/08/2013 11:00:00Z	 SAID31 WIII 251100	METAR WIII 251100Z 07011KT 9999 NCD 28/22 Q1008=
25/08/2013 11:30:00Z	 SAID31 WIII 251130	METAR WIII 251130Z 06011KT 9000 NCD 28/22 Q1009=
25/08/2013 12:00:00Z	 SAID31 WIII 251200	METAR WIII 251200Z 08009KT 9000 FEW023 28/22 Q1009=
25/08/2013 12:30:00Z	 SAID31 WIII 251230	METAR WIII 251230Z AUTO 08010KT 9999 NCD 28/21 Q1009=
25/08/2013 13:00:00Z	 SAID31 WIII 251300	METAR WIII 251300Z AUTO 09008KT 9999 NCD 27/21 Q1009=
25/08/2013 13:30:00Z	 SAID31 WIII 251330	METAR WIII 251330Z 08008KT 6000 FEW022 27/22 Q1010=
25/08/2013 14:00:00Z	 SAID31 WIII 251400	METAR WIII 251400Z 10007KT 6000 FEW024 27/22 Q1010=
25/08/2013 14:30:00Z	 SAID31 WIII 251430	METAR WIII 251430Z 12004KT 5000 BR FEW024 27/21 Q1010=
25/08/2013 15:00:00Z	 SAID31 WIII 251500	METAR WIII 251500Z 12004KT 5000 BR FEW024 27/21 Q1011=
25/08/2013 15:30:00Z	 SAID31 WIII 251530	METAR WIII 251530Z VRB04KT 5000 BR FEW024 28/21 Q1011=
25/08/2013 16:00:00Z	 SAID31 WIII 251600	METAR WIII 251600Z VRB03KT 5000 BR FEW024 28/21 Q1011=
25/08/2013 16:30:00Z	 SAID31 WIII 251630	METAR WIII 251630Z VRB05KT 5000 BR FEW024 28/21 Q1011=
25/08/2013 17:00:00Z	 SAID31 WIII 251700	METAR WIII 251700Z VRB03KT 5000 BR BKN050 28/21 Q1011=
25/08/2013 17:30:00Z	 SAID31 WIII 251730	METAR WIII 251730Z VRB05KT 5000 BR SCT024 28/21 Q1011=
25/08/2013 18:00:00Z	 SAID31 WIII 251800	METAR WIII 251800Z VRB03KT 5000 BR OVC060 27/21 Q1010=
25/08/2013 18:30:00Z	 SAID31 WIII 251830	METAR WIII 251830Z VRB05KT 5000 BR SCT060 27/21 Q1010=
25/08/2013 19:00:00Z	 SAID31 WIII 251900	METAR WIII 251900Z AUTO 09004KT 5000 NCD 26/21 Q1010=
25/08/2013 19:30:00Z	 SAID31 WIII 251930	METAR WIII 251930Z AUTO VRB05KT 6000 NCD 26/21 Q1010=
25/08/2013 20:00:00Z	 SAID31 WIII 252000	METAR WIII 252000Z AUTO 12006KT 8000 NCD 26/20 Q1010=
25/08/2013 20:30:00Z	 SAID31 WIII 252030	METAR WIII 252030Z AUTO 15004KT 9999 NCD 26/20 Q1010=
25/08/2013 21:00:00Z	 SAID31 WIII 252100	METAR WIII 252100Z AUTO 19004KT 8000 NCD 25/21 Q1010=
25/08/2013 21:30:00Z	 SAID31 WIII 252130	METAR WIII 252130Z 20003KT 5000 BR FEW022 25/20 Q1010=
25/08/2013 22:00:00Z	 SAID31 WIII 252200	METAR WIII 252200Z 19005KT 5000 BR FEW024 25/21 Q1010=
25/08/2013 22:30:00Z	 SAID31 WIII 252230	METAR WIII 252230Z 20005KT 5000 BR FEW024 25/21 Q1011=
25/08/2013 23:00:00Z	 SAID31 WIII 252300	METAR WIII 252300Z 20006KT 5000 BR FEW024 25/21 Q1011=
25/08/2013 23:30:00Z	 SAID31 WIII 252330	METAR WIII 252330Z VRB04KT 5000 BR FEW024 25/21 Q1011=
26/08/2013 00:00:00Z	 SAID31 WIII 260000	METAR WIII 260000Z VRB04KT 5000 BR FEW024 26/21 Q1012=
26/08/2013 00:30:00Z	 SAID31 WIII 260030	METAR WIII 260030Z 17006KT 6000 FEW024 27/20 Q1012=
26/08/2013 01:00:00Z	 SAID31 WIII 260100	METAR WIII 260100Z 18005KT 5000 HZ FEW024 29/20 Q1012=
26/08/2013 01:30:00Z	 SAID31 WIII 260130	METAR WIII 260130Z 19007KT 5000 HZ FEW024 30/20 Q1012=
26/08/2013 02:00:00Z	 SAID31 WIII 260200	METAR WIII 260200Z VRB05KT 6000 FEW024 31/19 Q1012=
26/08/2013 02:30:00Z	 SAID31 WIII 260230	METAR WIII 260230Z VRB05KT 6000 FEW024 32/19 Q1011=
26/08/2013 03:00:00Z	 SAID31 WIII 260300	METAR WIII 260300Z 11012KT 6000 FEW023 33/19 Q1011=
26/08/2013 03:30:00Z	 SAID31 WIII 260330	METAR WIII 260330Z 06015KT 7000 FEW023 33/19 Q1010=
26/08/2013 04:00:00Z	 SAID31 WIII 260400	METAR WIII 260400Z 07016KT 7000 FEW023 33/19 Q1010=
26/08/2013 04:30:00Z	 SAID31 WIII 260430	METAR WIII 260430Z 08017KT 7000 FEW023 33/19 Q1009=
26/08/2013 05:00:00Z	 SAID31 WIII 260500	METAR WIII 260500Z 07015KT 7000 FEW023 33/20 Q1009=
26/08/2013 05:30:00Z	 SAID31 WIII 260530	METAR WIII 260530Z 04017KT 7000 FEW023 33/20 Q1009=
26/08/2013 06:00:00Z	 SAID31 WIII 260600	METAR WIII 260600Z 06016KT 8000 FEW023 33/20 Q1008=
26/08/2013 06:30:00Z	 SAID31 WIII 260630	METAR WIII 260630Z 03017KT 8000 FEW024 33/20 Q1008=
26/08/2013 07:00:00Z	 SAID31 WIII 260700	METAR WIII 260700Z 04017KT 8000 FEW024 32/22 Q1007=
26/08/2013 07:30:00Z	 SAID31 WIII 260730	METAR WIII 260730Z 05018KT 8000 FEW024 32/22 Q1007=
26/08/2013 08:00:00Z	 SAID31 WIII 260800	METAR WIII 260800Z 07021KT 8000 FEW023 32/21 Q1007=
26/08/2013 08:30:00Z	 SAID31 WIII 260830	METAR WIII 260830Z 07024KT 8000 FEW023 32/21 Q1007=
26/08/2013 09:00:00Z	 SAID31 WIII 260900	METAR WIII 260900Z 07022KT 8000 FEW024 31/21 Q1007=
26/08/2013 09:30:00Z	 SAID31 WIII 260930	METAR WIII 260930Z 08022KT 8000 FEW024 31/20 Q1007=
26/08/2013 10:00:00Z	 SAID31 WIII 261000	METAR WIII 261000Z 08020KT 8000 FEW024 30/20 Q1007=
26/08/2013 10:30:00Z	 SAID31 WIII 261030	METAR WIII 261030Z 08019KT 8000 NCD 29/19 Q1008=
26/08/2013 11:00:00Z	 SAID31 WIII 261100	METAR WIII 261100Z 08015KT 8000 FEW023 28/19 Q1008=
26/08/2013 11:30:00Z	 SAID31 WIII 261130	METAR WIII 261130Z 08016KT 8000 FEW023 28/20 Q1008=
26/08/2013 12:00:00Z	 SAID31 WIII 261200	METAR WIII 261200Z 08016KT 8000 FEW024 28/20 Q1009=
26/08/2013 13:30:00Z	 SAID31 WIII 261330	METAR WIII 261330Z 10009KT 8000 FEW018 27/20 Q1010=
26/08/2013 14:00:00Z	 SAID31 WIII 261400	METAR WIII 261400Z 11008KT 8000 SCT018 27/21 Q1010=
26/08/2013 14:30:00Z	 SAID31 WIII 261430	METAR WIII 261430Z 12008KT 8000 SCT018 27/20 Q1010=
26/08/2013 15:00:00Z	 SAID31 WIII 261500	METAR WIII 261500Z 09007KT 8000 FEW018CB SCT020 27/21 Q1011=
26/08/2013 15:30:00Z	 SAID31 WIII 261530	METAR WIII 261530Z 1205G15KT 8000 FEW018CB SCT018 27/21 Q1011=
26/08/2013 16:00:00Z	 SAID31 WIII 261600	METAR WIII 261600Z 17004KT 7000 FEW018 27/21 Q1011=
26/08/2013 16:30:00Z	 SAID31 WIII 261630	METAR WIII 261630Z 15004KT 5000 HZ FEW018 26/21 Q1011=
26/08/2013 17:00:00Z	 SAID31 WIII 261700	METAR WIII 261700Z 13007KT 5000 HZ FEW018 26/21 Q1011=
26/08/2013 17:30:00Z	 SAID31 WIII 261730	METAR WIII 261730Z 13005KT 5000 HZ FEW018 26/21 Q1011=
26/08/2013 18:00:00Z	 SAID31 WIII 261800	METAR WIII 261800Z 14005KT 6000 FEW018 26/21 Q1011=
26/08/2013 18:30:00Z	 SAID31 WIII 261830	METAR WIII 261830Z 12003KT 6000 FEW018 26/21 Q1011=
26/08/2013 19:00:00Z	 SAID31 WIII 261900	METAR WIII 261900Z 18005KT 4500 BR FEW018 25/21 Q1010=
26/08/2013 19:30:00Z	 SAID31 WIII 261930	METAR WIII 261930Z AUTO 21007KT 5000 NCD 25/21 Q1010=
26/08/2013 20:00:00Z	 SAID31 WIII 262000	METAR WIII 262000Z 19005KT 4500 BR FEW018 25/20 Q1010=
26/08/2013 20:30:00Z	 SAID31 WIII 262030	METAR WIII 262030Z 19005KT 5000 HZ FEW018 25/20 Q1010=
26/08/2013 21:00:00Z	 SAID31 WIII 262100	METAR WIII 262100Z 22006KT 5000 HZ FEW018 24/20 Q1011=
26/08/2013 21:30:00Z	 SAID31 WIII 262130	METAR WIII 262130Z AUTO 24003KT 5000 NCD 23/20 Q1011=
26/08/2013 22:00:00Z	 SAID31 WIII 262200	METAR WIII 262200Z 19004KT 5000 BR FEW018 24/20 Q1011=
26/08/2013 22:30:00Z	 SAID31 WIII 262230	METAR WIII 262230Z 20003KT 5000 BR NCD 24/20 Q1011=
26/08/2013 23:00:00Z	 SAID31 WIII 262300	METAR WIII 262300Z 21003KT 4500 BR FEW018 24/20 Q1012=
26/08/2013 23:30:00Z	 SAID31 WIII 262330	METAR WIII 262330Z 20003KT 4500 BR FEW018 25/20 Q1012=
27/08/2013 00:00:00Z	 SAID31 WIII 270000	METAR WIII 270000Z 21005KT 5000 BR FEW018 26/20 Q1012=
27/08/2013 00:30:00Z	 SAID31 WIII 270030	METAR WIII 270030Z AUTO 19005KT 5000 NCD 26/20 Q1012=
27/08/2013 01:00:00Z	 SAID31 WIII 270100	METAR WIII 270100Z 21007KT 5000 HZ NCD 28/21 Q1012=
27/08/2013 01:30:00Z	 SAID31 WIII 270130	METAR WIII 270130Z 22007KT 6000 NCD 29/21 Q1012=
27/08/2013 02:00:00Z	 SAID31 WIII 270200	METAR WIII 270200Z 22006KT 7000 NCD 30/21 Q1012=
27/08/2013 02:30:00Z	 SAID31 WIII 270230	METAR WIII 270230Z VRB04KT 8000 NCD 31/21 Q1012=
27/08/2013 03:00:00Z	 SAID31 WIII 270300	METAR WIII 270300Z 16008KT 9000 FEW025 32/21 Q1011=
27/08/2013 03:30:00Z	 SAID31 WIII 270330	METAR WIII 270330Z VRB07KT 8000 FEW024 33/20 Q1011=
27/08/2013 04:00:00Z	 SAID31 WIII 270400	METAR WIII 270400Z 05008KT 9000 FEW050 33/21 Q1011=
27/08/2013 04:30:00Z	 SAID31 WIII 270430	METAR WIII 270430Z 04008KT 9000 FEW024 33/21 Q1010=
27/08/2013 05:00:00Z	 SAID31 WIII 270500	METAR WIII 270500Z 07010KT 9000 FEW024 34/21 Q1010=
27/08/2013 05:30:00Z	 SAID31 WIII 270530	METAR WIII 270530Z 08013KT 9999 FEW024 34/20 Q1009=
27/08/2013 06:00:00Z	 SAID31 WIII 270600	METAR WIII 270600Z 07015KT 9999 FEW024 34/20 Q1009=
27/08/2013 06:30:00Z	 SAID31 WIII 270630	METAR WIII 270630Z 05014KT 9999 FEW024 33/20 Q1009=
27/08/2013 07:00:00Z	 SAID31 WIII 270700	METAR WIII 270700Z 04011KT 9999 FEW024 33/21 Q1008=
27/08/2013 07:30:00Z	 SAID31 WIII 270730	METAR WIII 270730Z 04011KT 9999 FEW024 33/22 Q1008=
27/08/2013 08:00:00Z	 SAID31 WIII 270800	METAR WIII 270800Z 04012KT 9999 FEW024 32/22 Q1008=
27/08/2013 08:30:00Z	 SAID31 WIII 270830	METAR WIII 270830Z 06012KT 9999 FEW024 31/22 Q1008=
27/08/2013 09:00:00Z	 SAID31 WIII 270900	METAR WIII 270900Z 05010KT 9999 FEW024 31/22 Q1008=
27/08/2013 09:30:00Z	 SAID31 WIII 270930	METAR WIII 270930Z 06010KT 9999 FEW024 31/22 Q1008=
27/08/2013 10:00:00Z	 SAID31 WIII 271000	METAR WIII 271000Z 05012KT 9999 FEW024 30/22 Q1008=
27/08/2013 10:30:00Z	 SAID31 WIII 271030	METAR WIII 271030Z 05009KT 9999 FEW024 29/22 Q1009=
27/08/2013 11:00:00Z	 SAID31 WIII 271100	METAR WIII 271100Z 04006KT 7000 FEW024 28/22 Q1009=
27/08/2013 11:30:00Z	 SAID31 WIII 271130	METAR WIII 271130Z 06006KT 7000 FEW100 28/22 Q1009=
27/08/2013 12:00:00Z	 SAID31 WIII 271200	METAR WIII 271200Z 06005KT 9999 FEW024 28/22 Q1010=
27/08/2013 12:30:00Z	 SAID31 WIII 271230	METAR WIII 271230Z AUTO 06004KT 9999 SCT110 28/22 Q1010=
27/08/2013 13:00:00Z	 SAID31 WIII 271300	METAR WIII 271300Z AUTO 08005KT 9999 FEW110 27/22 Q1011=
27/08/2013 13:30:00Z	 SAID31 WIII 271330	METAR WIII 271330Z 07003KT 9999 FEW022 27/22 Q1011=
27/08/2013 14:00:00Z	 SAID31 WIII 271400	METAR WIII 271400Z 08002KT 9999 FEW022 27/22 Q1011=
27/08/2013 14:30:00Z	 SAID31 WIII 271430	METAR WIII 271430Z 00000KT 5000 FEW022 27/23 Q1011=
27/08/2013 15:00:00Z	 SAID31 WIII 271500	METAR WIII 271500Z 09002KT 6000 FEW022 27/23 Q1011=
27/08/2013 15:30:00Z	 SAID31 WIII 271530	METAR WIII 271530Z VRB03KT 5000 BR FEW022 28/23 Q1012=
27/08/2013 16:00:00Z	 SAID31 WIII 271600	METAR WIII 271600Z VRB02KT 6000 NCD 28/22 Q1012=
27/08/2013 16:30:00Z	 SAID31 WIII 271630	METAR WIII 271630Z VRB02KT 6000 SCT022 28/22 Q1011=
27/08/2013 17:00:00Z	 SAID31 WIII 271700	METAR WIII 271700Z VRB03KT 4700 BR FEW022 28/22 Q1011=
27/08/2013 17:30:00Z	 SAID31 WIII 271730	METAR WIII 271730Z VRB03KT 6000 NCD 28/23 Q1011=
27/08/2013 18:00:00Z	 SAID31 WIII 271800	METAR WIII 271800Z VRB03KT 5000 NCD 27/22 Q1010=
27/08/2013 18:30:00Z	 SAID31 WIII 271830	METAR WIII 271830Z VRB03KT 6000 NCD 27/23 Q1010=
27/08/2013 19:00:00Z	 SAID31 WIII 271900	METAR WIII 271900Z 00000KT 4300 BR NCD 27/22 Q1010=
27/08/2013 19:30:00Z	 SAID31 WIII 271930	METAR WIII 271930Z AUTO 27003KT 2400 BR NCD 25/22 Q1010=
27/08/2013 20:00:00Z	 SAID31 WIII 272000	METAR WIII 272000Z AUTO 27003KT 2300 BR SCT095 25/22 Q1010=
27/08/2013 20:30:00Z	 SAID31 WIII 272030	METAR WIII 272030Z AUTO 28003KT 2400 BR NCD 25/22 Q1010=
27/08/2013 21:00:00Z	 SAID31 WIII 272100	METAR WIII 272100Z AUTO 25004KT 2300 BR NCD 25/22 Q1010=
27/08/2013 21:30:00Z	 SAID31 WIII 272130	METAR WIII 272130Z AUTO 25002KT 3100 BR NCD 25/22 Q1010=
27/08/2013 22:00:00Z	 SAID31 WIII 272200	METAR WIII 272200Z AUTO 25002KT 3000 BR NCD 25/22 Q1010=
27/08/2013 22:30:00Z	 SAID31 WIII 272230	METAR WIII 272230Z 26003KT 2000 BR NCD 24/21 Q1011=
27/08/2013 23:00:00Z	 SAID31 WIII 272300	METAR WIII 272300Z 23005KT 3300 BR NCD 25/22 Q1011=
27/08/2013 23:30:00Z	 SAID31 WIII 272330	METAR WIII 272330Z VRB02KT 3800 BR NCD 26/22 Q1011=
28/08/2013 00:00:00Z	 SAID31 WIII 280000	METAR WIII 280000Z 00000KT 2300 BR NCD 26/22 Q1012=
28/08/2013 00:30:00Z	 SAID31 WIII 280030	METAR WIII 280030Z AUTO VRB02KT 3000 BR NCD 27/22 Q1012=
28/08/2013 01:00:00Z	 SAID31 WIII 280100	METAR WIII 280100Z VRB04KT 5000 HZ FEW024 29/22 Q1012=
28/08/2013 01:30:00Z	 SAID31 WIII 280130	METAR WIII 280130Z 00000KT 7000 FEW024 30/23 Q1012=
28/08/2013 02:00:00Z	 SAID31 WIII 280200	METAR WIII 280200Z VRB04KT 9999 FEW024 31/23 Q1012=
28/08/2013 02:30:00Z	 SAID31 WIII 280230	METAR WIII 280230Z VRB02KT 9999 FEW024 32/22 Q1012=
28/08/2013 03:00:00Z	 SAID31 WIII 280300	METAR WIII 280300Z VRB02KT 9999 FEW024 32/22 Q1012=
28/08/2013 03:30:00Z	 SAID31 WIII 280330	METAR WIII 280330Z VRB03KT 9999 FEW042 33/22 Q1011=
28/08/2013 04:00:00Z	 SAID31 WIII 280400	METAR WIII 280400Z VRB03KT 8000 SCT044 34/22 Q1011=
28/08/2013 04:30:00Z	 SAID31 WIII 280430	METAR WIII 280430Z VRB04KT 9999 SCT044 34/22 Q1011=
28/08/2013 05:00:00Z	 SAID31 WIII 280500	METAR WIII 280500Z 01006KT 9999 FEW024 33/22 Q1010=
28/08/2013 05:30:00Z	 SAID31 WIII 280530	METAR WIII 280530Z 04007KT 9999 FEW024 33/22 Q1010=
28/08/2013 06:00:00Z	 SAID31 WIII 280600	METAR WIII 280600Z 03008KT 8000 NCD 33/22 Q1009=
28/08/2013 06:30:00Z	 SAID31 WIII 280630	METAR WIII 280630Z 02008KT 9999 FEW024 33/23 Q1009=
28/08/2013 07:00:00Z	 SAID31 WIII 280700	METAR WIII 280700Z 05010KT 9999 FEW024 32/23 Q1009=
28/08/2013 07:30:00Z	 SAID31 WIII 280730	METAR WIII 280730Z AUTO 04011KT 9999 NCD 32/23 Q1008=
28/08/2013 08:00:00Z	 SAID31 WIII 280800	METAR WIII 280800Z AUTO 05010KT 9999 NCD 32/23 Q1008=
28/08/2013 08:30:00Z	 SAID31 WIII 280830	METAR WIII 280830Z AUTO 05012KT 9999 NCD 31/23 Q1008=
28/08/2013 09:00:00Z	 SAID31 WIII 280900	METAR WIII 280900Z 06011KT 9999 FEW024 31/23 Q1008=
28/08/2013 09:30:00Z	 SAID31 WIII 280930	METAR WIII 280930Z 05009KT 9999 NCD 30/23 Q1009=
28/08/2013 10:00:00Z	 SAID31 WIII 281000	METAR WIII 281000Z 05011KT 9000 FEW024 30/23 Q1009=
28/08/2013 10:30:00Z	 SAID31 WIII 281030	METAR WIII 281030Z 06008KT 9000 FEW024 29/23 Q1010=
28/08/2013 11:00:00Z	 SAID31 WIII 281100	METAR WIII 281100Z 05011KT 8000 FEW024 29/23 Q1010=
28/08/2013 11:30:00Z	 SAID31 WIII 281130	METAR WIII 281130Z 07010KT 8000 FEW024 29/23 Q1010=
28/08/2013 12:00:00Z	 SAID31 WIII 281200	METAR WIII 281200Z 07008KT 8000 FEW024 28/23 Q1011=
28/08/2013 12:30:00Z	 SAID31 WIII 281230	METAR WIII 281230Z 08007KT 8000 FEW024 28/23 Q1011=
28/08/2013 13:00:00Z	 SAID31 WIII 281300	METAR WIII 281300Z 08007KT 8000 FEW024 28/23 Q1012=
28/08/2013 13:30:00Z	 SAID31 WIII 281330	METAR WIII 281330Z 08008KT 8000 FEW023 BKN047 28/23 Q1012=
28/08/2013 14:00:00Z	 SAID31 WIII 281400	METAR WIII 281400Z 09006KT 8000 FEW023 BKN047 28/23 Q1012=
28/08/2013 15:00:00Z	 SAID31 WIII 281500	METAR WIII 281500Z 11006KT 7000 FEW023 SCT049 28/23 Q1012=
28/08/2013 15:30:00Z	 SAID31 WIII 281530	METAR WIII 281530Z 10006KT 7000 FEW023 28/23 Q1012=
28/08/2013 16:00:00Z	 SAID31 WIII 281600	METAR WIII 281600Z 11006KT 7000 FEW023 28/23 Q1012=
28/08/2013 16:30:00Z	 SAID31 WIII 281630	METAR WIII 281630Z 09005KT 7000 FEW023 28/23 Q1012=
28/08/2013 17:00:00Z	 SAID31 WIII 281700	METAR WIII 281700Z 11005KT 6000 SCT023 28/23 Q1012=
28/08/2013 17:30:00Z	 SAID31 WIII 281730	METAR WIII 281730Z VRB03KT 6000 SCT024 28/23 Q1012=
28/08/2013 18:00:00Z	 SAID31 WIII 281800	METAR WIII 281800Z VRB03KT 7000 SCT023 28/23 Q1011=
28/08/2013 18:30:00Z	 SAID31 WIII 281830	METAR WIII 281830Z VRB03KT 7000 FEW023 27/23 Q1011=
28/08/2013 19:00:00Z	 SAID31 WIII 281900	METAR WIII 281900Z 19004KT 6000 FEW029 27/23 Q1011=
28/08/2013 19:30:00Z	 SAID31 WIII 281930	METAR WIII 281930Z 16003KT 5000 HZ FEW023 26/23 Q1011=
28/08/2013 20:00:00Z	 SAID31 WIII 282000	METAR WIII 282000Z 16003KT 4000 BR FEW023 26/22 Q1011=
28/08/2013 20:30:00Z	 SAID31 WIII 282030	METAR WIII 282030Z 19004KT 4000 BR FEW024 26/22 Q1011=
28/08/2013 21:00:00Z	 SAID31 WIII 282100	METAR WIII 282100Z 14003KT 4000 BR FEW023 26/22 Q1011=
28/08/2013 21:30:00Z	 SAID31 WIII 282130	METAR WIII 282130Z 14003KT 4000 BR FEW024 25/22 Q1011=
28/08/2013 22:00:00Z	 SAID31 WIII 282200	METAR WIII 282200Z 13003KT 4200 BR FEW023 26/22 Q1011=
28/08/2013 22:30:00Z	 SAID31 WIII 282230	METAR WIII 282230Z VRB03KT 4000 BR FEW023 26/23 Q1011=
28/08/2013 23:00:00Z	 SAID31 WIII 282300	METAR WIII 282300Z VRB05KT 3500 BR FEW023 27/23 Q1012=
28/08/2013 23:30:00Z	 SAID31 WIII 282330	METAR WIII 282330Z 12005KT 4000 HZ FEW023 27/22 Q1012=
29/08/2013 02:00:00Z	 SAID31 WIII 290200	METAR WIII 290200Z 12006KT 8000 FEW018 31/21 Q1012=
29/08/2013 02:30:00Z	 SAID31 WIII 290230	METAR WIII 290230Z 06010KT 8000 SCT018 32/22 Q1012=
29/08/2013 03:00:00Z	 SAID31 WIII 290300	METAR WIII 290300Z 08009G19KT 9999 FEW018 33/22 Q1012=
29/08/2013 03:30:00Z	 SAID31 WIII 290330	METAR WIII 290330Z 03008G18KT 8000 SCT018 33/23 Q1012=
29/08/2013 04:00:00Z	 SAID31 WIII 290400	METAR WIII 290400Z AUTO 08014KT 9999 NCD 33/23 Q1011=
29/08/2013 04:30:00Z	 SAID31 WIII 290430	METAR WIII 290430Z AUTO 06012KT 9999 NCD 33/23 Q1011=
29/08/2013 05:00:00Z	 SAID31 WIII 290500	METAR WIII 290500Z AUTO 06013KT 9999 NCD 33/23 Q1010=
29/08/2013 05:30:00Z	 SAID31 WIII 290530	METAR WIII 290530Z 03011G21KT 9999 SCT018 33/23 Q1010=
29/08/2013 06:00:00Z	 SAID31 WIII 290600	METAR WIII 290600Z 05009G19KT 9999 SCT018 33/24 Q1009=
29/08/2013 06:30:00Z	 SAID31 WIII 290630	METAR WIII 290630Z 02010G20KT 9999 SCT018 33/24 Q1009=
29/08/2013 07:00:00Z	 SAID31 WIII 290700	METAR WIII 290700Z AUTO 06010KT 9999 NCD 33/24 Q1009=
29/08/2013 07:30:00Z	 SAID31 WIII 290730	METAR WIII 290730Z 04010G20KT 9999 SCT018 32/24 Q1008=
29/08/2013 08:00:00Z	 SAID31 WIII 290800	METAR WIII 290800Z 02010G20KT 9999 SCT018 33/24 Q1008=
29/08/2013 08:30:00Z	 SAID31 WIII 290830	METAR WIII 290830Z 04008G18KT 9999 SCT018 32/23 Q1008=
29/08/2013 09:00:00Z	 SAID31 WIII 290900	METAR WIII 290900Z 02015KT 7000 SCT018 31/23 Q1008=
29/08/2013 09:30:00Z	 SAID31 WIII 290930	METAR WIII 290930Z 05007G17KT 9999 SCT018 31/23 Q1009=
29/08/2013 10:00:00Z	 SAID31 WIII 291000	METAR WIII 291000Z 07010KT 9999 NCD 31/24 Q1009=
29/08/2013 10:30:00Z	 SAID31 WIII 291030	METAR WIII 291030Z 04010KT 8000 FEW018CB SCT018 30/24 Q1009=
29/08/2013 11:00:00Z	 SAID31 WIII 291100	METAR WIII 291100Z 05008KT 8000 FEW018CB SCT018 29/24 Q1010=
29/08/2013 11:30:00Z	 SAID31 WIII 291130	METAR WIII 291130Z 09006KT 8000 FEW018CB SCT018 28/24 Q1010=
29/08/2013 12:00:00Z	 SAID31 WIII 291200	METAR WIII 291200Z 09005KT 8000 SCT018 28/24 Q1011=
29/08/2013 12:30:00Z	 SAID31 WIII 291230	METAR WIII 291230Z VRB03KT 8000 FEW020 BKN048 28/24 Q1011=
29/08/2013 13:00:00Z	 SAID31 WIII 291300	METAR WIII 291300Z VRB03KT 7000 FEW020 SCT055 28/24 Q1011=
29/08/2013 13:30:00Z	 SAID31 WIII 291330	METAR WIII 291330Z 28004KT 4000 HZ FEW020 27/24 Q1012=
29/08/2013 14:00:00Z	 SAID31 WIII 291400	METAR WIII 291400Z 26004KT 4000 HZ FEW022 28/23 Q1012=
29/08/2013 14:30:00Z	 SAID31 WIII 291430	METAR WIII 291430Z VRB05KT 4500 HZ FEW022 28/23 Q1012=
29/08/2013 15:00:00Z	 SAID31 WIII 291500	METAR WIII 291500Z VRB03KT 4000 HZ FEW022 28/23 Q1012=
29/08/2013 15:30:00Z	 SAID31 WIII 291530	METAR WIII 291530Z 00000KT 4300 HZ FEW022 28/23 Q1012=
29/08/2013 16:00:00Z	 SAID31 WIII 291600	METAR WIII 291600Z 00000KT 4000 HZ FEW022 27/23 Q1012=
29/08/2013 16:30:00Z	 SAID31 WIII 291630	METAR WIII 291630Z VRB02KT 2700 HZ FEW022 27/23 Q1012=
29/08/2013 17:00:00Z	 SAID31 WIII 291700	METAR WIII 291700Z VRB03KT 2100 HZ FEW022 26/23 Q1012=
29/08/2013 17:30:00Z	 SAID31 WIII 291730	METAR WIII 291730Z VRB03KT 2400 HZ FEW023 26/23 Q1012=
29/08/2013 18:00:00Z	 SAID31 WIII 291800	METAR WIII 291800Z VRB02KT 2500 HZ FEW023 26/23 Q1011=
29/08/2013 18:30:00Z	 SAID31 WIII 291830	METAR WIII 291830Z 23002KT 2600 HZ FEW022 26/23 Q1011=
29/08/2013 19:00:00Z	 SAID31 WIII 291900	METAR WIII 291900Z 19003KT 3500 HZ FEW022 27/23 Q1011=
29/08/2013 19:30:00Z	 SAID31 WIII 291930	METAR WIII 291930Z 20003KT 3000 HZ FEW022 26/22 Q1010=
29/08/2013 20:00:00Z	 SAID31 WIII 292000	METAR WIII 292000Z 25003KT 3000 HZ FEW022 26/22 Q1010=
29/08/2013 20:30:00Z	 SAID31 WIII 292030	METAR WIII 292030Z 23002KT 4100 HZ FEW023 26/23 Q1010=
29/08/2013 21:00:00Z	 SAID31 WIII 292100	METAR WIII 292100Z 24002KT 2900 HZ FEW022 25/23 Q1010=
29/08/2013 21:30:00Z	 SAID31 WIII 292130	METAR WIII 292130Z 23003KT 3300 HZ FEW023 25/23 Q1011=
29/08/2013 22:00:00Z	 SAID31 WIII 292200	METAR WIII 292200Z 21003KT 3300 HZ FEW023 26/23 Q1011=
29/08/2013 22:30:00Z	 SAID31 WIII 292230	METAR WIII 292230Z VRB02KT 3000 HZ FEW023 26/23 Q1011=
29/08/2013 23:00:00Z	 SAID31 WIII 292300	METAR WIII 292300Z VRB03KT 2600 HZ FEW024 26/23 Q1011=
29/08/2013 23:30:00Z	 SAID31 WIII 292330	METAR WIII 292330Z VRB04KT 2800 HZ FEW024 26/23 Q1012=
30/08/2013 00:00:00Z	 SAID31 WIII 300000	METAR WIII 300000Z VRB02KT 2500 HZ FEW024 27/23 Q1012=
30/08/2013 00:30:00Z	 SAID31 WIII 300030	METAR WIII 300030Z AUTO VRB03KT 3500 HZ NCD 28/24 Q1012=
30/08/2013 01:00:00Z	 SAID31 WIII 300100	METAR WIII 300100Z VRB04KT 3100 HZ FEW022 29/23 Q1012=
30/08/2013 01:30:00Z	 SAID31 WIII 300130	METAR WIII 300130Z 08004KT 5000 SCT020 31/23 Q1012=
30/08/2013 02:00:00Z	 SAID31 WIII 300200	METAR WIII 300200Z 09006KT 8000 SCT020 32/23 Q1012=
30/08/2013 02:30:00Z	 SAID31 WIII 300230	METAR WIII 300230Z VRB04KT 8000 SCT020 32/23 Q1012=
30/08/2013 03:00:00Z	 SAID31 WIII 300300	METAR WIII 300300Z 07008KT 9999 SCT020 32/23 Q1012=
30/08/2013 03:30:00Z	 SAID31 WIII 300330	METAR WIII 300330Z AUTO 05008KT 9999 SCT034 33/24 Q1011=
30/08/2013 04:00:00Z	 SAID31 WIII 300400	METAR WIII 300400Z 03008KT 8000 FEW022 32/24 Q1011=
30/08/2013 04:30:00Z	 SAID31 WIII 300430	METAR WIII 300430Z 05011KT 9000 FEW022 33/24 Q1010=
30/08/2013 05:00:00Z	 SAID31 WIII 300500	METAR WIII 300500Z AUTO 04010KT 9999 NCD 32/24 Q1010=
30/08/2013 05:30:00Z	 SAID31 WIII 300530	METAR WIII 300530Z AUTO 04012KT 9999 NCD 32/24 Q1009=
30/08/2013 06:00:00Z	 SAID31 WIII 300600	METAR WIII 300600Z 04011KT 9000 VC TS FEW020CB FEW022 33/24 Q1009 RM K CB TO SE=
30/08/2013 06:30:00Z	 SAID31 WIII 300630	METAR WIII 300630Z 04013KT 9000 FEW020CB FEW022 33/24 Q1008 RMK CB TO S=
30/08/2013 07:00:00Z	 SAID31 WIII 300700	METAR WIII 300700Z 05011KT 9999 VCTS FEW020 FEW022 32/24 Q1008 RMK CB TO SW=
30/08/2013 07:30:00Z	 SAID31 WIII 300730	METAR WIII 300730Z 04010KT 9000 FEW020CB FEW022 32/24 Q1007 RMK CB T O SW=
30/08/2013 08:00:00Z	 SAID31 WIII 300800	METAR WIII 300800Z AUTO 03010KT 9999 NCD 32/24 Q1008=
30/08/2013 08:30:00Z	 SAID31 WIII 300830	METAR WIII 300830Z 03010KT 9000 FEW020CB FEW022 31/24 Q1007 RMK CB TO S=
30/08/2013 09:00:00Z	 SAID31 WIII 300900	METAR WIII 300900Z 04009KT 9999 FEW020CB FEW022 31/24 Q1007 RMK CB TO S=
30/08/2013 09:30:00Z	 SAID31 WIII 300930	METAR WIII 300930Z 04008KT 9000 FEW020CB FEW022 30/24 Q1008 RMK CB T O S=
30/08/2013 10:00:00Z	 SAID31 WIII 301000	METAR WIII 301000Z 04008KT 9000 FEW020CB FEW022 30/24 Q1007 RMK CB TO S=
30/08/2013 10:30:00Z	 SAID31 WIII 301030	METAR WIII 301030Z VRB03KT 9000 FEW020 FEW022 30/24 Q1009 RMK CB TO S E=
30/08/2013 11:00:00Z	 SAID31 WIII 301100	METAR WIII 301100Z 04005KT 9000 FEW020CB SCT022 29/24 Q1009 RMK CB TO S=
30/08/2013 11:30:00Z	 SAID31 WIII 301130	METAR WIII 301130Z 03003KT 7000 SCT020CB SCT022 29/24 Q1009 RMK CB T O S=
30/08/2013 12:00:00Z	 SAID31 WIII 301200	METAR WIII 301200Z 03003KT 7000 SCT022 28/24 Q1010=
30/08/2013 12:30:00Z	 SAID31 WIII 301230	METAR WIII 301230Z AUTO VRB02KT 3100 BR NCD 29/24 Q1010=
30/08/2013 13:00:00Z	 SAID31 WIII 301300	METAR WIII 301300Z AUTO 03003KT 4000 BR NCD 28/24 Q1010=
30/08/2013 13:30:00Z	 SAID31 WIII 301330	METAR WIII 301330Z AUTO VRB02KT 7000 NCD 28/24 Q1011=
30/08/2013 14:00:00Z	 SAID31 WIII 301400	METAR WIII 301400Z VRB02KT 5000 BR FEW020 28/25 Q1011=
30/08/2013 14:30:00Z	 SAID31 WIII 301430	METAR WIII 301430Z 01003KT 5000 BR FEW018CB SCT022 28/25 Q1011 RMK CB TO SW=
30/08/2013 15:00:00Z	 SAID31 WIII 301500	METAR WIII 301500Z VRB03KT 5000 BR FEW018CB SCT022 28/24 Q1011 RMK CB TO SW=
30/08/2013 15:30:00Z	 SAID31 WIII 301530	METAR WIII 301530Z VRB02KT 5000 BR FEW018 28/24 Q1011=
30/08/2013 16:00:00Z	 SAID31 WIII 301600	METAR WIII 301600Z 20004KT 5000 BR FEW024 28/24 Q1011=
30/08/2013 16:30:00Z	 SAID31 WIII 301630	METAR WIII 301630Z 23005KT 5000 BR FEW024 27/24 Q1011=
30/08/2013 17:00:00Z	 SAID31 WIII 301700	METAR WIII 301700Z 22007KT 5000 BR FEW016CB BKN022 27/24 Q1011 RMK CB TO E=
30/08/2013 17:30:00Z	 SAID31 WIII 301730	METAR WIII 301730Z 21005KT 3000 TSRA FEW016CB BKN018 BKN036 BKN065 26 /24 Q1011 RMK CB TO E AND SE=
30/08/2013 18:00:00Z	 SAID31 WIII 301800	METAR WIII 301800Z VRB05KT 3000 TS -SHRA FEW016CB BKN016 OVC027 25/23 Q1010 RMK CB OVER THE FIELD=
30/08/2013 18:30:00Z	 SAID31 WIII 301830	METAR WIII 301830Z 21005KT 4000 VCTS FEW016CB BKN020 25/23 Q1010 RERA RMK CB TO SW AND W=
30/08/2013 19:00:00Z	 SAID31 WIII 301900	METAR WIII 301900Z VRB03KT 4000 BR SCT055 26/23 Q1010=
30/08/2013 19:30:00Z	 SAID31 WIII 301930	METAR WIII 301930Z VRB02KT 4000 BR FEW018 25/23 Q1010=
30/08/2013 20:00:00Z	 SAID31 WIII 302000	METAR WIII 302000Z 22004KT 5000 BR FEW020 26/24 Q1010=
30/08/2013 20:30:00Z	 SAID31 WIII 302030	METAR WIII 302030Z AUTO 18003KT 4100 BR FEW075 26/24 Q1010=
30/08/2013 21:00:00Z	 SAID31 WIII 302100	METAR WIII 302100Z AUTO 00000KT 4200 VCTS BR SCT075 SCT160 25/24 Q101 0=
30/08/2013 21:30:00Z	 SAID31 WIII 302130	METAR WIII 302130Z AUTO 18004KT 4700 HZ NCD 25/24 Q1010=
30/08/2013 22:00:00Z	 SAID31 WIII 302200	METAR WIII 302200Z AUTO 18004KT 8000 FEW027 BKN033 BKN040 25/23 Q1010=
30/08/2013 22:30:00Z	 SAID31 WIII 302230	METAR WIII 302230Z AUTO VRB02KT 6000 SCT031 BKN046 BKN110 BKN130 26/2 3 Q1010=
30/08/2013 23:00:00Z	 SAID31 WIII 302300	METAR WIII 302300Z AUTO VRB02KT 4400 BR BKN100 BKN120 26/23 Q1010=
30/08/2013 23:30:00Z	 SAID31 WIII 302330	METAR WIII 302330Z VRB02KT 5000 BR FEW120 26/24 Q1011=
31/08/2013 00:00:00Z	 SAID31 WIII 310000	METAR WIII 310000Z VRB03KT 5000 BR FEW024 27/23 Q1011=
31/08/2013 00:30:00Z	 SAID31 WIII 310030	METAR WIII 310030Z VRB03KT 4800 HZ FEW024 28/23 Q1011=
31/08/2013 01:00:00Z	 SAID31 WIII 310100	METAR WIII 310100Z VRB03KT 5000 HZ FEW024 29/24 Q1011=
31/08/2013 01:30:00Z	 SAID31 WIII 310130	METAR WIII 310130Z VRB04KT 5000 HZ FEW024 29/23 Q1012=
31/08/2013 02:00:00Z	 SAID31 WIII 310200	METAR WIII 310200Z VRB03KT 5000 HZ FEW024 30/24 Q1011=
31/08/2013 02:30:00Z	 SAID31 WIII 310230	METAR WIII 310230Z 09006KT 5000 HZ SCT023 31/23 Q1012=
31/08/2013 03:00:00Z	 SAID31 WIII 310300	METAR WIII 310300Z VRB05KT 6000 SCT023 32/23 Q1011=
31/08/2013 03:30:00Z	 SAID31 WIII 310330	METAR WIII 310330Z 06009KT 6000 SCT023 32/24 Q1011=
31/08/2013 04:00:00Z	 SAID31 WIII 310400	METAR WIII 310400Z 04007KT 6000 FEW023 32/23 Q1010=
31/08/2013 04:30:00Z	 SAID31 WIII 310430	METAR WIII 310430Z 04012KT 6000 FEW023 32/23 Q1010=
31/08/2013 05:00:00Z	 SAID31 WIII 310500	METAR WIII 310500Z 05009KT 7000 FEW023 33/24 Q1009=
31/08/2013 05:30:00Z	 SAID31 WIII 310530	METAR WIII 310530Z 05010KT 8000 FEW023 32/24 Q1009=
31/08/2013 06:00:00Z	 SAID31 WIII 310600	METAR WIII 310600Z 05016KT 9000 FEW023 32/24 Q1008=
31/08/2013 06:30:00Z	 SAID31 WIII 310630	METAR WIII 310630Z 03016KT 9000 FEW022 33/24 Q1008=
31/08/2013 07:00:00Z	 SAID31 WIII 310700	METAR WIII 310700Z 05018KT 8000 FEW021CB FEW023 33/23 Q1007 RMK CB TO S=
31/08/2013 07:30:00Z	 SAID31 WIII 310730	METAR WIII 310730Z 05020KT 8000 FEW021CB FEW023 32/23 Q1007 RMK CB TO S=
31/08/2013 08:00:00Z	 SAID31 WIII 310800	METAR WIII 310800Z 06020KT 8000 FEW021CB FEW023 33/23 Q1007 RMK CB TO SW=
31/08/2013 08:30:00Z	 SAID31 WIII 310830	METAR WIII 310830Z 06019KT 8000 FEW021CB FEW022 31/23 Q1006 RMK CB TO SW=
31/08/2013 09:00:00Z	 SAID31 WIII 310900	METAR WIII 310900Z 06015KT 8000 FEW021CB FEW023 31/23 Q1007 RMK CB TO SW=
31/08/2013 09:30:00Z	 SAID31 WIII 310930	METAR WIII 310930Z 05015KT 8000 FEW022 31/24 Q1007=
31/08/2013 10:00:00Z	 SAID31 WIII 311000	METAR WIII 311000Z 05014KT 8000 FEW023 30/24 Q1007=
31/08/2013 10:30:00Z	 SAID31 WIII 311030	METAR WIII 311030Z 06014KT 7000 FEW023 30/24 Q1008=
31/08/2013 11:00:00Z	 SAID31 WIII 311100	METAR WIII 311100Z 06011KT 7000 FEW024 29/24 Q1008=
31/08/2013 11:30:00Z	 SAID31 WIII 311130	METAR WIII 311130Z 06011KT 7000 FEW024 29/24 Q1009=
31/08/2013 12:00:00Z	 SAID31 WIII 311200	METAR WIII 311200Z 06009KT 7000 FEW023 29/24 Q1009=
31/08/2013 12:30:00Z	 SAID31 WIII 311230	METAR WIII 311230Z 06008KT 7000 FEW023 29/24 Q1010=
31/08/2013 13:00:00Z	 SAID31 WIII 311300	METAR WIII 311300Z AUTO 08007KT 9999 FEW048 28/23 Q1010=
31/08/2013 13:30:00Z	 SAID31 WIII 311330	METAR WIII 311330Z 06007KT 7000 SCT018 28/24 Q1010=
31/08/2013 14:00:00Z	 SAID31 WIII 311400	METAR WIII 311400Z 05008KT 7000 SCT018 28/24 Q1011=
31/08/2013 14:30:00Z	 SAID31 WIII 311430	METAR WIII 311430Z 07009KT 8000 SCT018 28/24 Q1011=
31/08/2013 15:00:00Z	 SAID31 WIII 311500	METAR WIII 311500Z 06007KT 8000 BKN018 28/24 Q1011=
31/08/2013 15:30:00Z	 SAID31 WIII 311530	METAR WIII 311530Z 10009KT 8000 SCT018 28/24 Q1011=
31/08/2013 16:00:00Z	 SAID31 WIII 311600	METAR WIII 311600Z 09007KT 8000 BKN020 28/24 Q1011=
31/08/2013 16:30:00Z	 SAID31 WIII 311630	METAR WIII 311630Z 09007KT 8000 SCT016 28/24 Q1011=
31/08/2013 17:00:00Z	 SAID31 WIII 311700	METAR WIII 311700Z 09007KT 7000 SCT020 28/24 Q1011=
31/08/2013 17:30:00Z	 SAID31 WIII 311730	METAR WIII 311730Z 11005KT 7000 SCT018 28/24 Q1010=
31/08/2013 18:00:00Z	 SAID31 WIII 311800	METAR WIII 311800Z 09006KT 7000 SCT018 28/24 Q1010=
31/08/2013 18:30:00Z	 SAID31 WIII 311830	METAR WIII 311830Z 09006KT 7000 SCT018 28/24 Q1009=
31/08/2013 19:00:00Z	 SAID31 WIII 311900	METAR WIII 311900Z 14005G15KT 7000 SCT018 27/24 Q1009=
31/08/2013 19:30:00Z	 SAID31 WIII 311930	METAR WIII 311930Z 16005KT 7000 SCT018 27/24 Q1009=
31/08/2013 20:00:00Z	 SAID31 WIII 312000	METAR WIII 312000Z 14004KT 5000 BR FEW020 27/24 Q1009=
31/08/2013 20:30:00Z	 SAID31 WIII 312030	METAR WIII 312030Z 16004KT 4500 BR FEW020 26/23 Q1009=
31/08/2013 21:00:00Z	 SAID31 WIII 312100	METAR WIII 312100Z 12003KT 4500 BR FEW018 26/23 Q1009=
31/08/2013 21:30:00Z	 SAID31 WIII 312130	METAR WIII 312130Z VRB02KT 4000 BR FEW018 26/23 Q1009=
31/08/2013 22:00:00Z	 SAID31 WIII 312200	METAR WIII 312200Z 18003KT 4000 BR FEW018 26/23 Q1009=
31/08/2013 22:30:00Z	 SAID31 WIII 312230	METAR WIII 312230Z AUTO VRB03KT 4500 BR NCD 26/23 Q1010=
31/08/2013 23:00:00Z	 SAID31 WIII 312300	METAR WIII 312300Z AUTO VRB04KT 3800 BR NCD 26/23 Q1010=
31/08/2013 23:30:00Z	 SAID31 WIII 312330	METAR WIII 312330Z 19005KT 3500 BR FEW018 27/24 Q1010=
