01/04/2013 00:00:00Z	 SAID31 WIII 010000	METAR WIII 010000Z 20003KT 5000 BR FEW022 26/24 Q1009=
01/04/2013 00:30:00Z	 SAID31 WIII 010030	METAR WIII 010030Z AUTO 18004KT 9999 NCD 27/24 Q1009=
01/04/2013 01:00:00Z	 SAID31 WIII 010100	METAR WIII 010100Z VRB02KT 9999 SCT018 28/24 Q1010=
01/04/2013 01:30:00Z	 SAID31 WIII 010130	METAR WIII 010130Z 13004KT 6000 HZ SCT020 28/24 Q1010=
01/04/2013 02:00:00Z	 SAID31 WIII 010200	METAR WIII 010200Z 08004KT 5000 HZ SCT020 30/25 Q1010=
01/04/2013 02:30:00Z	 SAID31 WIII 010230	METAR WIII 010230Z 06006KT 5000 HZ SCT020 30/24 Q1010=
01/04/2013 03:00:00Z	 SAID31 WIII 010300	METAR WIII 010300Z 34005KT 5000 HZ SCT020 31/24 Q1009=
01/04/2013 03:30:00Z	 SAID31 WIII 010330	METAR WIII 010330Z 32004KT 5000 HZ SCT018 32/24 Q1009=
01/04/2013 04:00:00Z	 SAID31 WIII 010400	METAR WIII 010400Z 25006KT 5000 HZ SCT018 32/24 Q1009=
01/04/2013 04:30:00Z	 SAID31 WIII 010430	METAR WIII 010430Z AUTO 03007KT 9999 FEW040 32/25 Q1009=
01/04/2013 05:00:00Z	 SAID31 WIII 010500	METAR WIII 010500Z 03006KT 7000 SCT020 32/25 Q1008=
01/04/2013 05:30:00Z	 SAID31 WIII 010530	METAR WIII 010530Z 03006KT 8000 SCT020 32/24 Q1008=
01/04/2013 06:00:00Z	 SAID31 WIII 010600	METAR WIII 010600Z 35007KT 8000 SCT020 32/24 Q1007=
01/04/2013 06:30:00Z	 SAID31 WIII 010630	METAR WIII 010630Z AUTO 03007KT 9999 NCD 33/24 Q1007=
01/04/2013 07:00:00Z	 SAID31 WIII 010700	METAR WIII 010700Z AUTO 01007KT 9999 NCD 32/25 Q1006=
01/04/2013 07:30:00Z	 SAID31 WIII 010730	METAR WIII 010730Z AUTO 02007KT 9999 NCD 32/24 Q1006=
01/04/2013 08:30:00Z	 SAID31 WIII 010830	METAR WIII 010830Z 32009KT 7000 VCTS SCT016CB BKN018 31/25 Q1006 CB A LL RWY=
01/04/2013 09:00:00Z	 SAID31 WIII 010900	METAR WIII 010900Z 22007G17KT 5000 VCTS SCT016CB BKN018 30/24 Q1006 C B ALL RWY=
01/04/2013 09:30:00Z	 SAID31 WIII 010930	METAR WIII 010930Z 17006KT 5000 HZ FEW016CB SCT018 29/25 Q1006 CB TO SE AND S=
01/04/2013 10:00:00Z	 SAID31 WIII 011000	METAR WIII 011000Z 19005KT 6000 HZ FEW016CB SCT018 29/25 Q1007 CB TO SE=
01/04/2013 10:30:00Z	 SAID31 WIII 011030	METAR WIII 011030Z 22003KT 6000 HZ FEW018CB SCT020 29/25 Q1007 CB TO SE=
01/04/2013 11:00:00Z	 SAID31 WIII 011100	METAR WIII 011100Z AUTO 00000KT 9999 FEW042 SCT170 29/25 Q1007=
01/04/2013 11:30:00Z	 SAID31 WIII 011130	METAR WIII 011130Z 19005KT 6000 HZ FEW018CB SCT020 29/25 Q1008 CB TO SE=
01/04/2013 12:00:00Z	 SAID31 WIII 011200	METAR WIII 011200Z 16006KT 7000 FEW018CB SCT020 29/25 Q1008 CB TO W=
01/04/2013 12:30:00Z	 SAID31 WIII 011230	METAR WIII 011230Z 19007KT 7000 SCT022 28/25 Q1009=
01/04/2013 13:00:00Z	 SAID31 WIII 011300	METAR WIII 011300Z 19004KT 6000 SCT020 BKN090 28/25 Q1009=
01/04/2013 13:30:00Z	 SAID31 WIII 011330	METAR WIII 011330Z VRB02KT 6000 SCT020 28/25 Q1009=
01/04/2013 14:00:00Z	 SAID31 WIII 011400	METAR WIII 011400Z VRB03KT 4500 HZ SCT022 28/24 Q1009=
01/04/2013 14:30:00Z	 SAID31 WIII 011430	METAR WIII 011430Z VRB04KT 4300 HZ SCT022 28/25 Q1010=
01/04/2013 15:00:00Z	 SAID31 WIII 011500	METAR WIII 011500Z 20004KT 3300 HZ FEW022 28/25 Q1010=
01/04/2013 15:30:00Z	 SAID31 WIII 011530	METAR WIII 011530Z 19004KT 3000 HZ FEW022 SCT065 28/25 Q1009=
01/04/2013 16:00:00Z	 SAID31 WIII 011600	METAR WIII 011600Z VRB04KT 3000 HZ FEW022 28/24 Q1009=
01/04/2013 16:30:00Z	 SAID31 WIII 011630	METAR WIII 011630Z 18002KT 3000 HZ FEW021 BKN220 28/24 Q1009=
01/04/2013 17:00:00Z	 SAID31 WIII 011700	METAR WIII 011700Z 20002KT 2700 HZ FEW022 28/25 Q1009=
01/04/2013 17:30:00Z	 SAID31 WIII 011730	METAR WIII 011730Z 27005KT 2300 BR FEW022 27/25 Q1009=
01/04/2013 18:00:00Z	 SAID31 WIII 011800	METAR WIII 011800Z 26006KT 2300 BR SCT024 SCT032 27/25 Q1009=
01/04/2013 18:30:00Z	 SAID31 WIII 011830	METAR WIII 011830Z 22005KT 3400 BR FEW024 27/25 Q1008=
01/04/2013 19:00:00Z	 SAID31 WIII 011900	METAR WIII 011900Z 00000KT 2800 BR FEW022 26/25 Q1008=
01/04/2013 19:30:00Z	 SAID31 WIII 011930	METAR WIII 011930Z 26004KT 2300 BR FEW022 26/25 Q1008=
01/04/2013 20:00:00Z	 SAID31 WIII 012000	METAR WIII 012000Z 25005KT 2800 BR FEW021 26/24 Q1008=
01/04/2013 20:30:00Z	 SAID31 WIII 012030	METAR WIII 012030Z 27005KT 3000 BR FEW021CB SCT024 26/25 Q1008 CB TO N=
01/04/2013 21:00:00Z	 SAID31 WIII 012100	METAR WIII 012100Z 26004KT 4000 BR FEW023 26/25 Q1008=
01/04/2013 21:30:00Z	 SAID31 WIII 012130	METAR WIII 012130Z 27002KT 3300 BR FEW023 26/25 Q1008=
01/04/2013 22:00:00Z	 SAID31 WIII 012200	METAR WIII 012200Z 28003KT 4000 BR SCT023 BKN060 26/25 Q1008=
01/04/2013 22:30:00Z	 SAID31 WIII 012230	METAR WIII 012230Z VRB02KT 4500 BR SCT023 BKN060 27/25 Q1008=
01/04/2013 23:00:00Z	 SAID31 WIII 012300	METAR WIII 012300Z 21003KT 4600 BR FEW020 BKN060 27/24 Q1008=
01/04/2013 23:30:00Z	 SAID31 WIII 012330	METAR WIII 012330Z 19005KT 4800 HZ FEW021CB FEW023 27/24 Q1009 CB TO NE=
02/04/2013 00:00:00Z	 SAID31 WIII 020000	METAR WIII 020000Z 23005KT 6000 FEW020CB FEW023 28/25 Q1009 CB TO NE=
02/04/2013 00:30:00Z	 SAID31 WIII 020030	METAR WIII 020030Z AUTO 21004KT 9999 FEW060 28/25 Q1009=
02/04/2013 01:00:00Z	 SAID31 WIII 020100	METAR WIII 020100Z 19005KT 9999 FEW024 29/25 Q1009=
02/04/2013 01:30:00Z	 SAID31 WIII 020130	METAR WIII 020130Z 22002KT 9999 VCTS FEW021CB FEW024 29/24 Q1010 CB T O NE AND E=
02/04/2013 02:00:00Z	 SAID31 WIII 020200	METAR WIII 020200Z 15003KT 9999 FEW021CB FEW024 30/25 Q1009 CB TO NE=
02/04/2013 02:30:00Z	 SAID31 WIII 020230	METAR WIII 020230Z 06002KT 9999 SCT025 30/25 Q1009=
02/04/2013 03:00:00Z	 SAID31 WIII 020300	METAR WIII 020300Z 07008KT 9999 FEW021CB SCT025 31/25 Q1009 CB TO E=
02/04/2013 03:30:00Z	 SAID31 WIII 020330	METAR WIII 020330Z 05010KT 9999 FEW024 32/25 Q1009=
02/04/2013 04:00:00Z	 SAID31 WIII 020400	METAR WIII 020400Z 04009KT 9999 FEW024 31/25 Q1009=
02/04/2013 04:30:00Z	 SAID31 WIII 020430	METAR WIII 020430Z 04008KT 9999 FEW024 31/25 Q1009=
02/04/2013 05:00:00Z	 SAID31 WIII 020500	METAR WIII 020500Z 06007KT 9999 FEW024 31/25 Q1008=
02/04/2013 05:30:00Z	 SAID31 WIII 020530	METAR WIII 020530Z 06006KT 9999 FEW024 32/25 Q1007=
02/04/2013 06:00:00Z	 SAID31 WIII 020600	METAR WIII 020600Z 02006KT 9000 FEW021CB FEW024 31/25 Q1007 CB TO SW=
02/04/2013 06:30:00Z	 SAID31 WIII 020630	METAR WIII 020630Z 04006KT 9000 FEW021CB FEW024 31/25 Q1007 CB TO S=
02/04/2013 07:00:00Z	 SAID31 WIII 020700	METAR WIII 020700Z 03007KT 9999 FEW021CB FEW024 31/26 Q1006 CB TO S=
02/04/2013 07:30:00Z	 SAID31 WIII 020730	METAR WIII 020730Z 03007KT 9999 FEW021CB FEW024 31/26 Q1006 CB TO S=
02/04/2013 08:00:00Z	 SAID31 WIII 020800	METAR WIII 020800Z 35005KT 9000 FEW021CB FEW025 30/25 Q1005 CB TO S A ND SW=
02/04/2013 08:30:00Z	 SAID31 WIII 020830	METAR WIII 020830Z 05006KT 9999 FEW021CB FEW024 30/25 Q1005 CB TO S=
02/04/2013 09:00:00Z	 SAID31 WIII 020900	METAR WIII 020900Z 35005KT 9999 VCTS FEW021CB FEW024 30/25 Q1006 CB T O S AND SW=
02/04/2013 09:30:00Z	 SAID31 WIII 020930	METAR WIII 020930Z 35002KT 9999 VCTS FEW021CB FEW024 30/25 Q1006 CB T O SE, S, AND SW=
02/04/2013 10:00:00Z	 SAID31 WIII 021000	METAR WIII 021000Z 34003KT 8000 FEW021CB FEW024 30/25 Q1007 CB TO SE=
02/04/2013 10:30:00Z	 SAID31 WIII 021030	METAR WIII 021030Z 00000KT 7000 FEW021CB FEW024 29/25 Q1007 CB TO SE=
02/04/2013 11:00:00Z	 SAID31 WIII 021100	METAR WIII 021100Z 30003KT 4000 HZ SCT024 29/25 Q1007=
02/04/2013 11:30:00Z	 SAID31 WIII 021130	METAR WIII 021130Z 20003KT 5000 HZ FEW024 29/25 Q1007=
02/04/2013 12:00:00Z	 SAID31 WIII 021200	METAR WIII 021200Z 20005KT 4000 HZ BKN025 29/25 Q1007=
02/04/2013 12:30:00Z	 SAID31 WIII 021230	METAR WIII 021230Z 17006KT 5000 -RA FEW021CB SCT024 28/25 Q1008 CB TO SE AND NE=
02/04/2013 13:00:00Z	 SAID31 WIII 021300	METAR WIII 021300Z VRB05KT 4000 -RASCT020 27/25 Q1008=
02/04/2013 13:30:00Z	 SAID31 WIII 021330	METAR WIII 021330Z 18007KT 4900 BR SCT021 27/25 Q1008=
02/04/2013 14:00:00Z	 SAID31 WIII 021400	METAR WIII 021400Z VRB05KT 4800 BR SCT021 27/25 Q1009=
02/04/2013 14:30:00Z	 SAID31 WIII 021430	METAR WIII 021430Z VRB05KT 6000 FEW022 27/24 Q1009=
02/04/2013 15:00:00Z	 SAID31 WIII 021500	METAR WIII 021500Z 17005KT 6000 FEW022 27/24 Q1009=
02/04/2013 15:30:00Z	 SAID31 WIII 021530	METAR WIII 021530Z VRB03KT 6000 NCD 27/24 Q1009=
02/04/2013 16:00:00Z	 SAID31 WIII 021600	METAR WIII 021600Z VRB03KT 5000 FEW022 27/24 Q1009=
02/04/2013 16:30:00Z	 SAID31 WIII 021630	METAR WIII 021630Z 18003KT 5000 NCD 27/24 Q1009=
02/04/2013 17:00:00Z	 SAID31 WIII 021700	METAR WIII 021700Z 00000KT 4900 HZ FEW022 27/24 Q1009=
02/04/2013 17:30:00Z	 SAID31 WIII 021730	METAR WIII 021730Z 00000KT 4400 HZ NCD 26/24 Q1008=
02/04/2013 18:00:00Z	 SAID31 WIII 021800	METAR WIII 021800Z 00000KT 2900 HZ FEW022 26/24 Q1008=
02/04/2013 18:30:00Z	 SAID31 WIII 021830	METAR WIII 021830Z 00000KT 2700 BR FEW022 26/24 Q1008=
02/04/2013 19:00:00Z	 SAID31 WIII 021900	METAR WIII 021900Z 00000KT 3600 BR FEW022 26/24 Q1007=
02/04/2013 19:30:00Z	 SAID31 WIII 021930	METAR WIII 021930Z AUTO 00000KT 4000 BR BKN210 26/24 Q1007=
02/04/2013 20:00:00Z	 SAID31 WIII 022000	METAR WIII 022000Z AUTO 00000KT 3600 VCTS BR FEW220 26/24 Q1007=
02/04/2013 20:30:00Z	 SAID31 WIII 022030	METAR WIII 022030Z AUTO 00000KT 3300 BR NCD 26/24 Q1007=
02/04/2013 21:00:00Z	 SAID31 WIII 022100	METAR WIII 022100Z AUTO 00000KT 3200 BR NCD 26/24 Q1007=
02/04/2013 21:30:00Z	 SAID31 WIII 022130	METAR WIII 022130Z AUTO 29004KT 3100 BR SCT070 26/24 Q1007=
02/04/2013 22:00:00Z	 SAID31 WIII 022200	METAR WIII 022200Z AUTO 23002KT 2100 VCTS BR NCD 26/25 Q1007=
02/04/2013 22:30:00Z	 SAID31 WIII 022230	METAR WIII 022230Z VRB04KT 3200 BR FEW022 26/24 Q1007=
02/04/2013 23:00:00Z	 SAID31 WIII 022300	METAR WIII 022300Z 30003KT 2500 BR FEW022 26/25 Q1008=
02/04/2013 23:30:00Z	 SAID31 WIII 022330	METAR WIII 022330Z 30003KT 1900 BR FEW021 26/25 Q1009=
03/04/2013 00:00:00Z	 SAID31 WIII 030000	METAR WIII 030000Z VRB03KT 2500 BR FEW022 27/25 Q1009=
03/04/2013 00:30:00Z	 SAID31 WIII 030030	METAR WIII 030030Z VRB02KT 5000 BR FEW024 28/25 Q1009=
03/04/2013 01:00:00Z	 SAID31 WIII 030100	METAR WIII 030100Z 29002KT 5000 BR FEW024 28/25 Q1009=
03/04/2013 01:30:00Z	 SAID31 WIII 030130	METAR WIII 030130Z VRB03KT 9000 FEW022 30/24 Q1009=
03/04/2013 02:00:00Z	 SAID31 WIII 030200	METAR WIII 030200Z VRB04KT 9999 FEW024 31/24 Q1009=
03/04/2013 02:30:00Z	 SAID31 WIII 030230	METAR WIII 030230Z VRB04KT 9999 FEW024 31/24 Q1009=
03/04/2013 03:00:00Z	 SAID31 WIII 030300	METAR WIII 030300Z VRB03KT 9999 SCT024 31/24 Q1008=
03/04/2013 03:30:00Z	 SAID31 WIII 030330	METAR WIII 030330Z AUTO VRB02KT 7000 SCT040 31/24 Q1008=
03/04/2013 04:00:00Z	 SAID31 WIII 030400	METAR WIII 030400Z VRB03KT 9000 SCT020 32/24 Q1008=
03/04/2013 04:30:00Z	 SAID31 WIII 030430	METAR WIII 030430Z AUTO VRB05KT 9000 BKN033 31/26 Q1007=
03/04/2013 05:00:00Z	 SAID31 WIII 030500	METAR WIII 030500Z 33007KT 9999 SCT024 32/26 Q1007=
03/04/2013 05:30:00Z	 SAID31 WIII 030530	METAR WIII 030530Z 31008KT 9999 FEW018 32/25 Q1006=
03/04/2013 06:00:00Z	 SAID31 WIII 030600	METAR WIII 030600Z 31008KT 9999 SCT024 32/25 Q1006=
03/04/2013 06:30:00Z	 SAID31 WIII 030630	METAR WIII 030630Z VRB05KT 8000 -RA FEW016CB BKN020 31/25 Q1006 CB TO SE=
03/04/2013 07:00:00Z	 SAID31 WIII 030700	METAR WIII 030700Z AUTO VRB03KT 9999 NCD 31/25 Q1005=
03/04/2013 07:30:00Z	 SAID31 WIII 030730	METAR WIII 030730Z 36006KT 9999 FEW020 31/24 Q1005=
03/04/2013 08:00:00Z	 SAID31 WIII 030800	METAR WIII 030800Z 33007KT 9999 FEW020 31/25 Q1005=
03/04/2013 08:30:00Z	 SAID31 WIII 030830	METAR WIII 030830Z 31006KT 9999 VCTS FEW016CB SCT020 31/26 Q1004 CB T O SE=
03/04/2013 09:00:00Z	 SAID31 WIII 030900	METAR WIII 030900Z 33006KT 9999 FEW023 31/25 Q1005=
03/04/2013 09:30:00Z	 SAID31 WIII 030930	METAR WIII 030930Z AUTO 32007KT 9999 VCTS NCD 31/25 Q1005=
03/04/2013 10:00:00Z	 SAID31 WIII 031000	METAR WIII 031000Z AUTO 28004KT 8000 VCTS FEW042 31/26 Q1006=
03/04/2013 10:30:00Z	 SAID31 WIII 031030	METAR WIII 031030Z 22012KT 7000 BKN018 29/24 Q1006=
03/04/2013 11:00:00Z	 SAID31 WIII 031100	METAR WIII 031100Z 21007KT 6000 FEW016CB BKN018 29/25 Q1006 CB TO SE=
03/04/2013 11:30:00Z	 SAID31 WIII 031130	METAR WIII 031130Z 19008KT 6000 DZ BKN020 28/25 Q1007=
03/04/2013 12:00:00Z	 SAID31 WIII 031200	METAR WIII 031200Z 18006KT 6000 SCT020 28/25 Q1007=
03/04/2013 12:30:00Z	 SAID31 WIII 031230	METAR WIII 031230Z VRB05KT 6000 SCT020 27/25 Q1008=
03/04/2013 13:00:00Z	 SAID31 WIII 031300	METAR WIII 031300Z VRB03KT 6000 FEW021 27/25 Q1008=
03/04/2013 13:30:00Z	 SAID31 WIII 031330	METAR WIII 031330Z VRB05KT 4500 HZ FEW021 SCT060 27/25 Q1008=
03/04/2013 14:00:00Z	 SAID31 WIII 031400	METAR WIII 031400Z 19003KT 4700 HZ FEW021 27/25 Q1008 NOSIG=
03/04/2013 14:30:00Z	 SAID31 WIII 031430	METAR WIII 031430Z VRB04KT 4900 HZ FEW021 28/24 Q1008=
03/04/2013 15:00:00Z	 SAID31 WIII 031500	METAR WIII 031500Z 22005KT 6000 FEW021 28/25 Q1009 NOSIG=
03/04/2013 15:30:00Z	 SAID31 WIII 031530	METAR WIII 031530Z 25006KT 6000 FEW021 28/25 Q1009 NOSIG=
03/04/2013 16:00:00Z	 SAID31 WIII 031600	METAR WIII 031600Z 29002KT 5000 HZ FEW021 SCT085 27/25 Q1009 NOSIG=
03/04/2013 16:30:00Z	 SAID31 WIII 031630	METAR WIII 031630Z 25004KT 6000 FEW021 27/25 Q1008=
03/04/2013 17:00:00Z	 SAID31 WIII 031700	METAR WIII 031700Z 24005KT 6000 FEW021 27/25 Q1008=
03/04/2013 17:30:00Z	 SAID31 WIII 031730	METAR WIII 031730Z 24007KT 6000 FEW021 26/25 Q1008=
03/04/2013 18:00:00Z	 SAID31 WIII 031800	METAR WIII 031800Z 25006KT 6000 FEW022 26/25 Q1007 NOSIG=
03/04/2013 18:30:00Z	 SAID31 WIII 031830	METAR WIII 031830Z 20004KT 6000 FEW022 27/25 Q1007 NOSIG=
03/04/2013 19:00:00Z	 SAID31 WIII 031900	METAR WIII 031900Z 21005KT 7000 FEW022 27/25 Q1007=
03/04/2013 19:30:00Z	 SAID31 WIII 031930	METAR WIII 031930Z 23007KT 7000 SCT023 27/25 Q1006=
03/04/2013 20:00:00Z	 SAID31 WIII 032000	METAR WIII 032000Z 22007KT 7000 FEW023 26/24 Q1006 NOSIG=
03/04/2013 20:30:00Z	 SAID31 WIII 032030	METAR WIII 032030Z 22007KT 7000 FEW023 26/24 Q1006 NOSIG=
03/04/2013 21:00:00Z	 SAID31 WIII 032100	METAR WIII 032100Z 25008KT 7000 FEW023 26/24 Q1006 NOSIG=
03/04/2013 21:30:00Z	 SAID31 WIII 032130	METAR WIII 032130Z 22007KT 7000 FEW023 26/24 Q1006 NOSIG=
03/04/2013 22:00:00Z	 SAID31 WIII 032200	METAR WIII 032200Z 25005KT 7000 FEW023 SCT180 26/24 Q1007=
03/04/2013 22:30:00Z	 SAID31 WIII 032230	METAR WIII 032230Z 24007KT 7000 FEW020CB FEW023 26/24 Q1007 CB TO NE=
03/04/2013 23:00:00Z	 SAID31 WIII 032300	METAR WIII 032300Z 26006KT 6000 FEW023 26/24 Q1007=
03/04/2013 23:30:00Z	 SAID31 WIII 032330	METAR WIII 032330Z 25008KT 6000 FEW023 26/24 Q1008=
04/04/2013 00:00:00Z	 SAID31 WIII 040000	METAR WIII 040000Z 24007KT 6000 FEW022 26/24 Q1008=
04/04/2013 00:30:00Z	 SAID31 WIII 040030	METAR WIII 040030Z AUTO 24006KT 9999 SCT023 BKN065 27/24 Q1008=
04/04/2013 01:00:00Z	 SAID31 WIII 040100	METAR WIII 040100Z 23006KT 6000 HZ FEW016CB BKN018 28/24 Q1009 CB TO NE=
04/04/2013 01:30:00Z	 SAID31 WIII 040130	METAR WIII 040130Z 25006KT 6000 HZ FEW016CB SCT018 29/24 Q1009 CB TO NE=
04/04/2013 02:00:00Z	 SAID31 WIII 040200	METAR WIII 040200Z 25008KT 6000 HZ SCT020 30/25 Q1009=
04/04/2013 02:30:00Z	 SAID31 WIII 040230	METAR WIII 040230Z 24007KT 7000 FEW018CB SCT020 31/24 Q1009 CB TO N=
04/04/2013 03:00:00Z	 SAID31 WIII 040300	METAR WIII 040300Z VRB02KT 7000 SCT020 31/24 Q1008=
04/04/2013 03:30:00Z	 SAID31 WIII 040330	METAR WIII 040330Z VRB02KT 7000 FEW018CB SCT020 31/24 Q1008 CB TO NE=
04/04/2013 04:00:00Z	 SAID31 WIII 040400	METAR WIII 040400Z 26006KT 8000 FEW018CB SCT020 31/25 Q1008 CB TO NE=
04/04/2013 04:30:00Z	 SAID31 WIII 040430	METAR WIII 040430Z 32006KT 8000 SCT018 32/25 Q1007=
04/04/2013 05:00:00Z	 SAID31 WIII 040500	METAR WIII 040500Z 31005KT 8000 FEW016CB BKN018 32/25 Q1007 CB TO SE=
04/04/2013 05:30:00Z	 SAID31 WIII 040530	METAR WIII 040530Z 31009KT 8000 FEW016CB BKN018 32/26 Q1006 CB TO SW AND W=
04/04/2013 06:00:00Z	 SAID31 WIII 040600	METAR WIII 040600Z 32009KT 8000 FEW018CB SCT020 31/25 Q1006 CB TO S A ND SW=
04/04/2013 06:30:00Z	 SAID31 WIII 040630	METAR WIII 040630Z AUTO 32009KT 9999 FEW031 BKN050 32/25 Q1005=
04/04/2013 07:00:00Z	 SAID31 WIII 040700	METAR WIII 040700Z 29007G17KT 8000 FEW018CB SCT020 32/26 Q1005 CB TO S AND SW=
04/04/2013 07:30:00Z	 SAID31 WIII 040730	METAR WIII 040730Z 31006G16KT 7000 VCTS SCT016CB BKN018 32/25 Q1005 C B ALL RWY=
04/04/2013 08:00:00Z	 SAID31 WIII 040800	METAR WIII 040800Z 26011KT 6000 -TSRA SCT016CB BKN018 32/25 Q1004 CB ALL RWY=
04/04/2013 09:00:00Z	 SAID31 WIII 040900	METAR WIII 040900Z 17011KT 4000 -SHRA FEW016CB BKN018 28/25 Q1006 CB TO E AND SE=
04/04/2013 09:30:00Z	 SAID31 WIII 040930	METAR WIII 040930Z 20008KT 5000 -SHRA FEW016CB BKN018 28/25 Q1005 CB TO E AND SE=
04/04/2013 10:00:00Z	 SAID31 WIII 041000	METAR WIII 041000Z 18005KT 6000 FEW016CB SCT018 28/24 Q1006 CB TO E=
04/04/2013 10:30:00Z	 SAID31 WIII 041030	METAR WIII 041030Z 15005KT 6000 VCTS FEW016CB SCT018 28/24 Q1006 CB T O E AND SE=
04/04/2013 11:00:00Z	 SAID31 WIII 041100	METAR WIII 041100Z 20007KT 5000 VCTS SCT016CB BKN018 28/24 Q1006 CB A LL RWY=
04/04/2013 11:30:00Z	 SAID31 WIII 041130	METAR WIII 041130Z 17008KT 5000 HZ SCT016CB BKN018 27/24 Q1007 CB ALL RWY=
04/04/2013 12:00:00Z	 SAID31 WIII 041200	METAR WIII 041200Z 14004KT 5000 HZ SCT016 BKN018 27/24 Q1007 CB TO E SW AND NW=
04/04/2013 12:30:00Z	 SAID31 WIII 041230	METAR WIII 041230Z AUTO 20006KT 9999 BKN200 27/24 Q1008=
04/04/2013 13:00:00Z	 SAID31 WIII 041300	METAR WIII 041300Z 20005KT 7000 FEW022 27/24 Q1008=
04/04/2013 13:30:00Z	 SAID31 WIII 041330	METAR WIII 041330Z VRB05KT 7000 FEW020CB FEW022 27/24 Q1008 CB TO SW=
04/04/2013 14:00:00Z	 SAID31 WIII 041400	METAR WIII 041400Z VRB05KT 7000 -SHRA SCT020 26/24 Q1008=
04/04/2013 14:30:00Z	 SAID31 WIII 041430	METAR WIII 041430Z VRB03KT 7000 FEW022 26/24 Q1008=
04/04/2013 15:00:00Z	 SAID31 WIII 041500	METAR WIII 041500Z 20006KT 5000 FEW022 26/24 Q1008=
04/04/2013 15:30:00Z	 SAID31 WIII 041530	METAR WIII 041530Z VRB03KT 5000 FEW022 26/24 Q1008=
04/04/2013 16:00:00Z	 SAID31 WIII 041600	METAR WIII 041600Z VRB03KT 6000 FEW022 26/24 Q1008=
04/04/2013 16:30:00Z	 SAID31 WIII 041630	METAR WIII 041630Z VRB04KT 5000 NCD 26/24 Q1008=
04/04/2013 17:00:00Z	 SAID31 WIII 041700	METAR WIII 041700Z 12002KT 4100 BR FEW022 26/24 Q1007=
04/04/2013 17:30:00Z	 SAID31 WIII 041730	METAR WIII 041730Z VRB02KT 4700 BR FEW022 26/24 Q1007=
04/04/2013 18:00:00Z	 SAID31 WIII 041800	METAR WIII 041800Z VRB02KT 4900 BR FEW022 26/24 Q1007=
04/04/2013 18:30:00Z	 SAID31 WIII 041830	METAR WIII 041830Z VRB02KT 6000 FEW022 26/24 Q1007=
04/04/2013 19:00:00Z	 SAID31 WIII 041900	METAR WIII 041900Z 26005KT 6000 FEW022 26/24 Q1007=
04/04/2013 20:00:00Z	 SAID31 WIII 042000	METAR WIII 042000Z AUTO 25006KT 6000 SCT042 25/24 Q1007=
04/04/2013 20:30:00Z	 SAID31 WIII 042030	METAR WIII 042030Z AUTO 27006KT 8000 FEW042 26/24 Q1006=
04/04/2013 21:00:00Z	 SAID31 WIII 042100	METAR WIII 042100Z AUTO 24006KT 9999 NCD 25/24 Q1006=
04/04/2013 21:30:00Z	 SAID31 WIII 042130	METAR WIII 042130Z 24005KT 8000 FEW021 26/24 Q1007=
04/04/2013 22:00:00Z	 SAID31 WIII 042200	METAR WIII 042200Z 27006KT 6000 FEW021 26/24 Q1007=
04/04/2013 22:30:00Z	 SAID31 WIII 042230	METAR WIII 042230Z 26007KT 7000 FEW022 25/24 Q1007=
04/04/2013 23:00:00Z	 SAID31 WIII 042300	METAR WIII 042300Z 26008KT 7000 FEW022 26/24 Q1008=
04/04/2013 23:30:00Z	 SAID31 WIII 042330	METAR WIII 042330Z 26007KT 9000 FEW022 26/24 Q1008=
05/04/2013 00:00:00Z	 SAID31 WIII 050000	METAR WIII 050000Z AUTO 24006KT 9000 BKN070 26/25 Q1008=
05/04/2013 00:30:00Z	 SAID31 WIII 050030	METAR WIII 050030Z AUTO 24007KT 9000 NCD 27/24 Q1008=
05/04/2013 01:00:00Z	 SAID31 WIII 050100	METAR WIII 050100Z 24009KT 9999 FEW024 28/24 Q1008=
05/04/2013 01:30:00Z	 SAID31 WIII 050130	METAR WIII 050130Z 23006KT 9999 FEW024 29/24 Q1008=
05/04/2013 02:00:00Z	 SAID31 WIII 050200	METAR WIII 050200Z 20008KT 9999 FEW024 30/24 Q1008=
05/04/2013 02:30:00Z	 SAID31 WIII 050230	METAR WIII 050230Z 24007KT 9999 FEW024 30/24 Q1009=
05/04/2013 03:00:00Z	 SAID31 WIII 050300	METAR WIII 050300Z 25012KT 9999 FEW024 31/25 Q1009=
05/04/2013 03:30:00Z	 SAID31 WIII 050330	METAR WIII 050330Z 25012KT 9999 FEW024 31/24 Q1008=
05/04/2013 04:00:00Z	 SAID31 WIII 050400	METAR WIII 050400Z 23015KT 9999 FEW024 32/25 Q1008=
05/04/2013 04:30:00Z	 SAID31 WIII 050430	METAR WIII 050430Z 24011KT 9999 FEW024 32/25 Q1007=
05/04/2013 05:00:00Z	 SAID31 WIII 050500	METAR WIII 050500Z 25010KT 9999 FEW024 32/25 Q1007=
05/04/2013 05:30:00Z	 SAID31 WIII 050530	METAR WIII 050530Z 25009KT 9999 FEW024 32/25 Q1006=
05/04/2013 06:00:00Z	 SAID31 WIII 050600	METAR WIII 050600Z 25009KT 9999 FEW024 32/25 Q1005=
05/04/2013 06:30:00Z	 SAID31 WIII 050630	METAR WIII 050630Z 25013KT 9999 FEW021CB FEW024 32/25 Q1005 CB TO S=
05/04/2013 07:00:00Z	 SAID31 WIII 050700	METAR WIII 050700Z 28010KT 9999 FEW024 33/24 Q1004=
05/04/2013 07:30:00Z	 SAID31 WIII 050730	METAR WIII 050730Z 27012KT 9999 FEW024 33/25 Q1004=
05/04/2013 08:00:00Z	 SAID31 WIII 050800	METAR WIII 050800Z 25009KT 9999 FEW024 33/25 Q1004=
05/04/2013 08:30:00Z	 SAID31 WIII 050830	METAR WIII 050830Z 28009KT 9999 FEW024 32/24 Q1004=
05/04/2013 09:00:00Z	 SAID31 WIII 050900	METAR WIII 050900Z 26012KT 9999 FEW024 33/24 Q1003=
05/04/2013 09:30:00Z	 SAID31 WIII 050930	METAR WIII 050930Z 27010KT 9999 FEW021CB FEW024 32/25 Q1003 CB TO SE=
05/04/2013 10:00:00Z	 SAID31 WIII 051000	METAR WIII 051000Z 27011KT 9999 FEW021CB FEW024 30/24 Q1004 CB TO SE=
05/04/2013 10:30:00Z	 SAID31 WIII 051030	METAR WIII 051030Z 25012KT 9999 FEW024 30/24 Q1004=
05/04/2013 11:00:00Z	 SAID31 WIII 051100	METAR WIII 051100Z 25010KT 9999 FEW021CB FEW024 29/24 Q1005 CB TO S=
05/04/2013 11:30:00Z	 SAID31 WIII 051130	METAR WIII 051130Z 25007KT 9999 FEW024 29/24 Q1006=
05/04/2013 12:00:00Z	 SAID31 WIII 051200	METAR WIII 051200Z 25010KT 9999 FEW021CB FEW024 29/24 Q1006 CB TO SE=
05/04/2013 12:30:00Z	 SAID31 WIII 051230	METAR WIII 051230Z 24011KT 9999 FEW021CB FEW024 29/24 Q1007 CB TO SE=
05/04/2013 13:00:00Z	 SAID31 WIII 051300	METAR WIII 051300Z 25010KT 9999 FEW021CB FEW024 28/24 Q1007 CB TO E=
05/04/2013 13:30:00Z	 SAID31 WIII 051330	METAR WIII 051330Z AUTO 26008KT 9999 NCD 28/25 Q1007=
05/04/2013 14:00:00Z	 SAID31 WIII 051400	METAR WIII 051400Z 25009KT 6000 FEW020 28/24 Q1007=
05/04/2013 14:30:00Z	 SAID31 WIII 051430	METAR WIII 051430Z 23009KT 5000 BR FEW020 28/24 Q1008=
05/04/2013 15:00:00Z	 SAID31 WIII 051500	METAR WIII 051500Z 25009KT 5000 BR FEW020 28/24 Q1008=
05/04/2013 15:30:00Z	 SAID31 WIII 051530	METAR WIII 051530Z 23012KT 5000 BR FEW018 28/24 Q1009=
05/04/2013 16:00:00Z	 SAID31 WIII 051600	METAR WIII 051600Z 26006KT 5000 BR FEW020 28/25 Q1009=
05/04/2013 16:30:00Z	 SAID31 WIII 051630	METAR WIII 051630Z 26007KT 5000 BR SCT020 27/25 Q1009=
05/04/2013 17:00:00Z	 SAID31 WIII 051700	METAR WIII 051700Z 26007KT 5000 BR FEW020 27/25 Q1008=
05/04/2013 17:30:00Z	 SAID31 WIII 051730	METAR WIII 051730Z 25007KT 5000 BR FEW020 27/24 Q1007=
05/04/2013 18:00:00Z	 SAID31 WIII 051800	METAR WIII 051800Z 22007KT 5000 BR FEW020 28/24 Q1007=
05/04/2013 18:30:00Z	 SAID31 WIII 051830	METAR WIII 051830Z AUTO 20004KT 9999 BKN055 28/24 Q1007=
05/04/2013 19:00:00Z	 SAID31 WIII 051900	METAR WIII 051900Z 22007KT 5000 BR FEW020 28/24 Q1007=
05/04/2013 19:30:00Z	 SAID31 WIII 051930	METAR WIII 051930Z AUTO 27005KT 9999 SCT085 BKN140 27/24 Q1006=
05/04/2013 20:00:00Z	 SAID31 WIII 052000	METAR WIII 052000Z AUTO 26004KT 9999 SCT060 SCT085 BKN140 BKN160 27/2 4 Q1006=
05/04/2013 20:30:00Z	 SAID31 WIII 052030	METAR WIII 052030Z AUTO 21003KT 9999 OVC160 27/24 Q1006=
05/04/2013 21:00:00Z	 SAID31 WIII 052100	METAR WIII 052100Z AUTO 17003KT 9999 BKN060 OVC160 27/24 Q1006=
05/04/2013 21:30:00Z	 SAID31 WIII 052130	METAR WIII 052130Z AUTO 20003KT 9999 SCT065 27/24 Q1006=
05/04/2013 22:00:00Z	 SAID31 WIII 052200	METAR WIII 052200Z AUTO 24007KT 9999 SCT150 27/24 Q1006=
05/04/2013 22:30:00Z	 SAID31 WIII 052230	METAR WIII 052230Z 21007KT 5000 BR SCT020 27/24 Q1006=
05/04/2013 23:00:00Z	 SAID31 WIII 052300	METAR WIII 052300Z 23009KT 5000 BR SCT060 BKN075 BKN150 27/24 Q1007=
05/04/2013 23:30:00Z	 SAID31 WIII 052330	METAR WIII 052330Z 27003KT 5000 BR SCT060 BKN089 BKN150 27/24 Q1007=
06/04/2013 00:00:00Z	 SAID31 WIII 060000	METAR WIII 060000Z 25005KT 5000 BR FEW020 27/24 Q1007=
06/04/2013 00:30:00Z	 SAID31 WIII 060030	METAR WIII 060030Z AUTO 24007KT 9999 BKN080 BKN150 28/24 Q1008=
06/04/2013 01:00:00Z	 SAID31 WIII 060100	METAR WIII 060100Z AUTO 22009KT 9999 FEW055 SCT070 OVC081 28/24 Q1008=
06/04/2013 01:30:00Z	 SAID31 WIII 060130	METAR WIII 060130Z 21008KT 5000 HZ FEW018CB BKN020 29/24 Q1009 CB TO NE=
06/04/2013 02:00:00Z	 SAID31 WIII 060200	METAR WIII 060200Z 20009KT 8000 FEW018CB BKN020 29/24 Q1009 CB TO NE=
06/04/2013 02:30:00Z	 SAID31 WIII 060230	METAR WIII 060230Z 22008KT 8000 FEW018CB BKN020 29/24 Q1009 CB TO NW AND N=
06/04/2013 03:00:00Z	 SAID31 WIII 060300	METAR WIII 060300Z 19005KT 7000 FEW018CB BKN020 29/24 Q1009 CB TO NW=
06/04/2013 03:30:00Z	 SAID31 WIII 060330	METAR WIII 060330Z VRB02KT 7000 FEW018CB BKN020 29/24 Q1008 CB TO NE=
06/04/2013 04:00:00Z	 SAID31 WIII 060400	METAR WIII 060400Z 32005KT 5000 -SHRA BKN020 28/25 Q1008=
06/04/2013 04:30:00Z	 SAID31 WIII 060430	METAR WIII 060430Z 36006KT 5000 HZ BKN020 28/25 Q1008=
06/04/2013 05:00:00Z	 SAID31 WIII 060500	METAR WIII 060500Z 31003KT 5000 HZ FEW018CB BKN020 28/25 Q1007 CB TO NW=
06/04/2013 05:30:00Z	 SAID31 WIII 060530	METAR WIII 060530Z VRB02KT 5000 HZ FEW018CB SCT020 29/25 Q1006=
06/04/2013 06:00:00Z	 SAID31 WIII 060600	METAR WIII 060600Z 28005KT 7000 FEW018CB SCT020 30/25 Q1005 CB TO S=
06/04/2013 06:30:00Z	 SAID31 WIII 060630	METAR WIII 060630Z 30005KT 7000 FEW018CB SCT020 31/24 Q1005 CB TO S=
06/04/2013 07:00:00Z	 SAID31 WIII 060700	METAR WIII 060700Z 25004KT 8000 SCT020 32/24 Q1004=
06/04/2013 07:30:00Z	 SAID31 WIII 060730	METAR WIII 060730Z AUTO VRB03KT 9999 NCD 31/24 Q1004=
06/04/2013 08:00:00Z	 SAID31 WIII 060800	METAR WIII 060800Z 22008G18KT 5000 VCTS SCT016CB BKN018 31/25 Q1004 C B TO E SW AND W=
06/04/2013 08:30:00Z	 SAID31 WIII 060830	METAR WIII 060830Z 26010G20KT 2000 +TSRA BKN016CB OVC018 27/24 Q1005 CB ALL RWY=
06/04/2013 09:00:00Z	 SAID31 WIII 060900	METAR WIII 060900Z 23009G19KT 0300 +TSRA BKN016CB OVC018 25/24 Q1005 CB ALL RWY=
06/04/2013 09:30:00Z	 SAID31 WIII 060930	METAR WIII 060930Z 20006G16KT 0300 VCTSRA SCT016CB OVC018 26/25 Q1005 CB TO E AND SE=
06/04/2013 10:00:00Z	 SAID31 WIII 061000	METAR WIII 061000Z 22008KT 2000 VCTSRA FEW016CB BKN018 26/25 Q1006 CB TO SE AND W=
06/04/2013 11:00:00Z	 SAID31 WIII 061100	METAR WIII 061100Z 21011KT 4000 SHRA FEW018CB OVC020 26/24 Q1006 CB T O SE AND S=
06/04/2013 11:30:00Z	 SAID31 WIII 061130	METAR WIII 061130Z 20009KT 5000 -SHRA FEW018CB OVC020 26/24 Q1006 CB TO SE AND W=
06/04/2013 12:00:00Z	 SAID31 WIII 061200	METAR WIII 061200Z 19007KT 6000 SCT020 26/24 Q1007=
06/04/2013 12:30:00Z	 SAID31 WIII 061230	METAR WIII 061230Z 22006KT 6000 SCT020 BKN100 26/24 Q1008=
06/04/2013 13:00:00Z	 SAID31 WIII 061300	METAR WIII 061300Z 22009KT 6000 SCT020 BKN110 26/24 Q1008=
06/04/2013 13:30:00Z	 SAID31 WIII 061330	METAR WIII 061330Z 21008KT 6000 SCT019 BKN110 26/25 Q1009=
06/04/2013 14:00:00Z	 SAID31 WIII 061400	METAR WIII 061400Z 23010KT 7000 FEW020CB SCT023 BKN100 26/24 Q1009 CB TO N=
06/04/2013 14:30:00Z	 SAID31 WIII 061430	METAR WIII 061430Z 24010KT 7000 FEW020CB SCT023 26/24 Q1009 CB TO N=
06/04/2013 15:00:00Z	 SAID31 WIII 061500	METAR WIII 061500Z 24008KT 7000 FEW020CB SCT023 26/24 Q1009 CB TO N=
06/04/2013 15:30:00Z	 SAID31 WIII 061530	METAR WIII 061530Z 26007KT 6000 FEW020CB SCT023 BKN150 25/24 Q1009 CB TO N=
06/04/2013 16:00:00Z	 SAID31 WIII 061600	METAR WIII 061600Z 26005KT 4000 BR FEW020CB SCT022 BKN037 25/24 Q1009 CB TO NE=
06/04/2013 16:30:00Z	 SAID31 WIII 061630	METAR WIII 061630Z 27006KT 4000 -DZ FEW020CB SCT022 25/24 Q1009 CB TO NE=
06/04/2013 17:00:00Z	 SAID31 WIII 061700	METAR WIII 061700Z 27005KT 4000 -DZ SCT022 25/24 Q1008=
06/04/2013 17:30:00Z	 SAID31 WIII 061730	METAR WIII 061730Z VRB02KT 6000 FEW018 BKN100 25/24 Q1008 REDZ=
06/04/2013 18:00:00Z	 SAID31 WIII 061800	METAR WIII 061800Z 25004KT 3000 BR SCT018 BKN120 25/24 Q1007=
06/04/2013 18:30:00Z	 SAID31 WIII 061830	METAR WIII 061830Z 28003KT 2500 BR SCT018 BKN120 25/24 Q1007=
06/04/2013 19:00:00Z	 SAID31 WIII 061900	METAR WIII 061900Z 24004KT 2000 BR SCT018 BKN120 25/24 Q1006=
06/04/2013 19:30:00Z	 SAID31 WIII 061930	METAR WIII 061930Z 22003KT 3000 BR FEW022 BKN140 25/24 Q1006=
06/04/2013 20:00:00Z	 SAID31 WIII 062000	METAR WIII 062000Z 25004KT 3500 BR BKN018 OVC140 25/24 Q1006=
06/04/2013 20:30:00Z	 SAID31 WIII 062030	METAR WIII 062030Z 25004KT 2500 BR SCT017 BKN140 25/24 Q1006=
06/04/2013 21:00:00Z	 SAID31 WIII 062100	METAR WIII 062100Z 21004KT 4000 BR BKN025 25/24 Q1006=
06/04/2013 21:30:00Z	 SAID31 WIII 062130	METAR WIII 062130Z 21004KT 4800 BR FEW030 BKN085 25/24 Q1006=
06/04/2013 22:00:00Z	 SAID31 WIII 062200	METAR WIII 062200Z 21005KT 4500 BR SCT023 25/24 Q1006=
06/04/2013 22:30:00Z	 SAID31 WIII 062230	METAR WIII 062230Z 24004KT 4600 BR SCT023 25/24 Q1006=
06/04/2013 23:00:00Z	 SAID31 WIII 062300	METAR WIII 062300Z 25005KT 6000 FEW023 SCT140 25/24 Q1007=
06/04/2013 23:30:00Z	 SAID31 WIII 062330	METAR WIII 062330Z 22004KT 6000 FEW023 SCT150 BKN210 25/24 Q1007=
07/04/2013 00:00:00Z	 SAID31 WIII 070000	METAR WIII 070000Z 21006KT 6000 FEW023 BKN220 26/24 Q1007=
07/04/2013 00:30:00Z	 SAID31 WIII 070030	METAR WIII 070030Z AUTO 23005KT 9999 FEW220 26/24 Q1008=
07/04/2013 01:00:00Z	 SAID31 WIII 070100	METAR WIII 070100Z 21005KT 9999 FEW024 27/24 Q1008=
07/04/2013 01:30:00Z	 SAID31 WIII 070130	METAR WIII 070130Z 25005KT 9999 FEW024 28/24 Q1008=
07/04/2013 02:00:00Z	 SAID31 WIII 070200	METAR WIII 070200Z 27005KT 9999 FEW024 28/24 Q1008=
07/04/2013 02:30:00Z	 SAID31 WIII 070230	METAR WIII 070230Z 00000KT 9999 FEW024 29/23 Q1008=
07/04/2013 03:00:00Z	 SAID31 WIII 070300	METAR WIII 070300Z 15003KT 9999 FEW024 29/24 Q1008=
07/04/2013 03:30:00Z	 SAID31 WIII 070330	METAR WIII 070330Z 14003KT 9999 FEW024 29/24 Q1008=
07/04/2013 04:00:00Z	 SAID31 WIII 070400	METAR WIII 070400Z 18006KT 9999 FEW024 30/24 Q1008=
07/04/2013 04:30:00Z	 SAID31 WIII 070430	METAR WIII 070430Z 19004KT 9999 FEW024 29/24 Q1008=
07/04/2013 05:00:00Z	 SAID31 WIII 070500	METAR WIII 070500Z 31002KT 9999 FEW024 29/24 Q1007=
07/04/2013 05:30:00Z	 SAID31 WIII 070530	METAR WIII 070530Z 31003KT 9999 FEW024 29/24 Q1007=
07/04/2013 06:00:00Z	 SAID31 WIII 070600	METAR WIII 070600Z 02004KT 9999 SCT024 29/25 Q1006=
07/04/2013 06:30:00Z	 SAID31 WIII 070630	METAR WIII 070630Z 34004KT 9999 SCT026 29/24 Q1006=
07/04/2013 07:00:00Z	 SAID31 WIII 070700	METAR WIII 070700Z 33004KT 9999 SCT024 29/24 Q1006=
07/04/2013 07:30:00Z	 SAID31 WIII 070730	METAR WIII 070730Z 36005KT 9999 FEW024 29/24 Q1006=
07/04/2013 08:00:00Z	 SAID31 WIII 070800	METAR WIII 070800Z 01005KT 9999 FEW024 29/24 Q1005=
07/04/2013 08:30:00Z	 SAID31 WIII 070830	METAR WIII 070830Z 01006KT 9999 FEW024 29/24 Q1005=
07/04/2013 09:00:00Z	 SAID31 WIII 070900	METAR WIII 070900Z 01005KT 9999 FEW024 29/25 Q1006=
07/04/2013 09:30:00Z	 SAID31 WIII 070930	METAR WIII 070930Z 32004KT 9999 FEW024 28/24 Q1006=
07/04/2013 10:00:00Z	 SAID31 WIII 071000	METAR WIII 071000Z 01003KT 9999 FEW024 28/25 Q1006=
07/04/2013 10:30:00Z	 SAID31 WIII 071030	METAR WIII 071030Z 03002KT 9999 FEW021CB FEW024 28/25 Q1007 CB TO SE AND S=
07/04/2013 11:00:00Z	 SAID31 WIII 071100	METAR WIII 071100Z 00000KT 9999 BKN019 27/25 Q1007=
07/04/2013 11:30:00Z	 SAID31 WIII 071130	METAR WIII 071130Z 35002KT 9999 SCT017 -RA 27/25 Q1008=
07/04/2013 12:30:00Z	 SAID31 WIII 071230	METAR WIII 071230Z AUTO 00000KT 9999 FEW025 BKN140 27/24 Q1008=
07/04/2013 13:00:00Z	 SAID31 WIII 071300	METAR WIII 071300Z AUTO VRB03KT 9999 BKN023 BKN027 BKN033 27/25 Q1008=
07/04/2013 13:30:00Z	 SAID31 WIII 071330	METAR WIII 071330Z VRB02KT 9000 SCT019 BKN025 27/25 Q1009=
07/04/2013 14:00:00Z	 SAID31 WIII 071400	METAR WIII 071400Z VRB04KT 8000 SCT020 28/25 Q1009=
07/04/2013 14:30:00Z	 SAID31 WIII 071430	METAR WIII 071430Z AUTO VRB04KT 8000 SCT018 BKN028 BKN055 OVC150 28/2 5 Q1009=
07/04/2013 15:00:00Z	 SAID31 WIII 071500	METAR WIII 071500Z AUTO VRB04KT 9000 FEW024 BKN150 27/25 Q1009=
07/04/2013 15:30:00Z	 SAID31 WIII 071530	METAR WIII 071530Z 12005KT 7000 FEW021 27/24 Q1009=
07/04/2013 16:00:00Z	 SAID31 WIII 071600	METAR WIII 071600Z VRB02KT 4200 -TSRA SCT018CB SCT020 27/25 Q1010 CB TO W=
07/04/2013 16:30:00Z	 SAID31 WIII 071630	METAR WIII 071630Z VRB02KT 3100 TSRA SCT018CB SCT020 27/25 Q1010 CB O VER THE FIELDS=
07/04/2013 17:00:00Z	 SAID31 WIII 071700	METAR WIII 071700Z 19003KT 3400 -RA SCT020 26/25 Q1009=
07/04/2013 17:30:00Z	 SAID31 WIII 071730	METAR WIII 071730Z 14004KT 3100 -RA SCT020 26/25 Q1009=
07/04/2013 18:00:00Z	 SAID31 WIII 071800	METAR WIII 071800Z 17004KT 4900 BR SCT020 26/25 Q1009=
07/04/2013 18:30:00Z	 SAID31 WIII 071830	METAR WIII 071830Z 17004KT 6000 -RA SCT020 25/24 Q1008=
07/04/2013 19:00:00Z	 SAID31 WIII 071900	METAR WIII 071900Z 15004KT 4400 -RA SCT020 25/24 Q1008=
07/04/2013 19:30:00Z	 SAID31 WIII 071930	METAR WIII 071930Z 17005KT 4900 BR SCT020 25/24 Q1007=
07/04/2013 20:00:00Z	 SAID31 WIII 072000	METAR WIII 072000Z 16003KT 6000 SCT020 25/24 Q1007=
07/04/2013 20:30:00Z	 SAID31 WIII 072030	METAR WIII 072030Z VRB03KT 6000 SCT021 25/24 Q1007=
07/04/2013 21:00:00Z	 SAID31 WIII 072100	METAR WIII 072100Z 15003KT 4400 BR SCT021 25/24 Q1007=
07/04/2013 21:30:00Z	 SAID31 WIII 072130	METAR WIII 072130Z 15004KT 5000 FEW022 25/24 Q1007=
07/04/2013 22:00:00Z	 SAID31 WIII 072200	METAR WIII 072200Z 12003KT 6000 SCT022 25/24 Q1007=
07/04/2013 22:30:00Z	 SAID31 WIII 072230	METAR WIII 072230Z 00000KT 6000 VCTS FEW020CB SCT021 25/24 Q1007 CB T O NW=
07/04/2013 23:00:00Z	 SAID31 WIII 072300	METAR WIII 072300Z 00000KT 7000 FEW022 25/24 Q1008=
07/04/2013 23:30:00Z	 SAID31 WIII 072330	METAR WIII 072330Z 00000KT 4900 BR SCT022 25/24 Q1008=
08/04/2013 00:00:00Z	 SAID31 WIII 080000	METAR WIII 080000Z VRB04KT 7000 FEW020 25/24 Q1008=
08/04/2013 00:30:00Z	 SAID31 WIII 080030	METAR WIII 080030Z VRB02KT 7000 FEW021 26/24 Q1009=
08/04/2013 01:00:00Z	 SAID31 WIII 080100	METAR WIII 080100Z 12002KT 8000 FEW024 27/24 Q1009=
08/04/2013 01:30:00Z	 SAID31 WIII 080130	METAR WIII 080130Z 17003KT 9000 FEW024 28/23 Q1009=
08/04/2013 02:00:00Z	 SAID31 WIII 080200	METAR WIII 080200Z 06003KT 8000 FEW024 28/23 Q1009=
08/04/2013 02:30:00Z	 SAID31 WIII 080230	METAR WIII 080230Z 06004KT 8000 FEW024 29/23 Q1009=
08/04/2013 03:00:00Z	 SAID31 WIII 080300	METAR WIII 080300Z 07003KT 8000 FEW024 29/24 Q1009=
08/04/2013 03:30:00Z	 SAID31 WIII 080330	METAR WIII 080330Z 06004KT 8000 FEW024 30/24 Q1009=
08/04/2013 04:00:00Z	 SAID31 WIII 080400	METAR WIII 080400Z 03006KT 9999 FEW024 31/24 Q1008=
08/04/2013 04:30:00Z	 SAID31 WIII 080430	METAR WIII 080430Z 03006KT 9999 FEW024 31/23 Q1008=
08/04/2013 05:00:00Z	 SAID31 WIII 080500	METAR WIII 080500Z 03005KT 9999 FEW024 30/22 Q1007=
08/04/2013 05:30:00Z	 SAID31 WIII 080530	METAR WIII 080530Z AUTO 05007KT 9999 NCD 31/23 Q1007=
08/04/2013 06:00:00Z	 SAID31 WIII 080600	METAR WIII 080600Z AUTO 9999 NCD 31/23 Q1006=
08/04/2013 06:30:00Z	 SAID31 WIII 080630	METAR WIII 080630Z 03005KT 9999 FEW024 31/24 Q1006=
08/04/2013 07:00:00Z	 SAID31 WIII 080700	METAR WIII 080700Z 36007KT 9999 FEW024 32/24 Q1005=
08/04/2013 07:30:00Z	 SAID31 WIII 080730	METAR WIII 080730Z 34003KT 9999 FEW024 31/24 Q1005=
08/04/2013 08:00:00Z	 SAID31 WIII 080800	METAR WIII 080800Z 34006KT 9999 FEW024 32/24 Q1005=
08/04/2013 08:30:00Z	 SAID31 WIII 080830	METAR WIII 080830Z 35006KT 9999 FEW024 32/24 Q1005=
08/04/2013 09:00:00Z	 SAID31 WIII 080900	METAR WIII 080900Z 32005KT 9999 FEW024 31/24 Q1005=
08/04/2013 09:30:00Z	 SAID31 WIII 080930	METAR WIII 080930Z 36004KT 9999 FEW024 31/24 30/25 Q1005=
08/04/2013 10:00:00Z	 SAID31 WIII 081000	METAR WIII 081000Z 34005KT 9999 FEW024 30/24 Q1006=
08/04/2013 10:30:00Z	 SAID31 WIII 081030	METAR WIII 081030Z 35004KT 9000 FEW024 29/24 Q1007=
08/04/2013 11:00:00Z	 SAID31 WIII 081100	METAR WIII 081100Z 32003KT 9000 -RA FEW024 BKN050 29/24 Q1007=
08/04/2013 11:30:00Z	 SAID31 WIII 081130	METAR WIII 081130Z 33002KT 9999 FEW024 29/25 Q1007=
08/04/2013 12:00:00Z	 SAID31 WIII 081200	METAR WIII 081200Z 34002KT 8000 FEW024 29/25 Q1008=
08/04/2013 12:30:00Z	 SAID31 WIII 081230	METAR WIII 081230Z 30004KT 7000 SCT024 BKN075 OVC093 29/25=
08/04/2013 13:00:00Z	 SAID31 WIII 081300	METAR WIII 081300Z 31003KT 7000 SCT024 BKN065 28/25 Q1009=
08/04/2013 13:30:00Z	 SAID31 WIII 081330	METAR WIII 081330Z VRB03KT 7000 FEW024 BKN090 29/25 Q1009=
08/04/2013 14:00:00Z	 SAID31 WIII 081400	METAR WIII 081400Z 25005KT 7000 FEW024 28/25 Q1009 NOSIG=
08/04/2013 14:30:00Z	 SAID31 WIII 081430	METAR WIII 081430Z 25005KT 4000 HZ FEW022 27/25 Q1009=
08/04/2013 15:00:00Z	 SAID31 WIII 081500	METAR WIII 081500Z 25004KT 4000 HZ SCT022 BKN090 27/25 Q1010=
08/04/2013 15:30:00Z	 SAID31 WIII 081530	METAR WIII 081530Z 21003KT 4000 HZ FEW022 SCT085 27/25 Q1010 NOSIG=
08/04/2013 16:00:00Z	 SAID31 WIII 081600	METAR WIII 081600Z 18002KT 4000 HZ FEW022 27/25 Q1010 NOSIG=
08/04/2013 17:00:00Z	 SAID31 WIII 081700	METAR WIII 081700Z 23003KT 3300 HZ FEW022 BKN070 27/25 Q1010=
08/04/2013 17:30:00Z	 SAID31 WIII 081730	METAR WIII 081730Z 21004KT 4500 HZ FEW023 SCT070 27/24 Q1009=
08/04/2013 18:00:00Z	 SAID31 WIII 081800	METAR WIII 081800Z 22005KT 4600 HZ FEW023 BKN065 27/24 Q1009=
08/04/2013 18:30:00Z	 SAID31 WIII 081830	METAR WIII 081830Z 21004KT 4800 HZ FEW023 27/24 Q1008=
08/04/2013 19:00:00Z	 SAID31 WIII 081900	METAR WIII 081900Z 22008KT 6000 FEW023 BKN160 27/24 Q1008=
08/04/2013 19:30:00Z	 SAID31 WIII 081930	METAR WIII 081930Z 21008KT 6000 SCT023 BKN100 27/23 Q1008=
08/04/2013 20:00:00Z	 SAID31 WIII 082000	METAR WIII 082000Z 23006KT 6000 FEW023 BKN180 26/23 Q1008=
08/04/2013 20:30:00Z	 SAID31 WIII 082030	METAR WIII 082030Z 26004KT 6000 FEW022 SCT065 25/23 Q1008=
08/04/2013 21:00:00Z	 SAID31 WIII 082100	METAR WIII 082100Z 22005KT 6000 FEW023 SCT075 BKN110 25/23 Q1008=
08/04/2013 21:30:00Z	 SAID31 WIII 082130	METAR WIII 082130Z 24005KT 6000 FEW022 SCT075 BKN100 26/24 Q1008=
08/04/2013 22:00:00Z	 SAID31 WIII 082200	METAR WIII 082200Z 22004KT 6000 FEW022 BKN070 25/24 Q1008=
08/04/2013 22:30:00Z	 SAID31 WIII 082230	METAR WIII 082230Z 28003KT 6000 FEW022 BKN087 26/24 Q1008=
08/04/2013 23:00:00Z	 SAID31 WIII 082300	METAR WIII 082300Z 22005KT 4800 BR FEW020CB SCT022 BKN065 26/24 Q1008 CB TO SW=
08/04/2013 23:30:00Z	 SAID31 WIII 082330	METAR WIII 082330Z 23006KT 4600 BR FEW020CB SCT023 BKN100 26/24 Q1009 CB TO N AND S=
09/04/2013 00:00:00Z	 SAID31 WIII 090000	METAR WIII 090000Z 18009KT 6000 FEW020CB SCT022 BKN080 26/24 Q1009 CB TO NE=
09/04/2013 00:30:00Z	 SAID31 WIII 090030	METAR WIII 090030Z 23005KT 6000 FEW020CB SCT022 BKN080 27/24 Q1010 CB TO NE=
09/04/2013 01:00:00Z	 SAID31 WIII 090100	METAR WIII 090100Z AUTO 20006KT 9999 SCT065 BKN078 27/24 Q1010=
09/04/2013 01:30:00Z	 SAID31 WIII 090130	METAR WIII 090130Z 23006KT 9999 FEW020 28/24 Q1010=
09/04/2013 02:00:00Z	 SAID31 WIII 090200	METAR WIII 090200Z VRB04KT 9999 FEW020 29/24 Q1010=
09/04/2013 02:30:00Z	 SAID31 WIII 090230	METAR WIII 090230Z VRB03KT 9999 FEW020 30/24 Q1010=
09/04/2013 03:00:00Z	 SAID31 WIII 090300	METAR WIII 090300Z VRB03KT 9999 FEW020 30/24 Q1010=
09/04/2013 03:30:00Z	 SAID31 WIII 090330	METAR WIII 090330Z AUTO VRB03KT 9999 NCD 30/24 Q1009=
09/04/2013 04:00:00Z	 SAID31 WIII 090400	METAR WIII 090400Z 03005KT 9999 FEW020 31/24 Q1009=
09/04/2013 04:30:00Z	 SAID31 WIII 090430	METAR WIII 090430Z AUTO 03005KT 9999 NCD 30/24 Q1008=
09/04/2013 05:00:00Z	 SAID31 WIII 090500	METAR WIII 090500Z AUTO VRB05KT 9999 NCD 31/24 Q1008=
09/04/2013 05:30:00Z	 SAID31 WIII 090530	METAR WIII 090530Z AUTO VRB05KT 9999 NCD 30/24 Q1007=
09/04/2013 06:00:00Z	 SAID31 WIII 090600	METAR WIII 090600Z AUTO VRB03KT 9999 NCD 31/25 Q1007=
09/04/2013 06:30:00Z	 SAID31 WIII 090630	METAR WIII 090630Z AUTO 35007KT 9999 NCD 31/25 Q1007=
09/04/2013 07:00:00Z	 SAID31 WIII 090700	METAR WIII 090700Z AUTO 36006KT 9999 NCD 31/24 Q1006=
09/04/2013 07:30:00Z	 SAID31 WIII 090730	METAR WIII 090730Z AUTO VRB04KT 9999 NCD 31/24 Q1005=
09/04/2013 08:00:00Z	 SAID31 WIII 090800	METAR WIII 090800Z AUTO 35006KT 9999 NCD 32/24 Q1005=
09/04/2013 08:30:00Z	 SAID31 WIII 090830	METAR WIII 090830Z AUTO 36006KT 9999 NCD 31/23 Q1005=
09/04/2013 09:00:00Z	 SAID31 WIII 090900	METAR WIII 090900Z VRB05KT 9999 FEW020 31/23 Q1005=
09/04/2013 09:30:00Z	 SAID31 WIII 090930	METAR WIII 090930Z AUTO 32007KT 9999 NCD 30/23 Q1005=
09/04/2013 10:00:00Z	 SAID31 WIII 091000	METAR WIII 091000Z AUTO VRB04KT 9999 NCD 30/23 Q1006=
09/04/2013 10:30:00Z	 SAID31 WIII 091030	METAR WIII 091030Z AUTO 36005KT 9999 NCD 29/23 Q1006=
09/04/2013 11:00:00Z	 SAID31 WIII 091100	METAR WIII 091100Z VRB03KT 9000 FEW018 29/24 Q1007=
09/04/2013 11:30:00Z	 SAID31 WIII 091130	METAR WIII 091130Z 36002KT 8000 SCT020 28/24 Q1008=
09/04/2013 12:00:00Z	 SAID31 WIII 091200	METAR WIII 091200Z AUTO VRB02KT 8000 FEW250 28/24 Q1008=
09/04/2013 12:30:00Z	 SAID31 WIII 091230	METAR WIII 091230Z AUTO VRB02KT 9999 SCT250 28/24 Q1009=
09/04/2013 13:00:00Z	 SAID31 WIII 091300	METAR WIII 091300Z AUTO 26002KT 9999 FEW028 28/25 Q1009=
09/04/2013 13:30:00Z	 SAID31 WIII 091330	METAR WIII 091330Z VRB02KT 9000 FEW021 28/24 Q1010=
09/04/2013 14:00:00Z	 SAID31 WIII 091400	METAR WIII 091400Z AUTO VRB03KT 9999 NCD 28/24 Q1010=
09/04/2013 14:30:00Z	 SAID31 WIII 091430	METAR WIII 091430Z VRB03KT 9000 FEW022 28/25 Q1010=
09/04/2013 15:00:00Z	 SAID31 WIII 091500	METAR WIII 091500Z 28004KT 7000 FEW022 28/24 Q1010=
09/04/2013 15:30:00Z	 SAID31 WIII 091530	METAR WIII 091530Z 26004KT 7000 FEW021 28/24 Q1010=
09/04/2013 16:00:00Z	 SAID31 WIII 091600	METAR WIII 091600Z 29004KT 7000 FEW021 28/24 Q1010=
09/04/2013 16:30:00Z	 SAID31 WIII 091630	METAR WIII 091630Z 27003KT 6000 FEW022 27/24 Q1010=
09/04/2013 17:00:00Z	 SAID31 WIII 091700	METAR WIII 091700Z 27004KT 7000 FEW022 27/24 Q1010=
09/04/2013 17:30:00Z	 SAID31 WIII 091730	METAR WIII 091730Z 27003KT 9000 FEW022 27/24 Q1009=
09/04/2013 18:30:00Z	 SAID31 WIII 091830	METAR WIII 091830Z 18005KT 8000 FEW022 27/24 Q1008=
09/04/2013 19:00:00Z	 SAID31 WIII 091900	METAR WIII 091900Z AUTO 19005KT 9999 FEW200 SCT240 27/24 Q1008=
09/04/2013 19:30:00Z	 SAID31 WIII 091930	METAR WIII 091930Z AUTO 21003KT 9999 FEW200 27/24 Q1008=
09/04/2013 20:00:00Z	 SAID31 WIII 092000	METAR WIII 092000Z AUTO 28003KT 9999 OVC090 27/24 Q1007=
09/04/2013 20:30:00Z	 SAID31 WIII 092030	METAR WIII 092030Z AUTO 33002KT 7000 OVC095 27/24 Q1007=
09/04/2013 21:00:00Z	 SAID31 WIII 092100	METAR WIII 092100Z AUTO 31003KT 9999 BKN090 OVC110 27/24 Q1007=
09/04/2013 21:30:00Z	 SAID31 WIII 092130	METAR WIII 092130Z AUTO 28003KT 5000 BKN070 OVC110 27/24 Q1007=
09/04/2013 22:00:00Z	 SAID31 WIII 092200	METAR WIII 092200Z AUTO 26002KT 9999 BKN070 OVC080 27/24 Q1008=
09/04/2013 22:30:00Z	 SAID31 WIII 092230	METAR WIII 092230Z AUTO 00000KT 8000 SCT065 BKN078 27/24 Q1008=
09/04/2013 23:00:00Z	 SAID31 WIII 092300	METAR WIII 092300Z VRB02KT 7000 FEW022 26/24 Q1008=
09/04/2013 23:30:00Z	 SAID31 WIII 092330	METAR WIII 092330Z 23005KT 9000 FEW022 27/24 Q1009=
10/04/2013 00:00:00Z	 SAID31 WIII 100000	METAR WIII 100000Z 23004KT 9000 FEW022 28/24 Q1009=
10/04/2013 00:30:00Z	 SAID31 WIII 100030	METAR WIII 100030Z 30003KT 9000 FEW022 28/24 Q1009=
10/04/2013 01:00:00Z	 SAID31 WIII 100100	METAR WIII 100100Z 29004KT 9000 FEW023 29/24 Q1009=
10/04/2013 01:30:00Z	 SAID31 WIII 100130	METAR WIII 100130Z 23005KT 8000 FEW024 29/25 Q1009=
10/04/2013 02:00:00Z	 SAID31 WIII 100200	METAR WIII 100200Z 28004KT 9999 FEW024 30/24 Q1009=
10/04/2013 02:30:00Z	 SAID31 WIII 100230	METAR WIII 100230Z 30005KT 9999 SCT024 29/24 Q1010=
10/04/2013 03:00:00Z	 SAID31 WIII 100300	METAR WIII 100300Z 01006KT 9000 FEW024 28/24 Q1010=
10/04/2013 03:30:00Z	 SAID31 WIII 100330	METAR WIII 100330Z 03007KT 9000 FEW021CB SCT024 29/25 Q1009 CB TO W=
10/04/2013 04:00:00Z	 SAID31 WIII 100400	METAR WIII 100400Z 02007KT 9000 FEW024 28/24 Q1009=
10/04/2013 04:30:00Z	 SAID31 WIII 100430	METAR WIII 100430Z 01009KT 9999 TS FEW021CB FEW024 30/23 Q1009 CB TO SW AND W=
10/04/2013 05:00:00Z	 SAID31 WIII 100500	METAR WIII 100500Z 35005KT 9999 VCTS FEW021CB FEW024 29/24 Q1008 CB T O SW=
10/04/2013 05:30:00Z	 SAID31 WIII 100530	METAR WIII 100530Z 34004KT 9999 FEW021CB FEW024 30/24 Q1008 CB TO S=
10/04/2013 06:00:00Z	 SAID31 WIII 100600	METAR WIII 100600Z 34005KT 9999 FEW021CB FEW024 29/24 Q1007 CB TO S=
10/04/2013 06:30:00Z	 SAID31 WIII 100630	METAR WIII 100630Z 25009KT 8000 BKN025 29/24 Q1007=
10/04/2013 07:00:00Z	 SAID31 WIII 100700	METAR WIII 100700Z 26006KT 9999 FEW024 29/24 Q1006=
10/04/2013 07:30:00Z	 SAID31 WIII 100730	METAR WIII 100730Z 26004KT 9999 FEW024 29/24 Q1006=
10/04/2013 08:00:00Z	 SAID31 WIII 100800	METAR WIII 100800Z 19003KT 9999 SCT024 29/24 Q1005=
10/04/2013 08:30:00Z	 SAID31 WIII 100830	METAR WIII 100830Z 23002KT 8000 BKN024 30/24 Q1005=
10/04/2013 09:00:00Z	 SAID31 WIII 100900	METAR WIII 100900Z 20004KT 9999 FEW024 30/23 Q1005=
10/04/2013 09:30:00Z	 SAID31 WIII 100930	METAR WIII 100930Z 13003KT 9000 FEW024 30/23 Q1005=
10/04/2013 10:00:00Z	 SAID31 WIII 101000	METAR WIII 101000Z AUTO VRB03KT 9999 FEW033 29/24 Q1006=
10/04/2013 10:30:00Z	 SAID31 WIII 101030	METAR WIII 101030Z 16003KT 7000 FEW024 29/24 Q1006=
10/04/2013 11:00:00Z	 SAID31 WIII 101100	METAR WIII 101100Z 21002KT 7000 FEW024 29/23 Q1007=
10/04/2013 11:30:00Z	 SAID31 WIII 101130	METAR WIII 101130Z 31002KT 6000 FEW024 28/24 Q1007=
10/04/2013 12:00:00Z	 SAID31 WIII 101200	METAR WIII 101200Z VRB02KT 5000 BR FEW018 28/25 Q1007=
10/04/2013 12:30:00Z	 SAID31 WIII 101230	METAR WIII 101230Z 03002KT 5000 BR SCT020 28/24 Q1008=
10/04/2013 13:00:00Z	 SAID31 WIII 101300	METAR WIII 101300Z 04002KT 5000 BR FEW018 28/24 Q1008=
10/04/2013 13:30:00Z	 SAID31 WIII 101330	METAR WIII 101330Z 12002KT 5000 BR FEW070 28/24 Q1009=
10/04/2013 14:00:00Z	 SAID31 WIII 101400	METAR WIII 101400Z 32002KT 5000 BR FEW020 28/25 Q1009=
10/04/2013 14:30:00Z	 SAID31 WIII 101430	METAR WIII 101430Z 22004KT 4000 BR FEW020 28/25 Q1009=
10/04/2013 15:00:00Z	 SAID31 WIII 101500	METAR WIII 101500Z VRB03KT 5000 BR FEW095 BKN170 SCT210 29/24 Q1009=
10/04/2013 15:30:00Z	 SAID31 WIII 101530	METAR WIII 101530Z 21007KT 4000 BR FEW140 SCT160 28/24 Q1009=
10/04/2013 16:00:00Z	 SAID31 WIII 101600	METAR WIII 101600Z 26008KT 4000 BR FEW020 27/24 Q1010=
10/04/2013 16:30:00Z	 SAID31 WIII 101630	METAR WIII 101630Z 25011KT 4000 BR FEW018 26/24 Q1010=
10/04/2013 17:00:00Z	 SAID31 WIII 101700	METAR WIII 101700Z 20007KT 3000 RA OVC020 26/24 Q1010=
10/04/2013 17:30:00Z	 SAID31 WIII 101730	METAR WIII 101730Z 24006KT 3000 -RA OVC020 25/24 Q1009=
10/04/2013 18:00:00Z	 SAID31 WIII 101800	METAR WIII 101800Z 23008KT 3000 -RA FEW016CB OVC022 25/24 Q1009 CB TO N=
10/04/2013 18:30:00Z	 SAID31 WIII 101830	METAR WIII 101830Z 23008KT 3000 RA OVC020 25/23 Q1008=
10/04/2013 19:00:00Z	 SAID31 WIII 101900	METAR WIII 101900Z 22005KT 2000 RA OVC018 25/23 Q1008=
10/04/2013 19:30:00Z	 SAID31 WIII 101930	METAR WIII 101930Z 23003KT 3000 RA OVC018 25/23 Q1008=
10/04/2013 20:00:00Z	 SAID31 WIII 102000	METAR WIII 102000Z 14004KT 4000 BR BKN020 24/23 Q1008=
10/04/2013 20:30:00Z	 SAID31 WIII 102030	METAR WIII 102030Z 19002KT 4000 BR SCT020 24/23 Q1007=
10/04/2013 21:00:00Z	 SAID31 WIII 102100	METAR WIII 102100Z 18003KT 4000 BR SCT020 24/23 Q1008=
10/04/2013 21:30:00Z	 SAID31 WIII 102130	METAR WIII 102130Z AUTO 10002KT 9999 OVC075 24/23 Q1007=
10/04/2013 22:00:00Z	 SAID31 WIII 102200	METAR WIII 102200Z AUTO 00000KT 9999 OVC070 25/23 Q1007=
10/04/2013 22:30:00Z	 SAID31 WIII 102230	METAR WIII 102230Z AUTO 36003KT 9999 OVC070 25/23 Q1008=
10/04/2013 23:00:00Z	 SAID31 WIII 102300	METAR WIII 102300Z 00000KT 5000 BR SCT020 25/24 Q1008=
10/04/2013 23:30:00Z	 SAID31 WIII 102330	METAR WIII 102330Z AUTO 00000KT 7000 FEW085 25/23 Q1008=
11/04/2013 00:00:00Z	 SAID31 WIII 110000	METAR WIII 110000Z VRB02KT 5000 BR BKN065 BKN083 25/24 Q1009=
11/04/2013 00:30:00Z	 SAID31 WIII 110030	METAR WIII 110030Z AUTO 32002KT 9999 BKN070 BKN083 26/24 Q1009=
11/04/2013 01:00:00Z	 SAID31 WIII 110100	METAR WIII 110100Z 27004KT 3000 BR BKN020 26/24 Q1009=
11/04/2013 01:30:00Z	 SAID31 WIII 110130	METAR WIII 110130Z 19003KT 4000 BR BKN020 27/24 Q1009=
11/04/2013 02:00:00Z	 SAID31 WIII 110200	METAR WIII 110200Z 22005KT 3000 HZ BKN020 28/24 Q1009=
11/04/2013 02:30:00Z	 SAID31 WIII 110230	METAR WIII 110230Z 23005KT 3000 HZ OVC020 28/24 Q1009=
11/04/2013 03:00:00Z	 SAID31 WIII 110300	METAR WIII 110300Z 26006KT 4000 HZ BKN020 29/25 Q1009=
11/04/2013 03:30:00Z	 SAID31 WIII 110330	METAR WIII 110330Z AUTO 29004KT 9999 BKN055 29/25 Q1009=
11/04/2013 04:00:00Z	 SAID31 WIII 110400	METAR WIII 110400Z AUTO 28007KT 9999 SCT055 30/25 Q1009=
11/04/2013 04:30:00Z	 SAID31 WIII 110430	METAR WIII 110430Z AUTO 29006KT 9999 FEW055 30/25 Q1008=
11/04/2013 05:00:00Z	 SAID31 WIII 110500	METAR WIII 110500Z 29007KT 7000 SCT018 31/25 Q1008=
11/04/2013 05:30:00Z	 SAID31 WIII 110530	METAR WIII 110530Z 29006KT 8000 SCT018 31/25 Q1007=
11/04/2013 06:00:00Z	 SAID31 WIII 110600	METAR WIII 110600Z 32009KT 7000 SCT020 31/25 Q1007=
11/04/2013 06:30:00Z	 SAID31 WIII 110630	METAR WIII 110630Z 32010KT 9999 SCT020 31/25 Q1006=
11/04/2013 07:00:00Z	 SAID31 WIII 110700	METAR WIII 110700Z 32012KT 9999 SCT018 31/25 Q1006=
11/04/2013 07:30:00Z	 SAID31 WIII 110730	METAR WIII 110730Z 32010KT 8000 FEW018CB SCT020 31/24 Q1006 CB TO E=
11/04/2013 08:00:00Z	 SAID31 WIII 110800	METAR WIII 110800Z 34010KT 8000 FEW016CB BKN018 30/25 Q1006 CB TO E A ND SE=
11/04/2013 08:30:00Z	 SAID31 WIII 110830	METAR WIII 110830Z 32009KT 7000 VCTS BKN016CB BKN018 30/25 Q1005 CB A LL RWY=
11/04/2013 09:30:00Z	 SAID31 WIII 110930	METAR WIII 110930Z 28004KT 6000 HZ FEW016CB BKN018 30/25 Q1005 RE TSR A CB TO SE AND W=
11/04/2013 10:00:00Z	 SAID31 WIII 111000	METAR WIII 111000Z 27005KT 4000 RA FEW016CB BKN018 27/25 Q1006 CB TO SE=
11/04/2013 10:30:00Z	 SAID31 WIII 111030	METAR WIII 111030Z VRB02KT 5000 FEW016CB BKN018 28/26 Q1006 CB TO SE=
11/04/2013 11:00:00Z	 SAID31 WIII 111100	METAR WIII 111100Z 20005KT 5000 HZ FEW016CB BKN018 28/26 Q1007 CB TO SE=
11/04/2013 11:30:00Z	 SAID31 WIII 111130	METAR WIII 111130Z 22008KT 5000 BR BKN018 28/25 Q1007=
11/04/2013 12:00:00Z	 SAID31 WIII 111200	METAR WIII 111200Z 25008KT 5000 HZ SCT018 28/24 Q1008=
11/04/2013 12:30:00Z	 SAID31 WIII 111230	METAR WIII 111230Z 24008KT 6000 SCT019 27/24 Q1008=
11/04/2013 13:00:00Z	 SAID31 WIII 111300	METAR WIII 111300Z 24008KT 5000 -DZ SCT019 BKN170 27/24 Q1008=
11/04/2013 13:30:00Z	 SAID31 WIII 111330	METAR WIII 111330Z 23007KT 7000 FEW018CB SCT019 BKN180 28/24 Q1009 CB TO NE=
11/04/2013 14:00:00Z	 SAID31 WIII 111400	METAR WIII 111400Z 21007KT 7000 SCT020 BKN140 28/23 Q1009=
11/04/2013 14:30:00Z	 SAID31 WIII 111430	METAR WIII 111430Z 23006KT 7000 SCT020 BKN170 28/23 Q1009=
11/04/2013 15:00:00Z	 SAID31 WIII 111500	METAR WIII 111500Z 23007KT 7000 FEW020 SCT150 BKN180 28/23 Q1009=
11/04/2013 15:30:00Z	 SAID31 WIII 111530	METAR WIII 111530Z 24007KT 7000 FEW020 BKN180 28/23 Q1009=
11/04/2013 16:00:00Z	 SAID31 WIII 111600	METAR WIII 111600Z 25007KT 6000 FEW020 BKN190 26/24 Q1009=
11/04/2013 16:30:00Z	 SAID31 WIII 111630	METAR WIII 111630Z 22009KT 6000 SCT020 BKN180 28/23 Q1009=
11/04/2013 17:00:00Z	 SAID31 WIII 111700	METAR WIII 111700Z 21006KT 7000 FEW020 BKN180 27/23 Q1009=
11/04/2013 17:30:00Z	 SAID31 WIII 111730	METAR WIII 111730Z 23007KT 7000 FEW020 OVC180 27/22 Q1008=
11/04/2013 18:00:00Z	 SAID31 WIII 111800	METAR WIII 111800Z 22004KT 7000 FEW020 BKN180 28/22 Q1008=
11/04/2013 18:30:00Z	 SAID31 WIII 111830	METAR WIII 111830Z 26005KT 7000 FEW022 27/23 Q1008=
11/04/2013 19:00:00Z	 SAID31 WIII 111900	METAR WIII 111900Z VRB02KT 7000 FEW020 BKN150 26/23 Q1007=
11/04/2013 19:30:00Z	 SAID31 WIII 111930	METAR WIII 111930Z 30002KT 7000 FEW022 BKN170 26/23 Q1008=
11/04/2013 20:00:00Z	 SAID31 WIII 112000	METAR WIII 112000Z 30003KT 6000 FEW021 BKN160 26/23 Q1008=
11/04/2013 20:30:00Z	 SAID31 WIII 112030	METAR WIII 112030Z 27003KT 4700 HZ FEW021 BKN140 26/23 Q1007=
11/04/2013 21:00:00Z	 SAID31 WIII 112100	METAR WIII 112100Z 24005KT 4800 HZ FEW021 SCT160 BKN180 26/23 Q1007=
11/04/2013 21:30:00Z	 SAID31 WIII 112130	METAR WIII 112130Z 26005KT 4500 HZ FEW021 BKN170 BKN190 26/23 Q1007=
11/04/2013 22:00:00Z	 SAID31 WIII 112200	METAR WIII 112200Z 27006KT 4900 HZ SCT022 26/23 Q1008=
11/04/2013 22:30:00Z	 SAID31 WIII 112230	METAR WIII 112230Z 25007KT 6000 FEW020 BKN180 26/23 Q1008=
11/04/2013 23:00:00Z	 SAID31 WIII 112300	METAR WIII 112300Z 25007KT 6000 SCT020 BKN090 26/23 Q1008=
11/04/2013 23:30:00Z	 SAID31 WIII 112330	METAR WIII 112330Z 24009KT 6000 FEW020 SCT090 BKN110 26/23 Q1009=
12/04/2013 00:00:00Z	 SAID31 WIII 120000	METAR WIII 120000Z 26014KT 6000 FEW020CB SCT021 BKN088 26/23 Q1009 CB TO N=
12/04/2013 00:30:00Z	 SAID31 WIII 120030	METAR WIII 120030Z AUTO 23013KT 9999 OVC085 27/23 Q1009=
12/04/2013 01:00:00Z	 SAID31 WIII 120100	METAR WIII 120100Z AUTO 22009KT 9999 BKN090 OVC110 26/23 Q1009=
12/04/2013 01:30:00Z	 SAID31 WIII 120130	METAR WIII 120130Z 22009KT 9999 BKN020 27/23 Q1010=
12/04/2013 02:00:00Z	 SAID31 WIII 120200	METAR WIII 120200Z 26010KT 9999 SCT020 28/23 Q1010=
12/04/2013 02:30:00Z	 SAID31 WIII 120230	METAR WIII 120230Z 25009KT 9999 SCT020 29/23 Q1010=
12/04/2013 03:00:00Z	 SAID31 WIII 120300	METAR WIII 120300Z 24006G16KT 8000 SCT020 30/23 Q1010=
12/04/2013 03:30:00Z	 SAID31 WIII 120330	METAR WIII 120330Z 26012KT 9999 SCT020 30/23 Q1010=
12/04/2013 04:00:00Z	 SAID31 WIII 120400	METAR WIII 120400Z 26013KT 9999 SCT020 30/23 Q1009=
12/04/2013 04:30:00Z	 SAID31 WIII 120430	METAR WIII 120430Z 26010KT 9999 SCT020 30/23 Q1009=
12/04/2013 05:00:00Z	 SAID31 WIII 120500	METAR WIII 120500Z AUTO 27009KT 9999 SCT095 30/24 Q1008=
12/04/2013 05:30:00Z	 SAID31 WIII 120530	METAR WIII 120530Z AUTO 25008KT 9999 FEW095 30/24 Q1008=
12/04/2013 06:00:00Z	 SAID31 WIII 120600	METAR WIII 120600Z 29012KT 9999 SCT020 30/24 Q1007=
12/04/2013 06:30:00Z	 SAID31 WIII 120630	METAR WIII 120630Z 28013KT 9999 SCT020 31/24 Q1007=
12/04/2013 07:00:00Z	 SAID31 WIII 120700	METAR WIII 120700Z 26006G16KT 9999 FEW018CB SCT020 32/24 Q1006 CB TO SE=
12/04/2013 07:30:00Z	 SAID31 WIII 120730	METAR WIII 120730Z 28006G16KT 9999 BKN020 31/25 Q1006=
12/04/2013 08:00:00Z	 SAID31 WIII 120800	METAR WIII 120800Z 30013KT 9999 SCT020 31/25 Q1006=
12/04/2013 08:30:00Z	 SAID31 WIII 120830	METAR WIII 120830Z 30011KT 9999 SCT020 30/25 Q1006=
12/04/2013 09:00:00Z	 SAID31 WIII 120900	METAR WIII 120900Z 27013KT 9999 SCT020 30/25 Q1006=
12/04/2013 09:30:00Z	 SAID31 WIII 120930	METAR WIII 120930Z 21006G16KT 9999 SCT020 31/24 Q1006=
12/04/2013 10:00:00Z	 SAID31 WIII 121000	METAR WIII 121000Z 24013KT 8000 SCT020 30/24 Q1007=
12/04/2013 10:30:00Z	 SAID31 WIII 121030	METAR WIII 121030Z 24012KT 9999 FEW016CB SCT020 30/24 Q1007 CB TO E=
12/04/2013 11:00:00Z	 SAID31 WIII 121100	METAR WIII 121100Z 26011KT 8000 BKN020 29/23 Q1007=
12/04/2013 11:30:00Z	 SAID31 WIII 121130	METAR WIII 121130Z 24006G16KT 8000 SCT020 29/23 Q1008=
12/04/2013 12:00:00Z	 SAID31 WIII 121200	METAR WIII 121200Z 25010KT 8000 SCT020 29/23 Q1008=
12/04/2013 12:30:00Z	 SAID31 WIII 121230	METAR WIII 121230Z AUTO 25009KT 9999 FEW240 28/23 Q1008=
12/04/2013 13:00:00Z	 SAID31 WIII 121300	METAR WIII 121300Z 27007KT 8000 FEW022 28/24 Q1009=
12/04/2013 13:30:00Z	 SAID31 WIII 121330	METAR WIII 121330Z 28005KT 9000 FEW021 28/24 Q1009=
12/04/2013 14:00:00Z	 SAID31 WIII 121400	METAR WIII 121400Z 28004KT 9000 FEW021 28/24 Q1010=
12/04/2013 14:30:00Z	 SAID31 WIII 121430	METAR WIII 121430Z 27006KT 9000 FEW021 28/24 Q1011=
12/04/2013 15:00:00Z	 SAID31 WIII 121500	METAR WIII 121500Z 23013KT 9000 SCT021 27/24 Q1011=
12/04/2013 15:30:00Z	 SAID31 WIII 121530	METAR WIII 121530Z 23012KT 9000 SCT021 27/22 Q1011=
12/04/2013 16:00:00Z	 SAID31 WIII 121600	METAR WIII 121600Z 24013KT 8000 -RA SCT020 26/23 Q1011=
12/04/2013 16:30:00Z	 SAID31 WIII 121630	METAR WIII 121630Z 27008KT 9000 SCT021 26/23 Q1010=
12/04/2013 17:00:00Z	 SAID31 WIII 121700	METAR WIII 121700Z 25011KT 9000 SCT021 26/23 Q1010=
12/04/2013 17:30:00Z	 SAID31 WIII 121730	METAR WIII 121730Z 24010KT 9000 SCT021 26/23 Q1009=
12/04/2013 18:00:00Z	 SAID31 WIII 121800	METAR WIII 121800Z 25010KT 9000 SCT021 26/23 Q1009=
12/04/2013 18:30:00Z	 SAID31 WIII 121830	METAR WIII 121830Z 24009KT 9000 SCT021 26/23 Q1008=
12/04/2013 19:00:00Z	 SAID31 WIII 121900	METAR WIII 121900Z AUTO 25007KT 8000 SCT170 26/24 Q1008=
12/04/2013 19:30:00Z	 SAID31 WIII 121930	METAR WIII 121930Z AUTO 25009KT 9999 SCT170 25/24 Q1009=
12/04/2013 20:00:00Z	 SAID31 WIII 122000	METAR WIII 122000Z AUTO 25011KT 9999 SCT028 BKN040 OVC170 26/24 Q1009=
12/04/2013 20:30:00Z	 SAID31 WIII 122030	METAR WIII 122030Z AUTO 25012KT 9999 SCT026 SCT043 BKN050 BKN100 26/2 4 Q1009=
12/04/2013 21:00:00Z	 SAID31 WIII 122100	METAR WIII 122100Z 24009KT 9000 FEW021 25/24 Q1008=
12/04/2013 21:30:00Z	 SAID31 WIII 122130	METAR WIII 122130Z AUTO 25014KT 9999 BKN021 BKN030 BKN070 25/23 Q1009=
12/04/2013 22:00:00Z	 SAID31 WIII 122200	METAR WIII 122200Z AUTO 24012KT 9999 FEW016 SCT029 SCT036 BKN095 25/2 3 Q1009=
12/04/2013 22:30:00Z	 SAID31 WIII 122230	METAR WIII 122230Z 26011KT 9000 FEW021 25/23 Q1009=
12/04/2013 23:00:00Z	 SAID31 WIII 122300	METAR WIII 122300Z 25014KT 9999 FEW022 25/23 Q1009=
12/04/2013 23:30:00Z	 SAID31 WIII 122330	METAR WIII 122330Z 26010KT 9999 FEW022 25/23 Q1010=
13/04/2013 00:00:00Z	 SAID31 WIII 130000	METAR WIII 130000Z 28008KT 9999 FEW022 25/23 Q1010=
13/04/2013 00:30:00Z	 SAID31 WIII 130030	METAR WIII 130030Z AUTO 26008KT 9999 FEW120 25/23 Q1010=
13/04/2013 01:00:00Z	 SAID31 WIII 130100	METAR WIII 130100Z AUTO 25013KT 9999 NCD 27/23 Q1011=
13/04/2013 01:30:00Z	 SAID31 WIII 130130	METAR WIII 130130Z 24010KT 9999 FEW022 27/23 Q1011=
13/04/2013 02:00:00Z	 SAID31 WIII 130200	METAR WIII 130200Z 26012KT 9999 FEW022 28/24 Q1011=
13/04/2013 02:30:00Z	 SAID31 WIII 130230	METAR WIII 130230Z 25009KT 9999 FEW020 28/24 Q1011=
13/04/2013 03:00:00Z	 SAID31 WIII 130300	METAR WIII 130300Z 28010KT 9999 FEW022 28/24 Q1011=
13/04/2013 03:30:00Z	 SAID31 WIII 130330	METAR WIII 130330Z 26010KT 9999 NCD 29/24 Q1010=
13/04/2013 04:00:00Z	 SAID31 WIII 130400	METAR WIII 130400Z 27010KT 9999 BKN020 BKN025 29/24 Q1010=
13/04/2013 04:30:00Z	 SAID31 WIII 130430	METAR WIII 130430Z 26011KT 9999 SCT020 30/25 Q1010=
13/04/2013 05:00:00Z	 SAID31 WIII 130500	METAR WIII 130500Z 27011KT 9999 FEW022 SCT029 30/24 Q1009=
13/04/2013 05:30:00Z	 SAID31 WIII 130530	METAR WIII 130530Z 28013KT 9999 SCT018 31/24 Q1008=
13/04/2013 06:00:00Z	 SAID31 WIII 130600	METAR WIII 130600Z 25016KT 9999 SCT030 32/23 Q1008=
13/04/2013 06:30:00Z	 SAID31 WIII 130630	METAR WIII 130630Z AUTO 26016KT 9999 NCD 31/23 Q1007=
13/04/2013 07:00:00Z	 SAID31 WIII 130700	METAR WIII 130700Z AUTO 27011KT 9999 FEW031 31/25 Q1007=
13/04/2013 07:30:00Z	 SAID31 WIII 130730	METAR WIII 130730Z AUTO 27017KT 9999 FEW031 32/24 Q1006=
13/04/2013 08:00:00Z	 SAID31 WIII 130800	METAR WIII 130800Z AUTO 25018KT 9999 SCT039 31/23 Q1006=
13/04/2013 08:30:00Z	 SAID31 WIII 130830	METAR WIII 130830Z AUTO 25016KT 9999 FEW034 31/23 Q1006=
13/04/2013 09:00:00Z	 SAID31 WIII 130900	METAR WIII 130900Z 24017KT 9999 FEW022 31/23 Q1006=
13/04/2013 09:30:00Z	 SAID31 WIII 130930	METAR WIII 130930Z AUTO 26014KT 9999 FEW029 30/24 Q1007=
13/04/2013 10:00:00Z	 SAID31 WIII 131000	METAR WIII 131000Z AUTO 26015KT 9999 NCD 29/24 Q1007=
13/04/2013 10:30:00Z	 SAID31 WIII 131030	METAR WIII 131030Z AUTO 25016KT 9999 NCD 29/24 Q1007=
13/04/2013 11:00:00Z	 SAID31 WIII 131100	METAR WIII 131100Z 24012KT 9999 NCD 28/24 Q1008=
13/04/2013 11:30:00Z	 SAID31 WIII 131130	METAR WIII 131130Z 26009KT 9000 FEW022 28/24 Q1008=
13/04/2013 12:00:00Z	 SAID31 WIII 131200	METAR WIII 131200Z 25016KT 9000 FEW024 28/24 Q1008=
13/04/2013 12:30:00Z	 SAID31 WIII 131230	METAR WIII 131230Z 25014KT 8000 FEW024 27/24 Q1008=
13/04/2013 13:00:00Z	 SAID31 WIII 131300	METAR WIII 131300Z 25014KT 7000 FEW024 27/24 Q1009=
13/04/2013 13:30:00Z	 SAID31 WIII 131330	METAR WIII 131330Z 26013KT 8000 FEW024 27/24 Q1009=
13/04/2013 14:00:00Z	 SAID31 WIII 131400	METAR WIII 131400Z 26010KT 8000 FEW023 26/24 Q1009=
13/04/2013 14:30:00Z	 SAID31 WIII 131430	METAR WIII 131430Z 26014KT 8000 FEW023 26/24 Q1010 NOSIG=
13/04/2013 15:00:00Z	 SAID31 WIII 131500	METAR WIII 131500Z 26013KT 8000 FEW023 26/24 Q1010=
13/04/2013 15:30:00Z	 SAID31 WIII 131530	METAR WIII 131530Z 25013KT 8000 FEW023 26/24 Q1010=
13/04/2013 16:00:00Z	 SAID31 WIII 131600	METAR WIII 131600Z 26012KT 8000 FEW023 26/24 Q1010=
13/04/2013 16:30:00Z	 SAID31 WIII 131630	METAR WIII 131630Z 25011KT 8000 FEW024 26/24 Q1010=
13/04/2013 17:00:00Z	 SAID31 WIII 131700	METAR WIII 131700Z 26010KT 8000 FEW024 26/24 Q1010=
13/04/2013 17:30:00Z	 SAID31 WIII 131730	METAR WIII 131730Z 26008KT 7000 FEW023 26/24 Q1010=
13/04/2013 18:00:00Z	 SAID31 WIII 131800	METAR WIII 131800Z 27009KT 7000 FEW023 26/24 Q1009=
13/04/2013 18:30:00Z	 SAID31 WIII 131830	METAR WIII 131830Z 27007KT 7000 FEW022 26/24 Q1009=
13/04/2013 19:00:00Z	 SAID31 WIII 131900	METAR WIII 131900Z 27007KT 7000 FEW022 26/24 Q1009=
13/04/2013 19:30:00Z	 SAID31 WIII 131930	METAR WIII 131930Z 28006KT 7000 FEW022 25/24 Q1009=
13/04/2013 20:00:00Z	 SAID31 WIII 132000	METAR WIII 132000Z 26006KT 7000 FEW024 25/24 Q1009=
13/04/2013 20:30:00Z	 SAID31 WIII 132030	METAR WIII 132030Z 26005KT 7000 FEW024 25/24 Q1009 NOSIG=
13/04/2013 21:00:00Z	 SAID31 WIII 132100	METAR WIII 132100Z 27006KT 6000 FEW024 25/24 Q1009=
13/04/2013 21:30:00Z	 SAID31 WIII 132130	METAR WIII 132130Z 25006KT 6000 FEW024 25/24 Q1009=
13/04/2013 22:00:00Z	 SAID31 WIII 132200	METAR WIII 132200Z 24008KT 6000 FEW024 25/24 Q1009=
13/04/2013 22:30:00Z	 SAID31 WIII 132230	METAR WIII 132230Z 24007KT 7000 FEW023 25/24 Q1009 NOSIG=
13/04/2013 23:00:00Z	 SAID31 WIII 132300	METAR WIII 132300Z 23008KT 7000 FEW024 26/24 Q1009 NOSIG=
13/04/2013 23:30:00Z	 SAID31 WIII 132330	METAR WIII 132330Z 22008KT 8000 FEW024 26/24 Q1009 NOSIG=
14/04/2013 00:00:00Z	 SAID31 WIII 140000	METAR WIII 140000Z 24008KT 8000 FEW024 27/24 Q1010 NOSIG=
14/04/2013 00:30:00Z	 SAID31 WIII 140030	METAR WIII 140030Z 24010KT 8000 FEW024 28/24 Q1010=
14/04/2013 01:00:00Z	 SAID31 WIII 140100	METAR WIII 140100Z AUTO 25012KT 9999 BKN080 29/24 Q1010=
14/04/2013 01:30:00Z	 SAID31 WIII 140130	METAR WIII 140130Z 27005G15KT 9999 BKN020 29/24 Q1011=
14/04/2013 02:00:00Z	 SAID31 WIII 140200	METAR WIII 140200Z 25012KT 9999 SCT020 30/25 Q1011=
14/04/2013 02:30:00Z	 SAID31 WIII 140230	METAR WIII 140230Z 25010KT 9999 SCT020 30/25 Q1010=
14/04/2013 03:00:00Z	 SAID31 WIII 140300	METAR WIII 140300Z 25011KT 9999 SCT020 31/25 Q1010=
14/04/2013 03:30:00Z	 SAID31 WIII 140330	METAR WIII 140330Z 26010KT 9999 SCT020 32/25 Q1010=
14/04/2013 04:00:00Z	 SAID31 WIII 140400	METAR WIII 140400Z 25011KT 9999 SCT020 32/24 Q1009=
14/04/2013 04:30:00Z	 SAID31 WIII 140430	METAR WIII 140430Z 25005G15KT 9999 SCT020 33/25 Q1008=
14/04/2013 05:00:00Z	 SAID31 WIII 140500	METAR WIII 140500Z 23007KT 9999 BKN020 33/24 Q1008=
14/04/2013 05:30:00Z	 SAID31 WIII 140530	METAR WIII 140530Z 22008KT 9999 BKN020 32/24 Q1007=
14/04/2013 06:00:00Z	 SAID31 WIII 140600	METAR WIII 140600Z 26008KT 9999 BKN020 32/25 Q1007=
14/04/2013 06:30:00Z	 SAID31 WIII 140630	METAR WIII 140630Z 28008KT 9999 SCT020 33/25 Q1007=
14/04/2013 07:00:00Z	 SAID31 WIII 140700	METAR WIII 140700Z 33011KT 9999 SCT020 32/26 Q1006=
14/04/2013 07:30:00Z	 SAID31 WIII 140730	METAR WIII 140730Z 31009KT 9999 SCT020 33/26 Q1006=
14/04/2013 08:00:00Z	 SAID31 WIII 140800	METAR WIII 140800Z 29013KT 9999 SCT020 33/26 Q1005=
14/04/2013 08:30:00Z	 SAID31 WIII 140830	METAR WIII 140830Z 27011KT 9999 SCT020 33/26 Q1005=
14/04/2013 09:00:00Z	 SAID31 WIII 140900	METAR WIII 140900Z 28005G15KT 9999 BKN018 32/26 Q1005=
14/04/2013 09:30:00Z	 SAID31 WIII 140930	METAR WIII 140930Z 28008G18KT 8000 FEW016CB BKN018 31/25 Q1006 CB TO SE AND S=
14/04/2013 10:00:00Z	 SAID31 WIII 141000	METAR WIII 141000Z 26013G23KT 8000 FEW016CB BKN018 31/25 Q1006 CB TO SE=
14/04/2013 10:30:00Z	 SAID31 WIII 141030	METAR WIII 141030Z 25010G20KT 8000 FEW016CB BKN018 30/24 Q1007 CB TO SE AND S=
14/04/2013 11:30:00Z	 SAID31 WIII 141130	METAR WIII 141130Z 24010G20KT 4000 VCTS BKN016CB OVC018 29/24 Q1008 C B ALL RWY=
14/04/2013 12:00:00Z	 SAID31 WIII 141200	METAR WIII 141200Z 20009G19KT 4000 TSRA BKN016CB OVC018 29/23 Q1009 C B ALL RWY=
14/04/2013 12:30:00Z	 SAID31 WIII 141230	METAR WIII 141230Z 34005KT 4000 +TSRA BKN016CB OVC018 27/24 Q1009 CB ALL RWY=
14/04/2013 13:00:00Z	 SAID31 WIII 141300	METAR WIII 141300Z VRB04KT 6000 TSRA SCT019 SCT020 26/24 Q1009 CB OVER THE FIELDS=
14/04/2013 13:30:00Z	 SAID31 WIII 141330	METAR WIII 141330Z 23006KT 7000 -RA FEW020CB SCT020 26/24 Q1009 CB TO SE=
14/04/2013 14:00:00Z	 SAID31 WIII 141400	METAR WIII 141400Z 21008KT 8000 SCT020 27/24 Q1009=
14/04/2013 14:30:00Z	 SAID31 WIII 141430	METAR WIII 141430Z 22011KT 8000 SCT020 27/24 Q1009=
14/04/2013 15:00:00Z	 SAID31 WIII 141500	METAR WIII 141500Z 22008KT 8000 FEW022 27/24 Q1009=
14/04/2013 15:30:00Z	 SAID31 WIII 141530	METAR WIII 141530Z 22007KT 9000 FEW022 27/24 Q1009=
14/04/2013 16:00:00Z	 SAID31 WIII 141600	METAR WIII 141600Z 24008KT 9000 FEW022 27/23 Q1009=
14/04/2013 16:30:00Z	 SAID31 WIII 141630	METAR WIII 141630Z 23008KT 8000 SCT022 27/23 Q1009=
14/04/2013 17:00:00Z	 SAID31 WIII 141700	METAR WIII 141700Z 23010KT 9000 SCT022 27/23 Q1009=
14/04/2013 17:30:00Z	 SAID31 WIII 141730	METAR WIII 141730Z 23009KT 9000 FEW022 27/23 Q1009=
14/04/2013 18:00:00Z	 SAID31 WIII 141800	METAR WIII 141800Z 25007KT 8000 FEW022 26/24 Q1008=
14/04/2013 18:30:00Z	 SAID31 WIII 141830	METAR WIII 141830Z 23007KT 9000 FEW022 26/24 Q1008=
14/04/2013 19:00:00Z	 SAID31 WIII 141900	METAR WIII 141900Z 23008KT 9000 FEW022 27/24 Q1008=
14/04/2013 19:30:00Z	 SAID31 WIII 141930	METAR WIII 141930Z 23010KT 9000 FEW022 27/24 Q1008=
14/04/2013 20:00:00Z	 SAID31 WIII 142000	METAR WIII 142000Z AUTO 25010KT 9999 OVC090 27/23 Q1008=
14/04/2013 20:30:00Z	 SAID31 WIII 142030	METAR WIII 142030Z AUTO 26007KT 9999 OVC095 27/24 Q1007=
14/04/2013 21:00:00Z	 SAID31 WIII 142100	METAR WIII 142100Z 26006KT 6000 FEW022 26/24 Q1007=
14/04/2013 21:30:00Z	 SAID31 WIII 142130	METAR WIII 142130Z AUTO 26005KT 6000 OVC100 26/24 Q1007=
14/04/2013 22:00:00Z	 SAID31 WIII 142200	METAR WIII 142200Z AUTO 22009KT 9999 VCTS OVC100 27/24 Q1007=
14/04/2013 22:30:00Z	 SAID31 WIII 142230	METAR WIII 142230Z 25008KT 9999 SCT100 27/24 Q1008=
14/04/2013 23:00:00Z	 SAID31 WIII 142300	METAR WIII 142300Z 24009KT 9999 NCD 27/24 Q1008=
14/04/2013 23:30:00Z	 SAID31 WIII 142330	METAR WIII 142330Z 25008KT 9999 NCD 27/24 Q1008=
15/04/2013 00:00:00Z	 SAID31 WIII 150000	METAR WIII 150000Z 26010KT 9999 NCD 27/24 Q1009=
15/04/2013 00:30:00Z	 SAID31 WIII 150030	METAR WIII 150030Z 25013KT 9999 NCD 28/24 Q1009=
15/04/2013 01:00:00Z	 SAID31 WIII 150100	METAR WIII 150100Z 25013KT 9999 NCD 29/24 Q1009=
15/04/2013 01:30:00Z	 SAID31 WIII 150130	METAR WIII 150130Z 25013KT 9999 NCD 30/24 Q1010=
15/04/2013 02:00:00Z	 SAID31 WIII 150200	METAR WIII 150200Z AUTO 25014KT 9999 NCD 30/24 Q1010=
15/04/2013 02:30:00Z	 SAID31 WIII 150230	METAR WIII 150230Z 26013KT 9999 FEW022 31/24 Q1010=
15/04/2013 03:00:00Z	 SAID31 WIII 150300	METAR WIII 150300Z AUTO 25013KT 9999 NCD 32/24 Q1010=
15/04/2013 03:30:00Z	 SAID31 WIII 150330	METAR WIII 150330Z 25015KT 9999 FEW022 32/24 Q1009=
15/04/2013 04:30:00Z	 SAID31 WIII 150430	METAR WIII 150430Z 28006KT 9000 SCT022 32/24 Q1008=
15/04/2013 05:00:00Z	 SAID31 WIII 150500	METAR WIII 150500Z 29008KT 9999 SCT022 32/25 Q1008=
15/04/2013 05:30:00Z	 SAID31 WIII 150530	METAR WIII 150530Z 28006KT 9999 SCT022 33/25 Q1007=
15/04/2013 06:00:00Z	 SAID31 WIII 150600	METAR WIII 150600Z 28007KT 9999 SCT022 33/25 Q1006=
15/04/2013 06:30:00Z	 SAID31 WIII 150630	METAR WIII 150630Z 29006KT 9999 SCT022 33/24 Q1006=
15/04/2013 07:00:00Z	 SAID31 WIII 150700	METAR WIII 150700Z 32008KT 9999 SCT020 33/26 Q1006=
15/04/2013 07:30:00Z	 SAID31 WIII 150730	METAR WIII 150730Z 31010KT 9999 SCT020 33/26 Q1005=
15/04/2013 08:00:00Z	 SAID31 WIII 150800	METAR WIII 150800Z 32009KT 9999 SCT021 32/26 Q1005=
15/04/2013 08:30:00Z	 SAID31 WIII 150830	METAR WIII 150830Z 28007KT 9999 SCT020 32/25 Q1005=
15/04/2013 09:00:00Z	 SAID31 WIII 150900	METAR WIII 150900Z 29007KT 9999 SCT021 32/25 Q1005=
15/04/2013 09:30:00Z	 SAID31 WIII 150930	METAR WIII 150930Z 27010KT 9999 SCT020 32/25 Q1005=
15/04/2013 10:00:00Z	 SAID31 WIII 151000	METAR WIII 151000Z 28006KT 9999 SCT021 32/25 Q1005=
15/04/2013 10:30:00Z	 SAID31 WIII 151030	METAR WIII 151030Z 27007KT 8000 SCT021 31/24 Q1006=
15/04/2013 11:00:00Z	 SAID31 WIII 151100	METAR WIII 151100Z 27009KT 9999 FEW021 30/23 Q1006=
15/04/2013 11:30:00Z	 SAID31 WIII 151130	METAR WIII 151130Z 25011KT 9999 FEW022 29/23 Q1007=
15/04/2013 12:00:00Z	 SAID31 WIII 151200	METAR WIII 151200Z 27007KT 9000 FEW022 29/23 Q1007=
15/04/2013 12:30:00Z	 SAID31 WIII 151230	METAR WIII 151230Z AUTO 28006KT 9999 NCD 28/23 Q1008=
15/04/2013 13:00:00Z	 SAID31 WIII 151300	METAR WIII 151300Z AUTO 26009KT 9999 NCD 28/23 Q1009=
15/04/2013 13:30:00Z	 SAID31 WIII 151330	METAR WIII 151330Z AUTO 26008KT 9999 NCD 28/24 Q1009=
15/04/2013 14:30:00Z	 SAID31 WIII 151430	METAR WIII 151430Z VRB02KT 5000 BR FEW016CB SCT020 28/24 Q1010 CB TO SE=
15/04/2013 15:00:00Z	 SAID31 WIII 151500	METAR WIII 151500Z 07006KT 5000 BR FEW016CB SCT020 28/24 Q1010 CB TO SE=
15/04/2013 15:30:00Z	 SAID31 WIII 151530	METAR WIII 151530Z 07010KT 1000 SHRA FEW014CB OVC016 28/23 Q1010 CB T O SE=
15/04/2013 16:00:00Z	 SAID31 WIII 151600	METAR WIII 151600Z 27004KT 3000 RA OVC018 26/24 Q1009=
15/04/2013 16:30:00Z	 SAID31 WIII 151630	METAR WIII 151630Z 26006KT 4000 -RA OVC022 26/24 Q1008=
15/04/2013 17:30:00Z	 SAID31 WIII 151730	METAR WIII 151730Z 14002KT 4000 BR SCT020 26/24 Q1008=
15/04/2013 18:00:00Z	 SAID31 WIII 151800	METAR WIII 151800Z 00000KT 4000 BR SCT020 26/24 Q1008=
15/04/2013 18:30:00Z	 SAID31 WIII 151830	METAR WIII 151830Z 00000KT 4000 BR SCT022 26/25 Q1008=
15/04/2013 19:00:00Z	 SAID31 WIII 151900	METAR WIII 151900Z AUTO 16002KT 6000 NCD 26/25 Q1008=
15/04/2013 19:30:00Z	 SAID31 WIII 151930	METAR WIII 151930Z 15003KT 4000 BR FEW020 26/25 Q1008=
15/04/2013 20:00:00Z	 SAID31 WIII 152000	METAR WIII 152000Z AUTO 00000KT 3100 BR NCD 25/24 Q1008=
15/04/2013 20:30:00Z	 SAID31 WIII 152030	METAR WIII 152030Z AUTO 00000KT 9000 NCD 25/24 Q1008=
15/04/2013 21:00:00Z	 SAID31 WIII 152100	METAR WIII 152100Z AUTO VRB02KT 6000 NCD 25/24 Q1008=
15/04/2013 21:30:00Z	 SAID31 WIII 152130	METAR WIII 152130Z AUTO 00000KT 2100 BR NCD 25/24 Q1008=
15/04/2013 22:00:00Z	 SAID31 WIII 152200	METAR WIII 152200Z 00000KT 3000 BR FEW020 25/24 Q1008=
15/04/2013 22:30:00Z	 SAID31 WIII 152230	METAR WIII 152230Z 00000KT 4000 BR FEW020 25/24 Q1008=
15/04/2013 23:00:00Z	 SAID31 WIII 152300	METAR WIII 152300Z VRB02KT 5000 BR FEW080 25/24 Q1008=
15/04/2013 23:30:00Z	 SAID31 WIII 152330	METAR WIII 152330Z AUTO 20005KT 9999 BKN075 27/24 Q1008=
16/04/2013 00:00:00Z	 SAID31 WIII 160000	METAR WIII 160000Z 23006KT 5000 BR FEW022 27/24 Q1008=
16/04/2013 00:30:00Z	 SAID31 WIII 160030	METAR WIII 160030Z AUTO 25006KT 9999 BKN070 28/25 Q1009=
16/04/2013 01:00:00Z	 SAID31 WIII 160100	METAR WIII 160100Z AUTO 26006KT 9999 BKN070 29/25 Q1009=
16/04/2013 01:30:00Z	 SAID31 WIII 160130	METAR WIII 160130Z 21007KT 5000 HZ SCT018 29/25 Q1009=
16/04/2013 02:00:00Z	 SAID31 WIII 160200	METAR WIII 160200Z 19009KT 6000 BKN020 29/25 Q1009=
16/04/2013 02:30:00Z	 SAID31 WIII 160230	METAR WIII 160230Z 20008KT 8000 OVC020 30/24 Q1009=
16/04/2013 03:00:00Z	 SAID31 WIII 160300	METAR WIII 160300Z 23009KT 9999 SCT020 30/25 Q1009=
16/04/2013 03:30:00Z	 SAID31 WIII 160330	METAR WIII 160330Z 24008KT 9999 FEW018CB SCT020 31/25 Q1008 CB TO S=
16/04/2013 04:00:00Z	 SAID31 WIII 160400	METAR WIII 160400Z 27008KT 9999 SCT020 32/25 Q1008=
16/04/2013 04:30:00Z	 SAID31 WIII 160430	METAR WIII 160430Z 25007KT 9999 BKN020 32/25 Q1007=
16/04/2013 05:00:00Z	 SAID31 WIII 160500	METAR WIII 160500Z 26009KT 9999 FEW016CB BKN018 32/25 Q1007 CB TO S=
16/04/2013 05:30:00Z	 SAID31 WIII 160530	METAR WIII 160530Z 26005KT 9999 BKN020 32/24 Q1006=
16/04/2013 06:30:00Z	 SAID31 WIII 160630	METAR WIII 160630Z 28004KT 8000 FEW018CB BKN020 31/26 Q1006 CB TO S=
16/04/2013 07:00:00Z	 SAID31 WIII 160700	METAR WIII 160700Z 35009KT 9999 FEW018CB BKN020 32/26 Q1005 CB TO SE AND SW=
16/04/2013 07:30:00Z	 SAID31 WIII 160730	METAR WIII 160730Z 32007G17KT 9999 FEW018CB BKN020 31/26 Q1005 CB TO SW=
16/04/2013 08:00:00Z	 SAID31 WIII 160800	METAR WIII 160800Z 24012G22KT 9999 VCTS SCT016CB BKN018 32/26 Q1005 C B TO S SW AND W=
16/04/2013 08:30:00Z	 SAID31 WIII 160830	METAR WIII 160830Z 21009G19KT 8000 VCTS SCT016CB BKN018 28/23 Q1005 C B TO S SW AND W=
16/04/2013 09:00:00Z	 SAID31 WIII 160900	METAR WIII 160900Z 26007G17KT 8000 FEW016CB BKN018 27/24 Q1006 CB TO SE AND S=
16/04/2013 09:30:00Z	 SAID31 WIII 160930	METAR WIII 160930Z 23013KT 7000 VCTS -SHRA FEW016CB BKN018 28/24 Q1006 CB TO SE=
16/04/2013 10:00:00Z	 SAID31 WIII 161000	METAR WIII 161000Z 23010KT 7000 FEW016CB BKN018 28/24 Q1006 CB TO E A ND SE=
16/04/2013 10:30:00Z	 SAID31 WIII 161030	METAR WIII 161030Z 19007KT 5000 HZ FEW016CB BKN018 28/24 Q1007 CB TO E AND SE=
16/04/2013 11:00:00Z	 SAID31 WIII 161100	METAR WIII 161100Z 21010KT 5000 HZ FEW016CB BKN018 28/24 Q1007 CB TO E AND SE=
16/04/2013 11:30:00Z	 SAID31 WIII 161130	METAR WIII 161130Z 19007KT 5000 HZ FEW016CB BKN018 28/24 Q1007 CB TO E AND SE=
16/04/2013 12:00:00Z	 SAID31 WIII 161200	METAR WIII 161200Z 22009KT 6000 FEW018CB SCT020 28/24 Q1008 CB TO N A ND SE=
16/04/2013 12:30:00Z	 SAID31 WIII 161230	METAR WIII 161230Z 18006KT 6000 FEW018CB SCT020 28/24 Q1008 CB TO SE=
16/04/2013 13:00:00Z	 SAID31 WIII 161300	METAR WIII 161300Z 22006KT 6000 FEW018CB SCT021 28/24 Q1009 CB TO N A ND SE=
16/04/2013 13:30:00Z	 SAID31 WIII 161330	METAR WIII 161330Z 21005KT 6000 FEW021 29/23 Q1009=
16/04/2013 14:00:00Z	 SAID31 WIII 161400	METAR WIII 161400Z VRB04KT 6000 FEW021 28/24 Q1009=
16/04/2013 14:30:00Z	 SAID31 WIII 161430	METAR WIII 161430Z 20003KT 6000 FEW020 28/24 Q1008=
16/04/2013 15:00:00Z	 SAID31 WIII 161500	METAR WIII 161500Z 18004KT 5000 HZ FEW021 28/24 Q1008=
16/04/2013 15:30:00Z	 SAID31 WIII 161530	METAR WIII 161530Z 17004KT 6000 FEW021 27/24 Q1008=
16/04/2013 16:00:00Z	 SAID31 WIII 161600	METAR WIII 161600Z 16004KT 4900 HZ FEW021 27/24 Q1008=
16/04/2013 16:30:00Z	 SAID31 WIII 161630	METAR WIII 161630Z 14002KT 4500 HZ SCT020 27/24 Q1007=
16/04/2013 17:00:00Z	 SAID31 WIII 161700	METAR WIII 161700Z 00000KT 4500 SCT020 26/24 Q1007=
16/04/2013 17:30:00Z	 SAID31 WIII 161730	METAR WIII 161730Z 00000KT 4500 HZ FEW020 26/24 Q1007=
16/04/2013 18:00:00Z	 SAID31 WIII 161800	METAR WIII 161800Z VRB04KT 4000 HZ FEW020 26/24 Q1007=
16/04/2013 18:30:00Z	 SAID31 WIII 161830	METAR WIII 161830Z 00000KT 4000 HZ FEW020CB FEW022 26/24 Q1007=
16/04/2013 19:00:00Z	 SAID31 WIII 161900	METAR WIII 161900Z VRB02KT 4400 HZ FEW022 26/24 Q1007=
16/04/2013 19:30:00Z	 SAID31 WIII 161930	METAR WIII 161930Z 26002KT 5000 BR FEW021 25/24 Q1007=
16/04/2013 20:00:00Z	 SAID31 WIII 162000	METAR WIII 162000Z VRB02KT 4000 BR FEW022 25/24 Q1006=
16/04/2013 20:30:00Z	 SAID31 WIII 162030	METAR WIII 162030Z 17002KT 3000 BR FEW022 25/24 Q1007=
16/04/2013 21:00:00Z	 SAID31 WIII 162100	METAR WIII 162100Z 15002KT 3000 BR FEW022 25/24 Q1007 NOSIG=
16/04/2013 21:30:00Z	 SAID31 WIII 162130	METAR WIII 162130Z 21002KT 2500 BR FEW020 SCT039 25/24 Q1007 NOSIG=
16/04/2013 22:00:00Z	 SAID31 WIII 162200	METAR WIII 162200Z 22002KT 2400 BR FEW020 25/24 Q1008=
16/04/2013 22:30:00Z	 SAID31 WIII 162230	METAR WIII 162230Z 00000KT 2600 BR FEW020 25/24 Q1008=
16/04/2013 23:00:00Z	 SAID31 WIII 162300	METAR WIII 162300Z VRB02KT 2200 BR FEW022 25/24 Q1008=
16/04/2013 23:30:00Z	 SAID31 WIII 162330	METAR WIII 162330Z VRB02KT 2000 BR FEW022 26/24 Q1009=
17/04/2013 00:00:00Z	 SAID31 WIII 170000	METAR WIII 170000Z VRB04KT 2500 BR FEW022 27/24 Q1009=
17/04/2013 00:30:00Z	 SAID31 WIII 170030	METAR WIII 170030Z AUTO VRB05KT 7000 NCD 28/25 Q1009=
17/04/2013 01:00:00Z	 SAID31 WIII 170100	METAR WIII 170100Z AUTO VRB04KT 9999 NCD 29/24 Q1009=
17/04/2013 01:30:00Z	 SAID31 WIII 170130	METAR WIII 170130Z 23007KT 5000 HZ SCT018 30/25 Q1009=
17/04/2013 02:00:00Z	 SAID31 WIII 170200	METAR WIII 170200Z 21005KT 7000 FEW018CB SCT020 30/25 Q1009 CB TO SW AND W=
17/04/2013 02:30:00Z	 SAID31 WIII 170230	METAR WIII 170230Z 27006KT 8000 FEW018CB SCT020 31/24 Q1009 CB TO SW AND W=
17/04/2013 03:00:00Z	 SAID31 WIII 170300	METAR WIII 170300Z 23004KT 8000 SCT020 31/24 Q1009=
17/04/2013 04:00:00Z	 SAID31 WIII 170400	METAR WIII 170400Z 29005KT 8000 FEW018CB SCT020 31/24 Q1008 CB TO W A ND N=
17/04/2013 04:30:00Z	 SAID31 WIII 170430	METAR WIII 170430Z 25004KT 8000 BKN020 32/25 Q1007=
17/04/2013 05:00:00Z	 SAID31 WIII 170500	METAR WIII 170500Z VRB02KT 7000 BKN020 32/25 Q1007=
17/04/2013 05:30:00Z	 SAID31 WIII 170530	METAR WIII 170530Z 33007KT 7000 FEW018CB BKN020 32/24 Q1006 CB TO E=
17/04/2013 06:00:00Z	 SAID31 WIII 170600	METAR WIII 170600Z 02010KT 8000 FEW018CB BKN020 32/25 Q1006 CB TO SE AND SW=
17/04/2013 06:30:00Z	 SAID31 WIII 170630	METAR WIII 170630Z 34007KT 8000 FEW018CB SCT020 32/24 Q1005 CB TO SE=
17/04/2013 07:00:00Z	 SAID31 WIII 170700	METAR WIII 170700Z 35007KT 8000 FEW018CB BKN020 32/24 Q1005 CB TO SE AND SW=
17/04/2013 07:30:00Z	 SAID31 WIII 170730	METAR WIII 170730Z 01010KT 8000 FEW018CB SCT020 32/25 Q1004 CB TO S A ND SW=
17/04/2013 08:00:00Z	 SAID31 WIII 170800	METAR WIII 170800Z 01007KT 8000 FEW018CB SCT020 31/25 Q1004 CB TO SW AND W=
17/04/2013 08:30:00Z	 SAID31 WIII 170830	METAR WIII 170830Z 35006KT 8000 FEW016CB BKN018 31/24 Q1004 CB TO SE AND SW=
17/04/2013 09:00:00Z	 SAID31 WIII 170900	METAR WIII 170900Z 31008KT 7000 VCTS SCT016CB BKN018 30/24 Q1005 CB T O S SW AND W=
17/04/2013 09:30:00Z	 SAID31 WIII 170930	METAR WIII 170930Z 34009KT 7000 VCTS SCT016CB BKN018 30/24 Q1005 CB T O SE S AND SW=
17/04/2013 10:00:00Z	 SAID31 WIII 171000	METAR WIII 171000Z 34009KT 5000 HZ SCT016CB BKN018 30/24 Q1005 CB TO E SE AND S=
17/04/2013 10:30:00Z	 SAID31 WIII 171030	METAR WIII 171030Z 29007KT 5000 HZ SCT016CB BKN018 30/24 Q1006 RETS C B TO E SE AND S=
17/04/2013 11:00:00Z	 SAID31 WIII 171100	METAR WIII 171100Z 26006KT 4000 TS SCT016 OVC015 29/25 Q1007 CB TO SE S AND SW=
17/04/2013 11:30:00Z	 SAID31 WIII 171130	METAR WIII 171130Z 25006KT 4000 VCTS SCT016CB OVC018 28/23 Q1007 CB TO SE S AND SW=
17/04/2013 12:00:00Z	 SAID31 WIII 171200	METAR WIII 171200Z 18009KT 4000 VCTS SCT016CB OVC018 28/24 Q1007 CB T O SE S AND SW=
17/04/2013 12:30:00Z	 SAID31 WIII 171230	METAR WIII 171230Z 16014KT 4000 -TSRA BKN016CB OVC018 27/24 Q1008 CB ALL RWY=
17/04/2013 13:00:00Z	 SAID31 WIII 171300	METAR WIII 171300Z 18007KT 6000 TSRA FEW018CB BKN019 26/24 Q1008 CB T O SW=
17/04/2013 14:00:00Z	 SAID31 WIII 171400	METAR WIII 171400Z 19009KT 6000 -TSRA FEW019CB SCT020 25/24 Q1009 CB TO W=
17/04/2013 14:30:00Z	 SAID31 WIII 171430	METAR WIII 171430Z 21008KT 6000 -RA FEW020CB SCT020 25/24 Q1009 CB TO SW=
17/04/2013 15:00:00Z	 SAID31 WIII 171500	METAR WIII 171500Z 17006KT 6000 -RA FEW020 SCT020 25/23 Q1009 CB TO W=
17/04/2013 15:30:00Z	 SAID31 WIII 171530	METAR WIII 171530Z 19005KT 6000 VCTS FEW020CB SCT020 25/23 Q1009 CB T O SW=
17/04/2013 16:00:00Z	 SAID31 WIII 171600	METAR WIII 171600Z VRB05KT 7000 FEW020 25/23 Q1008=
17/04/2013 16:30:00Z	 SAID31 WIII 171630	METAR WIII 171630Z 19005KT 7000 FEW020CB 25/23 Q1008 CB TO NW=
17/04/2013 17:00:00Z	 SAID31 WIII 171700	METAR WIII 171700Z 24007KT 7000 SCT020 26/23 Q1009=
17/04/2013 17:30:00Z	 SAID31 WIII 171730	METAR WIII 171730Z 24005KT 8000 SCT020 26/23 Q1008=
17/04/2013 18:00:00Z	 SAID31 WIII 171800	METAR WIII 171800Z 26005KT 8000 SCT020 26/24 Q1008=
17/04/2013 18:30:00Z	 SAID31 WIII 171830	METAR WIII 171830Z AUTO 24008KT 9999 BKN065 OVC078 26/24 Q1008=
17/04/2013 19:00:00Z	 SAID31 WIII 171900	METAR WIII 171900Z AUTO 24006KT 9000 BKN065 OVC088 26/23 Q1008=
17/04/2013 19:30:00Z	 SAID31 WIII 171930	METAR WIII 171930Z AUTO 25006KT 8000 FEW070 BKN089 25/24 Q1007=
17/04/2013 20:00:00Z	 SAID31 WIII 172000	METAR WIII 172000Z 24007KT 8000 FEW020 25/23 Q1007=
17/04/2013 20:30:00Z	 SAID31 WIII 172030	METAR WIII 172030Z AUTO 24007KT 9999 NCD 25/23 Q1007=
17/04/2013 21:00:00Z	 SAID31 WIII 172100	METAR WIII 172100Z AUTO 26007KT 9999 NCD 25/23 Q1007=
17/04/2013 22:00:00Z	 SAID31 WIII 172200	METAR WIII 172200Z 21009KT 9999 NCD 25/23 Q1007=
17/04/2013 22:30:00Z	 SAID31 WIII 172230	METAR WIII 172230Z 25007KT 8000 FEW021 25/23 Q1007=
17/04/2013 23:00:00Z	 SAID31 WIII 172300	METAR WIII 172300Z 24008KT 8000 FEW021 25/23 Q1008=
17/04/2013 23:30:00Z	 SAID31 WIII 172330	METAR WIII 172330Z 23008KT 9000 FEW022 26/23 Q1008=
18/04/2013 00:00:00Z	 SAID31 WIII 180000	METAR WIII 180000Z AUTO 25007KT 9999 NCD 26/24 Q1009=
18/04/2013 00:30:00Z	 SAID31 WIII 180030	METAR WIII 180030Z AUTO 25007KT 9999 OVC050 26/24 Q1009=
18/04/2013 01:00:00Z	 SAID31 WIII 180100	METAR WIII 180100Z 25009KT 8000 BKN050 OVC075 27/24 Q1010=
18/04/2013 01:30:00Z	 SAID31 WIII 180130	METAR WIII 180130Z 25009KT 9999 BKN055 OVC067 27/24 Q1010=
18/04/2013 02:00:00Z	 SAID31 WIII 180200	METAR WIII 180200Z 25009KT 9999 BKN070 28/25 Q1010=
18/04/2013 02:30:00Z	 SAID31 WIII 180230	METAR WIII 180230Z 25009KT 9999 SCT018 29/25 Q1010=
18/04/2013 03:30:00Z	 SAID31 WIII 180330	METAR WIII 180330Z 26008KT 9999 SCT020 30/25 Q1009=
18/04/2013 04:00:00Z	 SAID31 WIII 180400	METAR WIII 180400Z 26008KT 9999 SCT020 31/24 Q1009=
18/04/2013 04:30:00Z	 SAID31 WIII 180430	METAR WIII 180430Z 26010KT 9999 BKN030 31/24 Q1008=
18/04/2013 05:00:00Z	 SAID31 WIII 180500	METAR WIII 180500Z VRB05KT 7000 -RA BKN027 BKN034 BKN050 OVC065 29/25 Q1008=
18/04/2013 05:30:00Z	 SAID31 WIII 180530	METAR WIII 180530Z VRB02KT 6000 RA BKN040 BKN049 OVC055 28/24 Q1008=
18/04/2013 06:00:00Z	 SAID31 WIII 180600	METAR WIII 180600Z 04005KT 8000 -RA FEW016CB BKN020 28/25 Q1007 CB TO SE=
18/04/2013 06:30:00Z	 SAID31 WIII 180630	METAR WIII 180630Z VRB04KT 8000 VCTS -RA FEW016CB BKN018 28/25 Q1007 CB TO SE=
18/04/2013 07:00:00Z	 SAID31 WIII 180700	METAR WIII 180700Z 00000KT 7000 -RA FEW016CB OVC020 28/24 Q1007 CB TO SE=
18/04/2013 07:30:00Z	 SAID31 WIII 180730	METAR WIII 180730Z 23011KT 5000 -TSRA FEW016CB OVC018 26/23 Q1007 CB OVER THE FIELD=
18/04/2013 08:00:00Z	 SAID31 WIII 180800	METAR WIII 180800Z 28019G33KT 2000 TSRA SCT014CB OVC016 24/22 Q1007 C B OVER THE FIELD=
18/04/2013 08:30:00Z	 SAID31 WIII 180830	METAR WIII 180830Z 25014KT 500 +TSRA SCT012CB OVC014 24/22 Q1009 CB OVER THE FIELD=
18/04/2013 09:00:00Z	 SAID31 WIII 180900	METAR WIII 180900Z 16008KT 3000 TSRA SCT016CB OVC018 24/23 Q1008 CB T O E AND SW=
18/04/2013 09:30:00Z	 SAID31 WIII 180930	METAR WIII 180930Z 17008KT 4000 VCTS -RA FEW016CB OVC018 24/22 Q1009 CB TO SE AND SW=
18/04/2013 10:00:00Z	 SAID31 WIII 181000	METAR WIII 181000Z 17008KT 4000 RA BKN018 24/23 Q1009=
18/04/2013 10:30:00Z	 SAID31 WIII 181030	METAR WIII 181030Z 15007KT 4000 -RA OVC018 24/23 Q1009=
18/04/2013 11:00:00Z	 SAID31 WIII 181100	METAR WIII 181100Z 16008KT 4000 -RA OVC018 25/24 Q1009=
18/04/2013 11:30:00Z	 SAID31 WIII 181130	METAR WIII 181130Z 15007KT 5000 -RA BKN018 25/24 Q1009=
18/04/2013 12:00:00Z	 SAID31 WIII 181200	METAR WIII 181200Z 17007KT 4000 -RA BKN020 25/24 Q1009=
18/04/2013 12:30:00Z	 SAID31 WIII 181230	METAR WIII 181230Z 16007KT 150V230 4500 -DZ BKN020 25/24 Q1009 RERA=
18/04/2013 13:00:00Z	 SAID31 WIII 181300	METAR WIII 181300Z 18007KT 4900 BR SCT021 25/23 Q1009=
18/04/2013 13:30:00Z	 SAID31 WIII 181330	METAR WIII 181330Z 17006KT 6000 SCT021 25/23 Q1009=
18/04/2013 14:00:00Z	 SAID31 WIII 181400	METAR WIII 181400Z VRB05KT 6000 SCT021 OVC150 25/23 Q1009=
18/04/2013 14:30:00Z	 SAID31 WIII 181430	METAR WIII 181430Z 09005KT 6000 SCT021 BKN130 25/23 Q1009=
18/04/2013 15:00:00Z	 SAID31 WIII 181500	METAR WIII 181500Z 10005KT 6000 SCT021 BKN140 26/23 Q1009=
18/04/2013 15:30:00Z	 SAID31 WIII 181530	METAR WIII 181530Z 02003KT 4500 BR SCT021 25/23 Q1009=
18/04/2013 16:00:00Z	 SAID31 WIII 181600	METAR WIII 181600Z 05003KT 4300 BR SCT021 25/23 Q1009=
18/04/2013 16:30:00Z	 SAID31 WIII 181630	METAR WIII 181630Z 01003KT 4400 BR SCT022 25/23 Q1009=
18/04/2013 17:00:00Z	 SAID31 WIII 181700	METAR WIII 181700Z 03002KT 4500 BR SCT022 OVC170 25/23 Q1009=
18/04/2013 17:30:00Z	 SAID31 WIII 181730	METAR WIII 181730Z 00000KT 3000 BR SCT022 BKN140 OVC160 25/24 Q1009=
18/04/2013 18:00:00Z	 SAID31 WIII 181800	METAR WIII 181800Z 25003KT 3000 BR FEW022 BKN140 24/24 Q1009=
18/04/2013 18:30:00Z	 SAID31 WIII 181830	METAR WIII 181830Z 21003KT 2500 BR SCT022 BKN140 24/24 Q1008=
18/04/2013 19:00:00Z	 SAID31 WIII 181900	METAR WIII 181900Z 20004KT 3000 BR SCT022 BKN160 25/24 Q1008=
18/04/2013 19:30:00Z	 SAID31 WIII 181930	METAR WIII 181930Z 19004KT 2500 BR SCT022 BKN160 25/24 Q1008=
18/04/2013 20:00:00Z	 SAID31 WIII 182000	METAR WIII 182000Z 19005KT 2200 BR SCT020 25/24 Q1008=
18/04/2013 20:30:00Z	 SAID31 WIII 182030	METAR WIII 182030Z 19004KT 1700 BR FEW020 BKN160 24/24 Q1008=
18/04/2013 21:00:00Z	 SAID31 WIII 182100	METAR WIII 182100Z 22002KT 1400 BR FEW020 BKN240 24/23 Q1008=
18/04/2013 21:30:00Z	 SAID31 WIII 182130	METAR WIII 182130Z 14002KT 1500 BR FEW020 SCT220 BKN240 24/23 Q1008=
18/04/2013 22:00:00Z	 SAID31 WIII 182200	METAR WIII 182200Z 17002KT 2000 BR FEW020 24/23 Q1008=
18/04/2013 22:30:00Z	 SAID31 WIII 182230	METAR WIII 182230Z 20003KT 1800 BR FEW020 24/23 Q1008=
18/04/2013 23:00:00Z	 SAID31 WIII 182300	METAR WIII 182300Z 21004KT 1200 BR FEW022 24/23 Q1009=
18/04/2013 23:30:00Z	 SAID31 WIII 182330	METAR WIII 182330Z VRB04KT 2300 BR FEW022 25/23 Q1009=
19/04/2013 00:00:00Z	 SAID31 WIII 190000	METAR WIII 190000Z 19004KT 2900 BR FEW020 25/23 Q1009=
19/04/2013 00:30:00Z	 SAID31 WIII 190030	METAR WIII 190030Z AUTO 19004KT 8000 NCD 26/23 Q1010=
19/04/2013 01:00:00Z	 SAID31 WIII 190100	METAR WIII 190100Z AUTO VRB04KT 6000 NCD 27/24 Q1010=
19/04/2013 01:30:00Z	 SAID31 WIII 190130	METAR WIII 190130Z AUTO VRB05KT 6000 NCD 28/24 Q1010=
19/04/2013 02:00:00Z	 SAID31 WIII 190200	METAR WIII 190200Z 16006KT 4000 HZ FEW018 29/23 Q1010=
19/04/2013 02:30:00Z	 SAID31 WIII 190230	METAR WIII 190230Z 20006KT 5000 HZ FEW018CB SCT020 30/23 Q1010 CB TO E=
19/04/2013 03:00:00Z	 SAID31 WIII 190300	METAR WIII 190300Z 09005KT 7000 FEW018CB SCT020 30/22 Q1010 CB TO S=
19/04/2013 03:30:00Z	 SAID31 WIII 190330	METAR WIII 190330Z 03003KT 7000 FEW018CB SCT020 30/22 Q1010 CB TO W=
19/04/2013 04:00:00Z	 SAID31 WIII 190400	METAR WIII 190400Z 03007KT 6000 HZ FEW018 SCT020 30/24 Q1010 CB TO W AND N=
19/04/2013 04:30:00Z	 SAID31 WIII 190430	METAR WIII 190430Z 3106KT 6000 HZ BKN020 31/23 Q1009=
19/04/2013 05:00:00Z	 SAID31 WIII 190500	METAR WIII 190500Z 36005KT 6000 HZ FEW018CB BKN020 30/23 Q1009 CB TO NE=
19/04/2013 05:30:00Z	 SAID31 WIII 190530	METAR WIII 190530Z AUTO VRB05KT 9999 SCT034 SCT042 BKN065 BKN076 31/2 3 Q1009=
19/04/2013 06:00:00Z	 SAID31 WIII 190600	METAR WIII 190600Z 02009KT 7000 FEW018CB SCT020 31/24 Q1008 CB TO NE AND S=
19/04/2013 06:30:00Z	 SAID31 WIII 190630	METAR WIII 190630Z 35009KT 7000 SCT018CB BKN020 31/24 Q1007 CB TO NE SE AND SW=
19/04/2013 07:00:00Z	 SAID31 WIII 190700	METAR WIII 190700Z 35009KT 7000 SCT018CB BKN020 31/23 Q1007 CB TO NE E AND SE=
19/04/2013 07:30:00Z	 SAID31 WIII 190730	METAR WIII 190730Z 35008KT 7000 SCT018CB BKN020 31/23 Q1007 CB TO E S E AND S=
19/04/2013 08:00:00Z	 SAID31 WIII 190800	METAR WIII 190800Z 360087KT 7000 FEW018 SCT020 31/23 Q1007 CB TO E AN D SE=
19/04/2013 08:30:00Z	 SAID31 WIII 190830	METAR WIII 190830Z 04010KT 7000 FEW018CB SCT020 31/23 Q1007 CB TO SE AND S=
19/04/2013 09:00:00Z	 SAID31 WIII 190900	METAR WIII 190900Z 36007KT 350V050 7000 VCTS -RA SCT016CB BKN018 31/ 22 Q1007 CB TO SE S AND SW=
19/04/2013 09:30:00Z	 SAID31 WIII 190930	METAR WIII 190930Z 17007G17KT 6000 TS SCT016CB BKN018 30/22 Q1008 RER A CB TO SE S AND SW=
19/04/2013 10:00:00Z	 SAID31 WIII 191000	METAR WIII 191000Z 20011KT 6000 -TSRA SCT016CB BKN018 28/23 Q1008 CB TO S SW AND W=
19/04/2013 10:30:00Z	 SAID31 WIII 191030	METAR WIII 191030Z 22008KT 7000 VCTS SCT016CB BKN020 27/23 Q1008 RERA CB TO E SE AND W=
19/04/2013 11:00:00Z	 SAID31 WIII 191100	METAR WIII 191100Z 19006KT 7000 FEW018CB BKN020 27/23 Q1008 CB TO SE=
19/04/2013 11:30:00Z	 SAID31 WIII 191130	METAR WIII 191130Z 15007KT 7000 SCT020 27/23 Q1009=
19/04/2013 12:00:00Z	 SAID31 WIII 191200	METAR WIII 191200Z 14008KT 7000 SCT020 27/23 Q1009=
19/04/2013 12:30:00Z	 SAID31 WIII 191230	METAR WIII 191230Z AUTO 12007KT 6000 NCD 27/23 Q1010=
19/04/2013 13:00:00Z	 SAID31 WIII 191300	METAR WIII 191300Z 16006KT 6000 -RA SCT020 27/23 Q1010=
19/04/2013 13:30:00Z	 SAID31 WIII 191330	METAR WIII 191330Z VRB05KT 6000 SCT020 27/23 Q1010=
19/04/2013 14:00:00Z	 SAID31 WIII 191400	METAR WIII 191400Z VRB05KT 7000 FEW021 27/23 Q1010=
19/04/2013 14:30:00Z	 SAID31 WIII 191430	METAR WIII 191430Z VRB05KT 8000 FEW021 27/23 Q1010=
19/04/2013 15:00:00Z	 SAID31 WIII 191500	METAR WIII 191500Z VRB03KT 6000 FEW021 27/23 Q1011=
19/04/2013 15:30:00Z	 SAID31 WIII 191530	METAR WIII 191530Z VRB03KT 7000 FEW021 27/23 Q1011=
19/04/2013 16:30:00Z	 SAID31 WIII 191630	METAR WIII 191630Z VRB02KT 7000 FEW021 27/23 Q1010=
19/04/2013 17:00:00Z	 SAID31 WIII 191700	METAR WIII 191700Z VRB02KT 7000 FEW021 27/22 Q1010=
19/04/2013 17:30:00Z	 SAID31 WIII 191730	METAR WIII 191730Z VRB03KT 6000 FEW021 26/22 Q1009=
19/04/2013 18:00:00Z	 SAID31 WIII 191800	METAR WIII 191800Z 22004KT 4400 BR FEW021 26/23 Q1009=
19/04/2013 18:30:00Z	 SAID31 WIII 191830	METAR WIII 191830Z AUTO VRB02KT 7000 NCD 25/23 Q1009=
19/04/2013 19:00:00Z	 SAID31 WIII 191900	METAR WIII 191900Z 30002KT 4500 BR FEW021 25/23 Q1009=
19/04/2013 19:30:00Z	 SAID31 WIII 191930	METAR WIII 191930Z AUTO 29003KT 3100 BR NCD 25/23 Q1009=
19/04/2013 20:00:00Z	 SAID31 WIII 192000	METAR WIII 192000Z AUTO 26003KT 2500 BR NCD 24/23 Q1009=
19/04/2013 20:30:00Z	 SAID31 WIII 192030	METAR WIII 192030Z AUTO 27002KT 2500 BR NCD 24/23 Q1009=
19/04/2013 21:00:00Z	 SAID31 WIII 192100	METAR WIII 192100Z 00000KT 2500 BR FEW022 24/23 Q1009=
19/04/2013 21:30:00Z	 SAID31 WIII 192130	METAR WIII 192130Z AUTO 00000KT 2800 BR NCD 24/23 Q1009=
19/04/2013 22:00:00Z	 SAID31 WIII 192200	METAR WIII 192200Z 18002KT 2700 BR NCD 24/23 Q1009=
19/04/2013 22:30:00Z	 SAID31 WIII 192230	METAR WIII 192230Z 00000KT 2700 BR FEW022 24/23 Q1009=
19/04/2013 23:00:00Z	 SAID31 WIII 192300	METAR WIII 192300Z 19003KT 3500 BR FEW022 25/23 Q1009=
19/04/2013 23:30:00Z	 SAID31 WIII 192330	METAR WIII 192330Z 21004KT 7000 FEW022 25/23 Q1010=
20/04/2013 00:00:00Z	 SAID31 WIII 200000	METAR WIII 200000Z VRB03KT 3800 BR FEW022 25/24 Q1010=
20/04/2013 00:30:00Z	 SAID31 WIII 200030	METAR WIII 200030Z AUTO 22005KT 9999 NCD 27/23 Q1011=
20/04/2013 01:00:00Z	 SAID31 WIII 200100	METAR WIII 200100Z 23003KT 8000 FEW024 28/23 Q1011=
20/04/2013 01:30:00Z	 SAID31 WIII 200130	METAR WIII 200130Z 24004KT 9000 FEW024 29/23 Q1011=
20/04/2013 02:00:00Z	 SAID31 WIII 200200	METAR WIII 200200Z VRB02KT 9999 FEW024 30/23 Q1011=
20/04/2013 02:30:00Z	 SAID31 WIII 200230	METAR WIII 200230Z 06003KT 9999 FEW024 30/23 Q1011=
20/04/2013 03:00:00Z	 SAID31 WIII 200300	METAR WIII 200300Z 16004KT 9999 FEW024 31/23 Q1011=
20/04/2013 03:30:00Z	 SAID31 WIII 200330	METAR WIII 200330Z 03007KT 9999 FEW024 31/23 Q1010=
20/04/2013 04:00:00Z	 SAID31 WIII 200400	METAR WIII 200400Z 04007KT 9999 FEW024 32/24 Q1010=
20/04/2013 04:30:00Z	 SAID31 WIII 200430	METAR WIII 200430Z 33006KT 9999 FEW021CB FEW024 31/23 Q1009 CB TO SE=
20/04/2013 05:00:00Z	 SAID31 WIII 200500	METAR WIII 200500Z VRB04KT 9999 FEW024 31/23 Q1009=
20/04/2013 05:30:00Z	 SAID31 WIII 200530	METAR WIII 200530Z VRB05KT 9999 FEW024 32/24 Q1008=
20/04/2013 06:00:00Z	 SAID31 WIII 200600	METAR WIII 200600Z 05007KT 9999 FEW024 32/24 Q1008=
20/04/2013 06:30:00Z	 SAID31 WIII 200630	METAR WIII 200630Z 04006KT 9999 FEW021CB FEW024 32/24 Q1008 CB TO E=
20/04/2013 07:00:00Z	 SAID31 WIII 200700	METAR WIII 200700Z 35006KT 9999 FEW024 32/24 Q1007=
20/04/2013 07:30:00Z	 SAID31 WIII 200730	METAR WIII 200730Z 03006KT 9999 FEW021CB FEW024 32/24 Q1006 CB TO SE AND SW=
20/04/2013 08:00:00Z	 SAID31 WIII 200800	METAR WIII 200800Z 03006KT 9999 FEW024 32/24 Q1006=
20/04/2013 08:30:00Z	 SAID31 WIII 200830	METAR WIII 200830Z 04005KT 9999 FEW024 31/24 Q1006=
20/04/2013 09:00:00Z	 SAID31 WIII 200900	METAR WIII 200900Z 03007KT 9999 FEW024 31/24 Q1006=
20/04/2013 09:30:00Z	 SAID31 WIII 200930	METAR WIII 200930Z 03006KT 9999 FEW024 31/24 Q1006=
20/04/2013 10:00:00Z	 SAID31 WIII 201000	METAR WIII 201000Z 04005KT 9999 FEW024 30/24 Q1007=
20/04/2013 10:30:00Z	 SAID31 WIII 201030	METAR WIII 201030Z 03005KT 8000 FEW021CB FEW024 30/24 Q1007 CB TO S=
20/04/2013 11:00:00Z	 SAID31 WIII 201100	METAR WIII 201100Z 05004KT 9000 FEW021CB FEW024 29/24 Q1007 CB TO SE=
20/04/2013 11:30:00Z	 SAID31 WIII 201130	METAR WIII 201130Z 03003KT 7000 FEW021CB FEW024 29/24 Q1008 CB TO SE=
20/04/2013 12:00:00Z	 SAID31 WIII 201200	METAR WIII 201200Z 02003KT 9000 FEW024 29/24 Q1008=
20/04/2013 12:30:00Z	 SAID31 WIII 201230	METAR WIII 201230Z AUTO 00000KT 9000 SCT042 29/25 Q1009=
20/04/2013 13:00:00Z	 SAID31 WIII 201300	METAR WIII 201300Z AUTO 00000KT 7000 BKN055 28/25 Q1009=
20/04/2013 13:30:00Z	 SAID31 WIII 201330	METAR WIII 201330Z 13002KT 7000 FEW022 28/25 Q1009=
20/04/2013 14:00:00Z	 SAID31 WIII 201400	METAR WIII 201400Z 36002KT 6000 FEW022 28/25 Q1010=
20/04/2013 14:30:00Z	 SAID31 WIII 201430	METAR WIII 201430Z 34002KT 6000 FEW020 28/25 Q1010=
20/04/2013 15:00:00Z	 SAID31 WIII 201500	METAR WIII 201500Z 36002KT 5000 BR FEW020 28/25 Q1010=
20/04/2013 15:30:00Z	 SAID31 WIII 201530	METAR WIII 201530Z 34002KT 4500 BR FEW028 SCT035 OVC046 28/25 Q1010=
20/04/2013 16:00:00Z	 SAID31 WIII 201600	METAR WIII 201600Z 00000KT 5000 BR SCT020 28/25 Q1010=
20/04/2013 16:30:00Z	 SAID31 WIII 201630	METAR WIII 201630Z 00000KT 5000 BR FEW024 SCT042 BKN110 28/25 Q1010=
20/04/2013 17:00:00Z	 SAID31 WIII 201700	METAR WIII 201700Z 03002KT 5000 BR FEW049 28/25 Q1010=
20/04/2013 17:30:00Z	 SAID31 WIII 201730	METAR WIII 201730Z 00000KT 5000 BR FEW020 28/25 Q1009=
20/04/2013 18:00:00Z	 SAID31 WIII 201800	METAR WIII 201800Z VRB02KT 5000 BR SCT022 28/25 Q1009=
20/04/2013 18:30:00Z	 SAID31 WIII 201830	METAR WIII 201830Z 18003KT 5000 BR SCT022 28/25 Q1009=
20/04/2013 19:00:00Z	 SAID31 WIII 201900	METAR WIII 201900Z 21002KT 4900 BR FEW032 BKN040 BKN050 OVC060 28/25 Q1009=
20/04/2013 19:29:00Z	 SAID31 WIII 201929	METAR WIII 201929Z 15003KT 5000 BR FEW016CB SCT020 28/25 Q1009 CB TO NE=
20/04/2013 20:00:00Z	 SAID31 WIII 202000	METAR WIII 202000Z 20005KT 5000 VCTS BR FEW016CB BKN036 OVC045 27/25 Q1009 CB TO NE AND N=
20/04/2013 20:30:00Z	 SAID31 WIII 202030	METAR WIII 202030Z 21005KT 4000 TS FEW015CB BKN022 BKN028 OVC038 27/2 5 Q1008 CB OVER THE FIELD=
20/04/2013 21:00:00Z	 SAID31 WIII 202100	METAR WIII 202100Z VRB05KT 4000 VCTS BR FEW016CB BKN018 BKN023 OVC030 27/25 Q1009 CB TO NE=
20/04/2013 21:30:00Z	 SAID31 WIII 202130	METAR WIII 202130Z 04007KT 4000 TS SCT016CB OVC018 26/25 Q1009 CB OVE R THE FIELD=
20/04/2013 22:00:00Z	 SAID31 WIII 202200	METAR WIII 202200Z 01003KT 5000 VCTS BR FEW016CB SCT055 BKN070 26/23 Q1009 CB TO N AND NE=
20/04/2013 22:30:00Z	 SAID31 WIII 202230	METAR WIII 202230Z VRB03KT 5000 VCTS BR FEW16CB BKN050 26/23 Q1009 CB TO N AND NE=
20/04/2013 23:00:00Z	 SAID31 WIII 202300	METAR WIII 202300Z AUTO 02002KT 8000 VCTS NCD 25/24 Q1009=
20/04/2013 23:30:00Z	 SAID31 WIII 202330	METAR WIII 202330Z AUTO 05002KT 7000 NCD 25/24 Q1010=
21/04/2013 00:00:00Z	 SAID31 WIII 210000	METAR WIII 210000Z AUTO VRB02KT 9999 SCT021 SCT028 26/25 Q1010=
21/04/2013 00:30:00Z	 SAID31 WIII 210030	METAR WIII 210030Z AUTO 00000KT 9000 SCT021 BKN032 27/25 Q1010=
21/04/2013 01:00:00Z	 SAID31 WIII 210100	METAR WIII 210100Z AUTO 01002KT 9999 NCD 27/25 Q1011=
21/04/2013 01:30:00Z	 SAID31 WIII 210130	METAR WIII 210130Z 31005KT 5000 HZ BKN020 28/26 Q1011=
21/04/2013 02:00:00Z	 SAID31 WIII 210200	METAR WIII 210200Z 33004KT 6000 HZ BKN020 29/25 Q1011=
21/04/2013 02:30:00Z	 SAID31 WIII 210230	METAR WIII 210230Z 35005KT 6000 HZ SCT020 30/25 Q1011=
21/04/2013 03:00:00Z	 SAID31 WIII 210300	METAR WIII 210300Z 05010KT 6000 HZ SCT020 31/25 Q1010=
21/04/2013 03:30:00Z	 SAID31 WIII 210330	METAR WIII 210330Z 05010KT 6000 HZ SCT020 31/25 Q1010=
21/04/2013 04:00:00Z	 SAID31 WIII 210400	METAR WIII 210400Z 06010KT 6000 HZ SCT020 32/25 Q1009=
21/04/2013 04:30:00Z	 SAID31 WIII 210430	METAR WIII 210430Z 04012KT 6000 HZ BKN020 32/26 Q1009=
21/04/2013 05:00:00Z	 SAID31 WIII 210500	METAR WIII 210500Z 06014KT 6000 HZ FEW018CB SCT020 31/25 Q1008 CB TO NW=
21/04/2013 05:30:00Z	 SAID31 WIII 210530	METAR WIII 210530Z 04006G16KT 7000 FEW018CB BKN020 32/26 Q1008 CB TO NW=
21/04/2013 06:00:00Z	 SAID31 WIII 210600	METAR WIII 210600Z 02007G17KT 7000 FEW018CB BKN020 32/26 Q1007 CB TO SW=
21/04/2013 06:30:00Z	 SAID31 WIII 210630	METAR WIII 210630Z 03006G16KT 7000 FEW018CB SCT020 31/25 Q1007 CB TO S AND SW=
21/04/2013 07:00:00Z	 SAID31 WIII 210700	METAR WIII 210700Z 02008G18KT 8000 FEW018CB SCT020 31/26 Q1006 CB TO SE AND SW=
21/04/2013 07:30:00Z	 SAID31 WIII 210730	METAR WIII 210730Z 04013KT 8000 FEW018CB SCT020 31/25 Q1006 CB TO S A ND SW=
21/04/2013 08:00:00Z	 SAID31 WIII 210800	METAR WIII 210800Z 03010KT 8000 VCTS FEW018CB BKN020 31/25 Q1005 CB T O SE AND S=
21/04/2013 08:30:00Z	 SAID31 WIII 210830	METAR WIII 210830Z 03014KT 8000 SCT016CB BKN018 30/24 Q1006 RETS CB T O SE S AND SW=
21/04/2013 09:00:00Z	 SAID31 WIII 210900	METAR WIII 210900Z 06008KT 7000 VCTS SCT016CB BKN018 30/25 Q1006 CB T O SE S AND SW=
21/04/2013 09:30:00Z	 SAID31 WIII 210930	METAR WIII 210930Z 09010KT 7000 SCT016CB BKN018 30/25 Q1006 RETS CB TO SE S AND SW=
21/04/2013 10:00:00Z	 SAID31 WIII 211000	METAR WIII 211000Z 16008KT 5000 HZ SCT016CB BKN018 28/24 Q1007 CB TO SE SW AND W=
21/04/2013 10:30:00Z	 SAID31 WIII 211030	METAR WIII 211030Z 18007KT 5000 HZ FEW016CB BKN018 28/24 Q1007 CB TO SE=
21/04/2013 11:00:00Z	 SAID31 WIII 211100	METAR WIII 211100Z 18007KT 4000 -TSRA BKN016CB OVC020 28/25 Q1007 CB ALL RWY=
21/04/2013 11:30:00Z	 SAID31 WIII 211130	METAR WIII 211130Z 09004KT 4000 -TSRA SCT016CB OVC018 27/23 Q1008 CB ALL RWY=
21/04/2013 12:00:00Z	 SAID31 WIII 211200	METAR WIII 211200Z 19005G15KT 4000 HZ FEW016CB BKN020 27/24 Q1008 CB TO SW AND W=
21/04/2013 12:30:00Z	 SAID31 WIII 211230	METAR WIII 211230Z 19005KT 4000 HZ FEW018CB BKN020 27/24 Q1008 CB TO N=
21/04/2013 13:00:00Z	 SAID31 WIII 211300	METAR WIII 211300Z 20006KT 3000 -RA FEW018CB BKN021 27/25 Q1009 CB TO W=
21/04/2013 13:30:00Z	 SAID31 WIII 211330	METAR WIII 211330Z 19006KT 3500 BR FEW021CB BKN021 26/25 Q1009 CB TO W=
21/04/2013 14:00:00Z	 SAID31 WIII 211400	METAR WIII 211400Z 16004KT 4000 HZ FEW020CB BKN022 26/24 Q1010 CB TO W=
21/04/2013 14:30:00Z	 SAID31 WIII 211430	METAR WIII 211430Z 16004KT 4500 HZ SCT022 OVC096 26/24 Q1010=
21/04/2013 15:30:00Z	 SAID31 WIII 211530	METAR WIII 211530Z VRB03KT 4600 HZ FEW020CB SCT022 BKN075 27/24 Q1010 CB TO N=
21/04/2013 16:00:00Z	 SAID31 WIII 211600	METAR WIII 211600Z 33004KT 4000 BR FEW020CB SCT022 BKN075 26/25 Q1010 CB TO N=
21/04/2013 16:30:00Z	 SAID31 WIII 211630	METAR WIII 211630Z 32003KT 4000 BR FEW020CB SCT022 BKN090 26/25 Q1010 CB TO N=
21/04/2013 17:00:00Z	 SAID31 WIII 211700	METAR WIII 211700Z 24003KT 4000 BR FEW020CB SCT022 26/24 Q1010 CB TO N=
21/04/2013 17:30:00Z	 SAID31 WIII 211730	METAR WIII 211730Z 00000KT 4000 BR FEW020CB SCT022 BKN130 26/25 Q1009 CB TO N=
21/04/2013 18:00:00Z	 SAID31 WIII 211800	METAR WIII 211800Z 14006KT 140V300 2300 TS SCT021CB BKN023 BKN070 OVC 140 27/25 Q1009 CB OVER THE FIELDS=
21/04/2013 18:30:00Z	 SAID31 WIII 211830	METAR WIII 211830Z 16003KT 2200 -TSRA SCT022CB BKN024 OVC065 26/24 Q1 008 CB OVER THE FIELDS=
21/04/2013 19:00:00Z	 SAID31 WIII 211900	METAR WIII 211900Z VRB03KT 4000 VCTS FEW021CB SCT023 25/24 Q1008 CB T O NE AND NW=
21/04/2013 19:30:00Z	 SAID31 WIII 211930	METAR WIII 211930Z VRB03KT 2400 VCTS FEW020CB SCT023 BKN070 25/24 Q10 08 CB TO NE AND NW=
21/04/2013 20:00:00Z	 SAID31 WIII 212000	METAR WIII 212000Z VRB03KT 4500 BR SCT020CB BKN022 BKN075 26/25 Q1008 CB TO N=
21/04/2013 20:30:00Z	 SAID31 WIII 212030	METAR WIII 212030Z 26002KT 4500 BR FEW020CB SCT023 BKN075 26/24 Q1007 CB TO N AND W=
21/04/2013 21:00:00Z	 SAID31 WIII 212100	METAR WIII 212100Z 04002KT 2600 BR FEW020CB SCT023 BKN075 26/24 Q1008 CB TO N=
21/04/2013 21:30:00Z	 SAID31 WIII 212130	METAR WIII 212130Z 30002KT 4000 BR FEW020CB SCT023 26/24 Q1008 CB TO N=
21/04/2013 22:00:00Z	 SAID31 WIII 212200	METAR WIII 212200Z 00000KT 2600 BR FEW020CB SCT023 BKN076 26/24 Q1008 CB TO N=
21/04/2013 22:30:00Z	 SAID31 WIII 212230	METAR WIII 212230Z 00000KT 3000 BR SCT022 BKN060 26/25 Q1009=
21/04/2013 23:00:00Z	 SAID31 WIII 212300	METAR WIII 212300Z VRB03KT 2500 BR SCT022 BKN065 26/25 Q1009=
21/04/2013 23:30:00Z	 SAID31 WIII 212330	METAR WIII 212330Z VRB02KT 2600 BR FEW019CB SCT022 BKN055 27/25 Q1009 CB TO NE=
22/04/2013 00:00:00Z	 SAID31 WIII 220000	METAR WIII 220000Z 18003KT 2000 BR FEW020CB BKN023 OVC070 27/25 Q1010 CB TO NE=
22/04/2013 02:00:00Z	 SAID31 WIII 220200	METAR WIII 220200Z 32004KT 8000 FEW021CB BKN026 26/25 Q1012 RETS RERA CB TO W=
22/04/2013 12:30:00Z	 SAID31 WIII 221230	METAR WIII 221230Z AUTO VRB04KT 4100 BR NCD 26/24 Q1011=
24/04/2013 03:00:00Z	 SAID31 WIII 240300	METAR WIII 240300Z 04012KT 6000 HZ FEW018CB SCT020 31/25 Q1012 CB TO NW=
24/04/2013 06:00:00Z	 SAID31 WIII 240600	METAR WIII 240600Z 04008KT 7000 VCTS SCT016CB BKN018 29/24 Q1010 CB T O S SW AND W=
24/04/2013 06:30:00Z	 SAID31 WIII 240630	METAR WIII 240630Z 06009KT 6000 -TSRA SCT016CB BKN018 29/24 Q1010 CB TO S SW AND W TEMPO 3000 TSRA=
24/04/2013 07:00:00Z	 SAID31 WIII 240700	METAR WIII 240700Z 10006KT 7000 -TSRA SCT016CB BKN018 28/25 Q1009 CB TO SE S AND SW=
24/04/2013 07:30:00Z	 SAID31 WIII 240730	METAR WIII 240730Z 10006KT 6000 -RA FEW016CB SCT018 28/25 Q1009 RETS CB TO SE AND SW=
24/04/2013 08:00:00Z	 SAID31 WIII 240800	METAR WIII 240800Z 03005KT 8000 FEW016CB SCT018 29/25 Q1008 RERA CB TO S=
24/04/2013 08:30:00Z	 SAID31 WIII 240830	METAR WIII 240830Z VRB02KT 8000 FEW016CB SCT018 29/25 Q1008 CB TO SE AND S=
24/04/2013 11:00:00Z	 SAID31 WIII 241100	METAR WIII 241100Z 05005KT 7000 FEW016CB SCT018 28/24 Q1009 CB TO S=
24/04/2013 11:30:00Z	 SAID31 WIII 241130	METAR WIII 241130Z 22003KT 7000 FEW016CB SCT018 28/25 Q1009 CB TO S=
24/04/2013 12:00:00Z	 SAID31 WIII 241200	METAR WIII 241200Z 18003KT 6000 HZ FEW016CB SCT018 28/24 Q1010 CB TO S=
24/04/2013 12:30:00Z	 SAID31 WIII 241230	METAR WIII 241230Z AUTO VRB02KT 9999 NCD 27/24 Q1010=
24/04/2013 13:00:00Z	 SAID31 WIII 241300	METAR WIII 241300Z 16006KT 8000 FEW021 28/24 Q1010=
24/04/2013 13:30:00Z	 SAID31 WIII 241330	METAR WIII 241330Z VRB03KT 7000 FEW021 28/24 Q1011=
24/04/2013 14:00:00Z	 SAID31 WIII 241400	METAR WIII 241400Z VRB02KT 4400 BR FEW022 27/25 Q1011=
24/04/2013 14:30:00Z	 SAID31 WIII 241430	METAR WIII 241430Z 34003KT 2500 BR FEW022 27/26 Q1011=
24/04/2013 15:00:00Z	 SAID31 WIII 241500	METAR WIII 241500Z 33003KT 2200 BR FEW022 27/25 Q1011=
24/04/2013 15:30:00Z	 SAID31 WIII 241530	METAR WIII 241530Z 33003KT 2200 BR FEW022 27/26 Q1011=
24/04/2013 16:00:00Z	 SAID31 WIII 241600	METAR WIII 241600Z 32002KT 2100 BR FEW022 26/26 Q1011=
24/04/2013 16:30:00Z	 SAID31 WIII 241630	METAR WIII 241630Z 18002KT 2200 BR FEW022 26/25 Q1011=
24/04/2013 17:00:00Z	 SAID31 WIII 241700	METAR WIII 241700Z AUTO 00000KT 1900 BR NCD 26/25 Q1011=
24/04/2013 17:30:00Z	 SAID31 WIII 241730	METAR WIII 241730Z 00000KT 2100 BR FEW022 26/25 Q1011=
24/04/2013 18:00:00Z	 SAID31 WIII 241800	METAR WIII 241800Z 24002KT 2100 BR FEW022 26/25 Q1011=
24/04/2013 18:30:00Z	 SAID31 WIII 241830	METAR WIII 241830Z 19003KT 1900 BR NCD 26/25 Q1011=
24/04/2013 19:00:00Z	 SAID31 WIII 241900	METAR WIII 241900Z 19005KT 1800 BR SCT022 6/25 Q1010=
24/04/2013 19:30:00Z	 SAID31 WIII 241930	METAR WIII 241930Z 18005KT 2200 BR SCT020 26/25 Q1010=
24/04/2013 20:00:00Z	 SAID31 WIII 242000	METAR WIII 242000Z 19004KT 3900 BR FEW019 26/25 Q1010=
24/04/2013 20:30:00Z	 SAID31 WIII 242030	METAR WIII 242030Z 21003KT 4600 HZ FEW019 26/25 Q1010=
24/04/2013 21:00:00Z	 SAID31 WIII 242100	METAR WIII 242100Z 20003KT 5000 FEW022 26/24 Q1010=
24/04/2013 21:30:00Z	 SAID31 WIII 242130	METAR WIII 242130Z AUTO 00000KT 4300 HZ NCD 25/24 Q1010=
24/04/2013 22:00:00Z	 SAID31 WIII 242200	METAR WIII 242200Z VRB03KT 5000 VCTS FEW020CB FEW021 25/24 Q1011 CB T O NW=
24/04/2013 22:34:00Z	 SAID31 WIII 242234	METAR WIII 242234Z 19002KT 4800 HZ NCD 25/24 Q1011=
24/04/2013 23:00:00Z	 SAID31 WIII 242300	METAR WIII 242300Z 19004KT 5000 FEW022 26/24 Q1011=
24/04/2013 23:30:00Z	 SAID31 WIII 242330	METAR WIII 242330Z VRB03KT 5000 NCD 26/24 Q1011=
25/04/2013 00:30:00Z	 SAID31 WIII 250030	METAR WIII 250030Z 20007KT 5000 FEW022 28/24 Q1012=
25/04/2013 01:00:00Z	 SAID31 WIII 250100	METAR WIII 250100Z 20006KT 6000 FEW021CB FEW024 28/24 Q1012 CB TO N=
25/04/2013 01:30:00Z	 SAID31 WIII 250130	METAR WIII 250130Z 22005KT 6000 FEW024 29/24 Q1012=
25/04/2013 02:00:00Z	 SAID31 WIII 250200	METAR WIII 250200Z 26003KT 8000 FEW024 30/24 Q1012=
25/04/2013 02:30:00Z	 SAID31 WIII 250230	METAR WIII 250230Z 23003KT 8000 FEW024 30/24 Q1012=
25/04/2013 03:00:00Z	 SAID31 WIII 250300	METAR WIII 250300Z 00000KT 9999 FEW024 31/24 Q1012=
25/04/2013 03:30:00Z	 SAID31 WIII 250330	METAR WIII 250330Z 32003KT 8000 FEW024 32/24 Q1012=
25/04/2013 04:00:00Z	 SAID31 WIII 250400	METAR WIII 250400Z 33005KT 7000 FEW024 31/24 Q1011=
25/04/2013 04:30:00Z	 SAID31 WIII 250430	METAR WIII 250430Z 33005KT 7000 FEW024 32/25 Q1011=
25/04/2013 05:00:00Z	 SAID31 WIII 250500	METAR WIII 250500Z 04008KT 6000 FEW024 32/25 Q1010=
25/04/2013 05:30:00Z	 SAID31 WIII 250530	METAR WIII 250530Z 01006KT 7000 TS FEW021CB FEW024 32/25 Q1010 CB TO S AND SW TEMPO 5000 -TSRA=
25/04/2013 06:00:00Z	 SAID31 WIII 250600	METAR WIII 250600Z 26010KT 7000 TS FEW021CB BKN031 28/24 Q1010 CB OVE R THE FIELD=
25/04/2013 06:30:00Z	 SAID31 WIII 250630	METAR WIII 250630Z 28004KT 7000 VCTS FEW021CB FEW035 30/24 Q1009 CB T O SE=
25/04/2013 07:00:00Z	 SAID31 WIII 250700	METAR WIII 250700Z 14003KT 7000 VCTS FEW021CB FEW055 30/24 Q1009 CB T O E AND SE=
25/04/2013 07:30:00Z	 SAID31 WIII 250730	METAR WIII 250730Z 05002KT 6000 VCTS FEW021CB FEW024 30/23 Q1008 CB T O SE=
25/04/2013 08:30:00Z	 SAID31 WIII 250830	METAR WIII 250830Z 14007KT 5000 HZ FEW021CB FEW024 30/25 Q1008 CB TO SW=
25/04/2013 09:00:00Z	 SAID31 WIII 250900	METAR WIII 250900Z 18006KT 5000 HZ FEW021CB SCT028 30/24 Q1008 CB TO E=
25/04/2013 09:30:00Z	 SAID31 WIII 250930	METAR WIII 250930Z 13006KT 5000 HZ FEW021CB FEW029 29/24 Q1008 CB TO E=
25/04/2013 10:00:00Z	 SAID31 WIII 251000	METAR WIII 251000Z 18002KT 5000 HZ FEW023 29/24 Q1008=
25/04/2013 10:30:00Z	 SAID31 WIII 251030	METAR WIII 251030Z VRB02KT 5000 HZ FEW055 29/24 Q1009=
25/04/2013 11:00:00Z	 SAID31 WIII 251100	METAR WIII 251100Z 00000KT 4000 HZ FEW024 29/24 Q1009=
25/04/2013 11:30:00Z	 SAID31 WIII 251130	METAR WIII 251130Z 20003KT 4000 HZ FEW025 SCT032 29/24 Q1009=
25/04/2013 12:00:00Z	 SAID31 WIII 251200	METAR WIII 251200Z 17003KT 3000 HZ SCT025 BKN055 28/24 Q1009=
25/04/2013 12:30:00Z	 SAID31 WIII 251230	METAR WIII 251230Z AUTO VRB02KT 3000 BR NCD 28/24 Q1010=
25/04/2013 13:00:00Z	 SAID31 WIII 251300	METAR WIII 251300Z 17005KT 5000 BR FEW027 SCT038 28/24 Q1011=
25/04/2013 13:30:00Z	 SAID31 WIII 251330	METAR WIII 251330Z 18006KT 4000 BR FEW022 27/24 Q1011=
25/04/2013 14:00:00Z	 SAID31 WIII 251400	METAR WIII 251400Z VRB05KT 5000 BR SCT028 27/23 Q1011=
25/04/2013 14:30:00Z	 SAID31 WIII 251430	METAR WIII 251430Z 20004KT 4500 BR FEW020 27/24 Q1012=
25/04/2013 15:00:00Z	 SAID31 WIII 251500	METAR WIII 251500Z 23004KT 4400 BR FEW023 27/23 Q1012=
25/04/2013 15:30:00Z	 SAID31 WIII 251530	METAR WIII 251530Z 20004KT 4000 BR FEW018 27/24 Q1012=
25/04/2013 16:00:00Z	 SAID31 WIII 251600	METAR WIII 251600Z VRB03KT 4500 BR FEW020 27/24 Q1012=
25/04/2013 16:30:00Z	 SAID31 WIII 251630	METAR WIII 251630Z VRB02KT 4000 BR FEW016CB FEW018 27/24 Q1012 CB TO NW=
25/04/2013 17:00:00Z	 SAID31 WIII 251700	METAR WIII 251700Z 18003KT 3800 VCTS BR FEW016CB FEW018 26/24 Q1012 C B TO NW=
25/04/2013 17:30:00Z	 SAID31 WIII 251730	METAR WIII 251730Z 21003KT 3700 BR FEW018 26/24 Q1011=
25/04/2013 18:30:00Z	 SAID31 WIII 251830	METAR WIII 251830Z 26004KT 3200 VCTS BR FEW016CB FEW018 26/24 Q1011 C B TO N=
25/04/2013 19:00:00Z	 SAID31 WIII 251900	METAR WIII 251900Z AUTO 22003KT 3100 BR SCT055 SCT069 26/24 Q1010=
25/04/2013 19:30:00Z	 SAID31 WIII 251930	METAR WIII 251930Z 22002KT 3200 VCTS BR FEW016CB SCT055 BKN077 26/24 Q1010 CB TO E=
25/04/2013 20:00:00Z	 SAID31 WIII 252000	METAR WIII 252000Z AUTO 12006KT 2800 BR FEW015 BKN023 BKN031 BKN055 2 6/24 Q1011=
25/04/2013 20:30:00Z	 SAID31 WIII 252030	METAR WIII 252030Z AUTO 10010KT 9999 VCTS FEW019 BKN027 BKN034 OVC080 26/23 Q1011=
25/04/2013 21:00:00Z	 SAID31 WIII 252100	METAR WIII 252100Z AUTO 09006KT 9999 VCTS SCT041 SCT055 BKN067 BKN078 25/23 Q1011=
25/04/2013 21:30:00Z	 SAID31 WIII 252130	METAR WIII 252130Z 05005KT 3000 TSRA FEW016CB BKN018 26/24 Q1011 CB T O NW=
25/04/2013 22:00:00Z	 SAID31 WIII 252200	METAR WIII 252200Z VRB04KT 3000 -RA FEW016CB BKN020 25/24 Q1011 CB TO NW=
25/04/2013 22:30:00Z	 SAID31 WIII 252230	METAR WIII 252230Z VRB02KT 4000 BR BKN020 25/24 Q1011=
25/04/2013 23:00:00Z	 SAID31 WIII 252300	METAR WIII 252300Z 00000KT 5000 BR SCT020 25/23 Q1011=
25/04/2013 23:30:00Z	 SAID31 WIII 252330	METAR WIII 252330Z VRB02KT 5000 BR FEW020 25/23 Q1011=
26/04/2013 00:00:00Z	 SAID31 WIII 260000	METAR WIII 260000Z 00000KT 5000 BR SCT050 BKN060 25/23 Q1012=
26/04/2013 00:30:00Z	 SAID31 WIII 260030	METAR WIII 260030Z AUTO 00000KT 9999 SCT065 SCT082 26/24 Q1012=
26/04/2013 01:00:00Z	 SAID31 WIII 260100	METAR WIII 260100Z AUTO 04002KT 9999 NCD 27/24 Q1012=
26/04/2013 01:30:00Z	 SAID31 WIII 260130	METAR WIII 260130Z 10005KT 5000 HZ FEW018CB OVC020 28/24 Q1012 CB TO NW AND N=
26/04/2013 02:00:00Z	 SAID31 WIII 260200	METAR WIII 260200Z 04005KT 5000 VCTS FEW018CB BKN020 29/24 Q1012 CB T O N AND E=
26/04/2013 02:30:00Z	 SAID31 WIII 260230	METAR WIII 260230Z 03008KT 5000 HZ FEW018CB BKN020 30/24 Q1012 CB TO NW AND N=
26/04/2013 03:00:00Z	 SAID31 WIII 260300	METAR WIII 260300Z 01010KT 6000 HZ FEW018CB BKN020 30/25 Q1012 CB TO NW AND N=
26/04/2013 03:30:00Z	 SAID31 WIII 260330	METAR WIII 260330Z 36006KT 6000 HZ FEW018CB BKN020 30/25 Q1011 CB TO N=
26/04/2013 04:00:00Z	 SAID31 WIII 260400	METAR WIII 260400Z 01008KT 6000 HZ BKN020 30/24 Q1011=
26/04/2013 04:30:00Z	 SAID31 WIII 260430	METAR WIII 260430Z 01011KT 7000 BKN020 31/24 Q1011=
26/04/2013 05:00:00Z	 SAID31 WIII 260500	METAR WIII 260500Z AUTO 03008KT 9999 NCD 31/25 Q1010=
26/04/2013 05:30:00Z	 SAID31 WIII 260530	METAR WIII 260530Z AUTO VRB05KT 9999 NCD 31/24 Q1010=
26/04/2013 06:00:00Z	 SAID31 WIII 260600	METAR WIII 260600Z 04011KT 7000 BKN020 31/24 Q1009=
26/04/2013 06:30:00Z	 SAID31 WIII 260630	METAR WIII 260630Z AUTO 07007KT 9999 NCD 31/24 Q1009=
26/04/2013 07:00:00Z	 SAID31 WIII 260700	METAR WIII 260700Z AUTO 04008KT 9999 NCD 31/25 Q1008=
26/04/2013 07:30:00Z	 SAID31 WIII 260730	METAR WIII 260730Z AUTO 04008KT 9999 NCD 31/25 Q1008=
26/04/2013 08:00:00Z	 SAID31 WIII 260800	METAR WIII 260800Z 35013KT 8000 FEW022 SCT020 31/25 Q1008=
26/04/2013 09:00:00Z	 SAID31 WIII 260900	METAR WIII 260900Z 03012KT 8000 SCT020 31/25 Q1008=
26/04/2013 09:30:00Z	 SAID31 WIII 260930	METAR WIII 260930Z 04006G16KT 8000 FEW018CB SCT020 30/24 Q1008 CB TO SW=
26/04/2013 10:00:00Z	 SAID31 WIII 261000	METAR WIII 261000Z 02007G17KT 8000 SCT020 29/24 Q1008=
26/04/2013 10:30:00Z	 SAID31 WIII 261030	METAR WIII 261030Z 03012KT 8000 SCT020 29/24 Q1008=
26/04/2013 11:00:00Z	 SAID31 WIII 261100	METAR WIII 261100Z 04013KT 7000 FEW018CB SCT020 29/24 Q1009 CB TO SW=
26/04/2013 11:30:00Z	 SAID31 WIII 261130	METAR WIII 261130Z 02010KT 7000 BKN020 29/24 Q1009=
26/04/2013 12:00:00Z	 SAID31 WIII 261200	METAR WIII 261200Z 05008KT 7000 SCT018CB BKN020 28/24 Q1009 CB TO S S W AND W=
26/04/2013 12:30:00Z	 SAID31 WIII 261230	METAR WIII 261230Z 04005KT 7000 FEW018CB SCT020 28/24 Q1010 CB TO SW=
26/04/2013 13:00:00Z	 SAID31 WIII 261300	METAR WIII 261300Z 05004KT 7000 FEW018CB SCT021 28/25 Q1011 CB TO W AND SW=
26/04/2013 13:30:00Z	 SAID31 WIII 261330	METAR WIII 261330Z 06006KT 7000 FEW020CB SCT023 28/24 Q1011 CB TO W=
26/04/2013 14:00:00Z	 SAID31 WIII 261400	METAR WIII 261400Z 06004KT 7000 FEW020CB SCT022 28/24 Q1011 CB TO S AND W=
26/04/2013 14:30:00Z	 SAID31 WIII 261430	METAR WIII 261430Z 07005KT 7000 SCT022 28/24 Q1012=
26/04/2013 15:00:00Z	 SAID31 WIII 261500	METAR WIII 261500Z 06003KT 7000 FEW020CB SCT022 28/25 Q1011 CB TO SW=
26/04/2013 15:30:00Z	 SAID31 WIII 261530	METAR WIII 261530Z 07004KT 6000 VCTS FEW020CB SCT022 28/25 Q1011 CB TO SW=
26/04/2013 16:00:00Z	 SAID31 WIII 261600	METAR WIII 261600Z 07005KT 6000 FEW020CB BKN022 28/25 Q1011 RETS CB T O SW=
26/04/2013 16:30:00Z	 SAID31 WIII 261630	METAR WIII 261630Z 07002KT 4000 HZ BKN023 28/25 Q1011=
26/04/2013 17:00:00Z	 SAID31 WIII 261700	METAR WIII 261700Z VRB02KT 3800 HZ BKN021 28/25 Q1011=
26/04/2013 17:30:00Z	 SAID31 WIII 261730	METAR WIII 261730Z VRB04KT 3300 HZ BKN021 28/25 Q1011=
26/04/2013 18:00:00Z	 SAID31 WIII 261800	METAR WIII 261800Z 24006KT 3000 HZ SCT021 27/24 Q1010=
26/04/2013 18:30:00Z	 SAID31 WIII 261830	METAR WIII 261830Z 22006KT 7000 SCT021 27/24 Q1010=
26/04/2013 19:00:00Z	 SAID31 WIII 261900	METAR WIII 261900Z 19005KT 5000 BR FEW022 26/24 Q1009=
26/04/2013 19:30:00Z	 SAID31 WIII 261930	METAR WIII 261930Z 19005KT 4000 BR FEW022 26/24 Q1009=
26/04/2013 20:00:00Z	 SAID31 WIII 262000	METAR WIII 262000Z 19004KT 4000 VCTS FEW021CB FEW023 26/24 Q1009 CB T O NW=
26/04/2013 20:30:00Z	 SAID31 WIII 262030	METAR WIII 262030Z 17003KT 3800 BR FEW020CB FEW022 26/24 Q1009 CB TO NW=
26/04/2013 21:00:00Z	 SAID31 WIII 262100	METAR WIII 262100Z 27002KT 3000 BR FEW022 25/24 Q1009=
26/04/2013 21:30:00Z	 SAID31 WIII 262130	METAR WIII 262130Z 27002KT 3000 BR FEW022 25/24 Q1009=
26/04/2013 22:00:00Z	 SAID31 WIII 262200	METAR WIII 262200Z VRB02KT 2400 BR FEW022 25/24 Q1009=
26/04/2013 22:30:00Z	 SAID31 WIII 262230	METAR WIII 262230Z 18003KT 2300 BR FEW020CB FEW021 26/24 Q1010 CB TO NW=
26/04/2013 23:00:00Z	 SAID31 WIII 262300	METAR WIII 262300Z VRB03KT 2600 BR FEW020CB FEW022 26/24 Q1010 CB TO NW=
26/04/2013 23:30:00Z	 SAID31 WIII 262330	METAR WIII 262330Z 21004KT 2500 BR FEW020CB FEW022 26/24 Q1011 CB TO NW=
27/04/2013 00:00:00Z	 SAID31 WIII 270000	METAR WIII 270000Z 18003KT 3000 BR FEW022 27/24 Q1011=
27/04/2013 00:30:00Z	 SAID31 WIII 270030	METAR WIII 270030Z AUTO VRB02KT 4700 NCD 27/24 Q1011=
27/04/2013 01:00:00Z	 SAID31 WIII 270100	METAR WIII 270100Z 17005KT 4000 HZ FEW021CB FEW024 28/25 Q1011 CB TO NW=
27/04/2013 01:30:00Z	 SAID31 WIII 270130	METAR WIII 270130Z VRB03KT 5000 HZ FEW025 29/25 Q1011=
27/04/2013 02:00:00Z	 SAID31 WIII 270200	METAR WIII 270200Z 07003KT 6000 BKN025 30/24 Q1011=
27/04/2013 02:30:00Z	 SAID31 WIII 270230	METAR WIII 270230Z 03006KT 7000 SCT024 30/24 Q1012=
27/04/2013 03:00:00Z	 SAID31 WIII 270300	METAR WIII 270300Z 04006KT 6000 -RA FEW023 31/24 Q1011=
27/04/2013 03:30:00Z	 SAID31 WIII 270330	METAR WIII 270330Z 04005KT 7000 SCT025 31/24 Q1011=
27/04/2013 04:00:00Z	 SAID31 WIII 270400	METAR WIII 270400Z 02007KT 9000 FEW024 31/24 Q1010=
27/04/2013 04:30:00Z	 SAID31 WIII 270430	METAR WIII 270430Z 03008KT 9999 FEW021 31/24 Q1010=
27/04/2013 05:00:00Z	 SAID31 WIII 270500	METAR WIII 270500Z 02006KT 9999 FEW021CB FEW025 31/25 Q1009 CB TO SE AND SW=
27/04/2013 05:30:00Z	 SAID31 WIII 270530	METAR WIII 270530Z 04007KT 9000 FEW025 31/24 Q1009=
27/04/2013 06:00:00Z	 SAID31 WIII 270600	METAR WIII 270600Z 04006KT 9999 FEW21CB FEW024 31/24 Q1009 CB TO W=
27/04/2013 06:30:00Z	 SAID31 WIII 270630	METAR WIII 270630Z 06007KT 9999 FEW021CB FEW024 32/24 Q1008 CB TO SE AND W=
27/04/2013 07:00:00Z	 SAID31 WIII 270700	METAR WIII 270700Z 35005KT 8000 FEW024 31/24 Q1008=
27/04/2013 07:30:00Z	 SAID31 WIII 270730	METAR WIII 270730Z 03005KT 9000 FEW024 30/24 Q1007=
27/04/2013 08:00:00Z	 SAID31 WIII 270800	METAR WIII 270800Z 05005KT 9999 FEW024 30/24 Q1007=
27/04/2013 08:30:00Z	 SAID31 WIII 270830	METAR WIII 270830Z 03007KT 9999 FEW021CB FEW024 30/25 Q1007 CB TO SE=
27/04/2013 09:00:00Z	 SAID31 WIII 270900	METAR WIII 270900Z 06009KT 9999 FEW021CB FEW024 30/24 Q1007 CB TO SW=
27/04/2013 09:30:00Z	 SAID31 WIII 270930	METAR WIII 270930Z 08010KT 9999 FEW021CB FEW024 30/24 Q1007 CB TO W=
27/04/2013 10:00:00Z	 SAID31 WIII 271000	METAR WIII 271000Z 06007KT 9999 FEW024 30/24 Q1007=
27/04/2013 10:30:00Z	 SAID31 WIII 271030	METAR WIII 271030Z 05007KT 8000 FEW021CB FEW024 29/24 Q1008 CB TO S=
27/04/2013 11:00:00Z	 SAID31 WIII 271100	METAR WIII 271100Z 04005KT 8000 FEW024 29/25 Q1008=
27/04/2013 11:30:00Z	 SAID31 WIII 271130	METAR WIII 271130Z 05006KT 6000 FEW022 29/25 Q1008=
27/04/2013 12:00:00Z	 SAID31 WIII 271200	METAR WIII 271200Z 05005KT 8000 FEW021CB FEW024 29/25 Q1008 CB TO SW=
27/04/2013 12:30:00Z	 SAID31 WIII 271230	METAR WIII 271230Z 08007KT 9000 FEW021CB FEW026 28/24 Q1009 CB TO SW=
27/04/2013 13:00:00Z	 SAID31 WIII 271300	METAR WIII 271300Z 08005KT 8000 FEW021CB SCT022 BKN035 29/24 Q1010 CB TO SW=
27/04/2013 13:30:00Z	 SAID31 WIII 271330	METAR WIII 271330Z 07007KT 7000 FEW021CB BKN024 29/25 Q1010 CB TO SW=
27/04/2013 14:00:00Z	 SAID31 WIII 271400	METAR WIII 271400Z 07008KT 7000 FEW021CB SCT032 28/25 Q1010 CB TO SW=
27/04/2013 14:30:00Z	 SAID31 WIII 271430	METAR WIII 271430Z 07003KT 7000 FEW021CB FEW024 28/25 Q1011 CB TO SW=
27/04/2013 15:00:00Z	 SAID31 WIII 271500	METAR WIII 271500Z 08005KT 8000 FEW021CB FEW027 28/24 Q1011 CB TO S=
27/04/2013 15:30:00Z	 SAID31 WIII 271530	METAR WIII 271530Z 09004KT 7000 FEW021CB FEW025 28/25 Q1011 CB TO S=
27/04/2013 16:00:00Z	 SAID31 WIII 271600	METAR WIII 271600Z 08005KT 6000 FEW021CB SCT025 28/24 Q1010 CB TO S=
27/04/2013 16:30:00Z	 SAID31 WIII 271630	METAR WIII 271630Z 23003KT 5000 HZ FEW021CB SCT039 28/24 Q1010 CB TO S=
27/04/2013 17:00:00Z	 SAID31 WIII 271700	METAR WIII 271700Z 22005KT 3500 HZ FEW020CB SCT021 27/25 Q1010 CB TO W=
27/04/2013 17:30:00Z	 SAID31 WIII 271730	METAR WIII 271730Z 26003KT 3500 HZ BKN021 27/25 Q1010=
27/04/2013 18:00:00Z	 SAID31 WIII 271800	METAR WIII 271800Z 25004KT 3000 HZ FEW020CB SCT021 26/24 Q1010 CB TO W=
27/04/2013 18:30:00Z	 SAID31 WIII 271830	METAR WIII 271830Z 24004KT 2500 BR FEW021CB SCT024 26/24 Q1010 CB TO SW=
27/04/2013 19:00:00Z	 SAID31 WIII 271900	METAR WIII 271900Z 26004KT 2500 BR FEW023 25/24 Q1010=
27/04/2013 19:30:00Z	 SAID31 WIII 271930	METAR WIII 271930Z 20006KT 3000 BR FEW021CB FEW024 26/24 Q1009 CB TO W=
27/04/2013 20:00:00Z	 SAID31 WIII 272000	METAR WIII 272000Z 22003KT 3000 BR FEW022 26/24 Q1009=
27/04/2013 20:30:00Z	 SAID31 WIII 272030	METAR WIII 272030Z 19004KT 3500 HZ FEW024 26/24 Q1009=
27/04/2013 21:00:00Z	 SAID31 WIII 272100	METAR WIII 272100Z 20003KT 3500 BR FEW055 26/24 Q1010=
27/04/2013 21:30:00Z	 SAID31 WIII 272130	METAR WIII 272130Z 18004KT 4000 BR FEW022 26/24 Q1009=
27/04/2013 22:00:00Z	 SAID31 WIII 272200	METAR WIII 272200Z 16004KT 4000 HZ FEW024 25/24 Q1009=
27/04/2013 22:30:00Z	 SAID31 WIII 272230	METAR WIII 272230Z 20004KT 3500 FEW021CB FEW024 26/24 Q1010 CB TO NW=
27/04/2013 23:00:00Z	 SAID31 WIII 272300	METAR WIII 272300Z 00000KT 3000 HZ FEW024 25/24 Q1010=
27/04/2013 23:30:00Z	 SAID31 WIII 272330	METAR WIII 272330Z VRB03KT 3000 HZ FEW024 26/24 Q1010=
28/04/2013 00:00:00Z	 SAID31 WIII 280000	METAR WIII 280000Z VRB04KT 3000 HZ FEW024 27/24 Q1010=
28/04/2013 00:30:00Z	 SAID31 WIII 280030	METAR WIII 280030Z VRB03KT 5000 BR FEW022 27/24 Q1011=
28/04/2013 01:00:00Z	 SAID31 WIII 280100	METAR WIII 280100Z VRB04KT 6000 FEW022 28/24 Q1011=
28/04/2013 01:30:00Z	 SAID31 WIII 280130	METAR WIII 280130Z 10007KT 9999 FEW022 29/24 Q1011=
28/04/2013 02:00:00Z	 SAID31 WIII 280200	METAR WIII 280200Z 09008KT 9999 FEW020 31/24 Q1011=
28/04/2013 02:30:00Z	 SAID31 WIII 280230	METAR WIII 280230Z 10010KT 9999 FEW030 SCT038 31/24 Q1011=
28/04/2013 03:00:00Z	 SAID31 WIII 280300	METAR WIII 280300Z 07011KT 9999 FEW020 31/24 Q1010=
28/04/2013 03:30:00Z	 SAID31 WIII 280330	METAR WIII 280330Z AUTO 08012KT 9999 NCD 31/24 Q1010=
28/04/2013 04:00:00Z	 SAID31 WIII 280400	METAR WIII 280400Z AUTO 08012KT 9999 NCD 31/24 Q1010=
28/04/2013 04:30:00Z	 SAID31 WIII 280430	METAR WIII 280430Z AUTO 07011KT 9999 NCD 31/24 Q1009=
28/04/2013 05:00:00Z	 SAID31 WIII 280500	METAR WIII 280500Z 08012KT 9999 SCT018 31/24 Q1009=
28/04/2013 05:30:00Z	 SAID31 WIII 280530	METAR WIII 280530Z AUTO 07012KT 9999 NCD 31/24 Q1009=
28/04/2013 06:00:00Z	 SAID31 WIII 280600	METAR WIII 280600Z AUTO 06014KT 9999 NCD 32/24 Q1008=
28/04/2013 06:30:00Z	 SAID31 WIII 280630	METAR WIII 280630Z AUTO 07012KT 9999 NCD 32/25 Q1008=
28/04/2013 07:00:00Z	 SAID31 WIII 280700	METAR WIII 280700Z 07014KT 9999 FEW020 32/24 Q1007=
28/04/2013 07:30:00Z	 SAID31 WIII 280730	METAR WIII 280730Z 06010KT 9999 FEW020 32/24 Q1007=
28/04/2013 08:00:00Z	 SAID31 WIII 280800	METAR WIII 280800Z 07013KT 9999 FEW020 31/25 Q1007=
28/04/2013 08:30:00Z	 SAID31 WIII 280830	METAR WIII 280830Z 06014KT 9999 FEW020 31/24 Q1007=
28/04/2013 09:00:00Z	 SAID31 WIII 280900	METAR WIII 280900Z 07015KT 9999 FEW020 31/23 Q1007=
28/04/2013 09:30:00Z	 SAID31 WIII 280930	METAR WIII 280930Z AUTO 07013KT 9999 NCD 30/25 Q1007=
28/04/2013 10:00:00Z	 SAID31 WIII 281000	METAR WIII 281000Z 07013KT 9999 FEW020 30/25 Q1008=
28/04/2013 10:30:00Z	 SAID31 WIII 281030	METAR WIII 281030Z AUTO 07009KT 9999 FEW024 29/25 Q1008=
28/04/2013 11:00:00Z	 SAID31 WIII 281100	METAR WIII 281100Z 05009KT 9000 BKN020 29/24 Q1009=
28/04/2013 11:30:00Z	 SAID31 WIII 281130	METAR WIII 281130Z 08008KT 8000 SCT020 29/25 Q1009=
28/04/2013 12:00:00Z	 SAID31 WIII 281200	METAR WIII 281200Z 07010KT 8000 FEW024 SCT029 SCT035 29/24 Q1009=
28/04/2013 12:30:00Z	 SAID31 WIII 281230	METAR WIII 281230Z 08010KT 8000 FEW020CB FEW023 28/24 Q1009 CB TO SW=
28/04/2013 13:00:00Z	 SAID31 WIII 281300	METAR WIII 281300Z 08006KT 8000 FEW020CB FEW023 28/24 Q1010 CB TO SW=
28/04/2013 13:30:00Z	 SAID31 WIII 281330	METAR WIII 281330Z 09010KT 8000 FEW020CB SCT024 29/24 Q1011 CB TO SW=
28/04/2013 14:00:00Z	 SAID31 WIII 281400	METAR WIII 281400Z 09009KT 8000 FEW023 28/24 Q1011=
28/04/2013 14:30:00Z	 SAID31 WIII 281430	METAR WIII 281430Z 10005KT 7000 FEW022 28/25 Q1011=
28/04/2013 15:00:00Z	 SAID31 WIII 281500	METAR WIII 281500Z 11005KT 6000 FEW022 28/25 Q1011=
28/04/2013 15:30:00Z	 SAID31 WIII 281530	METAR WIII 281530Z 13003KT 6000 FEW023 28/25 Q1011=
28/04/2013 16:00:00Z	 SAID31 WIII 281600	METAR WIII 281600Z 12004KT 6000 BKN022 28/25 Q1011=
28/04/2013 16:30:00Z	 SAID31 WIII 281630	METAR WIII 281630Z 14003KT 5000 HZ SCT024 28/24 Q1011=
28/04/2013 17:00:00Z	 SAID31 WIII 281700	METAR WIII 281700Z VRB04KT 5000 HZ FEW023 28/24 Q1011=
28/04/2013 17:30:00Z	 SAID31 WIII 281730	METAR WIII 281730Z VRB03KT 5000 HZ FEW023 28/24 Q1010=
28/04/2013 18:00:00Z	 SAID31 WIII 281800	METAR WIII 281800Z VRB04KT 6000 FEW022 27/24 Q1010=
28/04/2013 18:30:00Z	 SAID31 WIII 281830	METAR WIII 281830Z 14003KT 6000 FEW022 27/24 Q1009=
28/04/2013 19:00:00Z	 SAID31 WIII 281900	METAR WIII 281900Z 16003KT 4000 BR FEW022 26/24 Q1009=
28/04/2013 19:30:00Z	 SAID31 WIII 281930	METAR WIII 281930Z VRB04KT 4000 HZ FEW022 27/23 Q1009=
28/04/2013 20:00:00Z	 SAID31 WIII 282000	METAR WIII 282000Z 13003KT 6000 FEW023 27/23 Q1009=
28/04/2013 20:30:00Z	 SAID31 WIII 282030	METAR WIII 282030Z VRB04KT 4800 HZ FEW022 26/23 Q1009=
28/04/2013 21:00:00Z	 SAID31 WIII 282100	METAR WIII 282100Z 16002KT 4500 HZ FEW022 26/23 Q1009=
28/04/2013 21:30:00Z	 SAID31 WIII 282130	METAR WIII 282130Z 16003KT 4500 HZ FEW022 25/23 Q1009=
28/04/2013 22:00:00Z	 SAID31 WIII 282200	METAR WIII 282200Z 14004KT 4000 HZ FEW023 25/23 Q1009=
28/04/2013 22:30:00Z	 SAID31 WIII 282230	METAR WIII 282230Z 14004KT 3200 HZ FEW023 26/23 Q1009=
28/04/2013 23:00:00Z	 SAID31 WIII 282300	METAR WIII 282300Z 15004KT 2600 BR FEW023 26/23 Q1009=
28/04/2013 23:30:00Z	 SAID31 WIII 282330	METAR WIII 282330Z 18004KT 1800 BR FEW023 26/23 Q1010=
29/04/2013 00:00:00Z	 SAID31 WIII 290000	METAR WIII 290000Z 15004KT 2800 HZ FEW023 27/23 Q1010=
29/04/2013 00:30:00Z	 SAID31 WIII 290030	METAR WIII 290030Z AUTO VRB04KT 5000 NCD 28/23 Q1010=
29/04/2013 01:00:00Z	 SAID31 WIII 290100	METAR WIII 290100Z AUTO VRB04KT 9000 NCD 29/23 Q1010=
29/04/2013 01:30:00Z	 SAID31 WIII 290130	METAR WIII 290130Z AUTO 11009KT 9999 NCD 31/22 Q1010=
29/04/2013 02:00:00Z	 SAID31 WIII 290200	METAR WIII 290200Z 11014KT 9999 SCT020 31/22 Q1010=
29/04/2013 02:30:00Z	 SAID31 WIII 290230	METAR WIII 290230Z AUTO 10012KT 9999 NCD 32/23 Q1010=
29/04/2013 03:00:00Z	 SAID31 WIII 290300	METAR WIII 290300Z 08011KT 8000 SCT018 32/23 Q1010=
29/04/2013 03:30:00Z	 SAID31 WIII 290330	METAR WIII 290330Z 06006G16KT 8000 SCT018 32/24 Q1009=
29/04/2013 04:00:00Z	 SAID31 WIII 290400	METAR WIII 290400Z 07007G17KT 8000 SCT018 33/24 Q1009=
29/04/2013 04:30:00Z	 SAID31 WIII 290430	METAR WIII 290430Z 05009G19KT 8000 FEW018CB SCT020 32/24 Q1009 CB TO NE AND S=
29/04/2013 05:00:00Z	 SAID31 WIII 290500	METAR WIII 290500Z 05007G17KT 8000 FEW018CB SCT020 32/24 Q1009 CB TO S=
29/04/2013 05:30:00Z	 SAID31 WIII 290530	METAR WIII 290530Z 05009G19KT 8000 SCT020 33/25 Q1008=
29/04/2013 06:00:00Z	 SAID31 WIII 290600	METAR WIII 290600Z 02010G20KT 8000 SCT020 32/26 Q1008=
29/04/2013 06:30:00Z	 SAID31 WIII 290630	METAR WIII 290630Z 06011G21KT 9999 FEW018CB SCT020 32/24 Q1008 CB TO N=
29/04/2013 07:00:00Z	 SAID31 WIII 290700	METAR WIII 290700Z 08012G22KT 9999 FEW018CB SCT020 32/23 Q1007 CB TO W AND N=
29/04/2013 07:30:00Z	 SAID31 WIII 290730	METAR WIII 290730Z 06011G21KT 8000 FEW018CB SCT020 32/24 Q1007 CB TO W=
29/04/2013 08:00:00Z	 SAID31 WIII 290800	METAR WIII 290800Z 04010G20KT 8000 FEW018CB SCT020 32/25 Q1007 CB TO N=
29/04/2013 08:30:00Z	 SAID31 WIII 290830	METAR WIII 290830Z 06010G20KT 9999 SCT020 31/25 Q1007=
29/04/2013 09:00:00Z	 SAID31 WIII 290900	METAR WIII 290900Z 05010G20KT 9999 SCT020 31/25 Q1007=
29/04/2013 09:30:00Z	 SAID31 WIII 290930	METAR WIII 290930Z 06014KT 8000 FEW018CB SCT020 31/25 Q1007 CB TO SW=
29/04/2013 10:00:00Z	 SAID31 WIII 291000	METAR WIII 291000Z 07008G18KT 8000 FEW018 SCT020 30/24 Q1007 CB TO SW=
29/04/2013 10:30:00Z	 SAID31 WIII 291030	METAR WIII 291030Z 04009G19KT 6000 HZ SCT020 30/25 Q1008=
29/04/2013 11:00:00Z	 SAID31 WIII 291100	METAR WIII 291100Z 07005G15KT 6000 HZ FEW018CB SCT020 29/24 Q1008 CB TO S AND SW=
29/04/2013 11:30:00Z	 SAID31 WIII 291130	METAR WIII 291130Z 10012KT 6000 VCTS FEW016CB SCT018 29/24 Q1008 CB T O S AND SW=
29/04/2013 12:00:00Z	 SAID31 WIII 291200	METAR WIII 291200Z 05009KT 6000 HZ FEW016CB SCT018 29/24 Q1009 CB TO S AND SW=
29/04/2013 12:30:00Z	 SAID31 WIII 291230	METAR WIII 291230Z AUTO 09009KT 9999 NCD 29/24 Q1009=
29/04/2013 13:00:00Z	 SAID31 WIII 291300	METAR WIII 291300Z 09008KT 8000 FEW022 28/24 Q1010=
29/04/2013 13:30:00Z	 SAID31 WIII 291330	METAR WIII 291330Z 09009KT 8000 FEW021 29/25 Q1010=
29/04/2013 14:00:00Z	 SAID31 WIII 291400	METAR WIII 291400Z 10008KT 9000 FEW021 29/25 Q1010=
29/04/2013 14:30:00Z	 SAID31 WIII 291430	METAR WIII 291430Z 10009KT 8000 FEW022 28/25 Q1010=
29/04/2013 15:00:00Z	 SAID31 WIII 291500	METAR WIII 291500Z 11006KT 9000 FEW022 28/25 Q1011=
29/04/2013 15:30:00Z	 SAID31 WIII 291530	METAR WIII 291530Z VRB05KT 8000 FEW023 29/25 Q1011=
29/04/2013 16:00:00Z	 SAID31 WIII 291600	METAR WIII 291600Z 10007KT 9000 FEW023 28/25 Q1011=
29/04/2013 16:30:00Z	 SAID31 WIII 291630	METAR WIII 291630Z 11005KT 8000 FEW022 28/25 Q1010=
29/04/2013 17:00:00Z	 SAID31 WIII 291700	METAR WIII 291700Z 12005KT 9000 FEW022 28/25 Q1010=
29/04/2013 17:30:00Z	 SAID31 WIII 291730	METAR WIII 291730Z 13006KT 8000 FEW022 28/25 Q1010=
29/04/2013 18:00:00Z	 SAID31 WIII 291800	METAR WIII 291800Z 12004KT 8000 FEW022 28/25 Q1009=
29/04/2013 18:30:00Z	 SAID31 WIII 291830	METAR WIII 291830Z 16005KT 7000 FEW023 27/25 Q1009=
29/04/2013 19:00:00Z	 SAID31 WIII 291900	METAR WIII 291900Z 14005KT 7000 FEW022 28/25 Q1009=
29/04/2013 20:00:00Z	 SAID31 WIII 292000	METAR WIII 292000Z 15003KT 6000 FEW023 27/24 Q1009=
29/04/2013 20:30:00Z	 SAID31 WIII 292030	METAR WIII 292030Z AUTO 15004KT 5000 NCD 26/24 Q1008=
29/04/2013 21:00:00Z	 SAID31 WIII 292100	METAR WIII 292100Z 13003KT 5000 NCD 27/24 Q1008=
29/04/2013 22:00:00Z	 SAID31 WIII 292200	METAR WIII 292200Z AUTO 15003KT 8000 NCD 27/24 Q1009=
29/04/2013 22:30:00Z	 SAID31 WIII 292230	METAR WIII 292230Z VRB04KT 6000 NCD 27/24 Q1009=
29/04/2013 23:00:00Z	 SAID31 WIII 292300	METAR WIII 292300Z VRB02KT 5000 NCD 27/24 Q1009=
29/04/2013 23:30:00Z	 SAID31 WIII 292330	METAR WIII 292330Z 21003KT 4300 HZ NCD 27/24 Q1009=
30/04/2013 00:00:00Z	 SAID31 WIII 300000	METAR WIII 300000Z VRB03KT 5000 FEW023 28/24 Q1010=
30/04/2013 00:30:00Z	 SAID31 WIII 300030	METAR WIII 300030Z AUTO VRB03KT 4400 HZ NCD 28/24 Q1010=
30/04/2013 01:30:00Z	 SAID31 WIII 300130	METAR WIII 300130Z 14002KT 4000 HZ SCT029 30/24 Q1010=
30/04/2013 02:00:00Z	 SAID31 WIII 300200	METAR WIII 300200Z 13006KT 5000 HZ FEW031 31/24 Q1010=
30/04/2013 02:30:00Z	 SAID31 WIII 300230	METAR WIII 300230Z 12006KT 6000 FEW021CB SCT033 31/24 Q1010 CB TO NE=
30/04/2013 03:00:00Z	 SAID31 WIII 300300	METAR WIII 300300Z 08010KT 6000 FEW033 31/24 Q1010=
30/04/2013 03:30:00Z	 SAID31 WIII 300330	METAR WIII 300330Z 07011KT 7000 FEW021CB FEW024 32/24 Q1010 CB TO S=
30/04/2013 04:00:00Z	 SAID31 WIII 300400	METAR WIII 300400Z 07014KT 7000 FEW021CB FEW024 32/24 Q1009 CB TO NW=
30/04/2013 04:30:00Z	 SAID31 WIII 300430	METAR WIII 300430Z 06012KT 8000 FEW024 32/25 Q1009=
30/04/2013 05:00:00Z	 SAID31 WIII 300500	METAR WIII 300500Z 07013KT 8000 FEW024 32/25 Q1008=
30/04/2013 05:30:00Z	 SAID31 WIII 300530	METAR WIII 300530Z 06011KT 9000 FEW024 32/25 Q1008=
30/04/2013 06:00:00Z	 SAID31 WIII 300600	METAR WIII 300600Z 06014KT 9999 FEW024 33/25 Q1008=
30/04/2013 06:30:00Z	 SAID31 WIII 300630	METAR WIII 300630Z 06012KT 9999 FEW024 32/25 Q1007=
30/04/2013 07:00:00Z	 SAID31 WIII 300700	METAR WIII 300700Z 07016KT 9999 FEW024 32/25 Q1007=
30/04/2013 07:30:00Z	 SAID31 WIII 300730	METAR WIII 300730Z 05016KT 9999 FEW024 32/25 Q1006=
30/04/2013 08:00:00Z	 SAID31 WIII 300800	METAR WIII 300800Z 07014KT 9999 FEW024 32/25 Q1006=
30/04/2013 08:30:00Z	 SAID31 WIII 300830	METAR WIII 300830Z 06013KT 9999 FEW024 31/25 Q1006=
30/04/2013 09:00:00Z	 SAID31 WIII 300900	METAR WIII 300900Z 06016KT 9999 FEW021CB FEW024 31/25 Q1006 CB TO W=
30/04/2013 09:30:00Z	 SAID31 WIII 300930	METAR WIII 300930Z 07014KT 9999 FEW021CB FEW024 31/24 Q1006 CB TO SW=
30/04/2013 10:00:00Z	 SAID31 WIII 301000	METAR WIII 301000Z 07013KT 9999 FEW021CB FEW024 30/24 Q1006 CB O SW=
30/04/2013 10:30:00Z	 SAID31 WIII 301030	METAR WIII 301030Z 08014KT 9000 FEW021CB FEW024 30/24 Q1007 CB TO W=
30/04/2013 11:30:00Z	 SAID31 WIII 301130	METAR WIII 301130Z 08008KT 9000 FEW021CB FEW024 29/24 Q1008 CB TO W=
30/04/2013 12:00:00Z	 SAID31 WIII 301200	METAR WIII 301200Z 09011KT 9000 FEW021CB FEW024 29/23 Q1008 CB TO SW=
30/04/2013 12:30:00Z	 SAID31 WIII 301230	METAR WIII 301230Z AUTO 08009KT 9999 NCD 29/23 Q1008=
30/04/2013 13:00:00Z	 SAID31 WIII 301300	METAR WIII 301300Z AUTO 10006KT 9999 NCD 29/24 Q1009=
30/04/2013 13:30:00Z	 SAID31 WIII 301330	METAR WIII 301330Z VRB05KT 6000 FEW020 29/24 Q1009=
30/04/2013 14:00:00Z	 SAID31 WIII 301400	METAR WIII 301400Z VRB02KT 5000 BR FEW020 29/24 Q1009=
30/04/2013 14:30:00Z	 SAID31 WIII 301430	METAR WIII 301430Z 08002KT 5000 BR FEW020 28/24 Q1010=
30/04/2013 15:00:00Z	 SAID31 WIII 301500	METAR WIII 301500Z 28002KT 5000 BR FEW031 28/25 Q1010=
30/04/2013 15:30:00Z	 SAID31 WIII 301530	METAR WIII 301530Z 28003KT 5000 BR FEW020 27/24 Q1010=
30/04/2013 16:00:00Z	 SAID31 WIII 301600	METAR WIII 301600Z 30002KT 5000 BR FEW020 27/24 Q1010=
30/04/2013 16:30:00Z	 SAID31 WIII 301630	METAR WIII 301630Z 31002KT 5000 BR FEW031 27/25 Q1010=
30/04/2013 17:00:00Z	 SAID31 WIII 301700	METAR WIII 301700Z 28002KT 4000 BR FEW031 SCT110 27/25 Q1009=
30/04/2013 17:30:00Z	 SAID31 WIII 301730	METAR WIII 301730Z VRB03KT 4000 BR FEW030 27/24 Q1009=
30/04/2013 18:00:00Z	 SAID31 WIII 301800	METAR WIII 301800Z VRB02KT 3000 BR SCT032 26/24 Q1009=
30/04/2013 18:30:00Z	 SAID31 WIII 301830	METAR WIII 301830Z 25004KT 3000 BR FEW027 26/24 Q1008=
30/04/2013 19:00:00Z	 SAID31 WIII 301900	METAR WIII 301900Z 25004KT 3500 BR SCT030 SCT042 SCT050 BKN100 26/24 Q1008=
30/04/2013 19:30:00Z	 SAID31 WIII 301930	METAR WIII 301930Z 18004KT 4000 BR SCT020 27/25 Q1008=
30/04/2013 20:00:00Z	 SAID31 WIII 302000	METAR WIII 302000Z 16006KT 3500 BR BKN022 BKN050 27/25 Q1008=
30/04/2013 20:30:00Z	 SAID31 WIII 302030	METAR WIII 302030Z AUTO 22004KT 3700 NCD 26/25 Q1008=
30/04/2013 21:00:00Z	 SAID31 WIII 302100	METAR WIII 302100Z AUTO 19003KT 3500 NCD 26/25 Q1008=
30/04/2013 21:30:00Z	 SAID31 WIII 302130	METAR WIII 302130Z AUTO 00000KT 3600 FEW032 26/25 Q1008=
30/04/2013 22:00:00Z	 SAID31 WIII 302200	METAR WIII 302200Z AUTO VRB02KT 3900 NCD 26/25 Q1008=
30/04/2013 22:30:00Z	 SAID31 WIII 302230	METAR WIII 302230Z AUTO VRB03KT 3600 NCD 26/24 Q1009=
30/04/2013 23:00:00Z	 SAID31 WIII 302300	METAR WIII 302300Z VRB02KT 4000 BR FEW037 26/24 Q1009=
30/04/2013 23:30:00Z	 SAID31 WIII 302330	METAR WIII 302330Z 00000KT 5000 BR FEW020 26/24 Q1009=
