01/04/2016 00:30:00Z	 SAID31 WIII 010030	METAR WIII 010030Z VRB02KT CAVOK 28/23 Q1010 NOSIG=
01/04/2016 01:00:00Z	 SAID31 WIII 010100	METAR WIII 010100Z VRB03KT CAVOK 29/24 Q1010 NOSIG=
01/04/2016 01:30:00Z	 SAID31 WIII 010130	METAR WIII 010130Z VRB02KT CAVOK 29/24 Q1010 NOSIG=
01/04/2016 02:00:00Z	 SAID31 WIII 010200	METAR WIII 010200Z VRB02KT 9999 FEW020 30/25 Q1011 NOSIG=
01/04/2016 02:30:00Z	 SAID31 WIII 010230	METAR WIII 010230Z VRB02KT 9999 SCT020 30/25 Q1011 NOSIG=
01/04/2016 03:00:00Z	 SAID31 WIII 010300	METAR WIII 010300Z VRB04KT 9999 FEW020CB BKN022 30/25 Q1011 NOSIG RMK CB TO N=
01/04/2016 03:30:00Z	 SAID31 WIII 010330	METAR WIII 010330Z VRB03KT 9999 VCTS FEW020CB BKN022 30/26 Q1011 NOS IG RMK CB TO NE=
01/04/2016 04:00:00Z	 SAID31 WIII 010400	METAR WIII 010400Z VRB05KT 9999 VCTS FEW020CB BKN022 30/25 Q1010 NOS IG RMK CB TO N AND NE=
01/04/2016 04:30:00Z	 SAID31 WIII 010430	METAR WIII 010430Z 31006KT 280V360 7000 -TSRA FEW018CB BKN020 31/26 Q1010 NOSIG RMK CB TO N AND NE=
01/04/2016 05:00:00Z	 SAID31 WIII 010500	METAR WIII 010500Z 02006G16KT 7000 -TSRA FEW018CB BKN020 28/24 Q1010 NOSIG RMK CB TO N AND SE=
01/04/2016 05:30:00Z	 SAID31 WIII 010530	METAR WIII 010530Z 01006KT 8000 VCTS FEW018CB BKN020 28/25 Q1009 RERA NOSIG RMK CB TO N AND SE=
01/04/2016 06:00:00Z	 SAID31 WIII 010600	METAR WIII 010600Z VRB04KT 9999 SCT018CB SCT020 29/24 Q1008 NOSIG RMK CB TO N E AND W=
01/04/2016 06:30:00Z	 SAID31 WIII 010630	METAR WIII 010630Z VRB05KT 9999 FEW020CB SCT022 30/26 Q1008 NOSIG RMK CB TO N AND SE=
01/04/2016 07:00:00Z	 SAID31 WIII 010700	METAR WIII 010700Z 33008KT 9999 FEWCB2000FT SCT2200FT 31/26 Q1007 NOS IG RMK CB TO N=
01/04/2016 07:00:00Z	 SAID31 WIII 010700 CCA	METAR COR WIII 010700Z 33008KT 9999 FEW020CB SCT022 31/26 Q1007 NOSIG RMK CB TO N=
01/04/2016 07:30:00Z	 SAID31 WIII 010730	METAR WIII 010730Z 34005KT 9999 FEW020CB SCT022 30/25 Q1007 NOSIG RMK CB TO N AND SE=
01/04/2016 08:00:00Z	 SAID31 WIII 010800	METAR WIII 010800Z 34006KT 9999 FEW020CB SCT020 30/26 Q1007 NOSIG RMK CB TO S=
01/04/2016 08:30:00Z	 SAID31 WIII 010830	METAR WIII 010830Z AUTO VRB05KT 9999 FEW095 30/26 Q1007 NOSIG=
01/04/2016 09:00:00Z	 SAID31 WIII 010900	METAR WIII 010900Z 03006KT 9999 FEW020CB SCT020 30/25 Q1007 NOSIG RMK CB TO S=
01/04/2016 09:30:00Z	 SAID31 WIII 010930	METAR WIII 010930Z 03007KT 9999 FEW018 BKN020 29/26 Q1008 NOSIG RMK C B TO SE=
01/04/2016 10:00:00Z	 SAID31 WIII 011000	METAR WIII 011000Z 05008KT 9999 FEW018CB SCT020 29/26 Q1008 NOSIG RMK CB TO SE=
01/04/2016 10:30:00Z	 SAID31 WIII 011030	METAR WIII 011030Z 06006KT 9999 FEW020CB SCT020 28/26 Q1008 NOSIG RMK CB TO S=
01/04/2016 11:00:00Z	 SAID31 WIII 011100	METAR WIII 011100Z 06005KT 9999 VCTS FEW020CB BKN020 28/26 Q1009 NOSI G RMK CB TO S=
01/04/2016 11:30:00Z	 SAID31 WIII 011130	METAR WIII 011130Z 09006KT 9999 VCTS FEW020CB BKN020 28/26 Q1010 NOSI G CB TO S=
01/04/2016 12:00:00Z	 SAID31 WIII 011200	METAR WIII 011200Z VRB05KT 9999 VCTS FEW020CB BKN020 28/26 Q1010 NOSI G RMK CB TO S=
01/04/2016 12:30:00Z	 SAID31 WIII 011230	METAR WIII 011230Z 18007KT 9999 SCT018CB BKN020 28/25 Q1011 REVCTS NO SIG RMK CB TO SW W AND NW=
01/04/2016 13:00:00Z	 SAID31 WIII 011300	METAR WIII 011300Z 17008KT 7000 FEW018CB SCT020 27/24 Q1011 NOSIG RMK CB TO NW=
01/04/2016 13:30:00Z	 SAID31 WIII 011330	METAR WIII 011330Z 21005KT 7000 SCT023 27/24 Q1012 NOSIG=
01/04/2016 14:00:00Z	 SAID31 WIII 011400	METAR WIII 011400Z 17005KT 7000 BKN023 27/24 Q1012 NOSIG=
01/04/2016 14:30:00Z	 SAID31 WIII 011430	METAR WIII 011430Z 18006KT 140V230 7000 SCT022 26/24 Q1012 NOSIG=
01/04/2016 15:00:00Z	 SAID31 WIII 011500	METAR WIII 011500Z 14004KT 7000 SCT022 26/25 Q1012 NOSIG=
01/04/2016 15:30:00Z	 SAID31 WIII 011530	METAR WIII 011530Z VRB03KT 6000 FEW020CB SCT022 26/25 Q1012 NOSIG RMK CB TO W=
01/04/2016 16:00:00Z	 SAID31 WIII 011600	METAR WIII 011600Z 04002KT 6000 FEW020CB SCT022 26/25 Q1012 NOSIG RMK CB TO NW=
01/04/2016 16:30:00Z	 SAID31 WIII 011630	METAR WIII 011630Z VRB02KT 5000 HZ FEW020CB SCT022 26/25 Q1012 NOSIG RMK CB TO N=
01/04/2016 17:00:00Z	 SAID31 WIII 011700	METAR WIII 011700Z 36003KT 4800 HZ FEW020CB SCT021 26/25 Q1012 RMK CB TO N=
01/04/2016 17:30:00Z	 SAID31 WIII 011730	METAR WIII 011730Z 35007KT 320V020 5000 HZ FEW019CB BKN021 26/24 Q101 2 NOSIG RMK CB TO N=
01/04/2016 18:00:00Z	 SAID31 WIII 011800	METAR WIII 011800Z 34009KT 4800 -RA FEW019CB BKN020 25/24 Q1012 NOSIG RMK CB TO N=
01/04/2016 18:30:00Z	 SAID31 WIII 011830	METAR WIII 011830Z 30007KT 6000 -RA SCT020 25/25 Q1011 NOSIG=
01/04/2016 19:00:00Z	 SAID31 WIII 011900	METAR WIII 011900Z 02003KT 7000 SCT020 25/25 Q1011 RERA NOSIG=
01/04/2016 19:30:00Z	 SAID31 WIII 011930	METAR WIII 011930Z VRB02KT 7000 SCT021 25/25 Q1010 NOSIG=
01/04/2016 20:00:00Z	 SAID31 WIII 012000	METAR WIII 012000Z 22002KT 7000 SCT021 25/25 Q1010 NOSIG=
01/04/2016 20:30:00Z	 SAID31 WIII 012030	METAR WIII 012030Z 21003KT 7000 SCT021 25/25 Q1010 NOSIG=
01/04/2016 21:00:00Z	 SAID31 WIII 012100	METAR WIII 012100Z 26004KT 5000 BR SCT020 25/25 Q1009 NOSIG=
01/04/2016 21:30:00Z	 SAID31 WIII 012130	METAR WIII 012130Z VRB02KT 6000 SCT020 25/25 Q1010 NOSIG=
01/04/2016 22:00:00Z	 SAID31 WIII 012200	METAR WIII 012200Z 18003KT 6000 SCT020 25/25 Q1010 NOSIG=
01/04/2016 22:30:00Z	 SAID31 WIII 012230	METAR WIII 012230Z 21006KT 6000 SCT019 25/25 Q1010 NOSIG=
01/04/2016 23:00:00Z	 SAID31 WIII 012300	METAR WIII 012300Z 22005KT 4200 BR FEW019 25/25 Q1010 NOSIG=
01/04/2016 23:30:00Z	 SAID31 WIII 012330	METAR WIII 012330Z 22004KT 6000 FEW022 26/25 Q1010 NOSIG=
02/04/2016 00:00:00Z	 SAID31 WIII 020000	METAR WIII 020000Z 15005KT 4800 BR FEW021 26/25 Q1010 NOSIG=
02/04/2016 00:30:00Z	 SAID31 WIII 020030	METAR WIII 020030Z 18004KT 6000 FEW021 27/25 Q1011 NOSIG=
02/04/2016 01:00:00Z	 SAID31 WIII 020100	METAR WIII 020100Z 21005KT 7000 FEW020 27/25 Q1011 NOSIG=
02/04/2016 01:30:00Z	 SAID31 WIII 020130	METAR WIII 020130Z VRB03KT 8000 FEW020 28/25 Q1012 NOSIG=
02/04/2016 02:00:00Z	 SAID31 WIII 020200	METAR WIII 020200Z VRB02KT 9999 FEW020 29/25 Q1012 NOSIG=
02/04/2016 02:30:00Z	 SAID31 WIII 020230	METAR WIII 020230Z VRB04KT 9999 FEW018 30/26 Q1012 NOSIG=
02/04/2016 03:00:00Z	 SAID31 WIII 020300	METAR WIII 020300Z VRB02KT 9999 SCT020 30/25 Q1012 NOSIG=
02/04/2016 03:30:00Z	 SAID31 WIII 020330	METAR WIII 020330Z VRB03KT 9999 SCT020 30/26 Q1012 NOSIG=
02/04/2016 04:00:00Z	 SAID31 WIII 020400	METAR WIII 020400Z VRB04KT 9999 SCT020 31/25 Q1011 NOSIG=
02/04/2016 04:30:00Z	 SAID31 WIII 020430	METAR WIII 020430Z 04006KT 350V060 9999 FEW018 31/25 Q1011 NOSIG=
02/04/2016 05:00:00Z	 SAID31 WIII 020500	METAR WIII 020500Z 03006KT 330V070 9999 FEW018 31/26 Q1011 NOSIG=
02/04/2016 05:30:00Z	 SAID31 WIII 020530	METAR WIII 020530Z 03007KT 330V060 9999 FEW020 31/26 Q1010 NOSIG=
02/04/2016 06:00:00Z	 SAID31 WIII 020600	METAR WIII 020600Z 02006KT 340V060 9999 FEW020 31/26 Q1010 NOSIG=
02/04/2016 06:30:00Z	 SAID31 WIII 020630	METAR WIII 020630Z 02007KT 310V060 9999 FEW020 31/25 Q1009 NOSIG=
02/04/2016 07:00:00Z	 SAID31 WIII 020700	METAR WIII 020700Z 02006KT 310V060 9999 FEW018 31/26 Q1008 NOSIG=
02/04/2016 07:30:00Z	 SAID31 WIII 020730	METAR WIII 020730Z 36006KT 330V050 9999 FEW020 31/25 Q1008 NOSIG=
02/04/2016 08:00:00Z	 SAID31 WIII 020800	METAR WIII 020800Z 01007KT 320V040 9999 FEW020 31/25 Q1008 NOSIG=
02/04/2016 08:30:00Z	 SAID31 WIII 020830	METAR WIII 020830Z 02006KT 320V050 9999 FEW020 31/26 Q1008 NOSIG=
02/04/2016 09:00:00Z	 SAID31 WIII 020900	METAR WIII 020900Z VRB05KT 9999 FEW020 31/25 Q1008 NOSIG=
02/04/2016 09:30:00Z	 SAID31 WIII 020930	METAR WIII 020930Z 01007KT 340V050 9999 FEW018 30/26 Q1008 NOSIG=
02/04/2016 10:00:00Z	 SAID31 WIII 021000	METAR WIII 021000Z VRB05KT 9999 FEW020 30/25 Q1009 NOSIG=
02/04/2016 10:30:00Z	 SAID31 WIII 021030	METAR WIII 021030Z VRB04KT 9999 FEW018 30/25 Q1010 NOSIG=
02/04/2016 11:00:00Z	 SAID31 WIII 021100	METAR WIII 021100Z VRB02KT 9000 SCT018 30/25 Q1010 NOSIG=
02/04/2016 11:30:00Z	 SAID31 WIII 021130	METAR WIII 021130Z 12012KT 8000 FEW016CB SCT018 29/26 Q1011 NOSIG RMK CB TO S AND SW=
02/04/2016 12:00:00Z	 SAID31 WIII 021200	METAR WIII 021200Z 17008KT 140V200 7000 FEW016CB BKN020 28/24 Q1011 N OSIG RMK CB TO SW=
02/04/2016 12:30:00Z	 SAID31 WIII 021230	METAR WIII 021230Z 17008KT 7000 FEW016CB SCT018 27/24 Q1012 NOSIG RMK CB TO SW=
02/04/2016 13:00:00Z	 SAID31 WIII 021300	METAR WIII 021300Z 17007KT 8000 SCT018 26/24 Q1012 NOSIG=
02/04/2016 13:30:00Z	 SAID31 WIII 021330	METAR WIII 021330Z 20008KT 8000 SCT020 26/24 Q1012 NOSIG=
02/04/2016 14:00:00Z	 SAID31 WIII 021400	METAR WIII 021400Z 18007KT 150V230 8000 BKN022 26/24 Q1013 NOSIG=
02/04/2016 14:00:00Z	 SAID31 WIII 021400 CCA	METAR COR WIII 021400Z 18007KT 150V230 8000 BKN022 26/24 Q1013 TEMPO 4000 -RA=
02/04/2016 14:30:00Z	 SAID31 WIII 021430	METAR WIII 021430Z VRB05KT 9999 BKN020 26/24 Q1012 NOSIG=
02/04/2016 15:00:00Z	 SAID31 WIII 021500	METAR WIII 021500Z VRB04KT 8000 BKN020 26/24 Q1012 NOSIG=
02/04/2016 15:30:00Z	 SAID31 WIII 021530	METAR WIII 021530Z 15005KT 8000 SCT020 26/24 Q1012 NOSIG=
02/04/2016 16:00:00Z	 SAID31 WIII 021600	METAR WIII 021600Z VRB03KT 8000 SCT020 26/24 Q1012 NOSIG=
02/04/2016 16:30:00Z	 SAID31 WIII 021630	METAR WIII 021630Z 16005KT 9999 SCT020 26/24 Q1012 NOSIG=
02/04/2016 17:00:00Z	 SAID31 WIII 021700	METAR WIII 021700Z VRB02KT 9999 FEW020 26/24 Q1012 NOSIG=
02/04/2016 17:30:00Z	 SAID31 WIII 021730	METAR WIII 021730Z 17002KT 9999 FEW022 26/24 Q1012 NOSIG=
02/04/2016 18:00:00Z	 SAID31 WIII 021800	METAR WIII 021800Z 17003KT 9999 FEW022 26/24 Q1011 NOSIG=
02/04/2016 18:30:00Z	 SAID31 WIII 021830	METAR WIII 021830Z 21002KT 7000 FEW020 26/24 Q1011 NOSIG=
02/04/2016 19:00:00Z	 SAID31 WIII 021900	METAR WIII 021900Z 22004KT 7000 FEW022 26/24 Q1010 NOSIG=
02/04/2016 19:30:00Z	 SAID31 WIII 021930	METAR WIII 021930Z 21003KT 9999 FEW022 26/24 Q1010 NOSIG=
02/04/2016 20:00:00Z	 SAID31 WIII 022000	METAR WIII 022000Z 21005KT FEW022 26/24 Q1010 NOSIG=
02/04/2016 20:30:00Z	 SAID31 WIII 022030	METAR WIII 022030Z 19003KT 9999 FEW022 26/24 Q1010 NOSIG=
02/04/2016 21:00:00Z	 SAID31 WIII 022100	METAR WIII 022100Z 14003KT CAVOK 25/24 Q1010 NOSIG=
02/04/2016 21:30:00Z	 SAID31 WIII 022130	METAR WIII 022130Z AUTO 15003KT 9000 NCD 25/24 Q1010 NOSIG=
02/04/2016 22:00:00Z	 SAID31 WIII 022200	METAR WIII 022200Z 16005KT 7000 FEW022 25/24 Q1010 NOSIG=
02/04/2016 22:30:00Z	 SAID31 WIII 022230	METAR WIII 022230Z VRB04KT 7000 FEW020 26/24 Q1010 NOSIG=
02/04/2016 23:00:00Z	 SAID31 WIII 022300	METAR WIII 022300Z VRB04KT 7000 FEW020 26/24 Q1011 NOSIG=
02/04/2016 23:30:00Z	 SAID31 WIII 022330	METAR WIII 022330Z VRB05KT 8000 FEW020 26/24 Q1011 NOSIG=
03/04/2016 00:00:00Z	 SAID31 WIII 030000	METAR WIII 030000Z 18006KT 160V220 8000 FEW020 27/24 Q1011 NOSIG=
03/04/2016 00:30:00Z	 SAID31 WIII 030030	METAR WIII 030030Z VRB05KT 8000 FEW020 28/23 Q1012 NOSIG=
03/04/2016 01:00:00Z	 SAID31 WIII 030100	METAR WIII 030100Z VRB04KT 9999 FEW020 29/24 Q1012 NOSIG=
03/04/2016 01:30:00Z	 SAID31 WIII 030130	METAR WIII 030130Z AUTO VRB03KT CAVOK 29/24 Q1012 NOSIG=
03/04/2016 02:00:00Z	 SAID31 WIII 030200	METAR WIII 030200Z AUTO VRB04KT CAVOK 31/24 Q1012 NOSIG=
03/04/2016 02:30:00Z	 SAID31 WIII 030230	METAR WIII 030230Z VRB05KT FEW021FT 31/24 Q1012 NOSIG=
03/04/2016 03:00:00Z	 SAID31 WIII 030300	METAR WIII 030300Z VRB03KT 9000 FEW021 32/25 Q1012 NOSIG=
03/04/2016 03:30:00Z	 SAID31 WIII 030330	METAR WIII 030330Z 08006KT 050V120 9 FEW021 32/25 Q1012 NOSIG=
03/04/2016 04:00:00Z	 SAID31 WIII 030400	METAR WIII 030400Z 08008KT 9999 FEW021 32/25 Q1012 NOSIG=
03/04/2016 04:30:00Z	 SAID31 WIII 030430	METAR WIII 030430Z 05009KT 9999 FEW021 32/25 Q1011 NOSIG=
03/04/2016 05:00:00Z	 SAID31 WIII 030500	METAR WIII 030500Z 05009KT 9999 FEW021 32/26 Q1011 NOSIG=
03/04/2016 05:30:00Z	 SAID31 WIII 030530	METAR WIII 030530Z 05010KT 9999 FEW021 32/26 Q1010 NOSIG=
03/04/2016 06:00:00Z	 SAID31 WIII 030600	METAR WIII 030600Z 06011KT 9999 FEW021 32/26 Q1010 NOSIG=
03/04/2016 06:30:00Z	 SAID31 WIII 030630	METAR WIII 030630Z 05010KT 9999 FEW021 32/26 Q1009 NOSIG=
03/04/2016 07:00:00Z	 SAID31 WIII 030700	METAR WIII 030700Z 05010KT FEW021 32/26 Q1009 NOSIG=
03/04/2016 07:30:00Z	 SAID31 WIII 030730	METAR WIII 030730Z 05009KT 010V080 CAVOK 32/25 Q1008 NOSIG=
03/04/2016 08:00:00Z	 SAID31 WIII 030800	METAR WIII 030800Z 04010KT CAVOK 32/25 Q1008 NOSIG=
03/04/2016 08:30:00Z	 SAID31 WIII 030830	METAR WIII 030830Z 04008KT CAVOK 32/25 Q1008 NOSIG=
03/04/2016 09:00:00Z	 SAID31 WIII 030900	METAR WIII 030900Z 05009KT CAVOK 31/26 Q1008 NOSIG=
03/04/2016 09:30:00Z	 SAID31 WIII 030930	METAR WIII 030930Z 05009KT 9999 FEW021 31/26 Q1008 NOSIG=
03/04/2016 10:00:00Z	 SAID31 WIII 031000	METAR WIII 031000Z 05007KT 9999 FEW021 31/26 Q1009 NOSIG=
03/04/2016 10:30:00Z	 SAID31 WIII 031030	METAR WIII 031030Z 04007KT 7000 FEW021 30/25 Q1009 NOSIG=
03/04/2016 11:30:00Z	 SAID31 WIII 031130	METAR WIII 031130Z 07004KT 6000 SCT021 29/26 Q1010 NOSIG=
03/04/2016 12:00:00Z	 SAID31 WIII 031200	METAR WIII 031200Z AUTO 07005KT CAVOK 29/25 Q1011 NOSIG=
03/04/2016 12:30:00Z	 SAID31 WIII 031230	METAR WIII 031230Z AUTO 08005KT CAVOK 28/26 Q1011 NOSIG=
03/04/2016 13:00:00Z	 SAID31 WIII 031300	METAR WIII 031300Z 10004KT 7000 FEW020CB FEW023 28/26 Q1012 NOSIG RMK CB TO S=
03/04/2016 13:30:00Z	 SAID31 WIII 031330	METAR WIII 031330Z 10003KT 7000 FEW020CB FEW023 29/25 Q1012 NOSIG RMK CB TO S=
03/04/2016 14:00:00Z	 SAID31 WIII 031400	METAR WIII 031400Z 10005KT 7000 FEW020CB SCT023 28/26 Q1012 NOSIG RMK CB TO S=
03/04/2016 14:30:00Z	 SAID31 WIII 031430	METAR WIII 031430Z 20006KT 7000 FEW023 28/25 Q1013 NOSIG=
03/04/2016 15:00:00Z	 SAID31 WIII 031500	METAR WIII 031500Z 20006KT 180V280 7000 SCT021 28/25 Q1013 NOSIG=
03/04/2016 15:30:00Z	 SAID31 WIII 031530	METAR WIII 031530Z 20007KT 7000 SCT023 27/25 Q1013 NOSIG=
03/04/2016 16:00:00Z	 SAID31 WIII 031600	METAR WIII 031600Z 19007KT 150V220 7000 SCT020 27/24 Q1013 NOSIG=
03/04/2016 16:30:00Z	 SAID31 WIII 031630	METAR WIII 031630Z 19007KT 160V240 7000 SCT020 27/24 Q1013 NOSIG=
03/04/2016 17:00:00Z	 SAID31 WIII 031700	METAR WIII 031700Z 19006KT 160V220 7000 FEW022 27/24 Q1012 NOSIG=
03/04/2016 17:00:00Z	 SAID31 WIII 031700 CCA	METAR COR WIII 031700Z 19006KT 160V220 7000 FEW020CB FEW022 27/24 Q10 12 NOSIG RMK CB TO NE=
03/04/2016 17:30:00Z	 SAID31 WIII 031730	METAR WIII 031730Z 19005KT 7000 FEW020CB SCT023 27/24 Q1012 NOSIG RMK CB TO NE=
03/04/2016 18:00:00Z	 SAID31 WIII 031800	METAR WIII 031800Z 20007KT 7000 SCT022 27/24 Q1012 NOSIG=
03/04/2016 18:30:00Z	 SAID31 WIII 031830	METAR WIII 031830Z 16004KT 7000 SCT022 27/24 Q1011 NOSIG=
03/04/2016 19:00:00Z	 SAID31 WIII 031900	METAR WIII 031900Z 17005KT 7000 SCT022 27/25 Q1011 NOSIG=
03/04/2016 19:30:00Z	 SAID31 WIII 031930	METAR WIII 031930Z 17005KT 6000 SCT022 27/25 Q1011 NOSIG=
03/04/2016 20:00:00Z	 SAID31 WIII 032000	METAR WIII 032000Z 19003KT 7000 SCT022 26/24 Q1011 NOSIG=
03/04/2016 20:30:00Z	 SAID31 WIII 032030	METAR WIII 032030Z 22003KT 7000 SCT022 26/24 Q1010 NOSIG=
03/04/2016 21:00:00Z	 SAID31 WIII 032100	METAR WIII 032100Z 22003KT 7000 FEW022 26/24 Q1010 NOSIG=
03/04/2016 21:30:00Z	 SAID31 WIII 032130	METAR WIII 032130Z VRB03KT 7000 FEW022 26/24 Q1010 NOSIG=
03/04/2016 22:00:00Z	 SAID31 WIII 032200	METAR WIII 032200Z VRB02KT 7000 FEW022 26/24 Q1010 NOSIG=
03/04/2016 22:30:00Z	 SAID31 WIII 032230	METAR WIII 032230Z 23002KT 7000 FEW021 26/24 Q1010 NOSIG=
03/04/2016 23:00:00Z	 SAID31 WIII 032300	METAR WIII 032300Z VRB02KT 7000 FEW021 25/24 Q1011 NOSIG=
03/04/2016 23:30:00Z	 SAID31 WIII 032330	METAR WIII 032330Z VRB03KT 4800 HZ FEW021 26/24 Q1011 NOSIG=
04/04/2016 00:00:00Z	 SAID31 WIII 040000	METAR WIII 040000Z VRB03KT 6000 FEW020 27/24 Q1011 NOSIG=
04/04/2016 00:30:00Z	 SAID31 WIII 040030	METAR WIII 040030Z VRB04KT 6000 FEW020 27/24 Q1011 NOSIG=
04/04/2016 01:00:00Z	 SAID31 WIII 040100	METAR WIII 040100Z VRB05KT 7000 FEW020 28/24 Q1012 NOSIG=
04/04/2016 01:30:00Z	 SAID31 WIII 040130	METAR WIII 040130Z VRB05KT 8000 FEW020 29/25 Q1011 NOSIG=
04/04/2016 02:00:00Z	 SAID31 WIII 040200	METAR WIII 040200Z 12008KT 090V150 9999 FEW020 31/26 Q1011 NOSIG=
04/04/2016 02:30:00Z	 SAID31 WIII 040230	METAR WIII 040230Z 09009KT 070V160 9999 FEW020 32/26 Q1011 NOSIG=
04/04/2016 03:00:00Z	 SAID31 WIII 040300	METAR WIII 040300Z 09011KT 9999 FEW020 32/26 Q1011 NOSIG=
04/04/2016 03:30:00Z	 SAID31 WIII 040330	METAR WIII 040330Z 08011KT 9999 FEW020 32/25 Q1011 NOSIG=
04/04/2016 04:00:00Z	 SAID31 WIII 040400	METAR WIII 040400Z 08014KT 9999 FEW020 32/25 Q1010 NOSIG=
04/04/2016 04:30:00Z	 SAID31 WIII 040430	METAR WIII 040430Z 08014KT 9999 FEW020 32/26 Q1010 NOSIG=
04/04/2016 05:00:00Z	 SAID31 WIII 040500	METAR WIII 040500Z 07013KT 9999 FEW020 32/27 Q1009 NOSIG=
04/04/2016 05:30:00Z	 SAID31 WIII 040530	METAR WIII 040530Z 07014KT 9999 FEW020 33/27 Q1009 NOSIG=
04/04/2016 06:00:00Z	 SAID31 WIII 040600	METAR WIII 040600Z 07013KT 9999 FEW018 33/26 Q1008 NOSIG=
04/04/2016 06:30:00Z	 SAID31 WIII 040630	METAR WIII 040630Z 06011G21KT 9999 FEW018 32/27 Q1008 NOSIG=
04/04/2016 07:00:00Z	 SAID31 WIII 040700	METAR WIII 040700Z 06012KT 9999 FEW018 32/26 Q1008 NOSIG=
04/04/2016 07:30:00Z	 SAID31 WIII 040730	METAR WIII 040730Z 05012KT 9999 FEW018 32/26 Q1007 NOSIG=
04/04/2016 08:00:00Z	 SAID31 WIII 040800	METAR WIII 040800Z 05011KT 9999 FEW018 31/25 Q1007 NOSIG=
04/04/2016 08:30:00Z	 SAID31 WIII 040830	METAR WIII 040830Z 06009KT 9999 FEW018 30/26 Q1007 NOSIG=
04/04/2016 09:00:00Z	 SAID31 WIII 040900	METAR WIII 040900Z 05010KT 9999 FEW020 31/26 Q1007 NOSIG=
04/04/2016 09:30:00Z	 SAID31 WIII 040930	METAR WIII 040930Z 05009KT 9999 FEW020 30/25 Q1007 NOSIG=
04/04/2016 10:00:00Z	 SAID31 WIII 041000	METAR WIII 041000Z 05009KT 9999 FEW018 30/25 Q1007 NOSIG=
04/04/2016 10:30:00Z	 SAID31 WIII 041030	METAR WIII 041030Z 06007KT 9000 FEW018 29/26 Q1008 NOSIG=
04/04/2016 11:00:00Z	 SAID31 WIII 041100	METAR WIII 041100Z VRB05KT 8000 FEW018CB FEW020 29/26 Q1008 NOSIG RMK CB TO SW=
04/04/2016 11:30:00Z	 SAID31 WIII 041130	METAR WIII 041130Z VRB05KT 7000 FEW016CB FEW018 29/26 Q1009 NOSIG RMK CB TO S AND SW=
04/04/2016 12:00:00Z	 SAID31 WIII 041200	METAR WIII 041200Z 07004KT 7000 FEW016CB SCT022 29/26 Q1009 NOSIG RMK CB TO SE AND SW=
04/04/2016 12:30:00Z	 SAID31 WIII 041230	METAR WIII 041230Z VRB04KT 7000 FEW016CB SCT020 29/26 Q1010 NOSIG RMK CB TO SE AND SW=
04/04/2016 13:00:00Z	 SAID31 WIII 041300	METAR WIII 041300Z VRB05KT 6000 FEW016CB BKN020 28/24 Q1010 NOSIG RMK CB TO SW=
04/04/2016 13:30:00Z	 SAID31 WIII 041330	METAR WIII 041330Z 22007KT 200V290 7000 FEW020CB SCT021 27/23 Q1011 N OSIG RMK CB TO S AND W=
04/04/2016 14:00:00Z	 SAID31 WIII 041400	METAR WIII 041400Z 21006KT 7000 FEW020CB SCT021 27/24 Q1011 NOSIG RMK CB TO W=
04/04/2016 14:30:00Z	 SAID31 WIII 041430	METAR WIII 041430Z 21005KT 7000 FEW020CB SCT021 27/24 Q1011 NOSIG RMK CB TO W=
04/04/2016 15:00:00Z	 SAID31 WIII 041500	METAR WIII 041500Z 19003KT 7000 FEW020CB SCT021 27/24 Q1011 NOSIG RMK CB TO W=
04/04/2016 15:30:00Z	 SAID31 WIII 041530	METAR WIII 041530Z VRB03KT 7000SCT021 27/24 Q1011 NOSIG=
04/04/2016 16:00:00Z	 SAID31 WIII 041600	METAR WIII 041600Z VRB03KT 7000 SCT021 27/25 Q1011 NOSIG=
04/04/2016 16:30:00Z	 SAID31 WIII 041630	METAR WIII 041630Z 23004KT 7000 SCT021 27/25 Q1011 NOSIG=
04/04/2016 17:00:00Z	 SAID31 WIII 041700	METAR WIII 041700Z VRB04KT 7000 SCT021 27/24 Q1011 NOSIG=
04/04/2016 17:30:00Z	 SAID31 WIII 041730	METAR WIII 041730Z VRB02KT 7000 SCT021 27/24 Q1010 NOSIG=
04/04/2016 18:00:00Z	 SAID31 WIII 041800	METAR WIII 041800Z 20005KT 7000 SCT021 27/24 Q1010 NOSIG=
04/04/2016 18:30:00Z	 SAID31 WIII 041830	METAR WIII 041830Z 22004KT 7000 SCT021 27/24 Q1010 NOSIG=
04/04/2016 19:00:00Z	 SAID31 WIII 041900	METAR WIII 041900Z VRB03KT 7000 SCT021 27/25 Q1010 NOSIG=
04/04/2016 19:30:00Z	 SAID31 WIII 041930	METAR WIII 041930Z AUTO 24003KT 8000 FEW035 BKN095 BKN130 26/25 Q1009 NOSIG=
04/04/2016 20:30:00Z	 SAID31 WIII 042030	METAR WIII 042030Z AUTO 27002KT 5000 BKN100 BKN120 BKN140 26/25 Q1009 NOSIG=
04/04/2016 21:00:00Z	 SAID31 WIII 042100	METAR WIII 042100Z AUTO VRB01KT 8000 BKN110 27/25 Q1009 NOSIG=
04/04/2016 21:30:00Z	 SAID31 WIII 042130	METAR WIII 042130Z AUTO 31003KT 6000 FEW090 SCT110 26/25 Q1009 NOSIG=
04/04/2016 22:00:00Z	 SAID31 WIII 042200	METAR WIII 042200Z AUTO 23002KT 6000 SCT080 BKN110 26/26 Q1009 NOSIG=
04/04/2016 22:30:00Z	 SAID31 WIII 042230	METAR WIII 042230Z VRB02KT 7000 SCT021 27/25 Q1009 NOSIG=
04/04/2016 23:00:00Z	 SAID31 WIII 042300	METAR WIII 042300Z VRB03KT 7000 SCT021 27/25 Q1010 NOSIG=
04/04/2016 23:30:00Z	 SAID31 WIII 042330	METAR WIII 042330Z VRB05KT 6000 SCT020 27/25 Q1010 NOSIG=
05/04/2016 00:00:00Z	 SAID31 WIII 050000	METAR WIII 050000Z VRB04KT 6000 SCT020 28/25 Q1011 NOSIG=
05/04/2016 00:30:00Z	 SAID31 WIII 050030	METAR WIII 050030Z VRB03KT 6000 SCT020 28/25 Q1011 NOSIG=
05/04/2016 01:00:00Z	 SAID31 WIII 050100	METAR WIII 050100Z 12005KT 7000 BKN022 28/25 Q1012 NOSIG=
05/04/2016 02:00:00Z	 SAID31 WIII 050200	METAR WIII 050200Z 09006KT 8000 BKN022 30/25 Q1012 NOSIG=
05/04/2016 02:30:00Z	 SAID31 WIII 050230	METAR WIII 050230Z 09007KT 050V150 8000 BKN020 30/25 Q1012 NOSIG=
05/04/2016 03:00:00Z	 SAID31 WIII 050300	METAR WIII 050300Z 07008KT 9999 BKN022 30/26 Q1012 NOSIG=
05/04/2016 03:30:00Z	 SAID31 WIII 050330	METAR WIII 050330Z 08010KT 9999 SCT020 31/26 Q1012 NOSIG=
05/04/2016 04:00:00Z	 SAID31 WIII 050400	METAR WIII 050400Z 08009KT 9999 SCT020 31/26 Q1011 NOSIG=
05/04/2016 04:30:00Z	 SAID31 WIII 050430	METAR WIII 050430Z 07008KT 9999 FEW020CB SCT022 32/25 Q1011 NOSIG RMK CB TO W=
05/04/2016 05:00:00Z	 SAID31 WIII 050500	METAR WIII 050500Z 08009KT 9999 FEW020CB SCT020 33/25 Q1010 NOSIG RMK CB TO W=
05/04/2016 05:30:00Z	 SAID31 WIII 050530	METAR WIII 050530Z 08012KT 9999 FEW020CB SCT020 32/25 Q1009 NOSIG RM K CB TO S=
05/04/2016 06:00:00Z	 SAID31 WIII 050600	METAR WIII 050600Z 07011KT 9999 FEW020CB SCT020 32/25 Q1009 NOSIG RMK CB TO NE AND S=
05/04/2016 06:30:00Z	 SAID31 WIII 050630	METAR WIII 050630Z 08011KT 9999 FEW020CB SCT020 32/24 Q1008 NOSIG RMK CB TO S=
05/04/2016 07:00:00Z	 SAID31 WIII 050700	METAR WIII 050700Z 07010KT 9999 SCT020 32/26 Q1008 NOSIG=
05/04/2016 07:30:00Z	 SAID31 WIII 050730	METAR WIII 050730Z 05005G15KT 9999 FEW020CB SCT020 31/25 Q1008 NOSIG RMK CB TO SE=
05/04/2016 08:00:00Z	 SAID31 WIII 050800	METAR WIII 050800Z 05009KT 9999 FEW020CB SCT020 31/25 Q1007 NOSIG RMK CB TO SE AND S=
05/04/2016 08:30:00Z	 SAID31 WIII 050830	METAR WIII 050830Z 05008KT 9999 FEW020CB SCT020 31/25 Q1007 NOSIG RMK CB TO SE AND S=
05/04/2016 09:00:00Z	 SAID31 WIII 050900	METAR WIII 050900Z 06009KT 9999 FEW020CB SCT020 30/25 Q1007 NOSIG RMK CB TO SE AND S=
05/04/2016 09:30:00Z	 SAID31 WIII 050930	METAR WIII 050930Z 07008KT 9999 FEW020CB SCT020 31/25 Q1008 NOSIG RMK CB TO SE AND S=
05/04/2016 10:00:00Z	 SAID31 WIII 051000	METAR WIII 051000Z 07010KT 9999 FEW018CB BKN020 30/25 Q1009 NOSIG RMK CB TO S AND SW=
05/04/2016 10:30:00Z	 SAID31 WIII 051030	METAR WIII 051030Z 06008KT 9999 FEW018CB BKN020 30/25 Q1009 NOSIG RMK CB TO S AND SW=
05/04/2016 11:00:00Z	 SAID31 WIII 051100	METAR WIII 051100Z 06006KT 9000 SCT018CB BKN020 29/25 Q1009 NOSIG RMK CB TO SE SW AND W=
05/04/2016 11:30:00Z	 SAID31 WIII 051130	METAR WIII 051130Z 05005KT 8000 VCTS SCT018CB BKN020 29/25 Q1009 NOSI G RMK CB TO SE SW AND W=
05/04/2016 12:00:00Z	 SAID31 WIII 051200	METAR WIII 051200Z 05004KT 8000 FEW018CB BKN020 29/25 Q1010 REVCTS NO SIG RMK CB TO SW=
05/04/2016 12:30:00Z	 SAID31 WIII 051230	METAR WIII 051230Z 05003KT 7000 FEW018CB BKN020 29/26 Q1010 NOSIG RMK CB TO SW=
05/04/2016 13:00:00Z	 SAID31 WIII 051300	METAR WIII 051300Z 05004KT 6000 SCT020 29/26 Q1010 NOSIG=
05/04/2016 13:30:00Z	 SAID31 WIII 051330	METAR WIII 051330Z 06004KT 6000 SCT020 29/26 Q1010 NOSIG=
05/04/2016 14:00:00Z	 SAID31 WIII 051400	METAR WIII 051400Z VRB02KT 5000 HZ SCT020 29/26 Q1011 NOSIG=
05/04/2016 14:30:00Z	 SAID31 WIII 051430	METAR WIII 051430Z 27004KT 5000 HZ SCT020 28/25 Q1011 NOSIG=
05/04/2016 15:00:00Z	 SAID31 WIII 051500	METAR WIII 051500Z 21007KT 180V250 5000 HZ SCT020 28/25 Q1011 NOSIG=
05/04/2016 15:30:00Z	 SAID31 WIII 051530	METAR WIII 051530Z 21006KT 180V240 5000 HZ SCT020 28/25 Q1011 NOSIG=
05/04/2016 16:00:00Z	 SAID31 WIII 051600	METAR WIII 051600Z 19006KT 5000 HZ SCT020 28/25 Q1011 NOSIG=
05/04/2016 16:30:00Z	 SAID31 WIII 051630	METAR WIII 051630Z VRB03KT 5000 HZ SCT020 28/25 Q1011 NOSIG=
05/04/2016 17:00:00Z	 SAID31 WIII 051700	METAR WIII 051700Z VRB04KT 5000 HZ SCT020 28/25 Q1010 NOSIG=
05/04/2016 17:30:00Z	 SAID31 WIII 051730	METAR WIII 051730Z VRB02KT 5000 HZ FEW018 27/25 Q1010 NOSIG=
05/04/2016 18:00:00Z	 SAID31 WIII 051800	METAR WIII 051800Z 22003KT 5000 HZ FEW020 27/25 Q1009 NOSIG=
05/04/2016 18:30:00Z	 SAID31 WIII 051830	METAR COR WIII 051830Z 22003KT 5000 HZ FEW020 27/25 Q1009 NOSIG=
05/04/2016 19:00:00Z	 SAID31 WIII 051900	METAR COR WIII 051900Z 22003KT 5000 HZ FEW020 27/25 Q1009 NOSIG=
05/04/2016 19:30:00Z	 SAID31 WIII 051930	METAR WIII 051930Z 21003KT 4000 HZ FEW020 27/25 Q1008 NOSIG=
05/04/2016 20:00:00Z	 SAID31 WIII 052000	METAR WIII 052000Z 20005KT 4000 HZ FEW020 26/25 Q1008 NOSIG=
05/04/2016 20:30:00Z	 SAID31 WIII 052030	METAR WIII 052030Z VRB02KT 4000 HZ FEW020 26/25 Q1008 NOSIG=
05/04/2016 21:00:00Z	 SAID31 WIII 052100	METAR WIII 052100Z VRB02KT 4000 HZ FEW020 26/25 Q1008 NOSIG=
05/04/2016 21:30:00Z	 SAID31 WIII 052130	METAR WIII 052130Z AUTO VRB01KT 5000 NCD 26/25 Q1009 NOSIG=
05/04/2016 22:00:00Z	 SAID31 WIII 052200	METAR WIII 052200Z AUTO 21003KT 6000 NCD 26/25 Q1009 NOSIG=
05/04/2016 22:30:00Z	 SAID31 WIII 052230	METAR WIII 052230Z AUTO 20006KT 7000 NCD 26/25 Q1009 NOSIG=
05/04/2016 23:00:00Z	 SAID31 WIII 052300	METAR WIII 052300Z VRB05KT 5000 HZ FEW020 26/25 Q1009 NOSIG=
05/04/2016 23:30:00Z	 SAID31 WIII 052330	METAR WIII 052330Z VRB05KT 5000 HZ FEW020 27/25 Q1010 NOSIG=
06/04/2016 00:00:00Z	 SAID31 WIII 060000	METAR WIII 060000Z VRB03KT 5000 HZ FEW020 27/25 Q1010 NOSIG=
06/04/2016 00:30:00Z	 SAID31 WIII 060030	METAR WIII 060030Z VRB04KT 6000 FEW020 29/25 Q1010 NOSIG=
06/04/2016 01:00:00Z	 SAID31 WIII 060100	METAR WIII 060100Z VRB02KT 6000 FEW020 29/25 Q1011 NOSIG=
06/04/2016 01:30:00Z	 SAID31 WIII 060130	METAR WIII 060130Z VRB03KT 7000 FEW022 30/25 Q1011 NOSIG=
06/04/2016 02:00:00Z	 SAID31 WIII 060200	METAR WIII 060200Z VRB02KT 7000 FEW022 31/25 Q1011 NOSIG=
06/04/2016 02:30:00Z	 SAID31 WIII 060230	METAR WIII 060230Z 08006KT 040V120 7000 FEW020 32/25 Q1011 NOSIG=
06/04/2016 03:00:00Z	 SAID31 WIII 060300	METAR WIII 060300Z 07010KT 030V110 9000 FEW021 32/26 Q1011 NOSIG=
06/04/2016 03:30:00Z	 SAID31 WIII 060330	METAR WIII 060330Z 05007KT 010V090 9000 FEW020 32/25 Q1011 NOSIG=
06/04/2016 04:00:00Z	 SAID31 WIII 060400	METAR WIII 060400Z 05011KT 030V090 9000 FEW020 33/24 Q1011 NOSIG=
06/04/2016 04:30:00Z	 SAID31 WIII 060430	METAR WIII 060430Z 05010KT 9000 FEW020 32/24 Q1010 NOSIG=
06/04/2016 05:00:00Z	 SAID31 WIII 060500	METAR WIII 060500Z 05012KT 9999 FEW020 33/24 Q1010 NOSIG=
06/04/2016 05:30:00Z	 SAID31 WIII 060530	METAR WIII 060530Z 04016KT 010V070 9999 FEW020TCU FEW020 33/25 Q1009 NOSIG RMK TCU TO SW=
06/04/2016 06:00:00Z	 SAID31 WIII 060600	METAR WIII 060600Z 04018KT 9000 FEW020CB FEW020 33/24 Q1009 NOSIG RMK CB TO SW=
06/04/2016 06:30:00Z	 SAID31 WIII 060630	METAR WIII 060630Z 05016KT 9000 FEW020CB FEW020 32/24 Q1009 NOSIG RMK CB TO SW=
06/04/2016 07:00:00Z	 SAID31 WIII 060700	METAR WIII 060700Z 05018KT 9000 FEW020 32/25 Q1008 NOSIG=
06/04/2016 07:30:00Z	 SAID31 WIII 060730	METAR WIII 060730Z 05018KT 8000 FEW020CB SCT022 32/26 Q1008 NOSIG RMK CB TO S=
06/04/2016 08:00:00Z	 SAID31 WIII 060800	METAR WIII 060800Z 05010KT 8000 FEW020CB SCT023 31/26 Q1008 NOSIG RMK CB TO S=
06/04/2016 08:30:00Z	 SAID31 WIII 060830	METAR WIII 060830Z 06011KT 030V090 8000 FEW020CB SCT023 31/25 Q1008 N OSIG RMK CB TO S=
06/04/2016 09:00:00Z	 SAID31 WIII 060900	METAR WIII 060900Z 06010KT 8000 SCT021 31/26 Q1008 NOSIG=
06/04/2016 09:30:00Z	 SAID31 WIII 060930	METAR WIII 060930Z 05008KT 8000 FEW019CB BKN022 31/26 Q1009 NOSIG RMK CB TO S=
06/04/2016 10:00:00Z	 SAID31 WIII 061000	METAR WIII 061000Z 03008KT 8000 FEW020CB BKN023 31/25 Q1009 NOSIG RMK CB TO S=
06/04/2016 10:30:00Z	 SAID31 WIII 061030	METAR WIII 061030Z 04008KT 7000 FEW020CB SCT022 30/25 Q1009 NOSIG RMK CB TO S=
06/04/2016 11:00:00Z	 SAID31 WIII 061100	METAR WIII 061100Z 08006KT 7000 FEW019CB SCT022 29/25 Q1010 NOSIG RMK CB TO S=
06/04/2016 11:30:00Z	 SAID31 WIII 061130	METAR WIII 061130Z 10005KT 7000 FEW019CB SCT022 29/25 Q1010 NOSIG RMK CB TO S=
06/04/2016 12:00:00Z	 SAID31 WIII 061200	METAR WIII 061200Z 10005KT 7000 FEW020CB SCT022 29/25 Q1010 NOSIG RMK CB TO SW=
06/04/2016 12:30:00Z	 SAID31 WIII 061230	METAR WIII 061230Z 20009KT 7000 FEW020CB SCT022 28/24 Q1011 NOSIG RMK CB TO SW=
06/04/2016 13:00:00Z	 SAID31 WIII 061300	METAR WIII 061300Z 20008KT 7000 SCT021 27/24 Q1011 NOSIG=
06/04/2016 13:30:00Z	 SAID31 WIII 061330	METAR WIII 061330Z 20008KT 190V260 7000 SCT021 27/24 Q1012 NOSIG=
06/04/2016 14:00:00Z	 SAID31 WIII 061400	METAR WIII 061400Z 20008KT 7000 SCT021 27/24 Q1012 NOSIG=
06/04/2016 14:30:00Z	 SAID31 WIII 061430	METAR WIII 061430Z 19007KT 7000 SCT021 27/24 Q1012 NOSIG=
06/04/2016 15:00:00Z	 SAID31 WIII 061500	METAR WIII 061500Z VRB04KT 7000 SCT021 27/24 Q1012 NOSIG=
06/04/2016 15:30:00Z	 SAID31 WIII 061530	METAR WIII 061530Z VRB04KT FEW021 27/24 Q1012 NOSIG=
06/04/2016 15:30:00Z	 SAID31 WIII 061530 CCA	METAR COR WIII 061530Z VRB04KT 7000 FEW021 27/24 Q1012 NOSIG=
06/04/2016 16:00:00Z	 SAID31 WIII 061600	METAR WIII 061600Z 22004KT 7000 FEW021 27/24 Q1012 NOSIG=
06/04/2016 17:00:00Z	 SAID31 WIII 061700	METAR WIII 061700Z VRB04KT 7000 SCT021 27/24 Q1011 NOSIG=
06/04/2016 17:30:00Z	 SAID31 WIII 061730	METAR WIII 061730Z VRB03KT 6000 SCT021 27/24 Q1011 NOSIG=
06/04/2016 18:00:00Z	 SAID31 WIII 061800	METAR WIII 061800Z 20006KT 6000 FEW021 27/24 Q1011 NOSIG=
06/04/2016 18:30:00Z	 SAID31 WIII 061830	METAR WIII 061830Z 18006KT 3000 -RA SCT020 26/25 Q1010 NOSIG=
06/04/2016 19:00:00Z	 SAID31 WIII 061900	METAR WIII 061900Z VRB02KT 5000 SCT020 26/25 Q1010 NOSIG=
06/04/2016 19:30:00Z	 SAID31 WIII 061930	METAR WIII 061930Z AUTO 19003KT 7000 NCD 26/25 Q1010 NOSIG=
06/04/2016 20:00:00Z	 SAID31 WIII 062000	METAR WIII 062000Z AUTO 20004KT 8000 NCD 26/25 Q1009 NOSIG=
06/04/2016 20:30:00Z	 SAID31 WIII 062030	METAR WIII 062030Z AUTO 19004KT 8000 NCD 26/25 Q1009 NOSIG=
06/04/2016 21:00:00Z	 SAID31 WIII 062100	METAR WIII 062100Z AUTO 16003KT 6000 NCD 26/25 Q1009 NOSIG=
06/04/2016 21:30:00Z	 SAID31 WIII 062130	METAR WIII 062130Z AUTO VRB02KT 8000 NCD 26/24 Q1009 NOSIG=
06/04/2016 22:00:00Z	 SAID31 WIII 062200	METAR WIII 062200Z AUTO VRB02KT 8000 NCD 25/24 Q1009 NOSIG=
06/04/2016 22:30:00Z	 SAID31 WIII 062230	METAR WIII 062230Z AUTO VRB02KT 7000 NCD 26/24 Q1009 NOSIG=
06/04/2016 23:00:00Z	 SAID31 WIII 062300	METAR WIII 062300Z VRB02KT 6000 FEW021 26/25 Q1010 NOSIG=
06/04/2016 23:30:00Z	 SAID31 WIII 062330	METAR WIII 062330Z VRB03KT 5000 FEW021 27/25 Q1010 NOSIG=
07/04/2016 00:00:00Z	 SAID31 WIII 070000	METAR WIII 070000Z VRB04KT 5000 FEW021 27/25 Q1010 NOSIG=
07/04/2016 00:30:00Z	 SAID31 WIII 070030	METAR WIII 070030Z VRB04KT 6000 FEW021 28/25 Q1010 NOSIG=
07/04/2016 01:00:00Z	 SAID31 WIII 070100	METAR WIII 070100Z VRB04KT 5000 HZ FEW020 29/25 Q1011 NOSIG=
07/04/2016 01:30:00Z	 SAID31 WIII 070130	METAR WIII 070130Z VRB02KT 5000 HZ SCT022 29/25 Q1011 NOSIG=
07/04/2016 02:00:00Z	 SAID31 WIII 070200	METAR WIII 070200Z 09005KT 7000 SCT020 30/26 Q1011 NOSIG=
07/04/2016 02:30:00Z	 SAID31 WIII 070230	METAR WIII 070230Z 08006KT 8000 SCT020 31/26 Q1011 NOSIG=
07/04/2016 03:00:00Z	 SAID31 WIII 070300	METAR WIII 070300Z 07007KT 8000 SCT020 32/26 Q1011 NOSIG=
07/04/2016 03:30:00Z	 SAID31 WIII 070330	METAR WIII 070330Z 07008KT 8000 SCT020 32/26 Q1011 NOSIG=
07/04/2016 04:00:00Z	 SAID31 WIII 070400	METAR WIII 070400Z 05009KT 9999 SCT020 32/26 Q1010 NOSIG=
07/04/2016 04:30:00Z	 SAID31 WIII 070430	METAR WIII 070430Z 05010KT 9999 SCT020 32/26 Q1010 NOSIG=
07/04/2016 05:00:00Z	 SAID31 WIII 070500	METAR WIII 070500Z 05011KT 9999 SCT020 32/26 Q1009 NOSIG=
07/04/2016 05:30:00Z	 SAID31 WIII 070530	METAR WIII 070530Z 05010KT 9999 FEW020CB SCT022 32/26 Q1009 NOSIG RMK CB TO W=
07/04/2016 06:00:00Z	 SAID31 WIII 070600	METAR WIII 070600Z 05006G16KT 9999 FEW020CB SCT022 32/27 Q1009 NOSIG RMK CB TO SW=
07/04/2016 06:30:00Z	 SAID31 WIII 070630	METAR WIII 070630Z 05010KT 9999 FEW020CB SCT022 32/27 Q1008 NOSIG RMK CB TO SW=
07/04/2016 07:00:00Z	 SAID31 WIII 070700	METAR WIII 070700Z 04006G16KT 9999 SCT020 32/26 Q1008 NOSIG=
07/04/2016 07:30:00Z	 SAID31 WIII 070730	METAR WIII 070730Z 04007G17KT 9999 SCT020 31/26 Q1008 NOSIG=
07/04/2016 08:00:00Z	 SAID31 WIII 070800	METAR WIII 070800Z 05007G17KT 9999 FEW020CB SCT020 31/26 Q1007 NOSIG RMK CB TO S=
07/04/2016 08:30:00Z	 SAID31 WIII 070830	METAR WIII 070830Z 05009KT 9999 FEW020CB SCT020 30/26 Q1007 NOSIG RMK CB TO S=
07/04/2016 09:00:00Z	 SAID31 WIII 070900	METAR WIII 070900Z 05008KT 9999 FEW020CB SCT020 31/26 Q1007 NOSIG RMK CB TO S=
07/04/2016 09:30:00Z	 SAID31 WIII 070930	METAR WIII 070930Z 05008KT 9999 FEW020CB SCT020 31/26 Q1008 NOSIG RMK CB TO S=
07/04/2016 10:00:00Z	 SAID31 WIII 071000	METAR WIII 071000Z 05007KT 9999 SCT020 30/26 Q1008 NOSIG=
07/04/2016 10:30:00Z	 SAID31 WIII 071030	METAR WIII 071030Z 06007KT 9999 SCT020 30/25 Q1008 NOSIG=
07/04/2016 11:00:00Z	 SAID31 WIII 071100	METAR WIII 071100Z 07006KT 9999 SCT020 29/26 Q1008 NOSIG=
07/04/2016 11:30:00Z	 SAID31 WIII 071130	METAR WIII 071130Z 05003KT 9999 FEW020CB SCT020 29/26 Q1009 NOSIG RMK CB TO S AND W=
07/04/2016 12:00:00Z	 SAID31 WIII 071200	METAR WIII 071200Z 06004KT 9999 FEW020CB BKN022 29/26 Q1009 NOSIG RMK CB TO S=
07/04/2016 12:30:00Z	 SAID31 WIII 071230	METAR WIII 071230Z 07006KT 8000 FEW020CB SCT022 29/26 Q1010 NOSIG RMK CB TO S=
07/04/2016 13:00:00Z	 SAID31 WIII 071300	METAR WIII 071300Z 06005KT 8000 FEW020CB SCT022 29/26 Q1010 NOSIG RMK CB TO S=
07/04/2016 13:30:00Z	 SAID31 WIII 071330	METAR WIII 071330Z 06004KT 8000 BKN022 29/26 Q1011 NOSIG=
07/04/2016 14:00:00Z	 SAID31 WIII 071400	METAR WIII 071400Z 05004KT 8000 SCT020 29/26 Q1011 NOSIG=
07/04/2016 14:30:00Z	 SAID31 WIII 071430	METAR WIII 071430Z 09005KT 7000 BKN022 28/26 Q1011 NOSIG=
07/04/2016 15:00:00Z	 SAID31 WIII 071500	METAR WIII 071500Z VRB03KT 7000 BKN020 28/25 Q1011 NOSIG=
07/04/2016 15:30:00Z	 SAID31 WIII 071530	METAR WIII 071530Z 18005KT 7000 BKN020 29/26 Q1011 NOSIG=
07/04/2016 16:00:00Z	 SAID31 WIII 071600	METAR WIII 071600Z 19005KT 8000 SCT023 28/26 Q1011 NOSIG=
07/04/2016 16:30:00Z	 SAID31 WIII 071630	METAR WIII 071630Z VRB03KT 6000 FEW023 28/26 Q1011 NOSIG=
07/04/2016 17:00:00Z	 SAID31 WIII 071700	METAR WIII 071700Z VRB02KT 6000 FEW022 27/26 Q1010 NOSIG=
07/04/2016 17:30:00Z	 SAID31 WIII 071730	METAR WIII 071730Z 27002KT 4800 BR FEW022 27/26 Q1010 NOSIG=
07/04/2016 18:00:00Z	 SAID31 WIII 071800	METAR WIII 071800Z 24003KT 4000 BR FEW022 27/26 Q1010 NOSIG=
07/04/2016 18:30:00Z	 SAID31 WIII 071830	METAR WIII 071830Z 22002KT 4000 BR FEW022 27/26 Q1010 NOSIG=
07/04/2016 19:00:00Z	 SAID31 WIII 071900	METAR WIII 071900Z 20003KT 4800 BR FEW022 27/26 Q1010 NOSIG=
07/04/2016 19:30:00Z	 SAID31 WIII 071930	METAR WIII 071930Z 21004KT 3700 BR FEW020 27/26 Q1009 NOSIG=
07/04/2016 20:00:00Z	 SAID31 WIII 072000	METAR WIII 072000Z VRB03KT 4000 FEW021 27/26 Q1009=
07/04/2016 20:30:00Z	 SAID31 WIII 072030	METAR WIII 072030Z VRB02KT 3200 BR FEW021 27/26 Q1009 NOSIG=
07/04/2016 21:00:00Z	 SAID31 WIII 072100	METAR WIII 072100Z VRB02KT 3000 BR FEW022 27/26 Q1009 NOSIG=
07/04/2016 21:30:00Z	 SAID31 WIII 072130	METAR WIII 072130Z VRB02KT 3000 BR FEW021 26/26 Q1009 NOSIG=
07/04/2016 22:00:00Z	 SAID31 WIII 072200	METAR WIII 072200Z 22003KT 4100 BR FEW023 26/26 Q1009 NOSIG=
07/04/2016 22:30:00Z	 SAID31 WIII 072230	METAR WIII 072230Z 28004KT 2700 BR FEW020 26/26 Q1010 NOSIG=
07/04/2016 23:00:00Z	 SAID31 WIII 072300	METAR WIII 072300Z 20004KT 4000 BR FEW021 27/26 Q1010 NOSIG=
07/04/2016 23:30:00Z	 SAID31 WIII 072330	METAR WIII 072330Z 19005KT 4000 BR FEW021 27/26 Q1010 NOSIG=
08/04/2016 00:00:00Z	 SAID31 WIII 080000	METAR WIII 080000Z 21005KT 4400 HZ FEW020TCU FEW021 28/26 Q1010 NOSIG RMK TCU TO N=
08/04/2016 00:30:00Z	 SAID31 WIII 080030	METAR WIII 080030Z VRB04KT 4100 HZ FEW020CB FEW022 29/26 Q1011 NOSIG RMK CB TO N=
08/04/2016 01:00:00Z	 SAID31 WIII 080100	METAR WIII 080100Z VRB03KT 5000 HZ FEW020CB SCT020 29/26 Q1011 NOSIG RMK CB TO N=
08/04/2016 01:30:00Z	 SAID31 WIII 080130	METAR WIII 080130Z VRB04KT 6000 SCT018 30/26 Q1011 NOSIG=
08/04/2016 02:00:00Z	 SAID31 WIII 080200	METAR WIII 080200Z 03007KT 7000 SCT020 29/26 Q1012 NOSIG=
08/04/2016 02:30:00Z	 SAID31 WIII 080230	METAR WIII 080230Z VRB05KT 8000 SCT020 29/26 Q1012 NOSIG=
08/04/2016 03:00:00Z	 SAID31 WIII 080300	METAR WIII 080300Z VRB04KT 9000 SCT020 30/25 Q1012 NOSIG=
08/04/2016 03:30:00Z	 SAID31 WIII 080330	METAR WIII 080330Z VRB04KT 9999 SCT022 31/25 Q1011 NOSIG=
08/04/2016 04:00:00Z	 SAID31 WIII 080400	METAR WIII 080400Z VRB05KT 9999 SCT020 31/25 Q1011 NOSIG=
08/04/2016 04:30:00Z	 SAID31 WIII 080430	METAR WIII 080430Z VRB05KT 9999 FEW018 32/25 Q1010 NOSIG=
08/04/2016 05:00:00Z	 SAID31 WIII 080500	METAR WIII 080500Z VRB05KT 9999 FEW018 32/25 Q1010 NOSIG=
08/04/2016 05:30:00Z	 SAID31 WIII 080530	METAR WIII 080530Z VRB05KT 9999 SCT020 32/26 Q1010 NOSIG=
08/04/2016 06:00:00Z	 SAID31 WIII 080600	METAR WIII 080600Z 02006KT 340V060 9999 SCT020 32/26 Q1009 NOSIG=
08/04/2016 06:30:00Z	 SAID31 WIII 080630	METAR WIII 080630Z VRB05KT 9999 SCT020 32/26 Q1008 NOSIG=
08/04/2016 07:00:00Z	 SAID31 WIII 080700	METAR WIII 080700Z 04007KT 010V070 9999 SCT020 31/26 Q1008 NOSIG=
08/04/2016 07:30:00Z	 SAID31 WIII 080730	METAR WIII 080730Z 04007KT 340V060 9999 SCT020 32/26 Q1008 NOSIG=
08/04/2016 08:00:00Z	 SAID31 WIII 080800	METAR WIII 080800Z 03007KT 330V060 9999 SCT020 32/26 Q1007 NOSIG=
08/04/2016 08:30:00Z	 SAID31 WIII 080830	METAR WIII 080830Z 03006KT 350V070 9999 SCT020 32/26 Q1007 NOSIG=
08/04/2016 09:00:00Z	 SAID31 WIII 080900	METAR WIII 080900Z VRB04KT 9999 FEW018 31/26 Q1007 NOSIG=
08/04/2016 09:30:00Z	 SAID31 WIII 080930	METAR WIII 080930Z VRB05KT 9999 FEW018 31/25 Q1007 NOSIG=
08/04/2016 10:00:00Z	 SAID31 WIII 081000	METAR WIII 081000Z VRB04KT 9000 FEW018CB FEW018 31/26 Q1008 NOSIG RMK CB TO SW=
08/04/2016 10:30:00Z	 SAID31 WIII 081030	METAR WIII 081030Z 04004KT 8000 FEW018CB SCT022 30/25 Q1008 NOSIG RMK CB TO SW=
08/04/2016 11:00:00Z	 SAID31 WIII 081100	METAR WIII 081100Z 02003KT 8000 FEW018CB FEW018 30/25 Q1009 NOSIG RMK CB TO SW=
08/04/2016 11:30:00Z	 SAID31 WIII 081130	METAR WIII 081130Z VRB03KT 8000 FEW018CB FEW018 30/25 Q1009 NOSIG RMK CB TO SW=
08/04/2016 12:00:00Z	 SAID31 WIII 081200	METAR WIII 081200Z 01002KT 7000 FEW018CB SCT020 30/26 Q1010 NOSIG RMK CB TO S AND SW=
08/04/2016 12:30:00Z	 SAID31 WIII 081230	METAR WIII 081230Z 30002KT 7000 FEW018CB FEW018 29/26 Q1010 NOSIG RMK CB TO S AND SW=
08/04/2016 13:00:00Z	 SAID31 WIII 081300	METAR WIII 081300Z 32003KT 5000 HZ FEW018CB SCT020 29/26 Q1011 NOSIG RMK CB TO S=
08/04/2016 13:30:00Z	 SAID31 WIII 081330	METAR WIII 081330Z 30002KT 5000 SCT020 29/26 Q1011 NOSIG=
08/04/2016 14:00:00Z	 SAID31 WIII 081400	METAR WIII 081400Z 24008KT 9999 BKN022 28/25 Q1011 NOSIG=
08/04/2016 14:30:00Z	 SAID31 WIII 081430	METAR WIII 081430Z 23008KT 7000 BKN022 28/25 Q1012 NOSIG=
08/04/2016 15:00:00Z	 SAID31 WIII 081500	METAR WIII 081500Z 26005KT 6000 SCT020 27/25 Q1011 NOSIG=
08/04/2016 15:30:00Z	 SAID31 WIII 081530	METAR WIII 081530Z VRB05KT 6000 SCT020 28/25 Q1011 NOSIG=
08/04/2016 16:30:00Z	 SAID31 WIII 081630	METAR WIII 081630Z 28003KT 4500 HZ FEW020CB SCT020 27/25 Q1011 NOSIG RMK CB TO S AND W=
08/04/2016 17:00:00Z	 SAID31 WIII 081700	METAR WIII 081700Z 26003KT 4500 SCT020 27/25 Q1011 NOSIG=
08/04/2016 17:30:00Z	 SAID31 WIII 081730	METAR WIII 081730Z 24007KT 4000 BR SCT020 28/25 Q1011 NOSIG=
08/04/2016 18:00:00Z	 SAID31 WIII 081800	METAR WIII 081800Z 25007KT 5000 BR FEW020 27/25 Q1010 NOSIG=
08/04/2016 18:30:00Z	 SAID31 WIII 081830	METAR WIII 081830Z 24007KT 5000 BR FEW020 27/25 Q1010 NOSIG=
08/04/2016 19:00:00Z	 SAID31 WIII 081900	METAR WIII 081900Z 26004KT 6000 FEW020 26/25 Q1009 NOSIG=
08/04/2016 19:30:00Z	 SAID31 WIII 081930	METAR WIII 081930Z 26006KT 6000 SCT020 26/25 Q1010 NOSIG=
08/04/2016 20:00:00Z	 SAID31 WIII 082000	METAR WIII 082000Z 26004KT 3500 BR SCT020 26/25 Q1010 NOSIG=
08/04/2016 20:30:00Z	 SAID31 WIII 082030	METAR WIII 082030Z 24005KT 3500 BR SCT020 27/25 Q1010 NOSIG=
08/04/2016 21:00:00Z	 SAID31 WIII 082100	METAR WIII 082100Z 23006KT 5000 BR SCT020 27/25 Q1010 NOSIG=
08/04/2016 21:30:00Z	 SAID31 WIII 082130	METAR WIII 082130Z 26006KT 5000 HZ SCT020 FEW049 26/25 Q1010 NOSIG=
08/04/2016 22:00:00Z	 SAID31 WIII 082200	METAR WIII 082200Z 26007KT 4500 HZ SCT020 26/25 Q1010 NOSIG=
08/04/2016 22:30:00Z	 SAID31 WIII 082230	METAR WIII 082230Z 25007KT 5000 HZ BKN020 26/25 Q1010 NOSIG=
08/04/2016 23:00:00Z	 SAID31 WIII 082300	METAR WIII 082300Z 26006KT 5000 HZ BKN020 26/25 Q1010 NOSIG=
08/04/2016 23:30:00Z	 SAID31 WIII 082330	METAR WIII 082330Z 24008KT 5000 HZ BKN022 27/25 Q1011 NOSIG=
09/04/2016 00:00:00Z	 SAID31 WIII 090000	METAR WIII 090000Z 23005KT 6000 SCT020 27/25 Q1011 NOSIG=
09/04/2016 00:30:00Z	 SAID31 WIII 090030	METAR WIII 090030Z 24005KT 8000 SCT020 28/25 Q1011 NOSIG=
09/04/2016 01:00:00Z	 SAID31 WIII 090100	METAR WIII 090100Z 26005KT 8000 SCT020 28/25 Q1012 NOSIG=
09/04/2016 01:30:00Z	 SAID31 WIII 090130	METAR WIII 090130Z 28006KT 8000 SCT020 29/26 Q1012 NOSIG=
09/04/2016 02:00:00Z	 SAID31 WIII 090200	METAR WIII 090200Z VRB04KT 7000 SCT020 30/25 Q1012 NOSIG=
09/04/2016 02:30:00Z	 SAID31 WIII 090230	METAR WIII 090230Z VRB03KT 7000 SCT020 31/25 Q1011 NOSIG=
09/04/2016 03:00:00Z	 SAID31 WIII 090300	METAR WIII 090300Z VRB03KT 7000 SCT021 31/26 Q1011 NOSIG=
09/04/2016 03:30:00Z	 SAID31 WIII 090330	METAR WIII 090330Z VRB04KT 8000 FEW021 32/26 Q1011 NOSIG=
09/04/2016 04:00:00Z	 SAID31 WIII 090400	METAR WIII 090400Z 32006KT 270V010 8000 FEW021 32/25 Q1010 NOSIG=
09/04/2016 04:30:00Z	 SAID31 WIII 090430	METAR WIII 090430Z 31007KT 280V340 SCT020 32/25 Q1010 NOSIG=
09/04/2016 04:30:00Z	 SAID31 WIII 090430 CCA	METAR COR WIII 090430Z 31007KT 280V340 8000 SCT020 32/25 Q1010 NOSIG=
09/04/2016 05:00:00Z	 SAID31 WIII 090500	METAR WIII 090500Z 33009KT 290V360 8000 SCT021 32/27 Q1009 NOSIG=
09/04/2016 05:30:00Z	 SAID31 WIII 090530	METAR WIII 090530Z 33008KT 290V020 8000 SCT021 33/27 Q1009 NOSIG=
09/04/2016 06:00:00Z	 SAID31 WIII 090600	METAR WIII 090600Z 34006KT 280V040 8000 SCT021 33/26 Q1008 NOSIG=
09/04/2016 06:30:00Z	 SAID31 WIII 090630	METAR WIII 090630Z 34007KT 290V030 9000 SCT021 33/26 Q1008 NOSIG=
09/04/2016 07:00:00Z	 SAID31 WIII 090700	METAR WIII 090700Z 34010KT 8000 FEW021 32/26 Q1008 NOSIG=
09/04/2016 07:30:00Z	 SAID31 WIII 090730	METAR WIII 090730Z 35007KT 330V030 9000 FEW021 32/26 Q1007 NOSIG=
09/04/2016 08:00:00Z	 SAID31 WIII 090800	METAR WIII 090800Z 35009KT 330V030 9000 FEW021 32/26 Q1007 NOSIG=
09/04/2016 08:30:00Z	 SAID31 WIII 090830	METAR WIII 090830Z 34007KT 310V020 9000 FEW021 32/26 Q1007 NOSIG=
09/04/2016 09:00:00Z	 SAID31 WIII 090900	METAR WIII 090900Z 33008KT 9000 FEW021 32/25 Q1007 NOSIG=
09/04/2016 09:30:00Z	 SAID31 WIII 090930	METAR WIII 090930Z 35007KT 320V030 9000 FEW021 32/25 Q1007 NOSIG=
09/04/2016 10:00:00Z	 SAID31 WIII 091000	METAR WIII 091000Z 35005KT 9000 FEW021 31/25 Q1007 NOSIG=
09/04/2016 10:30:00Z	 SAID31 WIII 091030	METAR WIII 091030Z 33005KT 7000 -TSRA SCT018CB BKN020 31/25 Q1008 NOS IG RMK CB OVER THE FIELD=
09/04/2016 11:00:00Z	 SAID31 WIII 091100	METAR WIII 091100Z 18009G19KT 7000 TSRA SCT018CB BKN020 28/23 Q1009 N OSIG RMK CB OVER THE FIELD=
09/04/2016 12:00:00Z	 SAID31 WIII 091200	METAR WIII 091200Z VRB04KT 7000 FEW018CB SCT020 27/23 Q1009 RETS NOSI G RMK CB TO E=
09/04/2016 12:30:00Z	 SAID31 WIII 091230	METAR WIII 091230Z 17007KT 130V200 7000 FEW018CB SCT020 27/24 Q1010 NOSIG RMK CB TO E=
09/04/2016 13:00:00Z	 SAID31 WIII 091300	METAR WIII 091300Z VRB04KT 6000 FEW018CB BKN020 27/24 Q1010 NOSIG RMK CB TO SE=
09/04/2016 13:30:00Z	 SAID31 WIII 091330	METAR WIII 091330Z 09004KT 5000 HZ BKN020 27/24 Q1011 NOSIG=
09/04/2016 14:00:00Z	 SAID31 WIII 091400	METAR WIII 091400Z 16006KT 130V210 5000 HZ BKN020 27/24 Q1011 NOSIG=
09/04/2016 14:30:00Z	 SAID31 WIII 091430	METAR WIII 091430Z VRB04KT 5000 HZ SCT020 27/24 Q1011 NOSIG=
09/04/2016 15:00:00Z	 SAID31 WIII 091500	METAR WIII 091500Z VRB04KT 5000 HZ SCT020 27/24 Q1012 NOSIG=
09/04/2016 15:30:00Z	 SAID31 WIII 091530	METAR WIII 091530Z VRB05KT 5000 HZ BKN020 27/24 Q1012 NOSIG=
09/04/2016 16:00:00Z	 SAID31 WIII 091600	METAR WIII 091600Z 22005KT 5000 HZ BKN020 26/24 Q1012 NOSIG=
09/04/2016 16:30:00Z	 SAID31 WIII 091630	METAR WIII 091630Z 18003KT 5000 HZ SCT020 26/24 Q1011 NOSIG=
09/04/2016 17:00:00Z	 SAID31 WIII 091700	METAR WIII 091700Z 22005KT 5000 HZ SCT020 26/24 Q1011 NOSIG=
09/04/2016 17:30:00Z	 SAID31 WIII 091730	METAR WIII 091730Z 21004KT 5000 HZ SCT022 26/23 Q1010 NOSIG=
09/04/2016 18:00:00Z	 SAID31 WIII 091800	METAR WIII 091800Z 17005KT 5000 HZ FEW018 26/23 Q1010 NOSIG=
09/04/2016 18:30:00Z	 SAID31 WIII 091830	METAR WIII 091830Z 14002KT 5000 HZ FEW020 26/24 Q1009 NOSIG=
09/04/2016 19:00:00Z	 SAID31 WIII 091900	METAR WIII 091900Z AUTO VRB03KT 9999 OVC220 26/24 Q1009 NOSIG=
09/04/2016 19:30:00Z	 SAID31 WIII 091930	METAR WIII 091930Z AUTO VRB01KT 9000 OVC210 26/24 Q1009 NOSIG=
09/04/2016 20:00:00Z	 SAID31 WIII 092000	METAR WIII 092000Z AUTO VRB01KT 8000 FEW200 OVC230 26/24 Q1009 NOSIG=
09/04/2016 20:30:00Z	 SAID31 WIII 092030	METAR WIII 092030Z AUTO 14002KT 9999 BKN200 BKN230 BKN250 26/24 Q1009 NOSIG=
09/04/2016 21:00:00Z	 SAID31 WIII 092100	METAR WIII 092100Z AUTO VRB01KT 9000 BKN055 BKN190 BKN220 26/24 Q1009 NOSIG=
09/04/2016 21:30:00Z	 SAID31 WIII 092130	METAR WIII 092130Z AUTO 18002KT 9000 BKN190 OVC220 26/24 Q1009 NOSIG=
09/04/2016 22:00:00Z	 SAID31 WIII 092200	METAR WIII 092200Z AUTO 17002KT 9000 BKN170 26/24 Q1009 NOSIG=
09/04/2016 22:30:00Z	 SAID31 WIII 092230	METAR WIII 092230Z VRB03KT 5000 HZ FEW020 26/25 Q1009 NOSIG=
09/04/2016 23:00:00Z	 SAID31 WIII 092300	METAR WIII 092300Z VRB02KT 5000 HZ FEW020 26/24 Q1009 NOSIG=
09/04/2016 23:30:00Z	 SAID31 WIII 092330	METAR WIII 092330Z VRB02KT 5000 HZ FEW020 27/25 Q1009 NOSIG=
10/04/2016 00:00:00Z	 SAID31 WIII 100000	METAR WIII 100000Z VRB02KT 5000 HZ FEW018 27/25 Q1010 NOSIG=
10/04/2016 00:30:00Z	 SAID31 WIII 100030	METAR WIII 100030Z VRB03KT 6000 FEW019 27/25 Q1011 NOSIG=
10/04/2016 01:00:00Z	 SAID31 WIII 100100	METAR WIII 100100Z 07003KT 6000 FEW022 28/25 Q1011 NOSIG=
10/04/2016 01:30:00Z	 SAID31 WIII 100130	METAR WIII 100130Z VRB03KT 4200 HZ SCT022 29/25 Q1011 NOSIG=
10/04/2016 02:00:00Z	 SAID31 WIII 100200	METAR WIII 100200Z 11006KT 7000 FEW021 30/25 Q1011 NOSIG=
10/04/2016 02:30:00Z	 SAID31 WIII 100230	METAR WIII 100230Z 08007KT 8000 FEW022 31/25 Q1011 NOSIG=
10/04/2016 03:00:00Z	 SAID31 WIII 100300	METAR WIII 100300Z 10008KT 9000 SCT022 31/26 Q1011 NOSIG=
10/04/2016 03:30:00Z	 SAID31 WIII 100330	METAR WIII 100330Z 09008KT 9000 SCT022 32/26 Q1011 NOSIG=
10/04/2016 04:00:00Z	 SAID31 WIII 100400	METAR WIII 100400Z 06006KT 020V100 9000 FEW021 32/25 Q1011 NOSIG=
10/04/2016 04:30:00Z	 SAID31 WIII 100430	METAR WIII 100430Z 06006KT 020V110 9000 FEW021 32/25 Q1010 NOSIG=
10/04/2016 05:00:00Z	 SAID31 WIII 100500	METAR WIII 100500Z 02006KT 340V060 8000 SCT021 32/25 Q1010 NOSIG=
10/04/2016 05:30:00Z	 SAID31 WIII 100530	METAR WIII 100530Z 03006KT 8000 SCT022 31/25 Q1009 NOSIG=
10/04/2016 06:00:00Z	 SAID31 WIII 100600	METAR WIII 100600Z 04006KT 360V070 8000 FEW022 31/25 Q1009 NOSIG=
10/04/2016 06:30:00Z	 SAID31 WIII 100630	METAR WIII 100630Z 35010KT 7000 FEW022 32/26 Q1009 NOSIG=
10/04/2016 07:00:00Z	 SAID31 WIII 100700	METAR WIII 100700Z 34005KT 8000 FEW020 32/25 Q1008 NOSIG=
10/04/2016 07:30:00Z	 SAID31 WIII 100730	METAR WIII 100730Z 05009KT 360V080 8000 FEW022 33/25 Q1008 NOSIG=
10/04/2016 08:00:00Z	 SAID31 WIII 100800	METAR WIII 100800Z 01006KT 330V050 9000 FEW022 32/25 Q1007 NOSIG=
10/04/2016 08:30:00Z	 SAID31 WIII 100830	METAR WIII 100830Z 04006KT 9000 FEW021 32/25 Q1007 NOSIG=
10/04/2016 09:00:00Z	 SAID31 WIII 100900	METAR WIII 100900Z 04007KT 360V060 9000 FEW021 32/25 Q1007 NOSIG=
10/04/2016 09:30:00Z	 SAID31 WIII 100930	METAR WIII 100930Z 06008KT 9000 FEW023 32/25 Q1008 NOSIG=
10/04/2016 10:00:00Z	 SAID31 WIII 101000	METAR WIII 101000Z 06008KT 9000 FEW023 31/25 Q1008 NOSIG=
10/04/2016 10:30:00Z	 SAID31 WIII 101030	METAR WIII 101030Z 06006KT 7000 FEW022 31/26 Q1008 NOSIG=
10/04/2016 11:00:00Z	 SAID31 WIII 101100	METAR WIII 101100Z 05005KT 7000 FEW020CB SCT023 30/25 Q1009 NOSIG RMK CB TO SW=
10/04/2016 11:30:00Z	 SAID31 WIII 101130	METAR WIII 101130Z 06004KT 7000 FEW020CB FEW023 30/25 Q1009 NOSIG RMK CB TO SW=
10/04/2016 12:00:00Z	 SAID31 WIII 101200	METAR WIII 101200Z 01005KT 7000 FEW020CB FEW022 30/26 Q1009 NOSIG RMK CB TO SW=
10/04/2016 12:30:00Z	 SAID31 WIII 101230	METAR WIII 101230Z 04003KT 4500 HZ FEW020CB FEW022 29/26 Q1010 NOSIG=
10/04/2016 13:00:00Z	 SAID31 WIII 101300	METAR WIII 101300Z 06004KT 5000 FEW020CB FEW021 29/26 Q1010 NOSIG RMK CB TO SW=
10/04/2016 13:30:00Z	 SAID31 WIII 101330	METAR WIII 101330Z 06004KT 6000 VCTS FEW019CB FEW020 29/26 Q1010 NOSI G RMK CB TO SW=
10/04/2016 14:00:00Z	 SAID31 WIII 101400	METAR WIII 101400Z 07004KT FEW019CB FEW020 29/26 Q1010 NOSIG RMK CB T O SW=
10/04/2016 14:30:00Z	 SAID31 WIII 101430	METAR WIII 101430Z VRB01KT 6000 VCTS FEW019CB FEW020 29/25 Q1011 NOSI G RMK CB TO SW=
10/04/2016 15:00:00Z	 SAID31 WIII 101500	METAR WIII 101500Z 36001KT 6000 FEW019CB FEW020 29/26 Q1011 NOSIG RMK CB TO SW=
10/04/2016 15:30:00Z	 SAID31 WIII 101530	METAR WIII 101530Z VRB02KT 7000 FEW019CB FEW020 28/26 Q1011 NOSIG RMK CB TO SW=
10/04/2016 16:00:00Z	 SAID31 WIII 101600	METAR WIII 101600Z 09005KT 6000 FEW019CB FEW020 29/26 Q1010 NOSIG RMK CB TO S=
10/04/2016 16:30:00Z	 SAID31 WIII 101630	METAR WIII 101630Z 10005KT 6000 FEW020 28/26 Q1010 NOSIG=
10/04/2016 17:00:00Z	 SAID31 WIII 101700	METAR WIII 101700Z VRB04KT 6000 FEW020CB FEW020 28/26 Q1010 NOSIG RMK CB TO SW=
10/04/2016 17:30:00Z	 SAID31 WIII 101730	METAR WIII 101730Z 12004KT 6000 FEW020CB SCT021 28/26 Q1010 NOSIG RMK CB TO SW=
10/04/2016 18:00:00Z	 SAID31 WIII 101800	METAR WIII 101800Z 18004KT 5000 SCT020 28/26 Q1010 NOSIG=
10/04/2016 18:30:00Z	 SAID31 WIII 101830	METAR WIII 101830Z AUTO 16004KT 5000 NCD 28/26 Q1010 NOSIG=
10/04/2016 19:00:00Z	 SAID31 WIII 101900	METAR WIII 101900Z AUTO 17003KT 6000 SCT020 28/26 Q1009 NOSIG=
10/04/2016 19:30:00Z	 SAID31 WIII 101930	METAR WIII 101930Z AUTO 11004KT 4400 NCD 27/26 Q1008 NOSIG=
10/04/2016 20:30:00Z	 SAID31 WIII 102030	METAR WIII 102030Z 16005KT 5000 FEW021 28/26 Q1008 NOSIG=
10/04/2016 21:00:00Z	 SAID31 WIII 102100	METAR WIII 102100Z 14005KT 4500 BR FEW022 27/26 Q1008 NOSIG=
10/04/2016 21:30:00Z	 SAID31 WIII 102130	METAR WIII 102130Z 15005KT 4900 BR FEW022 28/26 Q1008 NOSIG=
10/04/2016 22:00:00Z	 SAID31 WIII 102200	METAR WIII 102200Z 18005KT 3500 BR SCT020 27/26 Q1009 NOSIG=
10/04/2016 22:30:00Z	 SAID31 WIII 102230	METAR WIII 102230Z 20006KT 2900 BR SCT020 27/26 Q1009 NOSIG=
10/04/2016 23:00:00Z	 SAID31 WIII 102300	METAR WIII 102300Z 17006KT 150V210 3000 VCTS HZ SCT020 27/26 Q1010 NO SIG=
10/04/2016 23:00:00Z	 SAID31 WIII 102300 CCA	METAR COR WIII 102300Z 17006KT 150V210 3000 VCTS FEW020CB SCT020 27/2 6 Q1010 NOSIG RMK CB TO W AND N=
10/04/2016 23:30:00Z	 SAID31 WIII 102330	METAR WIII 102330Z VRB04KT 3000 TS FEW019CB SCT020 28/26 Q1010 NOSIG RMK CB TO NW AND N=
11/04/2016 00:00:00Z	 SAID31 WIII 110000	METAR WIII 110000Z 35006KT 300V030 5000 TS SCT016CB BKN020 26/23 Q101 1 NOSIG RMK CB OVER THE FIELD=
11/04/2016 00:30:00Z	 SAID31 WIII 110030	METAR WIII 110030Z 31006KT 6000 TS SCT018CB SCT020 26/23 Q1011 NOSIG RMK CB TO NW=
11/04/2016 01:00:00Z	 SAID31 WIII 110100	METAR WIII 110100Z VRB01KT 7000 FEW020CB SCT020 28/24 Q1011 RETS NOSI G RMK CB TO NW=
11/04/2016 01:30:00Z	 SAID31 WIII 110130	METAR WIII 110130Z VRB02KT 8000 VCTS FEW020CB SCT020 30/25 Q1011 NOSI G RMK CB TO N AND W=
11/04/2016 02:00:00Z	 SAID31 WIII 110200	METAR WIII 110200Z VRB04KT 8000 VCTS SCT018CB BKN020 30/25 Q1011 NOSIG RMK CB TO N E AND NW=
11/04/2016 02:30:00Z	 SAID31 WIII 110230	METAR WIII 110230Z 33010G20KT 8000 FEW018CB BKN020 30/25 Q1012 NOSIG RMK CB TO SW=
11/04/2016 03:00:00Z	 SAID31 WIII 110300	METAR WIII 110300Z 31009KT 280V340 8000 FEW018CB BKN020 29/25 Q1011 N OSIG RMK CB TO NE AND SW=
11/04/2016 03:30:00Z	 SAID31 WIII 110330	METAR WIII 110330Z VRB02KT 9999 SCT020 30/25 Q1010 NOSIG=
11/04/2016 04:00:00Z	 SAID31 WIII 110400	METAR WIII 110400Z VRB03KT 9999 SCT020 31/24 Q1010 NOSIG=
11/04/2016 04:30:00Z	 SAID31 WIII 110430	METAR WIII 110430Z VRB05KT 9999 SCT020 31/25 Q1009 NOSIG=
11/04/2016 05:00:00Z	 SAID31 WIII 110500	METAR WIII 110500Z VRB04KT 9999 SCT020 31/25 Q1009 NOSIG=
11/04/2016 05:30:00Z	 SAID31 WIII 110530	METAR WIII 110530Z 04006KT 330V080 9999 SCT020 31/26 Q1009 NOSIG=
11/04/2016 06:00:00Z	 SAID31 WIII 110600	METAR WIII 110600Z 03006KT 340V060 9999 SCT020 32/26 Q1008 NOSIG=
11/04/2016 06:30:00Z	 SAID31 WIII 110630	METAR WIII 110630Z 01007KT 9999 SCT020 32/26 Q1008 NOSIG=
11/04/2016 07:00:00Z	 SAID31 WIII 110700	METAR WIII 110700Z 36007KT 330V050 9999 SCT020 31/26 Q1008 NOSIG=
11/04/2016 07:30:00Z	 SAID31 WIII 110730	METAR WIII 110730Z 35007KT 320V030 9999 SCT020 32/25 Q1007 NOSIG=
11/04/2016 08:00:00Z	 SAID31 WIII 110800	METAR WIII 110800Z 35007KT 9999 SCT020 32/26 Q1007 NOSIG=
11/04/2016 08:30:00Z	 SAID31 WIII 110830	METAR WIII 110830Z 34008KT 9999 SCT020 31/25 Q1007 NOSIG=
11/04/2016 09:00:00Z	 SAID31 WIII 110900	METAR WIII 110900Z 34008KT 9999 FEW020CB SCT022 31/25 Q1007 NOSIG RMK CB TO S=
11/04/2016 09:30:00Z	 SAID31 WIII 110930	METAR WIII 110930Z 34006KT 310V010 9999 FEW020CB SCT022 30/25 Q1007 N OSIG RMK CB TO S=
11/04/2016 10:00:00Z	 SAID31 WIII 111000	METAR WIII 111000Z 35005KT 9999 SCT020 30/25 Q1008 NOSIG=
11/04/2016 10:30:00Z	 SAID31 WIII 111030	METAR WIII 111030Z VRB04KT 9999 SCT020 30/25 Q1008 NOSIG=
11/04/2016 11:00:00Z	 SAID31 WIII 111100	METAR WIII 111100Z 32003KT 9999 SCT020 29/25 Q1009 NOSIG=
11/04/2016 11:30:00Z	 SAID31 WIII 111130	METAR WIII 111130Z VRB02KT 9999 FEW020CB SCT020 29/25 Q1009 NOSIG RMK CB TO SE=
11/04/2016 12:00:00Z	 SAID31 WIII 111200	METAR WIII 111200Z VRB02KT 8000 FEW018CB SCT020 29/26 Q1009 NOSIG RMK CB TO SE=
11/04/2016 12:30:00Z	 SAID31 WIII 111230	METAR WIII 111230Z VRB02KT 8000 FEW018CB SCT020 29/26 Q1010 NOSIG RMK CB TO S=
11/04/2016 13:00:00Z	 SAID31 WIII 111300	METAR WIII 111300Z VRB02KT 8000 FEW020 29/26 Q1010 NOSIG=
11/04/2016 13:30:00Z	 SAID31 WIII 111330	METAR WIII 111330Z 06002KT 8000 FEW022 29/26 Q1010 NOSIG=
11/04/2016 14:00:00Z	 SAID31 WIII 111400	METAR WIII 111400Z VRB02KT 7000 FEW022 28/25 Q1010 NOSIG=
11/04/2016 14:30:00Z	 SAID31 WIII 111430	METAR WIII 111430Z VRB02KT 6000 FEW022 28/25 Q1010 NOSIG=
11/04/2016 15:00:00Z	 SAID31 WIII 111500	METAR WIII 111500Z VRB02KT 5000 HZ FEW022 29/26 Q1010 NOSIG=
11/04/2016 15:30:00Z	 SAID31 WIII 111530	METAR WIII 111530Z VRB03KT 3900 HZ FEW021 29/25 Q1010 NOSIG=
11/04/2016 16:00:00Z	 SAID31 WIII 111600	METAR WIII 111600Z 21005KT 4100 HZ FEW021 28/25 Q1010 NOSIG=
11/04/2016 16:30:00Z	 SAID31 WIII 111630	METAR WIII 111630Z 21005KT 5000 HZ FEW021 28/25 Q1010 NOSIG=
11/04/2016 17:00:00Z	 SAID31 WIII 111700	METAR WIII 111700Z VRB02KT 5000 HZ FEW020 28/25 Q1010 NOSIG=
11/04/2016 17:30:00Z	 SAID31 WIII 111730	METAR WIII 111730Z VRB02KT 5000 HZ FEW020 28/25 Q1010 NOSIG=
11/04/2016 18:00:00Z	 SAID31 WIII 111800	METAR WIII 111800Z VRB02KT 5000 HZ FEW022 27/25 Q1010 NOSIG=
11/04/2016 18:30:00Z	 SAID31 WIII 111830	METAR WIII 111830Z 27002KT 3800 HZ FEW022 27/25 Q1010 NOSIG=
11/04/2016 19:00:00Z	 SAID31 WIII 111900	METAR WIII 111900Z 27005KT 2900 BR FEW021 27/25 Q1009 NOSIG=
11/04/2016 19:30:00Z	 SAID31 WIII 111930	METAR WIII 111930Z 25004KT 2900 BR FEW019 27/25 Q1009 NOSIG=
11/04/2016 20:00:00Z	 SAID31 WIII 112000	METAR WIII 112000Z 20003KT 4800 BR FEW020 27/25 Q1009 NOSIG=
11/04/2016 20:30:00Z	 SAID31 WIII 112030	METAR WIII 112030Z 26006KT 2800 BR FEW023 27/25 Q1009 NOSIG=
11/04/2016 21:00:00Z	 SAID31 WIII 112100	METAR WIII 112100Z 27004KT 3000 BR SCT023 27/25 Q1009 NOSIG=
11/04/2016 21:30:00Z	 SAID31 WIII 112130	METAR WIII 112130Z 23006KT 4000 BR FEW020CB SCT023 27/26 Q1009 NOSIG RMK CB TO N=
11/04/2016 22:00:00Z	 SAID31 WIII 112200	METAR WIII 112200Z 25010KT 4900 BR FEW020CB SCT023 27/25 Q1009 NOSIG RMK CB TO N=
11/04/2016 22:30:00Z	 SAID31 WIII 112230	METAR WIII 112230Z 25008KT 6000 FEW020CB FEW023 27/25 Q1010 NOSIG RMK CB TO N=
11/04/2016 23:00:00Z	 SAID31 WIII 112300	METAR WIII 112300Z 24006KT 6000 FEW020CB SCT023 27/25 Q1010 NOSIG RMK CB TO N=
11/04/2016 23:30:00Z	 SAID31 WIII 112330	METAR WIII 112330Z 27006KT 6000 FEW020CB SCT022 26/25 Q1010 NOSIG RMK CB TO N=
12/04/2016 00:00:00Z	 SAID31 WIII 120000	METAR WIII 120000Z 26004KT 6000 FEW020CB SCT022 27/25 Q1010 NOSIG RMK CB TO N=
12/04/2016 00:30:00Z	 SAID31 WIII 120030	METAR WIII 120030Z 18004KT 6000 FEW020CB SCT022 27/25 Q1011 NOSIG RMK CB TO N=
12/04/2016 01:00:00Z	 SAID31 WIII 120100	METAR WIII 120100Z VRB02KT 7000 FEW020CB SCT021 27/25 Q1011 NOSIG RMK CB TO N=
12/04/2016 01:30:00Z	 SAID31 WIII 120130	METAR WIII 120130Z 04003KT 7000 FEW020CB SCT021 27/25 Q1011 NOSIG RMK CB TO N=
12/04/2016 02:00:00Z	 SAID31 WIII 120200	METAR WIII 120200Z 06003KT 7000 SCT022 27/25 Q1011 TEMPO 5000 -RA=
12/04/2016 02:30:00Z	 SAID31 WIII 120230 CCA	METAR COR WIII 120230Z VRB02KT 6000 -RA SCT021 28/25 Q1011 NOSIG=
12/04/2016 02:30:00Z	 SAID31 WIII 120230	METAR WIII 120230Z VRB02KT 6000 SCT021 28/25 Q1011 NOSIG=
12/04/2016 03:00:00Z	 SAID31 WIII 120300	METAR WIII 120300Z VRB04KT 6000 FEW018 28/26 Q1011 RERA NOSIG=
12/04/2016 03:30:00Z	 SAID31 WIII 120330	METAR WIII 120330Z 05006KT 7000 SCT017 28/26 Q1011 NOSIG=
12/04/2016 04:00:00Z	 SAID31 WIII 120400	METAR WIII 120400Z VRB02KT 8000 FEW019 28/26 Q1010 NOSIG=
12/04/2016 04:30:00Z	 SAID31 WIII 120430	METAR WIII 120430Z 01005KT 9000 SCT017 28/26 Q1010 NOSIG=
12/04/2016 05:00:00Z	 SAID31 WIII 120500	METAR WIII 120500Z VRB03KT 9000 FEW020 29/25 Q1009 NOSIG=
12/04/2016 05:30:00Z	 SAID31 WIII 120530	METAR WIII 120530Z VRB03KT 9999 FEW020 29/25 Q1008 NOSIG=
12/04/2016 06:00:00Z	 SAID31 WIII 120600	METAR WIII 120600Z VRB02KT 9999 FEW020 29/26 Q1008 NOSIG=
12/04/2016 06:30:00Z	 SAID31 WIII 120630	METAR WIII 120630Z VRB02KT 9999 FEW020 30/25 Q1007 NOSIG=
12/04/2016 07:00:00Z	 SAID31 WIII 120700	METAR WIII 120700Z VRB05KT 9999 FEW020 30/26 Q1007 NOSIG=
12/04/2016 07:30:00Z	 SAID31 WIII 120730	METAR WIII 120730Z 33006KT 9999 FEW020 30/26 Q1007 NOSIG=
12/04/2016 08:00:00Z	 SAID31 WIII 120800	METAR WIII 120800Z 32006KT 9999 FEW020 31/25 Q1007 NOSIG=
12/04/2016 08:30:00Z	 SAID31 WIII 120830	METAR WIII 120830Z 34007KT 9999 FEW020 30/26 Q1007 NOSIG=
12/04/2016 09:00:00Z	 SAID31 WIII 120900	METAR WIII 120900Z 33006KT 9999 FEW020 31/26 Q1007 NOSIG=
12/04/2016 09:30:00Z	 SAID31 WIII 120930	METAR WIII 120930Z 33006KT 9999 FEW020 30/26 Q1007 NOSIG=
12/04/2016 10:00:00Z	 SAID31 WIII 121000	METAR WIII 121000Z 33006KT 9999 FEW020 30/26 Q1007 NOSIG=
12/04/2016 10:30:00Z	 SAID31 WIII 121030	METAR WIII 121030Z VRB05KT 8000 FEW020 29/26 Q1008 NOSIG=
12/04/2016 11:00:00Z	 SAID31 WIII 121100	METAR WIII 121100Z 31004KT 6000 FEW020 29/26 Q1008 NOSIG=
12/04/2016 11:30:00Z	 SAID31 WIII 121130	METAR WIII 121130Z 30003KT 5000 FEW020CB FEW021 28/26 Q1008 NOSIG RMK CB TO S=
12/04/2016 12:00:00Z	 SAID31 WIII 121200	METAR WIII 121200Z 32002KT 5000 FEW020 28/26 Q1009 NOSIG=
12/04/2016 12:30:00Z	 SAID31 WIII 121230	METAR WIII 121230Z 28002KT 4000 HZ FEW020 28/26 Q1009 NOSIG=
12/04/2016 13:00:00Z	 SAID31 WIII 121300	METAR WIII 121300Z VRB02KT 4000 HZ FEW020 28/26 Q1009 NOSIG=
12/04/2016 13:30:00Z	 SAID31 WIII 121330	METAR WIII 121330Z VRB02KT 4000 HZ FEW020 28/26 Q1010 NOSIG=
12/04/2016 14:00:00Z	 SAID31 WIII 121400	METAR WIII 121400Z VRB04KT 4000 HZ FEW020 29/26 Q1010 NOSIG=
12/04/2016 14:30:00Z	 SAID31 WIII 121430	METAR WIII 121430Z 22005KT 4000 HZ FEW020 29/25 Q1010 NOSIG=
12/04/2016 15:00:00Z	 SAID31 WIII 121500	METAR WIII 121500Z 24006KT 5000 HZ FEW020 29/26 Q1011 NOSIG=
12/04/2016 15:30:00Z	 SAID31 WIII 121530	METAR WIII 121530Z VRB05KT 5000 HZ FEW020 28/26 Q1011 NOSIG=
12/04/2016 16:00:00Z	 SAID31 WIII 121600	METAR WIII 121600Z 28003KT 5000 HZ FEW020 28/26 Q1011 NOSIG=
12/04/2016 16:30:00Z	 SAID31 WIII 121630	METAR WIII 121630Z 27007KT 5000 HZ FEW020 28/26 Q1011 NOSIG=
12/04/2016 17:00:00Z	 SAID31 WIII 121700	METAR WIII 121700Z 26008KT 5000 HZ FEW020 28/26 Q1010 NOSIG=
12/04/2016 17:30:00Z	 SAID31 WIII 121730	METAR WIII 121730Z 27006KT 5000 HZ FEW020 27/26 Q1010 NOSIG=
12/04/2016 18:00:00Z	 SAID31 WIII 121800	METAR WIII 121800Z 25005KT 5000 HZ FEW020 27/26 Q1009 NOSIG=
12/04/2016 18:30:00Z	 SAID31 WIII 121830	METAR COR WIII 121830Z 25005KT 5000 HZ FEW020 27/26 Q1009 NOSIG=
12/04/2016 19:00:00Z	 SAID31 WIII 121900	METAR WIII 121900Z 25005KT 5000 HZ FEW020 27/26 Q1009 NOSIG=
12/04/2016 19:30:00Z	 SAID31 WIII 121930	METAR WIII 121930Z AUTO 32002KT 4100 NCD 27/26 Q1009 NOSIG=
12/04/2016 20:00:00Z	 SAID31 WIII 122000	METAR WIII 122000Z AUTO 30002KT 4300 NCD 26/26 Q1009 NOSIG=
12/04/2016 20:30:00Z	 SAID31 WIII 122030	METAR WIII 122030Z AUTO 27004KT 2800 VCTS BR OVC043 26/26 Q1009 NOSIG =
12/04/2016 21:00:00Z	 SAID31 WIII 122100	METAR WIII 122100Z AUTO 26005KT 3200 BR FEW042 26/26 Q1009 NOSIG=
12/04/2016 21:30:00Z	 SAID31 WIII 122130	METAR WIII 122130Z AUTO VRB03KT 4700 VCTS FEW038 SCT070 26/26 Q1009 N OSIG=
12/04/2016 22:00:00Z	 SAID31 WIII 122200	METAR WIII 122200Z AUTO 23009KT 9999 NCD 27/25 Q1009 NOSIG=
12/04/2016 22:30:00Z	 SAID31 WIII 122230	METAR WIII 122230Z AUTO 22007KT CAVOK 27/25 Q1009 NOSIG=
12/04/2016 23:30:00Z	 SAID31 WIII 122330	METAR WIII 122330Z 24009KT 8000 FEW022 27/25 Q1010 NOSIG=
13/04/2016 00:00:00Z	 SAID31 WIII 130000	METAR WIII 130000Z 24007KT 8000 FEW022 27/25 Q1010 NOSIG=
13/04/2016 00:30:00Z	 SAID31 WIII 130030	METAR WIII 130030Z 25009KT 8000 FEW022 28/25 Q1011 NOSIG=
13/04/2016 01:00:00Z	 SAID31 WIII 130100	METAR WIII 130100Z 26009KT 8000 FEW020 29/25 Q1011 NOSIG=
13/04/2016 01:30:00Z	 SAID31 WIII 130130	METAR WIII 130130Z 25011KT 8000 FEW021 30/25 Q1011 NOSIG=
13/04/2016 02:00:00Z	 SAID31 WIII 130200	METAR WIII 130200Z 25010KT 8000 FEW021 30/25 Q1011 NOSIG=
13/04/2016 02:30:00Z	 SAID31 WIII 130230	METAR WIII 130230Z 25012KT 9999 FEW020 31/25 Q1011 NOSIG=
13/04/2016 03:00:00Z	 SAID31 WIII 130300	METAR WIII 130300Z 28012KT 9999 FEW021 31/25 Q1011 NOSIG=
13/04/2016 03:30:00Z	 SAID31 WIII 130330	METAR WIII 130330Z 27008KT 250V320 9999 SCT020 31/25 Q1011 NOSIG=
13/04/2016 04:00:00Z	 SAID31 WIII 130400	METAR WIII 130400Z 27007KT 240V310 9999 SCT020 32/25 Q1010 NOSIG=
13/04/2016 04:30:00Z	 SAID31 WIII 130430	METAR WIII 130430Z 29008KT 9999 SCT020 32/25 Q1010 NOSIG=
13/04/2016 05:00:00Z	 SAID31 WIII 130500	METAR WIII 130500Z 31006KT 9999 SCT021 32/25 Q1009 NOSIG=
13/04/2016 05:30:00Z	 SAID31 WIII 130530	METAR WIII 130530Z 30006KT 250V340 9999 SCT020 33/25 Q1009 NOSIG=
13/04/2016 06:00:00Z	 SAID31 WIII 130600	METAR WIII 130600Z VRB05KT 9999 SCT020 34/24 Q1008 NOSIG=
13/04/2016 06:30:00Z	 SAID31 WIII 130630	METAR WIII 130630Z 32008KT 280V350 9000 FEW020CB BKN020 33/26 Q1008 N OSIG RMK CB TO SE=
13/04/2016 07:00:00Z	 SAID31 WIII 130700	METAR WIII 130700Z 33006KT 300V010 9999 FEW020CB SCT020 32/26 Q1007 N OSIG RMK CB TO SE=
13/04/2016 07:30:00Z	 SAID31 WIII 130730	METAR WIII 130730Z 28006KT 210V360 9999 SCT020 34/25 Q1007 NOSIG=
13/04/2016 08:00:00Z	 SAID31 WIII 130800	METAR WIII 130800Z VRB05KT 8000 SCT020 33/22 Q1006 NOSIG=
13/04/2016 08:30:00Z	 SAID31 WIII 130830	METAR WIII 130830Z 19008KT 9999 SCT020 33/23 Q1007 NOSIG=
13/04/2016 09:00:00Z	 SAID31 WIII 130900	METAR WIII 130900Z 12008KT 090V150 9000 SCT020 31/24 Q1007 NOSIG=
13/04/2016 09:30:00Z	 SAID31 WIII 130930	METAR WIII 130930Z VRB04KT 9999 SCT020 31/23 Q1007 NOSIG=
13/04/2016 10:00:00Z	 SAID31 WIII 131000	METAR WIII 131000Z VRB04KT 9999 SCT021 31/23 Q1007 NOSIG=
13/04/2016 10:30:00Z	 SAID31 WIII 131030	METAR WIII 131030Z VRB04KT 9000 SCT020 31/23 Q1008 NOSIG=
13/04/2016 11:00:00Z	 SAID31 WIII 131100	METAR WIII 131100Z VRB03KT 9000 SCT020 31/23 Q1008 NOSIG=
13/04/2016 11:30:00Z	 SAID31 WIII 131130	METAR WIII 131130Z VRB05KT 5000 VCTS FEW020CB SCT020 30/24 Q1009 NOSI G RMK CB TO NW=
13/04/2016 12:00:00Z	 SAID31 WIII 131200	METAR WIII 131200Z VRB04KT 7000 FEW020CB SCT020 29/24 Q1009 NOSIGRMK CB TO N=
13/04/2016 12:30:00Z	 SAID31 WIII 131230	METAR WIII 131230Z VRB02KT 7000 SCT020 29/24 Q1009 NOSIG=
13/04/2016 13:00:00Z	 SAID31 WIII 131300	METAR WIII 131300Z 00000KT 5000 HZ FEW020 29/24 Q1010 NOSIG=
13/04/2016 13:30:00Z	 SAID31 WIII 131330	METAR WIII 131330Z 33004KT 5000 HZ FEW020 28/25 Q1010 NOSIG=
13/04/2016 14:00:00Z	 SAID31 WIII 131400	METAR WIII 131400Z 29004KT 5000 HZ FEW020 28/25 Q1010 NOSIG=
13/04/2016 14:30:00Z	 SAID31 WIII 131430	METAR WIII 131430Z VRB04KT 5000 HZ FEW020 28/25 Q1010 NOSIG=
13/04/2016 15:00:00Z	 SAID31 WIII 131500	METAR WIII 131500Z 25008KT 5000 HZ FEW020 28/24 Q1010 NOSIG=
13/04/2016 15:30:00Z	 SAID31 WIII 131530	METAR WIII 131530Z 28005KT 5000 HZ FEW020 27/23 Q1011 NOSIG=
13/04/2016 16:00:00Z	 SAID31 WIII 131600	METAR WIII 131600Z 29004KT 5000 HZ FEW022 27/23 Q1011 NOSIG=
13/04/2016 16:30:00Z	 SAID31 WIII 131630	METAR WIII 131630Z 28004KT 5000 HZ FEW022 27/23 Q1011 NOSIG=
13/04/2016 17:00:00Z	 SAID31 WIII 131700	METAR WIII 131700Z 30004KT 6000 FEW022 27/23 Q1011 NOSIG=
13/04/2016 17:30:00Z	 SAID31 WIII 131730	METAR WIII 131730Z 29004KT 6000 FEW022 27/23 Q1010 NOSIG=
13/04/2016 18:00:00Z	 SAID31 WIII 131800	METAR WIII 131800Z 30003KT 6000 FEW022 26/23 Q1010 NOSIG=
13/04/2016 18:30:00Z	 SAID31 WIII 131830	METAR WIII 131830Z 27004KT 6000 FEW022 26/23 Q1010 NOSIG=
13/04/2016 19:00:00Z	 SAID31 WIII 131900	METAR WIII 131900Z 28004KT 6000 FEW022 26/23 Q1009 NOSIG=
13/04/2016 19:30:00Z	 SAID31 WIII 131930	METAR WIII 131930Z 27005KT 6000 FEW022 25/23 Q1009 NOSIG=
13/04/2016 20:00:00Z	 SAID31 WIII 132000	METAR WIII 132000Z 25008KT 6000 FEW022 26/24 Q1009 NOSIG=
13/04/2016 20:30:00Z	 SAID31 WIII 132030	METAR WIII 132030Z AUTO 24010KT CAVOK 26/24 Q1009 NOSIG=
13/04/2016 21:00:00Z	 SAID31 WIII 132100	METAR WIII 132100Z 24008KT 6000 FEW021 26/24 Q1009 NOSIG=
13/04/2016 21:30:00Z	 SAID31 WIII 132130	METAR WIII 132130Z AUTO 24007KT 9999 OVC210 26/24 Q1009 NOSIG=
13/04/2016 22:00:00Z	 SAID31 WIII 132200	METAR WIII 132200Z AUTO 28005KT 9999 OVC210 26/24 Q1009 NOSIG=
13/04/2016 22:30:00Z	 SAID31 WIII 132230	METAR WIII 132230Z AUTO 27005KT 9999 SCT180 OVC220 26/24 Q1009 NOSIG=
13/04/2016 23:00:00Z	 SAID31 WIII 132300	METAR WIII 132300Z AUTO 23006KT 9999 OVC230 27/24 Q1009 NOSIG=
13/04/2016 23:30:00Z	 SAID31 WIII 132330	METAR WIII 132330Z AUTO VRB03KT 9999 BKN220 BKN240 27/24 Q1010 NOSIG=
14/04/2016 00:00:00Z	 SAID31 WIII 140000	METAR WIII 140000Z AUTO 31004KT 3000 BR BKN240 27/24 Q1010 NOSIG=
14/04/2016 00:30:00Z	 SAID31 WIII 140030	METAR WIII 140030Z VRB03KT 5000 HZ SCT020 28/24 Q1010 NOSIG=
14/04/2016 01:00:00Z	 SAID31 WIII 140100	METAR WIII 140100Z 28005KT 6000 SCT020 29/24 Q1010 NOSIG=
14/04/2016 01:30:00Z	 SAID31 WIII 140130	METAR WIII 140130Z 29007KT 8000 SCT020 30/24 Q1011 NOSIG=
14/04/2016 02:00:00Z	 SAID31 WIII 140200	METAR WIII 140200Z 28009KT 250V310 8000 SCT020 31/24 Q1011 NOSIG=
14/04/2016 02:30:00Z	 SAID31 WIII 140230	METAR WIII 140230Z 29009KT 9999 FEW020 32/24 Q1011 NOSIG=
14/04/2016 03:00:00Z	 SAID31 WIII 140300	METAR WIII 140300Z 26007KT 220V330 9999 SCT020 32/24 Q1011 NOSIG=
14/04/2016 03:30:00Z	 SAID31 WIII 140330	METAR WIII 140330Z 27007KT 9999 SCT020 32/24 Q1010 NOSIG=
14/04/2016 04:00:00Z	 SAID31 WIII 140400	METAR WIII 140400Z 29008KT 9999 SCT020 34/23 Q1010 NOSIG=
14/04/2016 04:30:00Z	 SAID31 WIII 140430	METAR WIII 140430Z 28008KT 9999 SCT020 34/24 Q1009 NOSIG=
14/04/2016 05:00:00Z	 SAID31 WIII 140500	METAR WIII 140500Z 27008KT 9999 SCT020 33/23 Q1009 NOSIG=
14/04/2016 05:30:00Z	 SAID31 WIII 140530	METAR WIII 140530Z 25008KT 9999 SCT020 34/25 Q1008 NOSIG=
14/04/2016 06:00:00Z	 SAID31 WIII 140600	METAR WIII 140600Z 27007KT 240V300 9999 FEW020CB SCT022 34/24 Q1008 N OSIG RMK CB TO S=
14/04/2016 06:30:00Z	 SAID31 WIII 140630	METAR WIII 140630Z 36006KT 9999 FEW020CB SCT022 32/26 Q1008 NOSIG RMK CB TO S=
14/04/2016 07:00:00Z	 SAID31 WIII 140700	METAR WIII 140700Z 02008KT 9999 FEW020CB BKN020 32/25 Q1007 NOSIG RMK CB TO S=
14/04/2016 07:30:00Z	 SAID31 WIII 140730	METAR WIII 140730Z 36005KT 8000 FEW018CB BKN020 31/26 Q1007 NOSIG RMK CB TO SE=
14/04/2016 08:00:00Z	 SAID31 WIII 140800	METAR WIII 140800Z VRB05KT 8000 FEW018CB BKN020 32/26 Q1007 NOSIG RMK CB TO S=
14/04/2016 08:30:00Z	 SAID31 WIII 140830	METAR WIII 140830Z VRB05KT 8000 FEW018CB BKN020 33/25 Q1007 NOSIG RMK CB TO E AND S=
14/04/2016 09:00:00Z	 SAID31 WIII 140900	METAR WIII 140900Z VRB04KT 8000 FEW018CB OVC020 33/24 Q1007 NOSIG RMK CB TO SE AND SW=
14/04/2016 09:30:00Z	 SAID31 WIII 140930	METAR WIII 140930Z 16006G16KT 6000 -RA FEW018CB BKN020 30/26 Q1008 NO SIG RMK CB TO E AND SE=
14/04/2016 10:00:00Z	 SAID31 WIII 141000	METAR WIII 141000Z 12007KT 8000 -RA FEW018CB BKN020 29/26 Q1008 NOSIG RMK CB TO E AND SE=
14/04/2016 10:30:00Z	 SAID31 WIII 141030	METAR WIII 141030Z 15006KT 8000 -RA FEW018CB BKN020 28/26 Q1008 RETS NOSIG RMK CB TO E AND SE =
14/04/2016 11:00:00Z	 SAID31 WIII 141100	METAR WIII 141100Z VRB04KT 9999 FEW018CB BKN020 28/26 Q1008 REVCTS NO SIG RMK CB TO E AND SE =
14/04/2016 12:00:00Z	 SAID31 WIII 141200	METAR WIII 141200Z VRB02KT 8000 -RA BKN022 28/26 Q1009 NOSIG=
14/04/2016 12:30:00Z	 SAID31 WIII 141230	METAR WIII 141230Z VRB02KT 6000 BKN020 28/26 Q1010 NOSIG=
14/04/2016 13:00:00Z	 SAID31 WIII 141300	METAR WIII 141300Z 20006KT 5000 HZ BKN020 27/26 Q1011 NOSIG=
14/04/2016 13:30:00Z	 SAID31 WIII 141330	METAR WIII 141330Z VRB05KT 5000 HZ SCT020 27/25 Q1011 NOSIG=
14/04/2016 14:00:00Z	 SAID31 WIII 141400	METAR WIII 141400Z VRB05KT 5000 HZ SCT020 27/25 Q1011 NOSIG=
14/04/2016 14:30:00Z	 SAID31 WIII 141430	METAR WIII 141430Z 22005KT 5000 HZ FEW018 27/25 Q1011 NOSIG=
14/04/2016 15:00:00Z	 SAID31 WIII 141500	METAR WIII 141500Z 21005KT 5000 HZ FEW018 27/25 Q1011 NOSIG=
14/04/2016 15:30:00Z	 SAID31 WIII 141530	METAR WIII 141530Z 21005KT 5000 HZ FEW018 27/25 Q1011 NOSIG=
14/04/2016 16:00:00Z	 SAID31 WIII 141600	METAR WIII 141600Z VRB03KT 5000 HZ FEW020 27/25 Q1011 NOSIG=
14/04/2016 16:30:00Z	 SAID31 WIII 141630	METAR WIII 141630Z 21004KT 5000 HZ FEW020 27/25 Q1011 NOSIG=
14/04/2016 17:00:00Z	 SAID31 WIII 141700	METAR WIII 141700Z VRB03KT 5000 HZ FEW020 27/25 Q1010 NOSIG=
14/04/2016 17:30:00Z	 SAID31 WIII 141730	METAR WIII 141730Z 32002KT 5000 HZ FEW020 27/25 Q1010 NOSIG=
14/04/2016 18:00:00Z	 SAID31 WIII 141800	METAR WIII 141800Z VRB02KT 5000 HZ FEW020 27/25 Q1010 NOSIG=
14/04/2016 18:30:00Z	 SAID31 WIII 141830	METAR WIII 141830Z AUTO VRB01KT 4600 BKN170 27/25 Q1009 NOSIG=
14/04/2016 19:00:00Z	 SAID31 WIII 141900	METAR WIII 141900Z AUTO VRB02KT 5000 OVC180 27/25 Q1009 NOSIG=
14/04/2016 19:30:00Z	 SAID31 WIII 141930	METAR WIII 141930Z AUTO 17002KT 5000 SCT050 OVC180 27/25 Q1009 NOSIG=
14/04/2016 20:00:00Z	 SAID31 WIII 142000	METAR WIII 142000Z AUTO VRB01KT 4700 OVC180 27/25 Q1009 NOSIG=
14/04/2016 20:30:00Z	 SAID31 WIII 142030	METAR WIII 142030Z AUTO VRB01KT 4200 FEW050 BKN170 27/25 Q1009 NOSIG=
14/04/2016 21:00:00Z	 SAID31 WIII 142100	METAR WIII 142100Z AUTO VRB01KT 3100 BR FEW070 BKN170 26/26 Q1009 NOS IG=
14/04/2016 21:30:00Z	 SAID31 WIII 142130	METAR WIII 142130Z AUTO VRB01KT 3700 BR SCT048 BKN190 26/26 Q1009 NOS IG=
14/04/2016 22:00:00Z	 SAID31 WIII 142200	METAR WIII 142200Z 16003KT 4000 HZ SCT020 26/26 Q1009 NOSIG=
14/04/2016 22:30:00Z	 SAID31 WIII 142230	METAR WIII 142230Z VRB02KT 4000 HZ BKN020 27/26 Q1010 NOSIG=
14/04/2016 23:00:00Z	 SAID31 WIII 142300	METAR WIII 142300Z VRB02KT 4000 -DZ BKN020 27/25 Q1010 NOSIG=
14/04/2016 23:30:00Z	 SAID31 WIII 142330	METAR WIII 142330Z VRB04KT 4000 -DZ BKN020 27/25 Q1010 NOSIG=
15/04/2016 00:00:00Z	 SAID31 WIII 150000	METAR WIII 150000Z 13006KT 4000 -RA OVC020 27/25 Q1011 NOSIG=
15/04/2016 00:30:00Z	 SAID31 WIII 150030	METAR WIII 150030Z VRB05KT 4000 -RA SCT020 27/26 Q1012 N0SIG=
15/04/2016 01:00:00Z	 SAID31 WIII 150100	METAR WIII 150100Z 12006KT 3100 BR SCT020 27/26 Q1012 RERA NOSIG=
15/04/2016 01:30:00Z	 SAID31 WIII 150130	METAR WIII 150130Z 12006KT 4500 BR SCT020 27/26 Q1011 NOSIG=
15/04/2016 02:00:00Z	 SAID31 WIII 150200	METAR WIII 150200Z 10006KT 6000 BKN018 28/26 Q1012 NOSIG=
15/04/2016 02:30:00Z	 SAID31 WIII 150230	METAR WIII 150230Z VRB04KT 6000 BKN018 29/26 Q1012 NOSIG=
15/04/2016 03:00:00Z	 SAID31 WIII 150300	METAR WIII 150300Z 08006KT 050V110 6000 BKN018 30/26 Q1012 NOSIG=
15/04/2016 03:30:00Z	 SAID31 WIII 150330	METAR WIII 150330Z 07007KT 6000 BKN020 30/26 Q1011 NOSIG=
15/04/2016 04:00:00Z	 SAID31 WIII 150400	METAR WIII 150400Z VRB05KT 7000 SCT018 31/25 Q1011 NOSIG=
15/04/2016 04:30:00Z	 SAID31 WIII 150430	METAR WIII 150430Z 09008KT 060V130 7000 SCT020 30/25 Q1011 NOSIG=
15/04/2016 05:00:00Z	 SAID31 WIII 150500	METAR WIII 150500Z 09008KT 060V120 8000 SCT020 31/25 Q1010 NOSIG=
15/04/2016 05:30:00Z	 SAID31 WIII 150530	METAR WIII 150530Z 09007KT 060V120 8000 SCT020 32/25 Q1010 NOSIG=
15/04/2016 06:00:00Z	 SAID31 WIII 150600	METAR WIII 150600Z 07010KT 030V100 8000 SCT018 31/26 Q1009 NOSIG=
15/04/2016 06:30:00Z	 SAID31 WIII 150630	METAR WIII 150630Z 07010KT 8000 SCT020 31/26 Q1009 NOSIG=
15/04/2016 07:00:00Z	 SAID31 WIII 150700	METAR WIII 150700Z 08011KT 8000 FEW019CB SCT022 31/26 Q1009 NOSIG RMK CB TO W=
15/04/2016 07:30:00Z	 SAID31 WIII 150730	METAR WIII 150730Z 08013KT 8000 FEW019CB SCT022 31/25 Q1009 NOSIG RMK CB TO W=
15/04/2016 08:00:00Z	 SAID31 WIII 150800	METAR WIII 150800Z 07010KT 8000 SCT020 30/25 Q1009 NOSIG=
15/04/2016 08:30:00Z	 SAID31 WIII 150830	METAR WIII 150830Z 06008KT 8000 FEW020CB SCT022 31/26 Q1009 NOSIG RMK CB TO SW=
15/04/2016 09:00:00Z	 SAID31 WIII 150900	METAR WIII 150900Z 05009KT 8000 FEW020CB SCT022 31/26 Q1009 NOSIG RMK CB TO SW=
15/04/2016 09:30:00Z	 SAID31 WIII 150930	METAR WIII 150930Z 07008KT 8000 SCT023 30/26 Q1009 NOSIG=
15/04/2016 10:00:00Z	 SAID31 WIII 151000	METAR WIII 151000Z 09009KT 8000 FEW020CB SCT023 29/25 Q1009 NOSIG RMK CB TO S=
15/04/2016 10:30:00Z	 SAID31 WIII 151030	METAR WIII 151030Z 11006KT 8000 SCT022 29/25 Q1009 NOSIG=
15/04/2016 11:00:00Z	 SAID31 WIII 151100	METAR WIII 151100Z VRB05KT 7000 FEW020TCU SCT021 29/25 Q1009 NOSIG RM K TCU TO SE=
15/04/2016 11:30:00Z	 SAID31 WIII 151130	METAR WIII 151130Z 23004KT 7000 SCT022 29/25 Q1009 NOSIG=
15/04/2016 12:00:00Z	 SAID31 WIII 151200	METAR WIII 151200Z 31004KT 4000 HZ SCT020 28/24 Q1010 NOSIG=
15/04/2016 12:30:00Z	 SAID31 WIII 151230	METAR WIII 151230Z 30004KT 3000 HZ SCT022 27/24 Q1010 NOSIG=
15/04/2016 13:00:00Z	 SAID31 WIII 151300	METAR WIII 151300Z 32002KT 3000 HZ SCT022 27/25 Q1010 NOSIG=
15/04/2016 13:30:00Z	 SAID31 WIII 151330	METAR WIII 151330Z 29002KT 3000 HZ SCT020 27/25 Q1011 NOSIG=
15/04/2016 14:00:00Z	 SAID31 WIII 151400	METAR WIII 151400Z 30003KT 3000 HZ BKN022 27/25 Q1011 NOSIG=
15/04/2016 14:30:00Z	 SAID31 WIII 151430	METAR WIII 151430Z 30004KT 2500 HZ BKN022 27/25 Q1011 NOSIG=
15/04/2016 15:00:00Z	 SAID31 WIII 151500	METAR WIII 151500Z 30002KT 2500 HZ BKN022 27/25 Q1011 NOSIG=
15/04/2016 15:30:00Z	 SAID31 WIII 151530	METAR WIII 151530Z VRB02KT 2500 BR SCT020 27/25 Q1011 NOSIG=
15/04/2016 16:00:00Z	 SAID31 WIII 151600	METAR WIII 151600Z VRB02KT 2500 BR BKN022 27/25 Q1011 NOSIG=
15/04/2016 16:30:00Z	 SAID31 WIII 151630	METAR WIII 151630Z VRB02KT 2000 BR BKN020 27/25 Q1011 NOSIG=
15/04/2016 17:00:00Z	 SAID31 WIII 151700	METAR WIII 151700Z VRB02KT 2500 BR SCT020 26/25 Q1010 NOSIG=
15/04/2016 17:30:00Z	 SAID31 WIII 151730	METAR WIII 151730Z VRB05KT 3100 BR SCT020 27/25 Q1010 NOSIG=
15/04/2016 18:00:00Z	 SAID31 WIII 151800	METAR WIII 151800Z VRB02KT 3500 BR SCT020 26/25 Q1010 NOSIG=
15/04/2016 18:30:00Z	 SAID31 WIII 151830	METAR WIII 151830Z 19003KT 3000 BR SCT020 27/25 Q1010 NOSIG=
15/04/2016 19:00:00Z	 SAID31 WIII 151900	METAR WIII 151900Z 20005KT 4000 BR SCT020 27/25 Q1010 NOSIG=
15/04/2016 19:30:00Z	 SAID31 WIII 151930	METAR WIII 151930Z 21004KT 3500 BR SCT020 26/25 Q1009 NOSIG=
15/04/2016 20:00:00Z	 SAID31 WIII 152000	METAR WIII 152000Z 20005KT 3500 BR FEW020 26/25 Q1009 NOSIG=
15/04/2016 20:30:00Z	 SAID31 WIII 152030	METAR WIII 152030Z 18003KT 3000 BR FEW020 26/25 Q1009 NOSIG=
15/04/2016 21:00:00Z	 SAID31 WIII 152100	METAR WIII 152100Z VRB03KT 3000 BR FEW020CB SCT020 26/25 Q1009 NOSIG RMK CB TO NW=
15/04/2016 21:30:00Z	 SAID31 WIII 152130	METAR WIII 152130Z 18004KT 3000 VCTS BR FEW020CB SCT020 27/25 Q1009 N OSIG RMK CB TO NW=
15/04/2016 22:00:00Z	 SAID31 WIII 152200	METAR WIII 152200Z 21004KT 3000 VCTS BR FEW020CB BKN022 27/26 Q1010 N OSIG RMK CB TO SW AND NW=
15/04/2016 22:30:00Z	 SAID31 WIII 152230	METAR WIII 152230Z VRB05KT 3000 BR FEW020CB BKN022 27/25 Q1010 REVCTS NOSIG RMK CB TO SW AND NW=
15/04/2016 23:00:00Z	 SAID31 WIII 152300	METAR WIII 152300Z VRB04KT 3000 VCTS BR FEW020CB BKN022 27/25 Q1010 N OSIG RMK CB TO SW AND NW=
15/04/2016 23:30:00Z	 SAID31 WIII 152330	METAR WIII 152330Z VRB05KT 3500 HZ FEW020CB SCT020 27/26 Q1010 REVCTS NOSIG RMK CB TO N AND NW=
16/04/2016 00:00:00Z	 SAID31 WIII 160000	METAR WIII 160000Z VRB04KT 3500 HZ SCT020 28/26 Q1010 NOSIG=
16/04/2016 00:30:00Z	 SAID31 WIII 160030	METAR WIII 160030Z VRB03KT 5000 HZ FEW020 28/26 Q1011 NOSIG=
16/04/2016 01:00:00Z	 SAID31 WIII 160100	METAR WIII 160100Z VRB03KT 5000 HZ FEW020 29/26 Q1011 NOSIG=
16/04/2016 01:30:00Z	 SAID31 WIII 160130	METAR WIII 160130Z VRB03KT 6000 FEW020 30/26 Q1011 NOSIG=
16/04/2016 02:00:00Z	 SAID31 WIII 160200	METAR WIII 160200Z VRB04KT 8000 FEW020 31/24 Q1012 NOSIG=
16/04/2016 02:30:00Z	 SAID31 WIII 160230	METAR WIII 160230Z 05006KT 9000 FEW020 32/24 Q1012 NOSIG=
16/04/2016 03:00:00Z	 SAID31 WIII 160300	METAR WIII 160300Z 06006KT 030V100 9999 FEW018 32/24 Q1011 NOSIG=
16/04/2016 03:30:00Z	 SAID31 WIII 160330	METAR WIII 160330Z 08006KT 040V110 9999 FEW020 32/24 Q1010 NOSIG=
16/04/2016 04:00:00Z	 SAID31 WIII 160400	METAR WIII 160400Z 09009KT 060V130 9999 FEW018 32/25 Q1010 NOSIG=
16/04/2016 04:30:00Z	 SAID31 WIII 160430	METAR WIII 160430Z 09009KT 9999 FEW018 33/25 Q1009 NOSIG=
16/04/2016 05:00:00Z	 SAID31 WIII 160500	METAR WIII 160500Z 06010KT 9999 FEW020 33/26 Q1009 NOSIG=
16/04/2016 05:30:00Z	 SAID31 WIII 160530	METAR WIII 160530Z 04009KT 9999 FEW018 31/25 Q1008 NOSIG=
16/04/2016 06:00:00Z	 SAID31 WIII 160600	METAR WIII 160600Z 08010KT 050V110 9999 FEW018 33/26 Q1008 NOSIG=
16/04/2016 06:30:00Z	 SAID31 WIII 160630	METAR WIII 160630Z 05011KT 9999 FEW020 32/25 Q1008 NOSIG=
16/04/2016 07:00:00Z	 SAID31 WIII 160700	METAR WIII 160700Z 04010KT 010V070 9999 FEW020 33/23 Q1007 NOSIG=
16/04/2016 07:30:00Z	 SAID31 WIII 160730	METAR WIII 160730Z 06010KT 9999 FEW020 33/23 Q1007 NOSIG=
16/04/2016 08:00:00Z	 SAID31 WIII 160800	METAR WIII 160800Z 05008KT 9999 FEW020 32/23 Q1007 NOSIG=
16/04/2016 08:30:00Z	 SAID31 WIII 160830	METAR WIII 160830Z 03008KT 360V070 9999 FEW020 32/24 Q1007 NOSIG=
16/04/2016 09:00:00Z	 SAID31 WIII 160900	METAR WIII 160900Z 04007KT 010V080 9999 FEW020 32/24 Q1007 NOSIG=
16/04/2016 09:30:00Z	 SAID31 WIII 160930	METAR WIII 160930Z 05008KT 9999 FEW020 31/25 Q1007 NOSIG=
16/04/2016 10:00:00Z	 SAID31 WIII 161000	METAR WIII 161000Z 05007KT 9999 FEW020 31/26 Q1007 NOSIG=
16/04/2016 10:30:00Z	 SAID31 WIII 161030	METAR WIII 161030Z AUTO 05007KT CAVOK 30/26 Q1008 NOSIG=
16/04/2016 11:00:00Z	 SAID31 WIII 161100	METAR WIII 161100Z 04006KT 9000 FEW020 29/26 Q1008 NOSIG=
16/04/2016 11:30:00Z	 SAID31 WIII 161130	METAR WIII 161130Z 05006KT 9000 FEW020 29/26 Q1009 NOSIG=
16/04/2016 12:00:00Z	 SAID31 WIII 161200	METAR WIII 161200Z 05005KT 8000 FEW020 29/26 Q1009 NOSIG=
16/04/2016 12:30:00Z	 SAID31 WIII 161230	METAR WIII 161230Z VRB03KT 8000 FEW020 29/26 Q1010 NOSIG=
16/04/2016 13:00:00Z	 SAID31 WIII 161300	METAR WIII 161300Z 05003KT 6000 FEW020 29/27 Q1010 NOSIG=
16/04/2016 13:30:00Z	 SAID31 WIII 161330	METAR WIII 161330Z 05003KT 7000 NCD FEW020 29/26 Q1010 NOSIG=
16/04/2016 13:30:00Z	 SAID31 WIII 161330 CCA	METAR COR WIII 161330Z 05003KT 7000 FEW020 29/26 Q1010 NOSIG=
16/04/2016 14:00:00Z	 SAID31 WIII 161400	METAR WIII 161400Z 06004KT 7000 FEW020 29/26 Q1010 NOSIG=
16/04/2016 14:30:00Z	 SAID31 WIII 161430	METAR WIII 161430Z 06003KT 7000 FEW018 29/26 Q1010 NOSIG=
16/04/2016 15:00:00Z	 SAID31 WIII 161500	METAR WIII 161500Z 06002KT 7000 FEW022 29/26 Q1010 NOSIG=
16/04/2016 15:30:00Z	 SAID31 WIII 161530	METAR WIII 161530Z VRB02KT 7000 SCT019 28/26 Q1010 NOSIG=
16/04/2016 16:00:00Z	 SAID31 WIII 161600	METAR WIII 161600Z 08003KT 7000 SCT019 29/26 Q1010 NOSIG=
16/04/2016 16:30:00Z	 SAID31 WIII 161630	METAR WIII 161630Z 10003KT 7000 SCT020 28/26 Q1010 NOSIG=
16/04/2016 17:00:00Z	 SAID31 WIII 161700	METAR WIII 161700Z 08004KT 6000 SCT020 29/26 Q1010 NOSIG=
16/04/2016 17:30:00Z	 SAID31 WIII 161730	METAR WIII 161730Z VRB03KT 6000 SCT020 29/26 Q1010 NOSIG=
16/04/2016 18:00:00Z	 SAID31 WIII 161800	METAR WIII 161800Z 10002KT 6000 SCT021 28/26 Q1009 NOSIG=
16/04/2016 18:30:00Z	 SAID31 WIII 161830	METAR WIII 161830Z 09002KT 6000 SCT021 28/26 Q1009 NOSIG=
16/04/2016 19:00:00Z	 SAID31 WIII 161900	METAR WIII 161900Z 12003KT 5000 HZ FEW021 29/26 Q1009 NOSIG=
16/04/2016 19:30:00Z	 SAID31 WIII 161930	METAR WIII 161930Z 14003KT 6000 SCT021 29/26 Q1009 NOSIG=
16/04/2016 20:00:00Z	 SAID31 WIII 162000	METAR WIII 162000Z 13003KT 6000 SCT021 28/26 Q1009 NOSIG=
16/04/2016 20:30:00Z	 SAID31 WIII 162030	METAR WIII 162030Z 15003KT 6000 SCT021 28/26 Q1009 NOSIG=
16/04/2016 21:00:00Z	 SAID31 WIII 162100	METAR WIII 162100Z VRB04KT 6000 FEW020CB SCT021 28/26 Q1009 NOSIG RMK CB TO E=
16/04/2016 21:30:00Z	 SAID31 WIII 162130	METAR WIII 162130Z 17004KT 5000 HZ FEW020CB SCT021 28/26 Q1009 NOSIG RMK CB TO E=
16/04/2016 22:00:00Z	 SAID31 WIII 162200	METAR WIII 162200Z 17005KT 5000 HZ SCT020 28/26 Q1009 NOSIG=
16/04/2016 22:30:00Z	 SAID31 WIII 162230	METAR WIII 162230Z 14004KT 5000 HZ SCT020 28/26 Q1009=
16/04/2016 23:00:00Z	 SAID31 WIII 162300	METAR WIII 162300Z 14004KT 5000 HZ FEW022 28/26 Q1009 NOSIG=
16/04/2016 23:30:00Z	 SAID31 WIII 162330	METAR WIII 162330Z 17003KT 4500 HZ FEW020CB FEW023 28/26 Q1009 NOSIG RMK CB TO NW=
17/04/2016 00:00:00Z	 SAID31 WIII 170000	METAR WIII 170000Z 15006KT 130V210 6000 FEW020CB FEW022 29/26 Q1010 N OSIG RMK CB TO NW=
17/04/2016 00:30:00Z	 SAID31 WIII 170030	METAR WIII 170030Z 13006KT 090V150 6000 FEW020CB FEW022 29/26 Q1010 N OSIG RMK CB TO NW=
17/04/2016 01:00:00Z	 SAID31 WIII 170100	METAR WIII 170100Z VRB05KT 8000 FEW021 30/26 Q1011 NOSIG=
17/04/2016 01:30:00Z	 SAID31 WIII 170130	METAR WIII 170130Z 11007KT 080V150 8000 SCT021 31/26 Q1011 NOSIG=
17/04/2016 02:00:00Z	 SAID31 WIII 170200	METAR WIII 170200Z 11008KT 8000 SCT020 31/26 Q1011 NOSIG=
17/04/2016 02:30:00Z	 SAID31 WIII 170230	METAR WIII 170230Z 10009KT 9000 SCT021 32/26 Q1011 NOSIG=
17/04/2016 03:00:00Z	 SAID31 WIII 170300	METAR WIII 170300Z 09012KT 9000 SCT020 33/26 Q1010 NOSIG=
17/04/2016 03:30:00Z	 SAID31 WIII 170330	METAR WIII 170330Z 09011KT 9000 SCT020 33/24 Q1010 NOSIG=
17/04/2016 04:00:00Z	 SAID31 WIII 170400	METAR WIII 170400Z 07012KT 9000 SCT021 32/26 Q1010 NOSIG=
17/04/2016 04:30:00Z	 SAID31 WIII 170430	METAR WIII 170430Z 08014KT 9999 VCTS FEW020CB SCT021 33/26 Q1009 NOSI G RMK CB TO SW=
17/04/2016 05:00:00Z	 SAID31 WIII 170500	METAR WIII 170500Z 07014KT 9999 VCTS FEW020CB SCT020 33/26 Q1009 NOSI G RMK CB TO SW=
17/04/2016 05:30:00Z	 SAID31 WIII 170530	METAR WIII 170530Z 08013KT 9000 FEW020CB SCT020 33/25 Q1008 NOSIG RMK CB TO SW=
17/04/2016 06:00:00Z	 SAID31 WIII 170600	METAR WIII 170600Z 06009G15KT 9999 FEW020CB SCT020 32/26 Q1008 NOSIG RMK CB TO W=
17/04/2016 06:30:00Z	 SAID31 WIII 170630	METAR WIII 170630Z 07010KT 9000 VCTS FEW018CB SCT020 33/26 Q1008 NOSIG RMK CB TO E AND W=
17/04/2016 07:00:00Z	 SAID31 WIII 170700	METAR WIII 170700Z 09010KT 9000 -TSRA FEW018CB SCT020 32/26 Q1007 NOS IG RMK CB TO SE AND SW=
17/04/2016 07:30:00Z	 SAID31 WIII 170730	METAR WIII 170730Z 06007KT 9000 VCTS FEW018CB SCT020 31/26 Q1007 NOSI G RMK CB TO S=
17/04/2016 08:00:00Z	 SAID31 WIII 170800	METAR WIII 170800Z 06007KT 8000 FEW018CB BKN020 31/26 Q1007 NOSIG RMK CB TO S=
17/04/2016 08:30:00Z	 SAID31 WIII 170830	METAR WIII 170830Z VRB04KT 8000 VCTS SCT018 BKN020 31/26 Q1007 NOSIG CB TO SE TILL W=
17/04/2016 09:00:00Z	 SAID31 WIII 170900	METAR WIII 170900Z 06006KT 020V090 8000 VCTS SCT018CB BKN020 31/26 Q1 008 NOSIG RMK CB OVER THE FIELD=
17/04/2016 09:30:00Z	 SAID31 WIII 170930	METAR WIII 170930Z 20006KT 150V240 7000 VCTS SCT018CB BKN020 29/25 Q1 008 TEMPO 3000 TSRA RMK CB OVER THE FIELD=
17/04/2016 10:00:00Z	 SAID31 WIII 171000	METAR WIII 171000Z 30010G20KT 220V310 7000 -TSRA SCT017CB BKN018 27/2 5 Q1009 NOSIG RMK CB OVER THE FIELD=
17/04/2016 10:30:00Z	 SAID31 WIII 171030	METAR WIII 171030Z 20010G20KT 160V250 3000 -TSRA SCT015CB BKN017 27/2 5 Q1010 NOSIG RMK CB OVER THE FIELD=
17/04/2016 11:00:00Z	 SAID31 WIII 171100	METAR WIII 171100Z 12007KT 090V190 3500 -TSRA SCT015CB BKN017 26/25 Q 1010 NOSIG RMK CB OVER THE FIELD=
17/04/2016 11:30:00Z	 SAID31 WIII 171130	METAR WIII 171130Z 00000KT 4000 TSRA SCT015CB BKN017 26/25 Q1011 NOSIG RMK CB OVER THE FIELD=
17/04/2016 12:00:00Z	 SAID31 WIII 171200	METAR WIII 171200Z 10006KT 080V140 4500 -TSRA SCT016CB BKN017 25/24 Q 1011 NOSIG RMK CB TO S=
17/04/2016 12:30:00Z	 SAID31 WIII 171230	METAR WIII 171230Z 18006KT 140V220 5000 -RA FEW018CB BKN018 25/24 Q10 12 RETS NOSIG RMK CB TO S=
17/04/2016 13:00:00Z	 SAID31 WIII 171300	METAR WIII 171300Z 19008KT 5000 -RA BKN018 25/24 Q1012 NOSIG NOSIG=
17/04/2016 13:30:00Z	 SAID31 WIII 171330	METAR WIII 171330Z 20007KT 5000 -RA BKN018 26/25 Q1012 NOSIG=
17/04/2016 14:00:00Z	 SAID31 WIII 171400	METAR WIII 171400Z 21007KT 170V240 5000 -RA BKN018 26/25 Q1011 NOSIG=
17/04/2016 14:30:00Z	 SAID31 WIII 171430	METAR WIII 171430Z 17006KT 140V220 5000 -RA BKN018 26/25 Q1011 NOSIG=
17/04/2016 15:00:00Z	 SAID31 WIII 171500	METAR WIII 171500Z VRB05KT 5000 SCT018 25/25 Q1011 RERA NOSIG=
17/04/2016 15:30:00Z	 SAID31 WIII 171530	METAR WIII 171530Z VRB04KT 5000 SCT020 25/24 Q1010 NOSIG=
17/04/2016 16:00:00Z	 SAID31 WIII 171600	METAR WIII 171600Z 13003KT 5000 SCT020 25/24 Q1010 NOSIG=
17/04/2016 16:30:00Z	 SAID31 WIII 171630	METAR WIII 171630Z VRB02KT 5000 SCT020 25/24 Q1010 NOSIG=
17/04/2016 17:00:00Z	 SAID31 WIII 171700	METAR WIII 171700Z 07003KT 4500 BR FEW020 25/24 Q1010 NOSIG=
17/04/2016 17:30:00Z	 SAID31 WIII 171730	METAR WIII 171730Z VRB02KT 5000 FEW021 26/24 Q1010 NOSIG=
17/04/2016 18:00:00Z	 SAID31 WIII 171800	METAR WIII 171800Z 22005KT 5000 FEW021 26/24 Q1010 NOSIG=
17/04/2016 18:30:00Z	 SAID31 WIII 171830	METAR WIII 171830Z 25005KT 5000 FEW021 25/24 Q1010 NOSIG=
17/04/2016 19:00:00Z	 SAID31 WIII 171900	METAR WIII 171900Z AUTO 27004KT CAVOK 25/24 Q1010 NOSIG=
17/04/2016 19:30:00Z	 SAID31 WIII 171930	METAR WIII 171930Z AUTO 24003KT 6000 NCD 25/24 Q1010 NOSIG=
17/04/2016 20:00:00Z	 SAID31 WIII 172000	METAR WIII 172000Z AUTO VRB02KT CAVOK 25/24 Q1010 NOSIG=
17/04/2016 20:30:00Z	 SAID31 WIII 172030	METAR WIII 172030Z AUTO 23003KT CAVOK 25/24 Q1010 NOSIG=
17/04/2016 21:00:00Z	 SAID31 WIII 172100	METAR WIII 172100Z AUTO 23004KT 9999 SCT180 25/24 Q1010 NOSIG=
17/04/2016 21:30:00Z	 SAID31 WIII 172130	METAR WIII 172130Z AUTO 25004KT 9999 FEW180 25/24 Q1010 NOSIG=
17/04/2016 22:00:00Z	 SAID31 WIII 172200	METAR WIII 172200Z VRB01KT 5000 FEW021 25/24 Q1010 NOSIG=
17/04/2016 22:30:00Z	 SAID31 WIII 172230	METAR WIII 172230Z VRB03KT 5000 FEW021 25/24 Q1010 NOSIG=
17/04/2016 23:00:00Z	 SAID31 WIII 172300	METAR WIII 172300Z VRB04KT 7000 FEW021 25/24 Q1010 NOSIG=
17/04/2016 23:30:00Z	 SAID31 WIII 172330	METAR WIII 172330Z VRB04KT 8000 FEW021 26/24 Q1010 NOSIG=
18/04/2016 00:00:00Z	 SAID31 WIII 180000	METAR WIII 180000Z 14005KT CAVOK 26/25 Q1011 NOSIG=
18/04/2016 00:30:00Z	 SAID31 WIII 180030	METAR WIII 180030Z VRB04KT 9999 FEW021 28/25 Q1011 NOSIG=
18/04/2016 01:00:00Z	 SAID31 WIII 180100	METAR WIII 180100Z VRB05KT 9999 FEW022 29/25 Q1011 NOSIG=
18/04/2016 01:30:00Z	 SAID31 WIII 180130	METAR WIII 180130Z 12006KT 090V170 9999 FEW022 30/25 Q1011 NOSIG=
18/04/2016 02:00:00Z	 SAID31 WIII 180200	METAR WIII 180200Z 12006KT 090V150 9999 FEW022 31/25 Q1011 NOSIG=
18/04/2016 02:30:00Z	 SAID31 WIII 180230	METAR WIII 180230Z 12007KT 080V170 9999 FEW022 32/25 Q1011 NOSIG=
18/04/2016 03:00:00Z	 SAID31 WIII 180300	METAR WIII 180300Z 13006KT 080V190 9999 FEW022 32/25 Q1010 NOSIG=
18/04/2016 03:30:00Z	 SAID31 WIII 180330	METAR WIII 180330Z VRB05KT 9999 FEW020 33/25 Q1010 NOSIG=
18/04/2016 04:00:00Z	 SAID31 WIII 180400	METAR WIII 180400Z 09008KT 9999 FEW020 33/26 Q1009 NOSIG=
18/04/2016 04:30:00Z	 SAID31 WIII 180430	METAR WIII 180430Z 06009KT 9999 FEW018 33/27 Q1009 NOSIG=
18/04/2016 05:00:00Z	 SAID31 WIII 180500	METAR WIII 180500Z 05012KT 9999 FEW018 33/26 Q1008 NOSIG=
18/04/2016 05:30:00Z	 SAID31 WIII 180530	METAR WIII 180530Z 05011KT 9999 FEW020 31/27 Q1008 NOSIG=
18/04/2016 06:00:00Z	 SAID31 WIII 180600	METAR WIII 180600Z 04012KT 9999 FEW022 32/27 Q1008 NOSIG=
18/04/2016 06:30:00Z	 SAID31 WIII 180630	METAR WIII 180630Z 05009KT 9999 FEW022 32/27 Q1007 NOSIG=
18/04/2016 07:00:00Z	 SAID31 WIII 180700	METAR WIII 180700Z 05010KT 9999 FEW020 32/26 Q1007 NOSIG=
18/04/2016 07:30:00Z	 SAID31 WIII 180730	METAR WIII 180730Z 06009KT 9999 FEW020 32/26 Q1007 NOSIG=
18/04/2016 08:00:00Z	 SAID31 WIII 180800	METAR WIII 180800Z 06009KT 9999 FEW020 32/26 Q1007 NOSIG=
18/04/2016 08:30:00Z	 SAID31 WIII 180830	METAR WIII 180830Z 05009KT 9999 FEW018 32/26 Q1007 NOSIG=
18/04/2016 09:00:00Z	 SAID31 WIII 180900	METAR WIII 180900Z 05009KT 9999 FEW018 31/26 Q1007 NOSIG=
18/04/2016 09:30:00Z	 SAID31 WIII 180930	METAR WIII 180930Z 06009KT 9999 FEW018 31/26 Q1007 NOSIG=
18/04/2016 10:00:00Z	 SAID31 WIII 181000	METAR WIII 181000Z 06008KT 9999 FEW018 31/25 Q1008 NOSIG=
18/04/2016 10:30:00Z	 SAID31 WIII 181030	METAR WIII 181030Z 06006KT 9000 FEW018CB SCT020 30/26 Q1008 NOSIG RMK CB TO SW=
18/04/2016 11:00:00Z	 SAID31 WIII 181100	METAR WIII 181100Z VRB04KT 8000 FEW018CB BKN020 30/26 Q1009 NOSIG RMK CB TO SW=
18/04/2016 11:30:00Z	 SAID31 WIII 181130	METAR WIII 181130Z VRB02KT 7000 FEW018CB SCT018 30/26 Q1009 NOSIG RMK CB TO SW=
18/04/2016 12:00:00Z	 SAID31 WIII 181200	METAR WIII 181200Z VRB02KT 7000 FEW018CB BKN020 30/26 Q1009 NOSIG RMK CB TO SE AND SW=
18/04/2016 12:30:00Z	 SAID31 WIII 181230	METAR WIII 181230Z VRB03KT 7000 FEW018CB BKN020 29/25 Q1010 NOSIG RMK CB TO S=
18/04/2016 13:00:00Z	 SAID31 WIII 181300	METAR WIII 181300Z 21005KT 3500 -RA FEW018CB SCT020 28/25 Q1010 RETS NOSIG RMK CB TO SE =
18/04/2016 13:30:00Z	 SAID31 WIII 181330	METAR WIII 181330Z 18006KT 140V220 7000 -RA SCT020 27/25 Q1010 NOSIG=
18/04/2016 14:00:00Z	 SAID31 WIII 181400	METAR WIII 181400Z VRB05KT 6000 FEW020CB SCT021 27/25 Q1010 NOSIG RMK CB TO SW=
18/04/2016 14:30:00Z	 SAID31 WIII 181430	METAR WIII 181430Z 17005KT 6000 SCT020 27/25 Q1011 NOSIG=
18/04/2016 15:00:00Z	 SAID31 WIII 181500	METAR WIII 181500Z 22005KT 6000 SCT023 27/25 Q1011 NOSIG=
18/04/2016 15:30:00Z	 SAID31 WIII 181530	METAR WIII 181530Z 18004KT 6000 SCT022 27/25 Q1011 NOSIG=
18/04/2016 16:00:00Z	 SAID31 WIII 181600	METAR WIII 181600Z 24005KT 6000 SCT020 28/25 Q1011 NOSIG=
18/04/2016 16:30:00Z	 SAID31 WIII 181630	METAR WIII 181630Z 22004KT 6000 SCT020 28/25 Q1011 NOSIG=
18/04/2016 17:00:00Z	 SAID31 WIII 181700	METAR WIII 181700Z 23006KT 6000 FEW019 27/25 Q1010 NOSIG=
18/04/2016 17:30:00Z	 SAID31 WIII 181730	METAR WIII 181730Z VRB03KT 8000 SCT019 27/25 Q1010 NOSIG=
18/04/2016 18:00:00Z	 SAID31 WIII 181800	METAR WIII 181800Z 23006KT 6000 FEW021 27/25 Q1010 NOSIG=
18/04/2016 18:30:00Z	 SAID31 WIII 181830	METAR WIII 181830Z 20005KT 7000 FEW021 26/25 Q1010 NOSIG=
18/04/2016 19:00:00Z	 SAID31 WIII 181900	METAR WIII 181900Z 21004KT 6000 FEW022 26/24 Q1009 NOSIG=
18/04/2016 19:30:00Z	 SAID31 WIII 181930	METAR WIII 181930Z 21006KT 6000 SCT022 26/24 Q1009 NOSIG=
18/04/2016 20:00:00Z	 SAID31 WIII 182000	METAR WIII 182000Z 21002KT 7000 FEW022 27/25 Q1009 NOSIG=
18/04/2016 20:30:00Z	 SAID31 WIII 182030	METAR WIII 182030Z VRB02KT 6000 SCT022 26/25 Q1009 NOSIG=
18/04/2016 21:00:00Z	 SAID31 WIII 182100	METAR WIII 182100Z 18002KT 6000 SCT021 27/25 Q1009 NOSIG=
18/04/2016 21:30:00Z	 SAID31 WIII 182130	METAR WIII 182130Z VRB03KT 6000 SCT022 27/25 Q1009 NOSIG=
18/04/2016 22:00:00Z	 SAID31 WIII 182200	METAR WIII 182200Z 21003KT 6000 SCT022 27/25 Q1009 NOSIG=
18/04/2016 22:30:00Z	 SAID31 WIII 182230	METAR WIII 182230Z VRB03KT 6000 SCT021 27/25 Q1009 NOSIG=
18/04/2016 23:00:00Z	 SAID31 WIII 182300	METAR WIII 182300Z 17003KT 4900 BR FEW021 27/25 Q1010 NOSIG=
18/04/2016 23:30:00Z	 SAID31 WIII 182330	METAR WIII 182330Z 13004KT 6000 FEW021 27/25 Q1010 NOSIG=
19/04/2016 00:00:00Z	 SAID31 WIII 190000	METAR WIII 190000Z VRB03KT 6000 FEW020 27/25 Q1010 NOSIG=
19/04/2016 00:30:00Z	 SAID31 WIII 190030	METAR WIII 190030Z VRB03KT 7000 FEW022 29/25 Q1010 NOSIG=
19/04/2016 01:00:00Z	 SAID31 WIII 190100	METAR WIII 190100Z VRB03KT 8000 FEW022 30/25 Q1010 NOSIG=
19/04/2016 01:30:00Z	 SAID31 WIII 190130	METAR WIII 190130Z VRB04KT 8000 FEW022 31/26 Q1010 NOSIG=
19/04/2016 02:00:00Z	 SAID31 WIII 190200	METAR WIII 190200Z VRB04KT 8000 FEW020 32/24 Q1011 NOSIG=
19/04/2016 02:30:00Z	 SAID31 WIII 190230	METAR WIII 190230Z VRB05KT 9999 SCT020 32/25 Q1010 NOSIG=
19/04/2016 03:00:00Z	 SAID31 WIII 190300	METAR WIII 190300Z 08007KT 040V120 9999 SCT020 33/25 Q1010 NOSIG=
19/04/2016 03:30:00Z	 SAID31 WIII 190330	METAR WIII 190330Z 07008KT 9999 SCT020 33/25 Q1010 NOSIG=
19/04/2016 04:00:00Z	 SAID31 WIII 190400	METAR WIII 190400Z 03008KT 9999 SCT020 33/25 Q1010 NOSIG=
19/04/2016 04:30:00Z	 SAID31 WIII 190430	METAR WIII 190430Z 02009KT 9999 SCT020 33/25 Q1009 NOSIG=
19/04/2016 05:00:00Z	 SAID31 WIII 190500	METAR WIII 190500Z 05009KT 9999 SCT020 33/26 Q1009 NOSIG=
19/04/2016 05:30:00Z	 SAID31 WIII 190530	METAR WIII 190530Z 03009KT 9999 FEW020CB SCT020 33/26 Q1008 NOSIG RMK CB TO SW=
19/04/2016 06:00:00Z	 SAID31 WIII 190600	METAR WIII 190600Z 02009KT 9999 FEW020CB SCT020 33/26 Q1008 NOSIG RMK CB TO E AND S=
19/04/2016 06:30:00Z	 SAID31 WIII 190630	METAR WIII 190630Z 02010KT 9999 VCTS FEW018CB SCT020 32/26 Q1007 NOSI G RMK CB TO SE=
19/04/2016 07:00:00Z	 SAID31 WIII 190700	METAR WIII 190700Z 03008KT 8000 VCTS SCT018CB SCT020 32/26 Q1007 NOSI G RMK CB TO E S AND SW=
19/04/2016 07:30:00Z	 SAID31 WIII 190730	METAR WIII 190730Z 04009KT 9999 SCT018CB BKN020 31/26 Q1007 REVCTS NO SIG RMK CB TO SE S AND W=
19/04/2016 08:00:00Z	 SAID31 WIII 190800	METAR WIII 190800Z 05010KT 9999 FEW020CB SCT020 31/26 Q1007 NOSIG RMK CB TO SW AND NW=
19/04/2016 08:30:00Z	 SAID31 WIII 190830	METAR WIII 190830Z 04010KT 9999 SCT020CB SCT020 32/27 Q1006 NOSIG RMK CB TO SE S AND SW=
19/04/2016 09:00:00Z	 SAID31 WIII 190900	METAR WIII 190900Z 05009KT 9999 FEW020CB BKN022 31/26 Q1007 NOSIG RMK CB TO S AND SW=
19/04/2016 09:30:00Z	 SAID31 WIII 190930	METAR WIII 190930Z 04008KT 020V080 9999 FEW020CB BKN022 31/26 Q1007 N OSIG RMK CB TO SE AND SW=
19/04/2016 10:00:00Z	 SAID31 WIII 191000	METAR WIII 191000Z 05007KT 9999 FEW020CB SCT022 30/26 Q1008 NOSIG RMK CB TO SW=
19/04/2016 10:30:00Z	 SAID31 WIII 191030	METAR WIII 191030Z 05007KT 9999 FEW020CB SCT022 30/26 Q1008 NOSIG RMK CB TO SW=
19/04/2016 11:00:00Z	 SAID31 WIII 191100	METAR WIII 191100Z 05005KT 8000 FEW018CB BKN020 30/26 Q1009 NOSIG RMK CB TO SW=
19/04/2016 11:30:00Z	 SAID31 WIII 191130	METAR WIII 191130Z 06007KT 9999 FEW018CB OVC020 29/26 Q1009 NOSIG RMK CB TO SE S AND W=
19/04/2016 12:00:00Z	 SAID31 WIII 191200	METAR WIII 191200Z 06008KT 8000 VCTS SCT018CB OVC020 29/26 Q1010 NOSI G RMK CB TO E S AND W=
19/04/2016 12:30:00Z	 SAID31 WIII 191230	METAR WIII 191230Z 09007KT 8000 VCTS SCT018CB OVC020 30/26 Q1010 NOSI G RMK CB TO E S AND W=
19/04/2016 13:00:00Z	 SAID31 WIII 191300	METAR WIII 191300Z 15008KT 7000 VCTS FEW018CB SCT018 28/25 Q1010 NOSI G RMK CB TO SE AND SW=
19/04/2016 13:30:00Z	 SAID31 WIII 191330	METAR WIII 191330Z 24005KT 7000 SCT018 27/24 Q1011 NOSIG=
19/04/2016 14:00:00Z	 SAID31 WIII 191400	METAR WIII 191400Z 24005KT 6000 SCT018 28/24 Q1011 NOSIG=
19/04/2016 14:30:00Z	 SAID31 WIII 191430	METAR WIII 191430Z VRB05KT 5000 -RA BKN020 27/25 Q1011 NOSIG=
19/04/2016 15:00:00Z	 SAID31 WIII 191500	METAR WIII 191500Z 21005KT 5000 VCTS FEW018CB BKN020 27/25 Q1011 RERA RMK CB TO E=
19/04/2016 15:30:00Z	 SAID31 WIII 191530	METAR WIII 191530Z 17006KT 4000 RA BKN018 OVC030 27/25 Q1011 NOSIG=
19/04/2016 16:00:00Z	 SAID31 WIII 191600	METAR WIII 191600Z VRB05KT 4000 VCTS FEW018CB BKN020 27/25 Q1011 RERA RMK CB TO NW=
19/04/2016 16:30:00Z	 SAID31 WIII 191630	METAR WIII 191630Z 15008KT 4000 BR BKN020 OVC030 26/25 Q1011 NOSIG=
19/04/2016 17:00:00Z	 SAID31 WIII 191700	METAR WIII 191700Z VRB08KT 4000 DZ BKN020 OVC030 27/25 Q1011 NOSIG=
19/04/2016 17:30:00Z	 SAID31 WIII 191730	METAR WIII 191730Z 16008KT 4000 VCTS -RA FEW018CB BKN020 OVC030 27/25 Q1011 NOSIG RMK CB TO NW AND N=
19/04/2016 18:00:00Z	 SAID31 WIII 191800	METAR WIII 191800Z VRB05KT 4000 TSRA FEW016CB OVC020 26/25 Q1011 NOSI G RMK CB TO NW AND N=
19/04/2016 18:30:00Z	 SAID31 WIII 191830	METAR WIII 191830Z VRB03KT 4000 VCTS RA FEW016CB OVC020 26/25 Q1010 N OSIG RMK CB TO NW AND N=
19/04/2016 19:00:00Z	 SAID31 WIII 191900	METAR WIII 191900Z 08002KT 4000 VCTS -RA FEW016CB OVC020 26/25 Q1010 NOSIG RMK CB TO N=
19/04/2016 19:30:00Z	 SAID31 WIII 191930	METAR WIII 191930Z VRB02KT 4000 -RA SCT018 OVC020 25/25 Q1010 NOSIG=
19/04/2016 20:00:00Z	 SAID31 WIII 192000	METAR WIII 192000Z AUTO 02003KT 6000 VCTS -SHRA OVC085 26/25 Q1010 NO SIG=
19/04/2016 20:30:00Z	 SAID31 WIII 192030	METAR WIII 192030Z AUTO 24002KT 4700 FEW050 SCT085 BKN110 BKN200 26/2 6 Q1010 NOSIG=
19/04/2016 21:00:00Z	 SAID31 WIII 192100	METAR WIII 192100Z 22004KT 4000 BR FEW018CB OVC020 26/26 Q1010 NOSIG RMK CB TO NE=
19/04/2016 21:30:00Z	 SAID31 WIII 192130	METAR WIII 192130Z 21003KT 4000 BR BKN020 26/26 Q1010 NOSIG=
19/04/2016 22:00:00Z	 SAID31 WIII 192200	METAR WIII 192200Z AUTO 17003KT 5000 BKN085 OVC120 26/26 Q1010 NOSIG=
19/04/2016 22:30:00Z	 SAID31 WIII 192230	METAR WIII 192230Z AUTO 16005KT 9999 BKN090 OVC130 26/25 Q1010 NOSIG=
19/04/2016 23:00:00Z	 SAID31 WIII 192300	METAR WIII 192300Z VRB02KT 4000 BR BKN020 26/25 Q1011 NOSIG=
19/04/2016 23:30:00Z	 SAID31 WIII 192330	METAR WIII 192330Z VRB02KT 5000 BR BKN2000FT 26/25 Q1011 NOSIG=
20/04/2016 00:00:00Z	 SAID31 WIII 200000	METAR WIII 200000Z VRB02KT 5000 BR SCT018 26/26 Q1011 NOSIG=
20/04/2016 00:30:00Z	 SAID31 WIII 200030	METAR WIII 200030Z VRB02KT 6000 SCT020 27/26 Q1012 NOSIG=
20/04/2016 01:00:00Z	 SAID31 WIII 200100	METAR WIII 200100Z 04003KT 6000 FEW022 BKN100 27/26 Q1012 NOSIG=
20/04/2016 01:30:00Z	 SAID31 WIII 200130	METAR WIII 200130Z 33003KT 7000 FEW022 28/26 Q1012 NOSIG=
20/04/2016 02:00:00Z	 SAID31 WIII 200200	METAR WIII 200200Z 33005KT 7000 SCT020 29/26 Q1012 NOSIG=
20/04/2016 02:30:00Z	 SAID31 WIII 200230	METAR WIII 200230Z VRB03KT 7000 SCT020 29/26 Q1012 NOSIG=
20/04/2016 03:00:00Z	 SAID31 WIII 200300	METAR WIII 200300Z VRB04KT 6000 SCT020 30/26 Q1012 NOSIG=
20/04/2016 03:30:00Z	 SAID31 WIII 200330	METAR WIII 200330Z 34005KT 7000 SCT020 30/26 Q1012 NOSIG=
20/04/2016 04:00:00Z	 SAID31 WIII 200400	METAR WIII 200400Z 35004KT 8000 SCT019 31/26 Q1011 NOSIG=
20/04/2016 04:30:00Z	 SAID31 WIII 200430	METAR WIII 200430Z VRB05KT 8000 SCT023 31/26 Q1011 NOSIG=
20/04/2016 05:00:00Z	 SAID31 WIII 200500	METAR WIII 200500Z 36012KT 300V040 7000 SCT020 31/26 Q1010 NOSIG=
20/04/2016 05:30:00Z	 SAID31 WIII 200530	METAR WIII 200530Z 03009KT 340V060 7000 SCT020 31/26 Q1010 NOSIG=
20/04/2016 06:00:00Z	 SAID31 WIII 200600	METAR WIII 200600Z 03013KT 350V050 7000 SCT022 32/26 Q1009 NOSIG=
20/04/2016 06:30:00Z	 SAID31 WIII 200630	METAR WIII 200630Z 01010KT 330V050 7000 VCTS FEW020CB SCT022 31/26 Q1 009 NOSIG RMK CB TO SW=
20/04/2016 07:00:00Z	 SAID31 WIII 200700	METAR WIII 200700Z 02010KT 7000 FEW020CB BKN022 31/26 Q1008 NOSIG RMK CB TO SW=
20/04/2016 07:30:00Z	 SAID31 WIII 200730	METAR WIII 200730Z 03009KT 340V060 8000 SCT022 31/26 Q1008 NOSIG=
20/04/2016 08:00:00Z	 SAID31 WIII 200800	METAR WIII 200800Z VRB04KT 8000 SCT022 31/26 Q1008 NOSIG=
20/04/2016 08:30:00Z	 SAID31 WIII 200830	METAR WIII 200830Z 36006KT 8000 FEW020CB SCT022 30/26 Q1007 NOSIG RMK CB TO S=
20/04/2016 09:00:00Z	 SAID31 WIII 200900	METAR WIII 200900Z 01006KT 320V040 8000 FEW020CB SCT023 30/26 Q1008 N OSIG RMK CB TO S=
20/04/2016 09:30:00Z	 SAID31 WIII 200930	METAR WIII 200930Z 01006KT 340V040 7000 FEW020CB SCT022 30/26 Q1008 N OSIG RMK CB TO S=
20/04/2016 10:00:00Z	 SAID31 WIII 201000	METAR WIII 201000Z 35010KT 7000 VCTS FEW020CB SCT022 30/25 Q1008 NOSI G RMK CB TO S=
20/04/2016 10:30:00Z	 SAID31 WIII 201030	METAR WIII 201030Z 25006G18KT 190V300 6000 VCTS SCT018CB BKN021 29/26 Q1009 NOSIG RMK CB TO S=
20/04/2016 11:00:00Z	 SAID31 WIII 201100	METAR WIII 201100Z 18012KT 6000 SCT020CB BKN020 26/23 Q1009 TEMPO 500 0 TSRA RMK CB TO S=
20/04/2016 11:00:00Z	 SAID31 WIII 201100 CCA	METAR COR WIII 201100Z 18012KT 6000 VCTS SCT020CB BKN020 26/23 Q1009 TEMPO 5000 TSRA RMK CB TO S=
20/04/2016 11:30:00Z	 SAID31 WIII 201130	METAR WIII 201130Z 18009KT 6000 -TSRA FEW018CB SCT018 26/24 Q1009 NOS IG RMK CB TO S=
20/04/2016 12:00:00Z	 SAID31 WIII 201200	METAR WIII 201200Z 20005KT 7000 FEW018CB SCT022 26/25 Q1010 RETS NOSI G RMK CB TO S=
20/04/2016 12:30:00Z	 SAID31 WIII 201230	METAR WIII 201230Z 21006KT 7000 FEW020CB FEW022 26/25 Q1010 NOSIG RMK CB TO SW=
20/04/2016 13:00:00Z	 SAID31 WIII 201300	METAR WIII 201300Z 20006KT 180V240 7000 FEW020CB FEW022 26/25 Q1011 N OSIG RMK CB TO SW=
20/04/2016 13:30:00Z	 SAID31 WIII 201330	METAR WIII 201330Z VRB03KT 8000 FEW018CB BKN020 27/25 Q1011 NOSIG RMK CB TO SW AND W=
20/04/2016 14:00:00Z	 SAID31 WIII 201400	METAR WIII 201400Z VRB05KT 8000 FEW018CB BKN020 27/25 Q1011 NOSIG RMK CB TO SW=
20/04/2016 14:30:00Z	 SAID31 WIII 201430	METAR WIII 201430Z VRB04KT 8000 FEW018CB BKN020 27/25 Q1011 NOSIG RMK CB TO SW=
20/04/2016 15:00:00Z	 SAID31 WIII 201500	METAR WIII 201500Z VRB04KT 5000 HZ FEW018CB BKN020 27/25 Q1011 NOSIG RMK CB TO E AND W=
20/04/2016 15:30:00Z	 SAID31 WIII 201530	METAR WIII 201530Z VRB04KT 5000 HZ FEW018 BKN020 27/25 Q1011 NOSIG RMK CB TO E AND W=
20/04/2016 16:00:00Z	 SAID31 WIII 201600	METAR WIII 201600Z 21005KT 5000 HZ FEW018CB BKN020 27/25 Q1012 NOSIG RMK CB TO E AND W=
20/04/2016 16:30:00Z	 SAID31 WIII 201630	METAR WIII 201630Z 21005KT 6000 FEW020 BKN020 27/25 Q1012 NOSIG RMK C B TO E AND W=
20/04/2016 17:00:00Z	 SAID31 WIII 201700	METAR WIII 201700Z 23005KT 6000 FEW020 BKN020 27/25 Q1012 NOSIG RMK C B TO E AND W=
20/04/2016 17:30:00Z	 SAID31 WIII 201730	METAR WIII 201730Z 24007KT 7000 FEW018CB BKN020 27/25 Q1011 NOSIG RMK CB TO E AND SW=
20/04/2016 18:00:00Z	 SAID31 WIII 201800	METAR WIII 201800Z 24007KT 5000 BR FEW018CB BKN020 26/25 Q1011 NOSIG RMK CB TO E AND NW=
20/04/2016 18:30:00Z	 SAID31 WIII 201830	METAR WIII 201830Z 25007KT 5000 BR FEW018CB BKN020 26/25 Q1010 NOSIG RMK CB TO E AND NW=
20/04/2016 19:30:00Z	 SAID31 WIII 201930	METAR WIII 201930Z VRB03KT 4000 VCTS BR BKN020CB BKN020 26/24 Q1010 N OSIG CB OVER THE FIELD=
20/04/2016 20:00:00Z	 SAID31 WIII 202000	METAR WIII 202000Z VRB02KT 4500 TS BR BKN018CB BKN020 26/24 Q1010 NOS IG RMK CB OVER THE FIELD=
20/04/2016 21:30:00Z	 SAID31 WIII 202130	METAR WIII 202130Z 12006KT 5000 -TSRA BKN018CB OVC018 26/25 Q1010 NOS IG RMK CB OVER THE FIELD=
20/04/2016 22:00:00Z	 SAID31 WIII 202200	METAR WIII 202200Z 12009KT 5000 -TSRA SCT016CB OVC018 25/25 Q1011 NOS IG RMK CB TO N SE AND W=
20/04/2016 22:30:00Z	 SAID31 WIII 202230	METAR WIII 202230Z 10006KT 5000 TSRA SCT016CB OVC018 25/25 Q1011 NOSI G RMK CB TO E W AND NW=
20/04/2016 23:00:00Z	 SAID31 WIII 202300	METAR WIII 202300Z VRB03KT 5000 -TSRA SCT018CB OVC020 25/25 Q1011 NOS IG RMK CB TO N SW AND W=
20/04/2016 23:30:00Z	 SAID31 WIII 202330	METAR WIII 202330Z 14005KT 5000 -RA FEW018CB OVC020 25/25 Q1011 NOSIG RMK CB TO SW AND W=
21/04/2016 00:00:00Z	 SAID31 WIII 210000	METAR WIII 210000Z VRB05KT 5000 -RA FEW018CB OVC020 25/25 Q1011 NOSIG RMK CB TO NE AND W=
21/04/2016 00:30:00Z	 SAID31 WIII 210030	METAR WIII 210030Z VRB03KT 5000 -RA FEW018CB OVC020 25/25 Q1011 NOSIG RMK CB TO W=
21/04/2016 01:00:00Z	 SAID31 WIII 210100	METAR WIII 210100Z 21003KT 7000 -RA BKN022 25/25 Q1012 NOSIG=
21/04/2016 01:30:00Z	 SAID31 WIII 210130	METAR WIII 210130Z VRB02KT 6000 BKN020 26/25 Q1012 NOSIG=
21/04/2016 02:00:00Z	 SAID31 WIII 210200	METAR WIII 210200Z VRB05KT 7000 BKN020 26/26 Q1012 NOSIG=
21/04/2016 02:30:00Z	 SAID31 WIII 210230	METAR WIII 210230Z VRB03KT 7000 SCT020 27/26 Q1012 NOSIG=
21/04/2016 03:00:00Z	 SAID31 WIII 210300	METAR WIII 210300Z VRB02KT 8000 SCT020 28/25 Q1012 NOSIG=
21/04/2016 03:30:00Z	 SAID31 WIII 210330	METAR WIII 210330Z VRB03KT 9000 SCT020 30/26 Q1011 NOSIG=
21/04/2016 04:00:00Z	 SAID31 WIII 210400	METAR WIII 210400Z VRB03KT 9000 SCT020 30/26 Q1011 NOSIG=
21/04/2016 04:30:00Z	 SAID31 WIII 210430	METAR WIII 210430Z VRB03KT 9999 SCT020 31/25 Q1010 NOSIG=
21/04/2016 05:00:00Z	 SAID31 WIII 210500	METAR WIII 210500Z 05008KT 9999 SCT020 31/26 Q1009 NOSIG=
21/04/2016 05:30:00Z	 SAID31 WIII 210530	METAR WIII 210530Z 05009KT 9000 SCT020 31/26 Q1009 NOSIG=
21/04/2016 06:00:00Z	 SAID31 WIII 210600	METAR WIII 210600Z 05009KT 9000 FEW021 31/26 Q1009 NOSIG=
21/04/2016 06:30:00Z	 SAID31 WIII 210630	METAR WIII 210630Z 04009KT 9000 FEW021 30/25 Q1008 NOSIG=
21/04/2016 08:00:00Z	 SAID31 WIII 210800	METAR WIII 210800Z 05007KT 020V090 9999 FEW021 31/26 Q1007 NOSIG=
21/04/2016 08:30:00Z	 SAID31 WIII 210830	METAR WIII 210830Z 06013KT 030V100 9999 FEW021 30/25 Q1007 NOSIG=
21/04/2016 09:00:00Z	 SAID31 WIII 210900	METAR WIII 210900Z 05009KT 9999 SCT021 30/26 Q1007 NOSIG=
21/04/2016 09:30:00Z	 SAID31 WIII 210930	METAR WIII 210930Z 05008KT 9999 SCT021 30/25 Q1007 NOSIG=
21/04/2016 10:00:00Z	 SAID31 WIII 211000	METAR WIII 211000Z 05008KT 9999 SCT021 29/26 Q1008 NOSIG=
21/04/2016 10:30:00Z	 SAID31 WIII 211030	METAR WIII 211030Z 05008KT 9999 SCT021 29/25 Q1008 NOSIG=
21/04/2016 11:00:00Z	 SAID31 WIII 211100	METAR WIII 211100Z 06005KT 8000 VCTS FEW020CB SCT021 29/25 Q1009 NOSI G RMK CB TO S=
21/04/2016 11:30:00Z	 SAID31 WIII 211130	METAR WIII 211130Z 06005KT 9999 VCTS FEW020CB SCT020 29/25 Q1009 NOSI G RMK CB TO S=
21/04/2016 12:00:00Z	 SAID31 WIII 211200	METAR WIII 211200Z 07006KT 8000 VCTS FEW020CB SCT020 29/25 Q1009 NOSI G RMK CB TO S=
21/04/2016 12:30:00Z	 SAID31 WIII 211230	METAR WIII 211230Z 07005KT 9999 VCTS FEW020CB SCT020 29/25 Q1010 NOSI G RMK CB TO S=
21/04/2016 13:00:00Z	 SAID31 WIII 211300	METAR WIII 211300Z 09003KT 9000 FEW020CB SCT020 28/25 Q1011 NOSIG RMK CB TO S=
21/04/2016 13:30:00Z	 SAID31 WIII 211330	METAR WIII 211330Z 12005KT 8000 FEW022 28/25 Q1011 NOSIG=
21/04/2016 14:00:00Z	 SAID31 WIII 211400	METAR WIII 211400Z 11004KT 7000 FEW021 27/25 Q1011 NOSIG=
21/04/2016 14:30:00Z	 SAID31 WIII 211430	METAR WIII 211430Z 09004KT 7000 SCT020 28/25 Q1011 NOSIG=
21/04/2016 15:00:00Z	 SAID31 WIII 211500	METAR WIII 211500Z 19006KT 160V230 7000 SCT020 27/25 Q1011 NOSIG=
21/04/2016 15:30:00Z	 SAID31 WIII 211530	METAR WIII 211530Z 19007KT 160V230 7000 SCT023 27/25 Q1012 NOSIG=
21/04/2016 16:00:00Z	 SAID31 WIII 211600	METAR WIII 211600Z VRB03KT 7000 FEW022 26/25 Q1011 NOSIG=
21/04/2016 16:30:00Z	 SAID31 WIII 211630	METAR WIII 211630Z VRB02KT 7000 SCT022 26/25 Q1011 NOSIG=
21/04/2016 17:00:00Z	 SAID31 WIII 211700	METAR WIII 211700Z VRB05KT 6000 FEW022 26/24 Q1011 NOSIG=
21/04/2016 17:30:00Z	 SAID31 WIII 211730	METAR WIII 211730Z 21006KT 6000 FEW022 26/24 Q1011 NOSIG=
21/04/2016 18:00:00Z	 SAID31 WIII 211800	METAR WIII 211800Z 19005KT 5000 HZ FEW020CB SCT022 26/24 Q1011 NOSIG RMK CB TO NW=
21/04/2016 18:30:00Z	 SAID31 WIII 211830	METAR WIII 211830Z 16003KT 6000 FEW020CB SCT021 26/25 Q1010 TEMPO -TS RA RMK CB TO NE=
21/04/2016 19:00:00Z	 SAID31 WIII 211900	METAR WIII 211900Z VRB03KT 5000 TS FEW020CB BKN021 26/25 Q1010 NOSIG RMK CB TO NE=
21/04/2016 19:30:00Z	 SAID31 WIII 211930	METAR WIII 211930Z 06006KT 7000 SCT022 26/24 Q1010 NOSIG=
21/04/2016 20:00:00Z	 SAID31 WIII 212000	METAR WIII 212000Z VRB05KT 7000 SCT021 26/24 Q1010 NOSIG=
21/04/2016 20:30:00Z	 SAID31 WIII 212030	METAR WIII 212030Z VRB05KT 7000 SCT020 26/25 Q1010 NOSIG=
21/04/2016 21:00:00Z	 SAID31 WIII 212100	METAR WIII 212100Z VRB03KT 7000 SCT020 26/25 Q1010 NOSIG=
21/04/2016 21:30:00Z	 SAID31 WIII 212130	METAR WIII 212130Z 17004KT 7000 SCT023 26/25 Q1010 NOSIG=
21/04/2016 22:00:00Z	 SAID31 WIII 212200	METAR WIII 212200Z 15005KT 7000 SCT023 26/24 Q1009 NOSIG=
21/04/2016 22:30:00Z	 SAID31 WIII 212230	METAR WIII 212230Z 12003KT 7000 SCT023 26/24 Q1010 NOSIG=
21/04/2016 23:00:00Z	 SAID31 WIII 212300	METAR WIII 212300Z 15005KT 7000 FEW023 26/24 Q1010 NOSIG=
21/04/2016 23:30:00Z	 SAID31 WIII 212330	METAR WIII 212330Z 16005KT 7000 FEW022 27/25 Q1010 NOSIG=
22/04/2016 00:00:00Z	 SAID31 WIII 220000	METAR WIII 220000Z 17006KT 130V240 7000 FEW021 28/25 Q1010 NOSIG=
22/04/2016 00:30:00Z	 SAID31 WIII 220030	METAR WIII 220030Z 14006KT 110V190 8000 FEW021 29/25 Q1011 NOSIG=
22/04/2016 01:00:00Z	 SAID31 WIII 220100	METAR WIII 220100Z 12007KT 090V160 8000 FEW022 29/25 Q1011 NOSIG=
22/04/2016 01:30:00Z	 SAID31 WIII 220130	METAR WIII 220130Z 12008KT 9999 SCT022 30/25 Q1011 NOSIG=
22/04/2016 02:00:00Z	 SAID31 WIII 220200	METAR WIII 220200Z 12009KT 090V160 9999 SCT022 30/25 Q1011 NOSIG=
22/04/2016 02:30:00Z	 SAID31 WIII 220230	METAR WIII 220230Z 11005G15KT 9999 BKN024 31/25 Q1011 NOSIG=
22/04/2016 03:00:00Z	 SAID31 WIII 220300	METAR WIII 220300Z 10011KT 9999 SCT022 32/26 Q1011 NOSIG=
22/04/2016 03:30:00Z	 SAID31 WIII 220330	METAR WIII 220330Z 10011KT 080V140 9999 SCT020 32/25 Q1010 NOSIG=
22/04/2016 04:00:00Z	 SAID31 WIII 220400	METAR WIII 220400Z 10010KT 9999 SCT022 32/25 Q1010 NOSIG=
22/04/2016 04:30:00Z	 SAID31 WIII 220430	METAR WIII 220430Z 08013KT 9999 VCTS FEW020CB SCT020 32/25 Q1009 NOSI G RMK CB TO NW=
22/04/2016 05:00:00Z	 SAID31 WIII 220500	METAR WIII 220500Z 09013KT 9999 FEW020CB SCT020 32/26 Q1009 NOSIG RMK CB TO NW=
22/04/2016 05:30:00Z	 SAID31 WIII 220530	METAR WIII 220530Z 09008G18KT 9999 FEW020CB SCT020 33/25 Q1009 NOSIG RMK CB TO W AND NW=
22/04/2016 06:00:00Z	 SAID31 WIII 220600	METAR WIII 220600Z 09015KT 9999 SCT020 33/25 Q1008 NOSIG=
22/04/2016 06:30:00Z	 SAID31 WIII 220630	METAR WIII 220630Z 08007G17KT 9999 SCT020 33/25 Q1008 NOSIG=
22/04/2016 07:00:00Z	 SAID31 WIII 220700	METAR WIII 220700Z 07007G17KT 9999 SCT020 33/25 Q1008 NOSIG=
22/04/2016 07:30:00Z	 SAID31 WIII 220730	METAR WIII 220730Z 08014KT 9999 SCT020 33/25 Q1007 NOSIG=
22/04/2016 08:00:00Z	 SAID31 WIII 220800	METAR WIII 220800Z 08014KT 9999 SCT020 32/25 Q1007 NOSIG=
22/04/2016 08:30:00Z	 SAID31 WIII 220830	METAR WIII 220830Z 08008G18KT 9999 SCT020 32/25 Q1007 NOSIG=
22/04/2016 09:00:00Z	 SAID31 WIII 220900	METAR WIII 220900Z 07007G17KT 9999 FEW020CB SCT020 31/26 Q1006 NOSIG RMK CB TO SW=
22/04/2016 09:30:00Z	 SAID31 WIII 220930	METAR WIII 220930Z 08012KT 9999 SCT020 31/26 Q1007 NOSIG=
22/04/2016 10:00:00Z	 SAID31 WIII 221000	METAR WIII 221000Z 07011KT 9999 SCT020 30/25 Q1007 NOSIG=
22/04/2016 10:30:00Z	 SAID31 WIII 221030	METAR WIII 221030Z 07009KT 9999 SCT020 30/26 Q1008 NOSIG=
22/04/2016 11:00:00Z	 SAID31 WIII 221100	METAR WIII 221100Z 08010KT 9999 SCT020 29/25 Q1008 NOSIG=
22/04/2016 11:30:00Z	 SAID31 WIII 221130	METAR WIII 221130Z 09009KT 9999 FEW020CB SCT020 29/25 Q1008 NOSIG RMK CB TO NE AND SW=
22/04/2016 12:00:00Z	 SAID31 WIII 221200	METAR WIII 221200Z 09011KT 9999 FEW020CB SCT020 29/25 Q1009 NOSIG RMK CB TO SW=
22/04/2016 12:30:00Z	 SAID31 WIII 221230	METAR WIII 221230Z 09011KT 9999 FEW020CB SCT020 29/25 Q1009 NOSIG RMK CB TO SW=
22/04/2016 13:00:00Z	 SAID31 WIII 221300	METAR WIII 221300Z 09010KT 8000 FEW021 29/25 Q1010 NOSIG=
22/04/2016 13:30:00Z	 SAID31 WIII 221330	METAR WIII 221330Z 08011KT 8000 FEW021 29/26 Q1010 NOSIG=
22/04/2016 14:00:00Z	 SAID31 WIII 221400	METAR WIII 221400Z 09009KT 7000 FEW021 29/25 Q1011 NOSIG=
22/04/2016 14:30:00Z	 SAID31 WIII 221430	METAR WIII 221430Z 09008KT 7000 FEW021 28/25 Q1011 NOSIG=
22/04/2016 15:00:00Z	 SAID31 WIII 221500	METAR WIII 221500Z 10008KT 7000 BKN095 FEW021 28/25 Q1011 NOSIG=
22/04/2016 15:30:00Z	 SAID31 WIII 221530	METAR WIII 221530Z 11008KT 7000 FEW021 28/25 Q1010 NOSIG=
22/04/2016 16:00:00Z	 SAID31 WIII 221600	METAR WIII 221600Z 10012KT 070V140 7000 FEW021 29/25 Q1011 NOSIG=
22/04/2016 16:30:00Z	 SAID31 WIII 221630	METAR WIII 221630Z 10007KT CAVOK 28/25 Q1010 NOSIG=
22/04/2016 17:00:00Z	 SAID31 WIII 221700	METAR WIII 221700Z 11012KT 7000 FEW021 28/25 Q1010 NOSIG=
22/04/2016 17:30:00Z	 SAID31 WIII 221730	METAR WIII 221730Z 11007KT 070V150 7000 FEW021 28/25 Q1010 NOSIG=
22/04/2016 18:00:00Z	 SAID31 WIII 221800	METAR WIII 221800Z 13005KT 8000 FEW021 28/25 Q1010 NOSIG=
22/04/2016 18:30:00Z	 SAID31 WIII 221830	METAR WIII 221830Z AUTO 12006KT 9999 FEW180 28/25 Q1009 NOSIG=
22/04/2016 19:00:00Z	 SAID31 WIII 221900	METAR WIII 221900Z AUTO 18004KT 9999 FEW023 BKN180 28/25 Q1009 NOSIG=
22/04/2016 19:30:00Z	 SAID31 WIII 221930	METAR WIII 221930Z AUTO VRB05KT 8000 SCT023 BKN240 27/25 Q1009 NOSIG=
22/04/2016 20:00:00Z	 SAID31 WIII 222000	METAR WIII 222000Z AUTO 17006KT 9999 FEW220 27/25 Q1009 NOSIG=
22/04/2016 21:30:00Z	 SAID31 WIII 222130	METAR WIII 222130Z AUTO 13005KT 8000 NCD 27/25 Q1009 NOSIG=
22/04/2016 22:00:00Z	 SAID31 WIII 222200	METAR WIII 222200Z AUTO 14005KT 9000 NCD 27/25 Q1009 NOSIG=
22/04/2016 22:30:00Z	 SAID31 WIII 222230	METAR WIII 222230Z 13006KT 8000 FEW021 27/25 Q1009 NOSIG=
22/04/2016 23:00:00Z	 SAID31 WIII 222300	METAR WIII 222300Z 14007KT 8000 FEW021 28/25 Q1009 NOSIG=
22/04/2016 23:30:00Z	 SAID31 WIII 222330	METAR WIII 222330Z 12005KT 8000 FEW021 28/25 Q1009 NOSIG=
23/04/2016 00:00:00Z	 SAID31 WIII 230000	METAR WIII 230000Z VRB05KT 9000 FEW021 29/25 Q1010 NOSIG=
23/04/2016 00:30:00Z	 SAID31 WIII 230030	METAR WIII 230030Z 14007KT 120V180 8000 FEW021 29/25 Q1010 NOSIG=
23/04/2016 01:00:00Z	 SAID31 WIII 230100	METAR WIII 230100Z 14007KT 8000 FEW021 30/25 Q1011 NOSIG=
23/04/2016 01:30:00Z	 SAID31 WIII 230130	METAR WIII 230130Z 13009KT 9000 FEW021 30/25 Q1011 NOSIG=
23/04/2016 02:00:00Z	 SAID31 WIII 230200	METAR WIII 230200Z AUTO 14008KT 9999 FEW032 SCT190 31/24 Q1011 NOSIG=
23/04/2016 02:30:00Z	 SAID31 WIII 230230	METAR WIII 230230Z AUTO 12007KT 080V160 9999 FEW036 31/24 Q1011 NOSIG =
23/04/2016 03:00:00Z	 SAID31 WIII 230300	METAR WIII 230300Z AUTO 11009KT 9999 FEW040 31/24 Q1010 NOSIG=
23/04/2016 03:30:00Z	 SAID31 WIII 230330	METAR WIII 230330Z AUTO 09010KT 9999 FEW220 31/24 Q1010 NOSIG=
23/04/2016 04:00:00Z	 SAID31 WIII 230400	METAR WIII 230400Z AUTO 09010KT CAVOK 31/24 Q1010 NOSIG=
23/04/2016 04:30:00Z	 SAID31 WIII 230430	METAR WIII 230430Z 08011KT 9999 FEW220 SCT240 32/25 Q1009 NOSIG=
23/04/2016 05:00:00Z	 SAID31 WIII 230500	METAR WIII 230500Z 09011KT 8000 SCT022 33/25 Q1009 NOSIG=
23/04/2016 05:30:00Z	 SAID31 WIII 230530	METAR WIII 230530Z 09012G18KT 8000 SCT022 33/25 Q1008 NOSIG=
23/04/2016 06:00:00Z	 SAID31 WIII 230600	METAR WIII 230600Z 09011KT 9999 SCT020 32/25 Q1008 NOSIG=
23/04/2016 06:30:00Z	 SAID31 WIII 230630	METAR WIII 230630Z 08014KT 9999 SCT020 33/24 Q1008 NOSIG=
23/04/2016 07:00:00Z	 SAID31 WIII 230700	METAR WIII 230700Z 08015KT 9999 SCT020 33/24 Q1007 NOSIG=
23/04/2016 07:30:00Z	 SAID31 WIII 230730	METAR WIII 230730Z 07012KT 9999 SCT020 32/25 Q1007 NOSIG=
23/04/2016 08:00:00Z	 SAID31 WIII 230800	METAR WIII 230800Z 07010G20KT 9999 VCTS FEW018CB SCT018 32/26 Q1007 N OSIG RMK CB TO S AND W=
23/04/2016 08:30:00Z	 SAID31 WIII 230830	METAR WIII 230830Z 07012KT VCTS -RA FEW016CB SCT018 31/26 Q1007 NOSIG RMK CB TO S AND W=
23/04/2016 08:30:00Z	 SAID31 WIII 230830 CCA	METAR COR WIII 230830Z 07012KT 9000 VCTS -RA FEW016CB SCT018 31/26 Q1 007 NOSIG RMK CB TO S AND W=
23/04/2016 09:00:00Z	 SAID31 WIII 230900	METAR WIII 230900Z 08010KT 8000 FEW016CB SCT018 30/25 Q1007 RERA RMK CB TO SW=
23/04/2016 09:30:00Z	 SAID31 WIII 230930	METAR WIII 230930Z 08012KT 9000 FEW018CB SCT020 30/25 Q1007 NOSIG RMK CB TO SW=
23/04/2016 10:00:00Z	 SAID31 WIII 231000	METAR WIII 231000Z 07010KT 8000 FEW018CB SCT020 30/25 Q1008 NOSIG RMK CB TO SW=
23/04/2016 10:30:00Z	 SAID31 WIII 231030	METAR WIII 231030Z 09009KT 8000 -RA FEW018CB SCT020 29/25 Q1008 NOSIG RMK CB TO SW=
23/04/2016 11:00:00Z	 SAID31 WIII 231100	METAR WIII 231100Z 08008KT 7000 -DZ FEW018CB SCT020 29/26 Q1008 NOSIG RMK CB TO S=
23/04/2016 11:30:00Z	 SAID31 WIII 231130	METAR WIII 231130Z 09007KT 7000 -DZ FEW018CB SCT018 29/26 Q1009 NOSIG RMK CB TO S=
23/04/2016 12:00:00Z	 SAID31 WIII 231200	METAR WIII 231200Z 10007KT 7000 FEW018CB SCT018 29/26 Q1009 NOSIG RMK CB TO S=
23/04/2016 12:30:00Z	 SAID31 WIII 231230	METAR WIII 231230Z 11008KT 7000 FEW016CB SCT018 29/26 Q1009 NOSIG RMK CB TO S=
23/04/2016 13:00:00Z	 SAID31 WIII 231300	METAR WIII 231300Z 10009KT 7000 FEW018CB SCT019 29/26 Q1010 NOSIG RMK CB TO S=
23/04/2016 13:30:00Z	 SAID31 WIII 231330	METAR WIII 231330Z 11008KT 7000 FEW018CB SCT019 29/25 Q1010 NOSIG RMK CB TO SE AND NW=
23/04/2016 14:00:00Z	 SAID31 WIII 231400	METAR WIII 231400Z 12008KT 7000 FEW018CB SCT020 29/24 Q1010 NOSIG RMK CB TO NW=
23/04/2016 14:30:00Z	 SAID31 WIII 231430	METAR WIII 231430Z 12006KT 6000 FEW018CB BKN020 29/25 Q1010 NOSIG RMK CB TO W=
23/04/2016 15:00:00Z	 SAID31 WIII 231500	METAR WIII 231500Z 14006KT 5000 -RA FEW018CB BKN020 29/25 Q1010 NOSIG RMK CB TO W=
23/04/2016 15:30:00Z	 SAID31 WIII 231530	METAR WIII 231530Z 17004KT 6000 -RA FEW018CB SCT020 28/25 Q1010 NOSIG RMK CB TO W=
23/04/2016 16:00:00Z	 SAID31 WIII 231600	METAR WIII 231600Z VRB04KT 4800 BR FEW020CB SCT022 27/26 Q1010 NOSIG RMK CB TO NW=
23/04/2016 16:30:00Z	 SAID31 WIII 231630	METAR WIII 231630Z 21004KT 4000 BR FEW020CB SCT022 27/26 Q1010 NOSIG RMK CB TO NW=
23/04/2016 17:00:00Z	 SAID31 WIII 231700	METAR WIII 231700Z 20006KT 170V240 6000 FEW022 27/26 Q1010 NOSIG=
23/04/2016 17:30:00Z	 SAID31 WIII 231730	METAR WIII 231730Z VRB05KT 6000 FEW022 27/26 Q1009 NOSIG=
23/04/2016 18:00:00Z	 SAID31 WIII 231800	METAR WIII 231800Z 17006KT 6000 FEW022 27/26 Q1009 NOSIG=
23/04/2016 18:30:00Z	 SAID31 WIII 231830	METAR WIII 231830Z 17006KT 5000 HZ FEW020CB SCT021 27/25 Q1009 NOSIG RMK CB TO N=
23/04/2016 19:00:00Z	 SAID31 WIII 231900	METAR WIII 231900Z 13004KT 6000 VCTS FEW020CB SCT022 27/25 Q1009 NOSI G RMK CB TO N=
23/04/2016 20:30:00Z	 SAID31 WIII 232030	METAR WIII 232030Z VRB03KT 6000 FEW020CB SCT022 26/25 Q1008 NOSIG RMK CB TO NW=
23/04/2016 21:00:00Z	 SAID31 WIII 232100	METAR WIII 232100Z VRB02KT 6000 SCT021 27/25 Q1008 NOSIG=
23/04/2016 21:30:00Z	 SAID31 WIII 232130	METAR WIII 232130Z VRB02KT 6000 SCT020 26/25 Q1008 NOSIG=
23/04/2016 22:00:00Z	 SAID31 WIII 232200	METAR WIII 232200Z 17003KT 6000 SCT020 27/25 Q1009 NOSIG=
23/04/2016 22:30:00Z	 SAID31 WIII 232230	METAR WIII 232230Z VRB02KT 6000 SCT023 27/25 Q1009 NOSIG=
23/04/2016 23:00:00Z	 SAID31 WIII 232300	METAR WIII 232300Z VRB03KT 6000 SCT023 27/25 Q1009 NOSIG=
23/04/2016 23:30:00Z	 SAID31 WIII 232330	METAR WIII 232330Z VRB04KT 7000 FEW022 27/25 Q1009 NOSIG=
24/04/2016 00:00:00Z	 SAID31 WIII 240000	METAR WIII 240000Z VRB04KT 7000 SCT020 28/25 Q1009 NOSIG=
24/04/2016 00:30:00Z	 SAID31 WIII 240030	METAR WIII 240030Z 13006KT 8000 SCT023 29/25 Q1010 NOSIG=
24/04/2016 01:00:00Z	 SAID31 WIII 240100	METAR WIII 240100Z 12007KT 9999 SCT022 29/24 Q1010 NOSIG=
24/04/2016 01:30:00Z	 SAID31 WIII 240130	METAR WIII 240130Z 10007KT 9999 SCT022 30/25 Q1010 NOSIG=
24/04/2016 02:00:00Z	 SAID31 WIII 240200	METAR WIII 240200Z 12007KT 9999 FEW022 31/25 Q1010 NOSIG=
24/04/2016 02:30:00Z	 SAID31 WIII 240230	METAR WIII 240230Z 10010KT 9999 FEW020 31/25 Q1010 NOSIG=
24/04/2016 03:00:00Z	 SAID31 WIII 240300	METAR WIII 240300Z 09008G18KT 9999 SCT020 31/25 Q1010 NOSIG=
24/04/2016 03:30:00Z	 SAID31 WIII 240330	METAR WIII 240330Z 09011KT 9999 SCT020 32/26 Q1009 NOSIG=
24/04/2016 04:00:00Z	 SAID31 WIII 240400	METAR WIII 240400Z 09006G16KT 9999 SCT020 32/26 Q1009 NOSIG=
24/04/2016 04:30:00Z	 SAID31 WIII 240430	METAR WIII 240430Z 08015KT 9999 SCT020 32/26 Q1009 NOSIG=
24/04/2016 05:00:00Z	 SAID31 WIII 240500	METAR WIII 240500Z 08015KT 9999 SCT020 32/26 Q1008 NOSIG=
24/04/2016 05:30:00Z	 SAID31 WIII 240530	METAR WIII 240530Z 07008G18KT 9999 SCT020 32/26 Q1008 NOSIG=
24/04/2016 06:00:00Z	 SAID31 WIII 240600	METAR WIII 240600Z 09011G21KT 9999 SCT020 33/27 Q1007 NOSIG=
24/04/2016 06:30:00Z	 SAID31 WIII 240630	METAR WIII 240630Z 08007G17KT 9999 SCT020 32/26 Q1007 NOSIG=
24/04/2016 07:00:00Z	 SAID31 WIII 240700	METAR WIII 240700Z 08011KT 040V110 9999 SCT020 32/26 Q1006 NOSIG=
24/04/2016 07:30:00Z	 SAID31 WIII 240730	METAR WIII 240730Z 07011KT FEW020CB SCT020 32/26 Q1006 NOSIG RMK CB T O SW=
24/04/2016 08:00:00Z	 SAID31 WIII 240800	METAR WIII 240800Z 07017KT 040V100 FEW020CB SCT020 32/26 Q1006 NOSIG=
24/04/2016 08:00:00Z	 SAID31 WIII 240800 CCA	METAR COR WIII 240800Z 07017KT 040V100 9999 FEW020CB SCT020 32/26 Q10 06 NOSIG RMK CB TO SW=
24/04/2016 08:30:00Z	 SAID31 WIII 240830	METAR WIII 240830Z 06007G17KT 9999 SCT020 31/25 Q1006 NOSIG=
24/04/2016 10:30:00Z	 SAID31 WIII 241030	METAR WIII 241030Z 08010KT 9999 FEW020CB SCT020 30/25 Q1007 NOSIG RMK CB TO S=
24/04/2016 11:00:00Z	 SAID31 WIII 241100	METAR WIII 241100Z 09010KT 9999 FEW020CB SCT020 29/25 Q1007 NOSIG RMK CB TO S=
24/04/2016 11:30:00Z	 SAID31 WIII 241130	METAR WIII 241130Z 10009KT 9999 FEW020CB SCT020 29/25 Q1007 NOSIG RMK CB TO S=
24/04/2016 12:00:00Z	 SAID31 WIII 241200	METAR WIII 241200Z 10008KT 9999 FEW020CB SCT020 29/25 Q1008 NOSIG RMK CB TO S=
24/04/2016 12:30:00Z	 SAID31 WIII 241230	METAR WIII 241230Z 10005G15KT 9999 FEW020CB SCT020 29/25 Q1008 NOSIG RMK CB TO SW=
24/04/2016 13:00:00Z	 SAID31 WIII 241300	METAR WIII 241300Z 11008KT 9000 FEW018CB FEW018 29/25 Q1009 NOSIG RMK CB TO SW=
24/04/2016 13:30:00Z	 SAID31 WIII 241330	METAR WIII 241330Z 11007KT 8000 FEW018 29/26 Q1009 NOSIG=
24/04/2016 14:00:00Z	 SAID31 WIII 241400	METAR WIII 241400Z 11006KT 060V130 8000 FEW018 29/26 Q1010 NOSIG=
24/04/2016 14:30:00Z	 SAID31 WIII 241430	METAR WIII 241430Z VRB05KT 7000 FEW018 29/26 Q1010 NOSIG=
24/04/2016 15:00:00Z	 SAID31 WIII 241500	METAR WIII 241500Z 12006KT 070V160 6000 FEW020 29/26 Q1010 NOSIG=
24/04/2016 15:30:00Z	 SAID31 WIII 241530	METAR WIII 241530Z VRB04KT 6000 FEW018 29/26 Q1010 NOSIG=
24/04/2016 16:00:00Z	 SAID31 WIII 241600	METAR WIII 241600Z VRB04KT 5000 VCTS FEW016CB SCT020 29/26 Q1010 NOSI G RMK CB TO NW=
24/04/2016 16:30:00Z	 SAID31 WIII 241630	METAR WIII 241630Z 14006KT 100V170 5000 HZ FEW016CB SCT020 29/26 Q101 0 NOSIG RMK CB TO NW=
24/04/2016 17:00:00Z	 SAID31 WIII 241700	METAR WIII 241700Z 12006KT 080V160 5000 VCTS FEW016CB SCT020 28/25 Q1 010 NOSIG RMK CB TO NE=
24/04/2016 17:30:00Z	 SAID31 WIII 241730	METAR WIII 241730Z VRB03KT 5000 VCTS FEW016CB SCT020 28/26 Q1009 NOSI G RMK CB TO N AND SW=
24/04/2016 18:00:00Z	 SAID31 WIII 241800	METAR WIII 241800Z VRB02KT 5000 VCTS FEW016CB BKN022 28/26 Q1009 NOSI G RMK CB TO N AND S=
24/04/2016 18:30:00Z	 SAID31 WIII 241830	METAR WIII 241830Z VRB02KT 5000 HZ FEW016CB SCT022 27/26 Q1008 NOSIG RMK CB TO NW=
24/04/2016 19:00:00Z	 SAID31 WIII 241900	METAR WIII 241900Z 27005KT 4000 HZ FEW018 27/26 Q1008 NOSIG=
24/04/2016 19:30:00Z	 SAID31 WIII 241930	METAR WIII 241930Z 26004KT 4000 BR FEW020 26/26 Q1008 NOSIG=
24/04/2016 20:00:00Z	 SAID31 WIII 242000	METAR WIII 242000Z AUTO 26004KT 2000 R25R/P2000 R25L/1500V1700 VCTS B R FEW240 26/26 Q1008 NOSIG=
24/04/2016 20:30:00Z	 SAID31 WIII 242030	METAR WIII 242030Z AUTO 22003KT 3300 BR SCT120 SCT240 27/26 Q1008 NOS IG=
24/04/2016 21:30:00Z	 SAID31 WIII 242130	METAR WIII 242130Z AUTO VRB02KT 2400 R25R/P2000 BR OVC160 26/26 Q1009 NOSIG=
24/04/2016 22:00:00Z	 SAID31 WIII 242200	METAR WIII 242200Z 28004KT 4000 BR FEW020 26/26 Q1009 NOSIG=
24/04/2016 23:00:00Z	 SAID31 WIII 242300	METAR WIII 242300Z AUTO 22005KT 4600 NCD 27/25 Q1009 NOSIG=
24/04/2016 23:30:00Z	 SAID31 WIII 242330	METAR WIII 242330Z VRB05KT 5000 HZ FEW020 27/26 Q1009 NOSIG=
25/04/2016 00:00:00Z	 SAID31 WIII 250000	METAR WIII 250000Z 20005KT 5000 HZ FEW020 27/26 Q1009 NOSIG=
25/04/2016 00:30:00Z	 SAID31 WIII 250030	METAR WIII 250030Z VRB03KT 5000 HZ FEW020 28/26 Q1009 NOSIG=
25/04/2016 01:00:00Z	 SAID31 WIII 250100	METAR WIII 250100Z VRB04KT 5000 HZ FEW020 29/25 Q1009 NOSIG=
25/04/2016 01:30:00Z	 SAID31 WIII 250130	METAR WIII 250130Z 12006KT 8000 FEW020 30/25 Q1009 NOSIG=
25/04/2016 02:00:00Z	 SAID31 WIII 250200	METAR WIII 250200Z 11006G16KT 9999 SCT022 32/25 Q1010 NOSIG=
25/04/2016 02:30:00Z	 SAID31 WIII 250230	METAR WIII 250230Z 08010KT 9999 SCT022 32/25 Q1010 NOSIG=
25/04/2016 03:00:00Z	 SAID31 WIII 250300	METAR WIII 250300Z 09012KT 9999 SCT022 32/25 Q1010 NOSIG=
25/04/2016 03:30:00Z	 SAID31 WIII 250330	METAR WIII 250330Z 08006G16KT 9999 SCT022 32/26 Q1010 NOSIG=
25/04/2016 04:00:00Z	 SAID31 WIII 250400	METAR WIII 250400Z 07010KT 9999 SCT020 32/26 Q1009 NOSIG=
25/04/2016 04:30:00Z	 SAID31 WIII 250430	METAR WIII 250430Z 08007G17KT 9999 FEW020CB SCT020 32/26 Q1009 NOSIG RMK CB TO W=
25/04/2016 05:00:00Z	 SAID31 WIII 250500	METAR WIII 250500Z 07012KT 9999 FEW020CB SCT02032/26 Q1008 NOSIG RMK CB TO W=
25/04/2016 05:30:00Z	 SAID31 WIII 250530	METAR WIII 250530Z 07009G19KT 9999 FEW020CB SCT020 32/26 Q1008 NOSIG RMK CB TO SW AND W=
25/04/2016 06:00:00Z	 SAID31 WIII 250600	METAR WIII 250600Z 06007G17KT 9999 FEW020CB SCT022 32/26 Q1008 NOSIG RMK CB TO E AND W=
25/04/2016 06:30:00Z	 SAID31 WIII 250630	METAR WIII 250630Z 07012KT 9999 VCTS FEW020CB SCT022 31/26 Q1008 NOSI G RMK CB TO E AND W=
25/04/2016 07:00:00Z	 SAID31 WIII 250700	METAR WIII 250700Z 06005G15KT FEW020CB SCT022 31/26 Q1007 REVCTS NOSI G RMK CB TO S=
25/04/2016 07:30:00Z	 SAID31 WIII 250730	METAR WIII 250730Z 06005G15KT FEW020CB SCT022 31/26 Q1007 NOSIG RMK C B TO S=
25/04/2016 08:00:00Z	 SAID31 WIII 250800	METAR WIII 250800Z 07019KT 9999 FEW020CB SCT022 31/26 Q1007 NOSIG RMK CB TO S=
25/04/2016 08:30:00Z	 SAID31 WIII 250830	METAR WIII 250830Z 08017KT 9999 FEW020CB SCT022 30/24 Q1007 NOSIG RMK CB TO S=
25/04/2016 09:00:00Z	 SAID31 WIII 250900	METAR WIII 250900Z 08009G19KT 9999 VCTS FEW020CB SCT022 30/26 Q1007 N OSIG RMK CB TO S=
25/04/2016 09:30:00Z	 SAID31 WIII 250930	METAR WIII 250930Z 07006G16KT FEW020CB SCT020 30/26 Q1007 NOSIG RMK C B TO S AND W=
25/04/2016 10:00:00Z	 SAID31 WIII 251000	METAR WIII 251000Z 09011KT 9999 FEW020CB SCT020 30/26 Q1008 NOSIG RMK CB TO SE AND SW=
25/04/2016 10:30:00Z	 SAID31 WIII 251030	METAR WIII 251030Z 09010KT 9999 FEW020CB SCT020 30/26 Q1008 NOSIG RMK CB TO S=
25/04/2016 11:00:00Z	 SAID31 WIII 251100	METAR WIII 251100Z 09009KT 9999 FEW020CB SCT020 29/26 Q1008 NOSIG RMK CB TO S=
25/04/2016 11:30:00Z	 SAID31 WIII 251130	METAR WIII 251130Z VRB05KT 8000 FEW020CB BKN022 28/25 Q1009 NOSIG RMK CB TO SE AND NW=
25/04/2016 12:00:00Z	 SAID31 WIII 251200	METAR WIII 251200Z 19004KT 7000 FEW020CB BKN022 28/25 Q1009 NOSIG RMK CB TO SE AND NW=
25/04/2016 12:30:00Z	 SAID31 WIII 251230	METAR WIII 251230Z 22006KT 190V320 7000 FEW018CB BKN020 28/25 Q1010 N OSIG RMK CB TO SE AND NW=
25/04/2016 13:00:00Z	 SAID31 WIII 251300	METAR WIII 251300Z VRB04KT 7000 FEW018CB SCT020 27/25 Q1010 NOSIG RMK CB TO S=
25/04/2016 13:30:00Z	 SAID31 WIII 251330	METAR WIII 251330Z VRB03KT 7000 VCTS FEW018CB SCT022 28/24 Q1010 NOSI G RMK CB TO NE=
25/04/2016 14:00:00Z	 SAID31 WIII 251400	METAR WIII 251400Z 21006KT 7000 VCTS FEW018CB SCT022 27/24 Q1011 NOSI G RMK CB TO NE=
25/04/2016 14:30:00Z	 SAID31 WIII 251430	METAR WIII 251430Z VRB03KT 7000 VCTS FEW019CB SCT023 27/25 Q1011 NOSI G RMK CB TO NE=
25/04/2016 15:00:00Z	 SAID31 WIII 251500	METAR WIII 251500Z 00000KT 7000 VCTS FEW019CB SCT022 27/25 Q1011 NOSI G RMK CB TO N=
25/04/2016 15:30:00Z	 SAID31 WIII 251530	METAR WIII 251530Z VRB02KT 5000 TS SCT019CB SCT021 27/25 Q1011 NOSIG RMK CB TO NE=
25/04/2016 16:00:00Z	 SAID31 WIII 251600	METAR WIII 251600Z VRB04KT 6000 TS SCT019CB BKN021 27/24 Q1011 NOSIG RMK CB TO N=
25/04/2016 16:30:00Z	 SAID31 WIII 251630	METAR WIII 251630Z VRB03KT 3200 RA FEW018CB BKN022 27/24 Q1011 RETS NOSIG RMK CB TO NW=
25/04/2016 17:00:00Z	 SAID31 WIII 251700	METAR WIII 251700Z 31003KT 6000 -RA FEW019CB SCT020 26/25 Q1011 NOSIG RMK CB TO NW=
25/04/2016 17:30:00Z	 SAID31 WIII 251730	METAR WIII 251730Z 29004KT 6000 FEW020CB SCT020 26/25 Q1010 NOSIG RMK CB TO NW=
25/04/2016 18:00:00Z	 SAID31 WIII 251800	METAR WIII 251800Z 27005KT 6000 FEW020CB SCT022 25/25 Q1010 NOSIG RMK CB TO N AND NW=
25/04/2016 18:30:00Z	 SAID31 WIII 251830	METAR WIII 251830Z 32002KT 4900 BR FEW020CB SCT022 26/25 Q1010 NOSIG RMK CB TO N=
25/04/2016 19:00:00Z	 SAID31 WIII 251900	METAR WIII 251900Z 31002KT 3200 VCTS FEW020CB SCT022 26/25 Q1010 NOSI G RMK CB TO N AND NE=
25/04/2016 19:30:00Z	 SAID31 WIII 251930	METAR WIII 251930Z VRB03KT 5000 VCTS FEW020CB SCT022 26/25 Q1010 NOSI G RMK CB TO N=
25/04/2016 20:00:00Z	 SAID31 WIII 252000	METAR WIII 252000Z VRB02KT 6000 VCTS FEW020CB BKN022 26/25 Q1009 NOSI G RMK CB TO N AND NW=
25/04/2016 20:30:00Z	 SAID31 WIII 252030	METAR WIII 252030Z VRB02KT 6000 FEW020CB SCT022 26/25 Q1009 NOSIG RMK CB TO NW=
25/04/2016 21:00:00Z	 SAID31 WIII 252100	METAR WIII 252100Z 27006KT 6000 -RA SCT022 26/25 Q1009 NOSIG=
25/04/2016 21:30:00Z	 SAID31 WIII 252130	METAR WIII 252130Z 32002KT 4500 BR SCT022 25/25 Q1009 RERA NOSIG=
25/04/2016 22:00:00Z	 SAID31 WIII 252200	METAR WIII 252200Z VRB02KT 5000 BR SCT022 25/25 Q1009 NOSIG=
25/04/2016 22:30:00Z	 SAID31 WIII 252230	METAR WIII 252230Z 29003KT 4600 BR SCT021 25/25 Q1010 NOSIG=
25/04/2016 23:00:00Z	 SAID31 WIII 252300	METAR WIII 252300Z 27004KT 4900 BR FEW023 25/25 Q1010 NOSIG=
25/04/2016 23:30:00Z	 SAID31 WIII 252330	METAR WIII 252330Z 27005KT 4000 BR FEW023 26/25 Q1010 NOSIG=
26/04/2016 00:00:00Z	 SAID31 WIII 260000	METAR WIII 260000Z 27006KT 4000 BR FEW023 26/25 Q1010 NOSIG=
26/04/2016 00:30:00Z	 SAID31 WIII 260030	METAR WIII 260030Z VRB03KT 3000 BR FEW020CB BKN022 26/25 Q1011 NOSIG RMK CB TO NE=
26/04/2016 01:00:00Z	 SAID31 WIII 260100	METAR WIII 260100Z VRB03KT 3000 -RA FEW020CB BKN022 26/25 Q1011 NOSIG RMK CB TO N=
26/04/2016 01:30:00Z	 SAID31 WIII 260130	METAR WIII 260130Z VRB03KT 3000 -RA FEW020CB BKN022 27/25 Q1012 NOSIG RMK CB TO N=
26/04/2016 02:00:00Z	 SAID31 WIII 260200	METAR WIII 260200Z VRB02KT 4000 -RA FEW020CB OVC022 27/25 Q1012 NOSIG RMK CB TO N=
26/04/2016 02:30:00Z	 SAID31 WIII 260230	METAR WIII 260230Z 00000KT 3000 BR OVC020 27/26 Q1011 NOSIG=
26/04/2016 03:00:00Z	 SAID31 WIII 260300	METAR WIII 260300Z VRB02KT 3500 BR BKN018 28/26 Q1011 NOSIG=
26/04/2016 03:30:00Z	 SAID31 WIII 260330	METAR WIII 260330Z 00000KT 3000 BR BKN018 28/26 Q1011 NOSIG=
26/04/2016 04:00:00Z	 SAID31 WIII 260400	METAR WIII 260400Z VRB02KT 2500 BR OVC016 28/26 Q1011 NOSIG=
26/04/2016 04:30:00Z	 SAID31 WIII 260430	METAR WIII 260430Z 03004KT 3500 BR OVC018 28/26 Q1011 NOSIG=
26/04/2016 05:00:00Z	 SAID31 WIII 260500	METAR WIII 260500Z 07007KT 3000 -RA OVC020 28/26 Q1010 NOSIG=
26/04/2016 05:30:00Z	 SAID31 WIII 260530	METAR WIII 260530Z 08009KT 5000 -RA BKN022 28/26 Q1010 NOSIG=
26/04/2016 06:00:00Z	 SAID31 WIII 260600	METAR WIII 260600Z 09010KT 6000 -RA BKN022 28/26 Q1010 NOSIG=
26/04/2016 06:30:00Z	 SAID31 WIII 260630	METAR WIII 260630Z 08009KT 6000 -RA BKN022 28/26 Q1009 NOSIG=
26/04/2016 07:00:00Z	 SAID31 WIII 260700	METAR WIII 260700Z 08008KT 8000 BKN022 28/26 Q1009 NOSIG=
26/04/2016 07:30:00Z	 SAID31 WIII 260730	METAR WIII 260730Z 09008KT 8000 BKN022 28/26 Q1008 NOSIG=
26/04/2016 08:00:00Z	 SAID31 WIII 260800	METAR WIII 260800Z 09010KT 8000 -RA BKN022 28/26 Q1009 NOSIG=
26/04/2016 08:30:00Z	 SAID31 WIII 260830	METAR WIII 260830Z 08009KT 8000 -RA BKN020 28/26 Q1008 NOSIG=
26/04/2016 09:00:00Z	 SAID31 WIII 260900	METAR WIII 260900Z 09007KT 8000 -RA BKN020 28/26 Q1009 NOSIG=
26/04/2016 09:30:00Z	 SAID31 WIII 260930	METAR WIII 260930Z 09008KT 8000 -RA FEW018CB BKN020 28/26 Q1009 NOSIG RMK CB TO SE=
26/04/2016 10:00:00Z	 SAID31 WIII 261000	METAR WIII 261000Z 08010KT 9999 SCT018CB BKN020 28/26 Q1009 NOSIG RMK CB TO SE S AND NW=
26/04/2016 10:30:00Z	 SAID31 WIII 261030	METAR WIII 261030Z 10006G16KT 9999 FEW020CB BKN020 28/25 Q1009 NOSIG RMK CB TO S=
26/04/2016 11:00:00Z	 SAID31 WIII 261100	METAR WIII 261100Z 11010KT 9999 FEW020CB BKN020 28/25 Q1010 NOSIG RMK CB TO S=
26/04/2016 11:30:00Z	 SAID31 WIII 261130	METAR WIII 261130Z 13008KT 9999 FEW018CB OVC020 28/25 Q1010 NOSIG RMK CB TO W=
26/04/2016 12:00:00Z	 SAID31 WIII 261200	METAR WIII 261200Z 11010KT 8000 FEW018CB OVC020 27/25 Q1010 NOSIG RMK CB TO W=
26/04/2016 12:30:00Z	 SAID31 WIII 261230	METAR WIII 261230Z 12010KT 8000 FEW018CB OVC020 27/25 Q1010 NOSIG RMK CB TO SE=
26/04/2016 13:00:00Z	 SAID31 WIII 261300	METAR WIII 261300Z 12006KT 8000 SCT022 27/25 Q1010 NOSIG=
26/04/2016 13:30:00Z	 SAID31 WIII 261330	METAR WIII 261330Z 14006KT 8000 SCT022 27/25 Q1010 NOSIG=
26/04/2016 14:00:00Z	 SAID31 WIII 261400	METAR WIII 261400Z VRB04KT 6000 SCT021 27/25 Q1010 NOSIG=
26/04/2016 14:30:00Z	 SAID31 WIII 261430	METAR WIII 261430Z VRB02KT 6000 SCT021 27/25 Q1011 NOSIG=
26/04/2016 15:00:00Z	 SAID31 WIII 261500	METAR WIII 261500Z 31003KT 4800 HZ SCT021 26/25 Q1011 NOSIG=
26/04/2016 15:30:00Z	 SAID31 WIII 261530	METAR WIII 261530Z 33002KT 4800 HZ SCT018 26/25 Q1011 NOSIG=
26/04/2016 16:00:00Z	 SAID31 WIII 261600	METAR WIII 261600Z 32002KT 4300 HZ SCT018 26/25 Q1011 NOSIG=
26/04/2016 16:30:00Z	 SAID31 WIII 261630	METAR WIII 261630Z 33002KT 3500 BR FEW023 26/25 Q1011 NOSIG=
26/04/2016 17:00:00Z	 SAID31 WIII 261700	METAR WIII 261700Z VRB02KT 3000 BR FEW021 26/25 Q1011 NOSIG=
26/04/2016 17:30:00Z	 SAID31 WIII 261730	METAR WIII 261730Z 35003KT 2500 BR FEW021 26/25 Q1011 NOSIG=
26/04/2016 18:00:00Z	 SAID31 WIII 261800	METAR WIII 261800Z 30002KT 2700 BR SCT022 26/25 Q1010 NOSIG=
26/04/2016 18:30:00Z	 SAID31 WIII 261830	METAR WIII 261830Z VRB02KT 2300 BR SCT021 26/26 Q1010 NOSIG=
26/04/2016 19:00:00Z	 SAID31 WIII 261900	METAR WIII 261900Z 18003KT 3000 BR SCT022 26/26 Q1010 NOSIG=
26/04/2016 19:30:00Z	 SAID31 WIII 261930	METAR WIII 261930Z 14003KT 2600 BR FEW020CB SCT023 26/26 Q1010 NOSIG RMK CB TO NE=
26/04/2016 20:00:00Z	 SAID31 WIII 262000	METAR WIII 262000Z 16003KT 2800 BR FEW023 26/25 Q1010 NOSIG=
26/04/2016 20:30:00Z	 SAID31 WIII 262030	METAR WIII 262030Z 18004KT 3000 BR SCT023 26/26 Q1009 NOSIG=
26/04/2016 21:00:00Z	 SAID31 WIII 262100	METAR WIII 262100Z 18004KT 3100 BR FEW022 26/25 Q1009 NOSIG=
26/04/2016 21:30:00Z	 SAID31 WIII 262130	METAR WIII 262130Z 20005KT 3000 BR FEW022 26/25 Q1009 NOSIG=
26/04/2016 22:00:00Z	 SAID31 WIII 262200	METAR WIII 262200Z 19004KT 3400 BR FEW023 26/25 Q1009 NOSIG=
26/04/2016 22:30:00Z	 SAID31 WIII 262230	METAR WIII 262230Z VRB04KT 3800 BR FEW022 26/25 Q1009 NOSIG=
26/04/2016 23:00:00Z	 SAID31 WIII 262300	METAR WIII 262300Z 22005KT 4000 BR SCT022 26/25 Q1009 NOSIG=
26/04/2016 23:30:00Z	 SAID31 WIII 262330	METAR WIII 262330Z 21004KT 4800 BR FEW022 26/25 Q1010 NOSIG=
27/04/2016 00:00:00Z	 SAID31 WIII 270000	METAR WIII 270000Z 21004KT 4800 BR SCT023 26/25 Q1010 NOSIG=
27/04/2016 00:30:00Z	 SAID31 WIII 270030	METAR WIII 270030Z 21003KT 4300 BR SCT021 26/25 Q1010 NOSIG=
27/04/2016 01:00:00Z	 SAID31 WIII 270100	METAR WIII 270100Z 22004KT 5000 HZ SCT021 27/25 Q1010 NOSIG=
27/04/2016 01:30:00Z	 SAID31 WIII 270130	METAR WIII 270130Z VRB05KT 6000 FEW020 29/25 Q1010 NOSIG=
27/04/2016 02:00:00Z	 SAID31 WIII 270200	METAR WIII 270200Z 16006KT 8000 FEW022 30/25 Q1010 NOSIG=
27/04/2016 02:30:00Z	 SAID31 WIII 270230	METAR WIII 270230Z VRB04KT 8000 FEW021 30/25 Q1010 NOSIG=
27/04/2016 03:00:00Z	 SAID31 WIII 270300	METAR WIII 270300Z VRB05KT 8000 FEW021 31/25 Q1010 NOSIG=
27/04/2016 03:30:00Z	 SAID31 WIII 270330	METAR WIII 270330Z VRB04KT 8000 FEW021 31/25 Q1009 NOSIG=
27/04/2016 04:00:00Z	 SAID31 WIII 270400	METAR WIII 270400Z 05008KT 8000 SCT021 31/26 Q1009 NOSIG=
27/04/2016 04:30:00Z	 SAID31 WIII 270430	METAR WIII 270430Z AUTO 07007KT 010V110 9999 SCT200 32/26 Q1008 NOSIG =
27/04/2016 05:00:00Z	 SAID31 WIII 270500	METAR WIII 270500Z 06009KT 8000 FEW022 32/26 Q1008 NOSIG=
27/04/2016 05:30:00Z	 SAID31 WIII 270530	METAR WIII 270530Z 05008KT 8000 FEW022 32/26 Q1008 NOSIG=
27/04/2016 06:00:00Z	 SAID31 WIII 270600	METAR WIII 270600Z 05012KT 9000 FEW021 31/26 Q1008 NOSIG=
27/04/2016 06:30:00Z	 SAID31 WIII 270630	METAR WIII 270630Z 05010KT 9000 FEW021 31/25 Q1007 NOSIG=
27/04/2016 07:00:00Z	 SAID31 WIII 270700	METAR WIII 270700Z 05010KT 9000 FEW021 31/26 Q1007 NOSIG=
27/04/2016 07:30:00Z	 SAID31 WIII 270730	METAR WIII 270730Z 05012KT 9000 FEW020CB FEW021 31/26 Q1006 NOSIG RMK CB TO S=
27/04/2016 08:00:00Z	 SAID31 WIII 270800	METAR WIII 270800Z 02008KT 9999 FEW020CB FEW021 31/25 Q1006 NOSIG RMK CB TO S=
27/04/2016 08:30:00Z	 SAID31 WIII 270830	METAR WIII 270830Z 04008KT 9999 FEW020CB FEW021 31/25 Q1006 NOSIG RMK CB TO S=
27/04/2016 09:00:00Z	 SAID31 WIII 270900	METAR WIII 270900Z 05007KT 9999 FEW020CB FEW021 31/26 Q1006 NOSIG RMK CB TO S=
27/04/2016 09:30:00Z	 SAID31 WIII 270930	METAR WIII 270930Z 05006KT 8000 FEW020CB SCT021 30/26 Q1007 NOSIG RMK CB TO S=
27/04/2016 10:00:00Z	 SAID31 WIII 271000	METAR WIII 271000Z 05006KT 8000 FEW020CB SCT021 30/26 Q1007 NOSIG RMK CB TO W=
27/04/2016 10:30:00Z	 SAID31 WIII 271030	METAR WIII 271030Z 06005KT 7000 FEW020CB SCT021 29/26 Q1008 NOSIG RMK CB TO SE=
27/04/2016 11:00:00Z	 SAID31 WIII 271100	METAR WIII 271100Z 04004KT 5000 HZ FEW020CB SCT021 29/26 Q1008 NOSIG RMK CB TO E=
27/04/2016 11:30:00Z	 SAID31 WIII 271130	METAR WIII 271130Z VRB04KT 5000 HZ FEW020CB SCT021 29/24 Q1008 NOSIG RMK CB TO E=
27/04/2016 12:00:00Z	 SAID31 WIII 271200	METAR WIII 271200Z 16007KT 5000 HZ SCT021 28/24 Q1009 NOSIG=
27/04/2016 12:30:00Z	 SAID31 WIII 271230	METAR WIII 271230Z 13008KT 5000 HZ SCT021 28/24 Q1009 NOSIG=
27/04/2016 13:00:00Z	 SAID31 WIII 271300	METAR WIII 271300Z 12007KT 5000 HZ SCT021 28/24 Q1009 NOSIG=
27/04/2016 13:30:00Z	 SAID31 WIII 271330	METAR WIII 271330Z 10006KT 6000 FEW020 28/23 Q1009 NOSIG=
27/04/2016 14:00:00Z	 SAID31 WIII 271400	METAR WIII 271400Z 10007KT 6000 FEW020 28/24 Q1009 NOSIG=
27/04/2016 14:30:00Z	 SAID31 WIII 271430	METAR WIII 271430Z VRB04KT 6000 FEW021 27/24 Q1009 NOSIG=
27/04/2016 15:00:00Z	 SAID31 WIII 271500	METAR WIII 271500Z 28003KT 5000 SCT020 27/24 Q1009 NOSIG=
27/04/2016 15:30:00Z	 SAID31 WIII 271530	METAR WIII 271530Z VRB02KT 4600 SCT020 27/24 Q1009 NOSIG=
27/04/2016 16:00:00Z	 SAID31 WIII 271600	METAR WIII 271600Z VRB02KT 6000 SCT020 27/24 Q1009 NOSIG=
27/04/2016 16:30:00Z	 SAID31 WIII 271630	METAR WIII 271630Z 05002KT 3800 HZ FEW021 27/23 Q1009 NOSIG=
27/04/2016 17:00:00Z	 SAID31 WIII 271700	METAR WIII 271700Z 08004KT 5000 FEW021 27/24 Q1009 NOSIG=
27/04/2016 17:30:00Z	 SAID31 WIII 271730	METAR WIII 271730Z VRB04KT 5000 FEW021 28/23 Q1009 NOSIG=
27/04/2016 18:00:00Z	 SAID31 WIII 271800	METAR WIII 271800Z 23004KT 5000 FEW021 27/23 Q1009 NOSIG=
27/04/2016 18:30:00Z	 SAID31 WIII 271830	METAR WIII 271830Z VRB04KT 5000 FEW021 27/24 Q1009 NOSIG=
27/04/2016 19:00:00Z	 SAID31 WIII 271900	METAR WIII 271900Z VRB04KT 5000 FEW021 27/24 Q1008 NOSIG=
27/04/2016 19:30:00Z	 SAID31 WIII 271930	METAR WIII 271930Z 16005KT 5000 FEW021 26/24 Q1008 NOSIG=
27/04/2016 20:00:00Z	 SAID31 WIII 272000	METAR WIII 272000Z AUTO VRB02KT 6000 SCT220 26/24 Q1008 NOSIG=
27/04/2016 20:30:00Z	 SAID31 WIII 272030	METAR WIII 272030Z AUTO 22002KT 5000 VCTS FEW220 26/24 Q1008 NOSIG=
27/04/2016 21:00:00Z	 SAID31 WIII 272100	METAR WIII 272100Z VRB01KT 5000 FEW021 25/24 Q1008 NOSIG=
27/04/2016 21:30:00Z	 SAID31 WIII 272130	METAR WIII 272130Z AUTO VRB02KT 5000 FEW210 25/24 Q1008 NOSIG=
27/04/2016 22:00:00Z	 SAID31 WIII 272200	METAR WIII 272200Z AUTO 19002KT 4700 FEW210 26/24 Q1009 NOSIG=
27/04/2016 22:30:00Z	 SAID31 WIII 272230	METAR WIII 272230Z VRB02KT 5000 FEW021 26/24 Q1009 NOSIG=
27/04/2016 23:00:00Z	 SAID31 WIII 272300	METAR WIII 272300Z 22003KT 5000 FEW021 26/24 Q1009 NOSIG=
27/04/2016 23:30:00Z	 SAID31 WIII 272330	METAR WIII 272330Z 22002KT 5000 FEW021 26/24 Q1010 NOSIG=
28/04/2016 00:00:00Z	 SAID31 WIII 280000	METAR WIII 280000Z VRB03KT 5000 FEW021 27/25 Q1010 NOSIG=
28/04/2016 00:30:00Z	 SAID31 WIII 280030	METAR WIII 280030Z 15005KT 5000 HZ FEW020 27/25 Q1010 NOSIG=
28/04/2016 01:00:00Z	 SAID31 WIII 280100	METAR WIII 280100Z VRB05KT 5000 HZ FEW020 28/25 Q1011 NOSIG=
28/04/2016 01:30:00Z	 SAID31 WIII 280130	METAR WIII 280130Z VRB05KT 6000 FEW020 29/24 Q1011 NOSIG=
28/04/2016 02:00:00Z	 SAID31 WIII 280200	METAR WIII 280200Z 13006KT 090V170 6000 FEW020 30/25 Q1011 NOSIG=
28/04/2016 02:30:00Z	 SAID31 WIII 280230	METAR WIII 280230Z AUTO 08006KT 060V130 5000 NCD 31/25 Q1011 NOSIG=
28/04/2016 03:00:00Z	 SAID31 WIII 280300	METAR WIII 280300Z 07008KT 9999 FEW020 32/25 Q1010 NOSIG=
28/04/2016 03:30:00Z	 SAID31 WIII 280330	METAR WIII 280330Z 04009KT 9999 FEW020 32/25 Q1010 NOSIG=
28/04/2016 04:00:00Z	 SAID31 WIII 280400	METAR WIII 280400Z 06009KT 020V090 9999 FEW020 32/25 Q1009 NOSIG=
28/04/2016 04:30:00Z	 SAID31 WIII 280430	METAR WIII 280430Z 05010KT 9999 FEW020 33/25 Q1009 NOSIG=
28/04/2016 05:00:00Z	 SAID31 WIII 280500	METAR WIII 280500Z 03010KT 9999 FEW018 32/26 Q1009 NOSIG=
28/04/2016 05:30:00Z	 SAID31 WIII 280530	METAR WIII 280530Z 04012KT 9999 FEW018 32/26 Q1008 NOSIG=
28/04/2016 06:00:00Z	 SAID31 WIII 280600	METAR WIII 280600Z 05012KT 9999 FEW018 32/26 Q1008 NOSIG=
28/04/2016 06:30:00Z	 SAID31 WIII 280630	METAR WIII 280630Z 05012KT 9999 FEW018 32/26 Q1007 NOSIG=
28/04/2016 07:00:00Z	 SAID31 WIII 280700	METAR WIII 280700Z 05012KT 9999 FEW018 32/26 Q1007 NOSIG=
28/04/2016 07:30:00Z	 SAID31 WIII 280730	METAR WIII 280730Z 04011KT 9999 SCT018 32/26 Q1006 NOSIG=
28/04/2016 08:00:00Z	 SAID31 WIII 280800	METAR WIII 280800Z 04010KT 9999 FEW018 32/26 Q1006 NOSIG=
28/04/2016 08:30:00Z	 SAID31 WIII 280830	METAR WIII 280830Z 04010KT 9999 FEW018 32/26 Q1006 NOSIG=
28/04/2016 09:00:00Z	 SAID31 WIII 280900	METAR WIII 280900Z 04011KT 9999 FEW018 30/26 Q1006 NOSIG=
28/04/2016 09:30:00Z	 SAID31 WIII 280930	METAR WIII 280930Z 05012KT 9999 FEW018 30/26 Q1007 NOSIG=
28/04/2016 10:00:00Z	 SAID31 WIII 281000	METAR WIII 281000Z 04012KT 9999 FEW018 30/26 Q1007 NOSIG=
28/04/2016 10:30:00Z	 SAID31 WIII 281030	METAR WIII 281030Z 05011KT 9000 FEW018CB SCT022 30/25 Q1007 NOSIG RMK CB TO SW=
28/04/2016 11:00:00Z	 SAID31 WIII 281100	METAR WIII 281100Z 05008KT 8000 FEW018CB SCT020 29/25 Q1008 NOSIG RMK CB TO SW=
28/04/2016 11:30:00Z	 SAID31 WIII 281130	METAR WIII 281130Z 06009KT 8000 FEW018CB SCT020 29/26 Q1008 NOSIG RMK CB TO SW=
28/04/2016 12:00:00Z	 SAID31 WIII 281200	METAR WIII 281200Z 08010KT 8000 FEW016CB SCT020 29/26 Q1009 NOSIG RMK CB TO SW=
28/04/2016 12:30:00Z	 SAID31 WIII 281230	METAR WIII 281230Z 08008KT 8000 FEW018CB FEW018 29/25 Q1009 NOSIG RMK CB TO SW=
28/04/2016 13:00:00Z	 SAID31 WIII 281300	METAR WIII 281300Z 09008KT 8000 FEW020CB FEW021 28/24 Q1009 NOSIG RMK CB TO SW=
28/04/2016 13:30:00Z	 SAID31 WIII 281330	METAR WIII 281330Z VRB05KT 8000 FEW020CB FEW021 28/24 Q1010 NOSIG RMK CB TO SW=
28/04/2016 14:00:00Z	 SAID31 WIII 281400	METAR WIII 281400Z 21008KT 7000 FEW020CB FEW021 29/25 Q1011 NOSIG RMK CB TO W=
28/04/2016 14:30:00Z	 SAID31 WIII 281430	METAR WIII 281430Z 23004KT 7000 FEW020CB FEW021 27/24 Q1011 NOSIG RMK CB TO W=
28/04/2016 15:00:00Z	 SAID31 WIII 281500	METAR WIII 281500Z 22005KT 7000 FEW020 27/24 Q1011 NOSIG=
28/04/2016 15:30:00Z	 SAID31 WIII 281530	METAR WIII 281530Z 22004KT 6000 FEW020 27/24 Q1011 NOSIG=
28/04/2016 16:00:00Z	 SAID31 WIII 281600	METAR WIII 281600Z 21005KT 5000 HZ FEW020 26/24 Q1011 NOSIG=
28/04/2016 16:30:00Z	 SAID31 WIII 281630	METAR WIII 281630Z 23005KT 4000 HZ FEW020 26/24 Q1011 NOSIG=
28/04/2016 17:00:00Z	 SAID31 WIII 281700	METAR WIII 281700Z 21003KT 4000 HZ FEW020 26/24 Q1010 NOSIG=
28/04/2016 17:30:00Z	 SAID31 WIII 281730	METAR WIII 281730Z VRB04KT 4000 HZ FEW020 27/24 Q1010 NOSIG=
28/04/2016 18:00:00Z	 SAID31 WIII 281800	METAR WIII 281800Z 23002KT 4000 HZ FEW020 26/24 Q1009 NOSIG=
28/04/2016 18:30:00Z	 SAID31 WIII 281830	METAR WIII 281830Z 23003KT 4000 HZ FEW020 26/24 Q1009 NOSIG=
28/04/2016 19:00:00Z	 SAID31 WIII 281900	METAR WIII 281900Z VRB03KT 3100 HZ FEW020 26/24 Q1009 NOSIG=
28/04/2016 19:30:00Z	 SAID31 WIII 281930	METAR WIII 281930Z 17004KT 3700 HZ FEW020 27/25 Q1009 NOSIG=
28/04/2016 20:00:00Z	 SAID31 WIII 282000	METAR WIII 282000Z VRB02KT 4000 HZ FEW020 27/25 Q1009 NOSIG=
28/04/2016 20:30:00Z	 SAID31 WIII 282030	METAR WIII 282030Z 19003KT 4000 HZ FEW020 27/25 Q1009 NOSIG=
28/04/2016 21:00:00Z	 SAID31 WIII 282100	METAR WIII 282100Z 19005KT 4000 HZ FEW020 27/25 Q1009 NOSIG=
28/04/2016 21:30:00Z	 SAID31 WIII 282130	METAR WIII 282130Z AUTO 15004KT 6000 SCT028 SCT075 OVC150 27/25 Q1009 NOSIG=
28/04/2016 22:30:00Z	 SAID31 WIII 282230	METAR WIII 282230Z AUTO 14006KT 6000 BKN080 27/25 Q1010 NOSIG=
28/04/2016 23:00:00Z	 SAID31 WIII 282300	METAR WIII 282300Z AUTO 09006KT 9999 SCT075 SCT089 BKN110 OVC180 27/2 4 Q1010 NOSIG=
28/04/2016 23:30:00Z	 SAID31 WIII 282330	METAR WIII 282330Z 09009KT 8000 FEW021 28/24 Q1010 NOSIG=
29/04/2016 00:00:00Z	 SAID31 WIII 290000	METAR WIII 290000Z 10007KT 8000 FEW021 28/24 Q1010 NOSIG=
29/04/2016 00:30:00Z	 SAID31 WIII 290030	METAR WIII 290030Z 11009KT 9000 FEW020 28/24 Q1010 NOSIG=
29/04/2016 01:00:00Z	 SAID31 WIII 290100	METAR WIII 290100Z 11007KT 7000 SCT021 29/24 Q1011 NOSIG=
29/04/2016 01:30:00Z	 SAID31 WIII 290130	METAR WIII 290130Z 12006KT 6000 SCT021 29/25 Q1011 NOSIG=
29/04/2016 02:00:00Z	 SAID31 WIII 290200	METAR WIII 290200Z 11011KT 7000 SCT021 31/25 Q1011 NOSIG=
29/04/2016 02:30:00Z	 SAID31 WIII 290230	METAR WIII 290230Z 11009KT 7000 SCT021 31/24 Q1011 NOSIG=
29/04/2016 03:00:00Z	 SAID31 WIII 290300	METAR WIII 290300Z 11010KT 7000 SCT021 31/24 Q1011 NOSIG=
29/04/2016 03:30:00Z	 SAID31 WIII 290330	METAR WIII 290330Z 11010KT 7000 SCT021 32/24 Q1010 NOSIG=
29/04/2016 04:00:00Z	 SAID31 WIII 290400	METAR WIII 290400Z 08011KT 7000 SCT021 32/24 Q1010 NOSIG=
29/04/2016 04:30:00Z	 SAID31 WIII 290430	METAR WIII 290430Z 06009KT 8000 SCT021 32/24 Q1010 NOSIG=
29/04/2016 05:00:00Z	 SAID31 WIII 290500	METAR WIII 290500Z 05009KT 8000 SCT021 33/24 Q1009 NOSIG=
29/04/2016 05:30:00Z	 SAID31 WIII 290530	METAR WIII 290530Z 04009KT 8000 SCT021 33/24 Q1009 NOSIG=
29/04/2016 06:00:00Z	 SAID31 WIII 290600	METAR WIII 290600Z 03011KT 9000 FEW021 33/23 Q1008 NOSIG=
29/04/2016 06:30:00Z	 SAID31 WIII 290630	METAR WIII 290630Z 02010KT 9000 FEW021 33/24 Q1008 NOSIG=
29/04/2016 07:00:00Z	 SAID31 WIII 290700	METAR WIII 290700Z 04010KT 9000 FEW020CB FEW021 32/24 Q1008 NOSIG RMK CB TO SW=
29/04/2016 07:30:00Z	 SAID31 WIII 290730	METAR WIII 290730Z 05014KT 9999 FEW020CB FEW021 32/25 Q1007 NOSIG RMK CB TO W=
29/04/2016 08:00:00Z	 SAID31 WIII 290800	METAR WIII 290800Z 030013KT 8000 FEW020CB SCT021 32/25 Q1007 NOSIG RM K CB TO SW=
29/04/2016 08:30:00Z	 SAID31 WIII 290830	METAR WIII 290830Z 05013KT 9999 FEW020CB SCT021 32/25 Q1007 NOSIG RMK CB TO SW=
29/04/2016 09:00:00Z	 SAID31 WIII 290900	METAR WIII 290900Z 04008KT 360V060 9999 VCTS FEW018CB SCT20 31/25 Q10 08 NOSIG RMK CB TO SW=
29/04/2016 09:30:00Z	 SAID31 WIII 290930	METAR WIII 290930Z 04006KT 7000 VCTS SACT017CB BKN019 30/24 Q1008 RMK CB TO SW=
29/04/2016 10:00:00Z	 SAID31 WIII 291000	METAR WIII 291000Z 19010KT 7000 -TSRA SCT016CB BKN018 28/24 Q1009 NOS IG CB OVER THE FIELD=
29/04/2016 10:30:00Z	 SAID31 WIII 291030	METAR WIII 291030Z VRB05KT 6000 FEW018CB BKN019 27/24 Q1009 NOSIG RMK CB TO SE=
29/04/2016 11:00:00Z	 SAID31 WIII 291100	METAR WIII 291100Z 18003KT 7000 FEW018CB SCT020 27/24 Q1008 NOSIG CB TO SE=
29/04/2016 11:30:00Z	 SAID31 WIII 291130	METAR WIII 291130Z VRB03KT 7000 SCT020 27/24 Q1008 NOSIG=
29/04/2016 12:00:00Z	 SAID31 WIII 291200	METAR WIII 291200Z 19003KT 4800 HZ FEW021 27/24 Q1009 NOSIG=
29/04/2016 12:30:00Z	 SAID31 WIII 291230	METAR WIII 291230Z AUTO VRB03KT 6000 NCD 27/24 Q1009 NOSIG=
29/04/2016 13:00:00Z	 SAID31 WIII 291300	METAR WIII 291300Z AUTO VRB05KT 4600 NCD 27/25 Q1009 NOSIG=
29/04/2016 13:30:00Z	 SAID31 WIII 291330	METAR COR WIII 291330Z VRB04KT 5000 HZ FEW018 27/25 Q1010 NOSIG=
29/04/2016 14:00:00Z	 SAID31 WIII 291400	METAR WIII 291400Z VRB04KT 5000 HZ FEW018 27/25 Q1010 NOSIG=
29/04/2016 14:30:00Z	 SAID31 WIII 291430	METAR WIII 291430Z VRB03KT 5000 HZ FEW020 27/25 Q1010 NOSIG=
29/04/2016 15:00:00Z	 SAID31 WIII 291500	METAR WIII 291500Z 21003KT 5000 HZ FEW020 27/25 Q1010 NOSIG=
29/04/2016 15:30:00Z	 SAID31 WIII 291530	METAR WIII 291530Z VRB04KT 5000 HZ FEW020 27/25 Q1010 NOSIG=
29/04/2016 16:00:00Z	 SAID31 WIII 291600	METAR WIII 291600Z 17004KT 5000 HZ FEW020 27/25 Q1010 NOSIG=
29/04/2016 16:30:00Z	 SAID31 WIII 291630	METAR WIII 291630Z 16004KT 5000 HZ FEW020 27/25 Q1010 NOSIG=
29/04/2016 18:30:00Z	 SAID31 WIII 291830	METAR WIII 291830Z VRB04KT 4000 HZ FEW018 27/25 Q1009 NOSIG=
29/04/2016 19:00:00Z	 SAID31 WIII 291900	METAR WIII 291900Z VRB05KT 4000 HZ FEW020 27/25 Q1008 NOSIG=
29/04/2016 19:30:00Z	 SAID31 WIII 291930	METAR WIII 291930Z 16003KT 4000 HZ FEW018 27/25 Q1008 NOSIG=
29/04/2016 20:00:00Z	 SAID31 WIII 292000	METAR WIII 292000Z 16004KT 4000 HZ FEW018 27/25 Q1008 NOSIG=
29/04/2016 22:00:00Z	 SAID31 WIII 292200	METAR WIII 292200Z 15003KT 4000 BR FEW018 26/25 Q1008 NOSIG=
29/04/2016 22:30:00Z	 SAID31 WIII 292230	METAR WIII 292230Z VRB02KT 4000 HZ FEW018 27/25 Q1008 NOSIG=
29/04/2016 23:00:00Z	 SAID31 WIII 292300	METAR WIII 292300Z 09005KT 5000 HZ SCT020 27/25 Q1009 NOSIG=
29/04/2016 23:30:00Z	 SAID31 WIII 292330	METAR WIII 292330Z VRB05KT 5000 HZ SCT020 28/25 Q1009 NOSIG=
30/04/2016 00:00:00Z	 SAID31 WIII 300000	METAR WIII 300000Z VRB05KT 5000 HZ FEW018CB SCT020 28/25 Q1009 NOSIG RMK CB TO N=
30/04/2016 00:30:00Z	 SAID31 WIII 300030	METAR WIII 300030Z VRB03KT 4200 HZ FEW018CB SCT020 29/25 Q1010 NOSIG RMK CB TO N=
30/04/2016 01:00:00Z	 SAID31 WIII 300100	METAR WIII 300100Z VRB05KT 4900 HZ FEW018CB SCT020 30/25 Q1010 NOSIG RMK CB TO N=
30/04/2016 01:30:00Z	 SAID31 WIII 300130	METAR WIII 300130Z 09006KT 060V130 5000 HZ FEW019CB SCT020 30/25 Q101 0 NOSIG RMK CB TO N=
30/04/2016 02:00:00Z	 SAID31 WIII 300200	METAR WIII 300200Z 08006KT 050V120 6000 FEW019CB SCT021 31/25 Q1010 N OSIG RMK CB TO NW=
30/04/2016 02:30:00Z	 SAID31 WIII 300230	METAR WIII 300230Z 08008KT 050V140 7000 FEW019CB SCT023 32/25 Q1010 N OSIG RMK CB TO NW=
30/04/2016 03:00:00Z	 SAID31 WIII 300300	METAR WIII 300300Z 06008KT 7000 FEW020CB BKN022 31/25 Q1010 NOSIG RMK CB TO N=
30/04/2016 03:30:00Z	 SAID31 WIII 300330	METAR WIII 300330Z 05009KT 7000 FEW020CB SCT022 32/26 Q1010 NOSIG RMK CB TO N=
30/04/2016 04:00:00Z	 SAID31 WIII 300400	METAR WIII 300400Z 06013KT 8000 BKN022 32/25 Q1009 NOSIG=
30/04/2016 04:30:00Z	 SAID31 WIII 300430	METAR WIII 300430Z 06016KT 8000 SCT022 32/24 Q1009 NOSIG=
30/04/2016 05:00:00Z	 SAID31 WIII 300500	METAR WIII 300500Z 06017KT 030V090 8000 FEW020CB SCT023 33/25 Q1009 N OSIG RMK CB TO W=
30/04/2016 05:30:00Z	 SAID31 WIII 300530	METAR WIII 300530Z 03016KT 8000 FEW020CB SCT022 32/24 Q1008 NOSIG RMK CB TO W=
30/04/2016 06:00:00Z	 SAID31 WIII 300600	METAR WIII 300600Z 02010KT 340V060 8000 FEW020CB SCT023 33/24 Q1008 N OSIG RMK CB TO W=
30/04/2016 06:30:00Z	 SAID31 WIII 300630	METAR WIII 300630Z 35014KT 310V020 7000 CLD FEW020CB BKN022 32/25 Q10 08 NOSIG RMK CB TO SW=
30/04/2016 07:00:00Z	 SAID31 WIII 300700	METAR WIII 300700Z 33012KT 290V360 7000 FEW020CB SCT021 32/25 Q1007 N OSIG RMK CB TO SW=
30/04/2016 07:30:00Z	 SAID31 WIII 300730	METAR WIII 300730Z 33013KT 280V010 7000 FEW020CB BKN021 31/26 Q1007 N OSIG RMK CB TO S=
30/04/2016 08:00:00Z	 SAID31 WIII 300800	METAR WIII 300800Z 33010KT 300V020 7000 FEW020CB SCT022 30/26 Q1007 N OSIG RMK CB TO S=
30/04/2016 08:30:00Z	 SAID31 WIII 300830	METAR WIII 300830Z VRB05KT 7000 FEW017CB SCT020 30/26 Q1007 NOSIG RMK CB TO S=
30/04/2016 09:00:00Z	 SAID31 WIII 300900	METAR WIII 300900Z VRB04KT 7000 SCT021 29/26 Q1007 NOSIG=
30/04/2016 09:30:00Z	 SAID31 WIII 300930	METAR WIII 300930Z VRB03KT 8000 SCT022 29/26 Q1008 NOSIG=
30/04/2016 10:00:00Z	 SAID31 WIII 301000	METAR WIII 301000Z 30004KT 6000 FEW018CB SCT020 29/26 Q1008 NOSIG RMK CB TO S=
30/04/2016 10:30:00Z	 SAID31 WIII 301030	METAR WIII 301030Z 30003KT 5000 VCSH FEW018CB BKN020 29/26 Q1008 NOSI G RMK CB TO S=
30/04/2016 11:00:00Z	 SAID31 WIII 301100	METAR WIII 301100Z 17006KT 120V220 5000 -RA FEW018CB BKN018 28/24 Q10 09 NOSIG RMK CB TO SE=
30/04/2016 11:30:00Z	 SAID31 WIII 301130	METAR WIII 301130Z VRB02KT 6000 VCTS FEW018CB SCT020 27/25 Q1009 NOSI G RERA NOSIG RMK CB TO E=
30/04/2016 11:30:00Z	 SAID31 WIII 301130 CCA	METAR COR WIII 301130Z VRB02KT 6000 VCTS FEW018CB SCT020 27/25 Q1009 RERA NOSIG RMK CB TO E=
30/04/2016 12:00:00Z	 SAID31 WIII 301200	METAR WIII 301200Z VRB05KT 7000 VCTS FEW020CB FEW022 27/25 Q1009 NOSI G RMK CB TO E=
30/04/2016 12:30:00Z	 SAID31 WIII 301230	METAR WIII 301230Z VRB04KT 7000 FEW020CB SCT023 27/25 Q1010 NOSIG RMK CB TO E=
30/04/2016 13:00:00Z	 SAID31 WIII 301300	METAR WIII 301300Z VRB05KT 7000 FEW020CB SCT021 27/24 Q1010 NOSIG RMK CB TO NE=
30/04/2016 13:30:00Z	 SAID31 WIII 301330	METAR WIII 301330Z VRB04KT 6000 FEW020CB SCT021 27/24 Q1011 NOSIG RMK CB TO N=
30/04/2016 14:00:00Z	 SAID31 WIII 301400	METAR WIII 301400Z 06005KT 6000 SCT022 27/24 Q1011 NOSIG=
30/04/2016 14:30:00Z	 SAID31 WIII 301430	METAR WIII 301430Z 08006KT 6000 SCT021 27/25 Q1011 NOSIG=
30/04/2016 15:00:00Z	 SAID31 WIII 301500	METAR WIII 301500Z VRB03KT 6000 SCT020 27/25 Q1011 NOSIG=
30/04/2016 15:30:00Z	 SAID31 WIII 301530	METAR WIII 301530Z VRB04KT 6000 SCT020 28/24 Q1011 NOSIG=
30/04/2016 16:00:00Z	 SAID31 WIII 301600	METAR WIII 301600Z VRB05KT 5000 HZ SCT020 27/25 Q1011 NOSIG=
30/04/2016 16:30:00Z	 SAID31 WIII 301630	METAR WIII 301630Z 21003KT 5000 HZ SCT020 27/24 Q1011 NOSIG=
30/04/2016 17:00:00Z	 SAID31 WIII 301700	METAR WIII 301700Z VRB03KT 5000 HZ SCT020 27/24 Q1010 NOSIG=
30/04/2016 17:30:00Z	 SAID31 WIII 301730	METAR WIII 301730Z VRB03KT 5000 HZ SCT020 27/25 Q1010 NOSIG=
30/04/2016 18:00:00Z	 SAID31 WIII 301800	METAR WIII 301800Z 17002KT 4000 HZ SCT021 27/25 Q1010 NOSIG=
30/04/2016 18:30:00Z	 SAID31 WIII 301830	METAR WIII 301830Z VRB04KT 3600 HZ SCT020 27/25 Q1010 NOSIG=
30/04/2016 19:00:00Z	 SAID31 WIII 301900	METAR WIII 301900Z AUTO VRB02KT 6000 FEW210 27/25 Q1009 NOSIG=
30/04/2016 19:30:00Z	 SAID31 WIII 301930	METAR WIII 301930Z AUTO 22002KT 7000 BR NCD 27/25 Q1009 NOSIG=
30/04/2016 20:00:00Z	 SAID31 WIII 302000	METAR WIII 302000Z AUTO 20003KT 6000 BR NCD 26/24 Q1009 NOSIG=
30/04/2016 20:30:00Z	 SAID31 WIII 302030	METAR WIII 302030Z AUTO VRB01KT 6000 BR SCT130 26/25 Q1009 NOSIG=
30/04/2016 21:00:00Z	 SAID31 WIII 302100	METAR WIII 302100Z AUTO 19003KT 6000 SCT230 26/25 Q1009 NOSIG=
30/04/2016 21:30:00Z	 SAID31 WIII 302130	METAR WIII 302130Z AUTO VRB01KT 6000 NCD 26/25 Q1009 NOSIG=
30/04/2016 22:00:00Z	 SAID31 WIII 302200	METAR WIII 302200Z AUTO 25003KT 5000 SCT230 26/24 Q1010 NOSIG=
30/04/2016 22:30:00Z	 SAID31 WIII 302230	METAR WIII 302230Z AUTO 22002KT 4000 FEW180 OVC230 26/24 Q1010 NOSIG=
30/04/2016 23:00:00Z	 SAID31 WIII 302300	METAR WIII 302300Z AUTO VRB03KT 3000 BKN230 26/25 Q1010 NOSIG=
30/04/2016 23:30:00Z	 SAID31 WIII 302330	METAR WIII 302330Z VRB02KT 3000 HZ FEW022 26/25 Q1010 NOSIG=
