01/07/2013 00:00:00Z	 SAID31 WIII 010000	METAR WIII 010000Z 16003KT 4000 BR FEW023 BKN180 26/23 Q1009=
01/07/2013 00:30:00Z	 SAID31 WIII 010030	METAR WIII 010030Z AUTO 15005KT 5000 NCD 27/24 Q1010=
01/07/2013 01:00:00Z	 SAID31 WIII 010100	METAR WIII 010100Z 11006KT 6000 FEW022 28/24 Q1011=
01/07/2013 01:30:00Z	 SAID31 WIII 010130	METAR WIII 010130Z 09008KT 8000 NCD 29/24 Q1010=
01/07/2013 02:00:00Z	 SAID31 WIII 010200	METAR WIII 010200Z 11008KT 9000 NCD 30/24 Q1010=
01/07/2013 02:30:00Z	 SAID31 WIII 010230	METAR WIII 010230Z 12010KT 9999 FEW026 31/24 Q1010=
01/07/2013 03:00:00Z	 SAID31 WIII 010300	METAR WIII 010300Z 11012KT 9999 FEW020 31/24 Q1009=
01/07/2013 03:30:00Z	 SAID31 WIII 010330	METAR WIII 010330Z 09011KT 9999 FEW035 32/24 Q1009=
01/07/2013 04:00:00Z	 SAID31 WIII 010400	METAR WIII 010400Z AUTO 08008KT 9999 SCT035 33/24 Q1008=
01/07/2013 04:30:00Z	 SAID31 WIII 010430	METAR WIII 010430Z AUTO 07012KT 9999 SCT035 33/24 Q1008=
01/07/2013 05:00:00Z	 SAID31 WIII 010500	METAR WIII 010500Z AUTO 05011KT 9999 FEW037 33/24 Q1007=
01/07/2013 05:30:00Z	 SAID31 WIII 010530	METAR WIII 010530Z AUTO 06011KT 9999 NCD 32/24 Q1007=
01/07/2013 06:00:00Z	 SAID31 WIII 010600	METAR WIII 010600Z 06016KT 9999 FEW018 33/24 Q1007=
01/07/2013 06:30:00Z	 SAID31 WIII 010630	METAR WIII 010630Z 06015KT 9999 FEW018 32/24 Q1006=
01/07/2013 07:00:00Z	 SAID31 WIII 010700	METAR WIII 010700Z 06012KT 9999 FEW018 32/24 Q1005=
01/07/2013 07:30:00Z	 SAID31 WIII 010730	METAR WIII 010730Z 06011KT 9999 FEW020 33/24 Q1005=
01/07/2013 08:00:00Z	 SAID31 WIII 010800	METAR WIII 010800Z 06011KT 9999 FEW020 32/24 Q1005=
01/07/2013 08:30:00Z	 SAID31 WIII 010830	METAR WIII 010830Z AUTO 05008KT 9999 NCD 32/24 Q1005=
01/07/2013 09:00:00Z	 SAID31 WIII 010900	METAR WIII 010900Z 05010KT 9999 SCT020 32/24 Q1005=
01/07/2013 09:30:00Z	 SAID31 WIII 010930	METAR WIII 010930Z 05012KT 9999 SCT020 32/24 Q1005=
01/07/2013 10:00:00Z	 SAID31 WIII 011000	METAR WIII 011000Z AUTO 05010KT 9999 NCD 31/24 Q1005=
01/07/2013 10:30:00Z	 SAID31 WIII 011030	METAR WIII 011030Z 05009KT 9000 FEW018CB FEW020 30/24 Q1006 RMK CB TO SW=
01/07/2013 11:00:00Z	 SAID31 WIII 011100	METAR WIII 011100Z 04007KT 9000 FEW018 30/24 Q1006=
01/07/2013 11:30:00Z	 SAID31 WIII 011130	METAR WIII 011130Z 05005KT 8000 FEW020 29/24 Q1007=
01/07/2013 12:00:00Z	 SAID31 WIII 011200	METAR WIII 011200Z 05006KT 8000 FEW018CB FEW020 29/24 Q1007 RMK CB TO SW=
01/07/2013 12:30:00Z	 SAID31 WIII 011230	METAR WIII 011230Z AUTO 06006KT 9999 NCD 29/24 Q1007=
01/07/2013 13:00:00Z	 SAID31 WIII 011300	METAR WIII 011300Z 06006KT 9999 FEW020CB FEW021 29/24 Q1008 RMK CB TO SW=
01/07/2013 13:30:00Z	 SAID31 WIII 011330	METAR WIII 011330Z AUTO 07006KT 9999 NCD 29/24 Q1009=
01/07/2013 14:00:00Z	 SAID31 WIII 011400	METAR WIII 011400Z AUTO 06006KT 9999 FEW070 28/24 Q1009=
01/07/2013 14:30:00Z	 SAID31 WIII 011430	METAR WIII 011430Z 07005KT 9999 FEW020CB FEW021 28/24 Q1009=
01/07/2013 15:00:00Z	 SAID31 WIII 011500	METAR WIII 011500Z VRB04KT 9999 FEW020CB FEW021 29/23 Q1009 RMK CB TO SW=
01/07/2013 15:30:00Z	 SAID31 WIII 011530	METAR WIII 011530Z AUTO 05003KT 9999 BKN070 28/24 Q1009=
01/07/2013 16:00:00Z	 SAID31 WIII 011600	METAR WIII 011600Z 07002KT 9999 NCD 28/24 Q1009=
01/07/2013 16:30:00Z	 SAID31 WIII 011630	METAR WIII 011630Z 22007KT 9999 FEW022 29/24 Q1009=
01/07/2013 17:00:00Z	 SAID31 WIII 011700	METAR WIII 011700Z 23002KT 7000 FEW022 28/23 Q1009=
01/07/2013 17:30:00Z	 SAID31 WIII 011730	METAR WIII 011730Z VRB03KT 5000 SCT022 27/23 Q1009=
01/07/2013 18:00:00Z	 SAID31 WIII 011800	METAR WIII 011800Z 22005KT 5000 FEW022 26/23 Q1009=
01/07/2013 18:30:00Z	 SAID31 WIII 011830	METAR WIII 011830Z VRB05KT 5000 NCD 27/23 Q1009=
01/07/2013 19:00:00Z	 SAID31 WIII 011900	METAR WIII 011900Z AUTO 23003KT 3100 BR NCD 26/23 Q1009=
01/07/2013 19:30:00Z	 SAID31 WIII 011930	METAR WIII 011930Z AUTO 22002KT 3800 BR NCD 26/23 Q1008=
01/07/2013 20:00:00Z	 SAID31 WIII 012000	METAR WIII 012000Z AUTO 00000KT 3600 VCTS BR NCD 26/23 Q1008=
01/07/2013 20:30:00Z	 SAID31 WIII 012030	METAR WIII 012030Z AUTO 26003KT 5000 BR NCD 26/23 Q1008=
01/07/2013 21:00:00Z	 SAID31 WIII 012100	METAR WIII 012100Z VRB03KT 2600 BR FEW023 25/23 Q1008=
01/07/2013 21:30:00Z	 SAID31 WIII 012130	METAR WIII 012130Z AUTO 27003KT 2400 BR NCD 25/23 Q1008=
01/07/2013 22:00:00Z	 SAID31 WIII 012200	METAR WIII 012200Z AUTO 00000KT 2500 BR NCD 25/23 Q1008=
01/07/2013 22:30:00Z	 SAID31 WIII 012230	METAR WIII 012230Z AUTO 24002KT 2500 BR NCD 25/23 Q1008=
01/07/2013 23:00:00Z	 SAID31 WIII 012300	METAR WIII 012300Z 28004KT 2400 VCTS FEW020CB SCT021 25/23 Q1009 RMK CB TO NE=
01/07/2013 23:30:00Z	 SAID31 WIII 012330	METAR WIII 012330Z 00000KT 2500 BR BKN020 25/23 Q1009=
02/07/2013 00:00:00Z	 SAID31 WIII 020000	METAR WIII 020000Z 34004KT 2700 BR SCT020 26/24 Q1009=
02/07/2013 00:30:00Z	 SAID31 WIII 020030	METAR WIII 020030Z AUTO 25002KT 2300 BR NCD 27/24 Q1009=
02/07/2013 01:00:00Z	 SAID31 WIII 020100	METAR WIII 020100Z AUTO 23003KT 3200 BR FEW021 28/24 Q1010=
02/07/2013 01:30:00Z	 SAID31 WIII 020130	METAR WIII 020130Z VRB04KT 3800 HZ SCT018 29/24 Q1010=
02/07/2013 02:00:00Z	 SAID31 WIII 020200	METAR WIII 020200Z 25005KT 4000 HZ FEW018CB BKN020 29/24 Q1010=
02/07/2013 02:30:00Z	 SAID31 WIII 020230	METAR WIII 020230Z 29004KT 3500 HZ SCT018 29/24 Q1010=
02/07/2013 03:00:00Z	 SAID31 WIII 020300	METAR WIII 020300Z 32004KT 5000 HZ FEW018CB BKN020 31/24 Q1009=
02/07/2013 03:30:00Z	 SAID31 WIII 020330	METAR WIII 020330Z 35004KT 5000 HZ FEW018CB BKN018 31/24 Q1009=
02/07/2013 04:00:00Z	 SAID31 WIII 020400	METAR WIII 020400Z 36005KT 4000 HZ BKN018 31/24 Q1009=
02/07/2013 04:30:00Z	 SAID31 WIII 020430	METAR WIII 020430Z 28006KT 5000 HZ FEW018CB BKN018 32/24 Q1008=
02/07/2013 05:00:00Z	 SAID31 WIII 020500	METAR WIII 020500Z 19009KT 5000 HZ FEW018CB BKN018 32/24 Q1008=
02/07/2013 05:30:00Z	 SAID31 WIII 020530	METAR WIII 020530Z 18009KT 5000 TS SCT016CB OVC018 32/24 Q1008=
02/07/2013 06:00:00Z	 SAID31 WIII 020600	METAR WIII 020600Z 02009KT 0500 +TSRA BKN016CB OVC016 27/22 Q1008=
02/07/2013 06:30:00Z	 SAID31 WIII 020630	METAR COR WIII 020630Z 28008KT 3000 -TSRA BKN016CB OVC016 25/23 Q1007=
02/07/2013 07:00:00Z	 SAID31 WIII 020700	METAR WIII 020700Z 35003KT 4000 -RA FEW016CB BKN016 27/23 Q1007 RMK R ETS CB TO SE S AND SW=
02/07/2013 07:30:00Z	 SAID31 WIII 020730	METAR WIII 020730Z 29004KT -RA SCT016CB BKN016 28/23 Q1007=
02/07/2013 08:00:00Z	 SAID31 WIII 020800	METAR WIII 020800Z 19003KT 5000 HZ SCT018CB BKN018 29/24 Q1007 RMK CB TO SE S AND SW=
02/07/2013 08:30:00Z	 SAID31 WIII 020830	METAR WIII 020830Z 26003KT 5000 HZ SCT018CB BKN018 30/24 Q1007 RMK CB TO S SW AND W=
02/07/2013 09:00:00Z	 SAID31 WIII 020900	METAR WIII 020900Z 22005KT 5000 HZ SCT018CB BKN018 31/24 Q1007 RMK CB TO SE SW AND W=
02/07/2013 09:30:00Z	 SAID31 WIII 020930	METAR WIII 020930Z 20009KT 4000 HZ SCT016CB OVC016 30/24 Q1007 RMK CB TO SE SW AND W=
02/07/2013 10:00:00Z	 SAID31 WIII 021000	METAR WIII 021000Z 29012G22KT 1500 TSRA BKN016CB OVC016 25/22 Q1007 R MK CB ALL RWY=
02/07/2013 10:30:00Z	 SAID31 WIII 021030	METAR WIII 021030Z 26007KT 5000 SCT016CB BKN016 26/23 Q1008 RMK RERA CB TO S SW AND W=
02/07/2013 11:00:00Z	 SAID31 WIII 021100	METAR WIII 021100Z 13011KT 3000 TSRA SCT016CB OVC016 26/23 Q1009 RMK CB TO NE AND E=
02/07/2013 11:30:00Z	 SAID31 WIII 021130	METAR WIII 021130Z 22005KT 3000 +TSRA BKN016CB OVC016 25/24 Q1009 RMK CB ALL RWY=
02/07/2013 12:00:00Z	 SAID31 WIII 021200	METAR WIII 021200Z 27006KT 2500 -TSRA SCT016CB OVC016 26/24 Q1010 RMK CB TO SE W AND NW=
02/07/2013 12:30:00Z	 SAID31 WIII 021230	METAR WIII 021230Z 26005KT 3000 BR FEW016CB BKN016 26/24 Q1010 RMK CB TO NW=
02/07/2013 13:00:00Z	 SAID31 WIII 021300	METAR WIII 021300Z 26008KT 4000 BR FEW018CB BKN018 25/23 Q1010 RMK CB TO SW=
02/07/2013 13:30:00Z	 SAID31 WIII 021330	METAR WIII 021330Z 23008KT 6000 FEW018CB SCT018 25/23 Q1010 RMK CB TO N=
02/07/2013 14:00:00Z	 SAID31 WIII 021400	METAR WIII 021400Z 24007KT 4000 BR FEW016CB BKN016 25/23 Q1010=
02/07/2013 14:30:00Z	 SAID31 WIII 021430	METAR WIII 021430Z 23007KT 3000 TS FEW016CB BKN016 25/23 Q1010 RMK CB TO NE=
02/07/2013 15:00:00Z	 SAID31 WIII 021500	METAR WIII 021500Z 25010KT 6000 FEW018CB SCT018 25/23 Q1010=
02/07/2013 15:30:00Z	 SAID31 WIII 021530	METAR WIII 021530Z 24008KT 6000 FEW018CB BKN018 25/23 Q1010=
02/07/2013 16:00:00Z	 SAID31 WIII 021600	METAR WIII 021600Z 25008KT 6000 SCT018CB BKN018 25/23 Q1010 RMK CB TO N NE AND E=
02/07/2013 16:30:00Z	 SAID31 WIII 021630	METAR WIII 021630Z 22009KT 7000 FEW018CB OVC018 25/23 Q1010 RMK CB TO NE AND E=
02/07/2013 17:00:00Z	 SAID31 WIII 021700	METAR WIII 021700Z 22011KT 7000 FEW018CB OVC018 25/23 Q1010 RMK CB TO N AND NE=
02/07/2013 17:30:00Z	 SAID31 WIII 021730	METAR WIII 021730Z 23008KT 7000 FEW018CB BKN018 25/23 Q1010 RMK CB TO N AND NE=
02/07/2013 18:00:00Z	 SAID31 WIII 021800	METAR WIII 021800Z 26007KT 3000 -RA FEW018CB OVC018 25/23 Q1009 RMK C B TO E AND S=
02/07/2013 18:30:00Z	 SAID31 WIII 021830	METAR WIII 021830Z 27005KT 5000 -RA SCT018CB OVC018 25/23 Q1009 RMK C B TO N NE AND E=
02/07/2013 19:00:00Z	 SAID31 WIII 021900	METAR WIII 021900Z 26006KT 5000 -RA FEW018CB OVC018 25/23 Q1009 RMK C B TO N AND E=
02/07/2013 19:30:00Z	 SAID31 WIII 021930	METAR WIII 021930Z 26007KT 5000 -RA FEW018CB OVC018 25/23 Q1009 RMK R ETS CB TO N=
02/07/2013 20:00:00Z	 SAID31 WIII 022000	METAR WIII 022000Z 20004KT 5000 -RA FEW018CB OVC018 25/23 Q1009 RMK C B TO S=
02/07/2013 20:30:00Z	 SAID31 WIII 022030	METAR WIII 022030Z 17003KT 4000 -RA OVC018 25/23 Q1009=
02/07/2013 21:00:00Z	 SAID31 WIII 022100	METAR WIII 022100Z 24002KT 4000 -RA OVC018 25/23 Q1008=
02/07/2013 21:30:00Z	 SAID31 WIII 022130	METAR WIII 022130Z 24002KT 3000 RA BKN018 25/23 Q1009=
02/07/2013 22:00:00Z	 SAID31 WIII 022200	METAR WIII 022200Z 19003KT 4000 RA FEW018CB OVC018 24/23 Q1009 RMK CB TO NE=
02/07/2013 22:30:00Z	 SAID31 WIII 022230	METAR WIII 022230Z VRB02KT 4500 RA FEW018CB BKN018 25/23 Q1009 RMK CB TO NE=
02/07/2013 23:00:00Z	 SAID31 WIII 022300	METAR WIII 022300Z 23005KT 5000 BR OVC018 25/23 Q1009 RMK RERA=
02/07/2013 23:30:00Z	 SAID31 WIII 022330	METAR WIII 022330Z 28004KT 5000 BR OVC018 25/23 Q1009=
03/07/2013 00:00:00Z	 SAID31 WIII 030000	METAR WIII 030000Z VRB02KT 5000 TS FEW018CB OVC018 25/23 Q1009 RMK CB TO SE=
03/07/2013 00:30:00Z	 SAID31 WIII 030030	METAR WIII 030030Z VRB03KT 4000 BR SCT020 OVC095 25/23 Q1010=
03/07/2013 01:00:00Z	 SAID31 WIII 030100	METAR WIII 030100Z 20003KT 3400 BR SCT020 OVC095 26/23 Q1010=
03/07/2013 01:30:00Z	 SAID31 WIII 030130	METAR WIII 030130Z VRB03KT 4500 HZ SCT020 BKN100 27/23 Q1010=
03/07/2013 02:00:00Z	 SAID31 WIII 030200	METAR WIII 030200Z 20003KT 4500 HZ FEW020 BKN100 27/23 Q1010=
03/07/2013 02:30:00Z	 SAID31 WIII 030230	METAR WIII 030230Z VRB03KT 4800 HZ FEW021 BKN100 27/23 Q1010=
03/07/2013 03:00:00Z	 SAID31 WIII 030300	METAR WIII 030300Z VRB03KT 3300 HZ FEW021 BKN100 28/23 Q1010=
03/07/2013 03:30:00Z	 SAID31 WIII 030330	METAR WIII 030330Z VRB04KT 3200 HZ FEW021 BKN095 28/23 Q1009=
03/07/2013 04:00:00Z	 SAID31 WIII 030400	METAR WIII 030400Z 04005KT 3700 -DZ FEW020 BKN090 28/24 Q1009=
03/07/2013 04:30:00Z	 SAID31 WIII 030430	METAR WIII 030430Z 35005KT 4600 HZ FEW022 BKN090 29/23 Q1009=
03/07/2013 05:00:00Z	 SAID31 WIII 030500	METAR WIII 030500Z VRB04KT 6000 FEW022 BKN090 30/22 Q1008=
03/07/2013 05:30:00Z	 SAID31 WIII 030530	METAR WIII 030530Z VRB05KT 7000 FEW022 30/23 Q1008=
03/07/2013 06:00:00Z	 SAID31 WIII 030600	METAR WIII 030600Z VRB05KT 7000 FEW022 30/23 Q1008=
03/07/2013 06:30:00Z	 SAID31 WIII 030630	METAR WIII 030630Z 34007KT 7000 FEW022 BKN100 30/23 Q1008=
03/07/2013 07:00:00Z	 SAID31 WIII 030700	METAR WIII 030700Z 31004KT 6000 DZ FEW022 BKN100 29/23 Q1007=
03/07/2013 07:30:00Z	 SAID31 WIII 030730	METAR WIII 030730Z 31004KT 7000 FEW021 BKN160 28/23 Q1007=
03/07/2013 08:00:00Z	 SAID31 WIII 030800	METAR WIII 030800Z 32004KT 7000 FEW021 SCT130 28/24 Q1007=
03/07/2013 08:30:00Z	 SAID31 WIII 030830	METAR COR WIII 030830Z 35005KT 6000 SCT019 BKN026 28/24 Q1007=
03/07/2013 09:00:00Z	 SAID31 WIII 030900	METAR WIII 030900Z 36004KT 6000 BKN021 28/23 Q1008=
03/07/2013 09:30:00Z	 SAID31 WIII 030930	METAR WIII 030930Z 01005KT 4000 -RA SCT019 BKN024 27/23 Q1008=
03/07/2013 10:00:00Z	 SAID31 WIII 031000	METAR WIII 031000Z 02005KT 4200 -RA FEW020CB BKN022 26/23 Q1008 RMK C B TO SE=
03/07/2013 10:30:00Z	 SAID31 WIII 031030	METAR WIII 031030Z VRB03KT 3500 -RA FEW020CB BKN022 26/24 Q1008 RMK C B TO SE=
03/07/2013 11:00:00Z	 SAID31 WIII 031100	METAR WIII 031100Z 07005KT 2500 -RA FEW018CB BKN018 OVC084 26/24 Q100 8 RMK CB TO S=
03/07/2013 11:30:00Z	 SAID31 WIII 031130	METAR WIII 031130Z 10009KT 4500 -RA FEW018CB BKN018 OVC075 27/24 Q100 8 RMK CB TO S=
03/07/2013 12:00:00Z	 SAID31 WIII 031200	METAR WIII 031200Z 11008KT 5000 BR FEW019CB SCT020 BKN150 27/24 Q1008 REDZ RMK CB TO S=
03/07/2013 12:30:00Z	 SAID31 WIII 031230	METAR WIII 031230Z AUTO 12011KT 9999 -SHRA FEW140 BKN160 BKN180 27/23 Q1008=
03/07/2013 13:00:00Z	 SAID31 WIII 031300	METAR WIII 031300Z AUTO 12009KT 9999 -SHRA FEW015 BKN160 26/23 Q1008=
03/07/2013 13:30:00Z	 SAID31 WIII 031330	METAR WIII 031330Z 14009KT 8000 FEW015 BKN140 OVC160 26/23 Q1008=
03/07/2013 14:00:00Z	 SAID31 WIII 031400	METAR WIII 031400Z 15009KT 9999 FEW020 26/23 Q1009=
03/07/2013 15:00:00Z	 SAID31 WIII 031500	METAR WIII 031500Z 15008KT 8000 FEW022 26/22 Q1009=
03/07/2013 15:30:00Z	 SAID31 WIII 031530	METAR WIII 031530Z 13004KT 9000 -RA FEW20 OVC100 26/22 Q1009=
03/07/2013 16:00:00Z	 SAID31 WIII 031600	METAR WIII 031600Z 12006KT 8000 -RA FEW020 OVC140 26/22 Q1009=
03/07/2013 16:30:00Z	 SAID31 WIII 031630	METAR WIII 031630Z 13004KT 9999 FEW020 BKN150 OVC180 26/22 Q1008=
03/07/2013 17:00:00Z	 SAID31 WIII 031700	METAR WIII 031700Z 19006KT 9999 SCT130 BKN150 26/22 Q1008=
03/07/2013 17:30:00Z	 SAID31 WIII 031730	METAR WIII 031730Z VRB02KT 9999 SCT150 26/23 Q1008=
03/07/2013 18:00:00Z	 SAID31 WIII 031800	METAR WIII 031800Z 00000KT 9000 FEW020 25/23 Q1007=
03/07/2013 18:30:00Z	 SAID31 WIII 031830	METAR WIII 031830Z AUTO 30003KT 8000 NCD 25/23 Q1007=
03/07/2013 19:00:00Z	 SAID31 WIII 031900	METAR WIII 031900Z AUTO 31004KT 6000 NCD 25/23 Q1007=
03/07/2013 19:30:00Z	 SAID31 WIII 031930	METAR WIII 031930Z AUTO 31003KT 6000 NCD 25/23 Q1007=
03/07/2013 20:00:00Z	 SAID31 WIII 032000	METAR WIII 032000Z AUTO 26002KT 7000 NCD 25/23 Q1007=
03/07/2013 20:30:00Z	 SAID31 WIII 032030	METAR WIII 032030Z AUTO 19003KT 5000 BKN140 25/23 Q1007=
03/07/2013 21:00:00Z	 SAID31 WIII 032100	METAR WIII 032100Z AUTO VRB04KT 3900 BR OVC140 25/23 Q1007=
03/07/2013 21:30:00Z	 SAID31 WIII 032130	METAR WIII 032130Z AUTO 22005KT 3500 BR BKN140 25/23 Q1007=
03/07/2013 22:00:00Z	 SAID31 WIII 032200	METAR WIII 032200Z AUTO 25009KT 3300 BR FEW050 BKN140 25/23 Q1007=
03/07/2013 22:30:00Z	 SAID31 WIII 032230	METAR WIII 032230Z 27003KT 3200 BR FEW022 BKN140 25/23 Q1007=
03/07/2013 23:00:00Z	 SAID31 WIII 032300	METAR WIII 032300Z 00000KT 2700 BR FEW021 25/23 Q1008=
03/07/2013 23:30:00Z	 SAID31 WIII 032330	METAR WIII 032330Z 22006KT 5000 VCTS BR FEW020CB FEW021 25/23 Q1008 R MK CB TO N=
04/07/2013 00:00:00Z	 SAID31 WIII 040000	METAR WIII 040000Z 21006KT 5000 HZ FEW020CB FEW021 27/23 Q1008 RMK CB TO NE=
04/07/2013 00:30:00Z	 SAID31 WIII 040030	METAR WIII 040030Z AUTO 22005KT 6000 SCT140 27/23 Q1009=
04/07/2013 01:00:00Z	 SAID31 WIII 040100	METAR WIII 040100Z 19005KT 4500 HZ FEW021CB SCT024 26/23 Q1009 RMK CB TO NE=
04/07/2013 01:30:00Z	 SAID31 WIII 040130	METAR WIII 040130Z 21008KT 5000 HZ FEW021CB SCT024 26/23 Q1009 RMK CB TO N=
04/07/2013 02:00:00Z	 SAID31 WIII 040200	METAR WIII 040200Z VRB05KT 5000 HZ FEW021CB SCT023 27/23 Q1009 RMK CB TO NE=
04/07/2013 03:00:00Z	 SAID31 WIII 040300	METAR WIII 040300Z 19002KT 5000 -TSRA FEW021CB BKN023 27/23 Q1009 RMK CB TO NE=
04/07/2013 03:30:00Z	 SAID31 WIII 040330	METAR WIII 040330Z 16004KT 4000 -RA FEW021CB BKN024 27/23 Q1009 RMK C B TO NE AND E=
04/07/2013 04:30:00Z	 SAID31 WIII 040430	METAR WIII 040430Z VRB02KT 2500 -RA FEW021CB BKN023 25/23 Q1009 RMK C B TO E=
04/07/2013 05:00:00Z	 SAID31 WIII 040500	METAR WIII 040500Z VRB02KT 2000 -RA FEW021CB BKN025 26/23 Q1008 RMK C B TO E=
04/07/2013 05:30:00Z	 SAID31 WIII 040530	METAR WIII 040530Z 32002KT 1500 -TSRA FEW021CB BKN025 25/24 Q1008 RMK CB TO N AND E=
04/07/2013 06:00:00Z	 SAID31 WIII 040600	METAR WIII 040600Z 05004KT 1500 -TSRA FEW021CB BKN026 25/24 Q1008 RMK CB TO NW=
04/07/2013 06:30:00Z	 SAID31 WIII 040630	METAR WIII 040630Z 05004KT 3500 -TSRA FEW021CB BKN026 25/24 Q1008 RMK CB TO E=
04/07/2013 07:00:00Z	 SAID31 WIII 040700	METAR WIII 040700Z 00000KT 3500 -RA FEW021CB BKN025 25/24 Q1007 RMK C B TO E=
04/07/2013 07:30:00Z	 SAID31 WIII 040730	METAR WIII 040730Z 35002KT 3500 -RA FEW021CB BKN025 25/24 Q1007 RMK C B TO E=
04/07/2013 08:00:00Z	 SAID31 WIII 040800	METAR WIII 040800Z 04002KT 1500 -RA FEW21CB BKN024 25/24 Q1007 RMK CB TO NE=
04/07/2013 08:30:00Z	 SAID31 WIII 040830	METAR WIII 040830Z 12007KT 7000 SCT022 BKN025 25/24 Q1007=
04/07/2013 09:00:00Z	 SAID31 WIII 040900	METAR WIII 040900Z 12008KT 8000 SCT023 BKN025 26/23 Q1007=
04/07/2013 09:30:00Z	 SAID31 WIII 040930	METAR WIII 040930Z 13007KT 8000 SCT023 26/23 Q1007=
04/07/2013 10:00:00Z	 SAID31 WIII 041000	METAR WIII 041000Z 12006KT 8000 BKN026 26/23 Q1007=
04/07/2013 10:30:00Z	 SAID31 WIII 041030	METAR WIII 041030Z 12006KT 060V180 8000 SCT023 26/23 Q1007=
04/07/2013 11:00:00Z	 SAID31 WIII 041100	METAR WIII 041100Z VRB04KT 8000 SCT024 26/23 Q1008=
04/07/2013 11:30:00Z	 SAID31 WIII 041130	METAR WIII 041130Z 22005KT 8000 SCT025 26/23 Q1008=
04/07/2013 12:00:00Z	 SAID31 WIII 041200	METAR WIII 041200Z VRB04KT 6000 -RA FEW021CB BKN025 26/23 Q1008 RMK C B TO S=
04/07/2013 12:30:00Z	 SAID31 WIII 041230	METAR WIII 041230Z 17004KT 7000 -RA SCT023 25/23 Q1009=
04/07/2013 13:00:00Z	 SAID31 WIII 041300	METAR WIII 041300Z AUTO 15006KT 6000 -DZ FEW095 OVC150 25/23 Q1009=
04/07/2013 13:30:00Z	 SAID31 WIII 041330	METAR WIII 041330Z 14006KT 5000 -DZ SCT150 BKN180 OVC200 25/23 Q1009=
04/07/2013 14:00:00Z	 SAID31 WIII 041400	METAR WIII 041400Z 14006KT 4000 BR BKN200 26/23 Q1009=
04/07/2013 14:30:00Z	 SAID31 WIII 041430	METAR WIII 041430Z VRB04KT 4000 BR FEW190 SCT210 BKN240 26/23 Q1009=
04/07/2013 15:00:00Z	 SAID31 WIII 041500	METAR WIII 041500Z VRB05KT 4000 BR BKN190 OVC210 26/23 Q1010=
04/07/2013 15:30:00Z	 SAID31 WIII 041530	METAR WIII 041530Z 11006KT 4000 BR BKN075 BKN091 OVC200 26/23 Q1010=
04/07/2013 16:00:00Z	 SAID31 WIII 041600	METAR WIII 041600Z 13003KT 4000 BR FEW018 26/23 Q1009=
04/07/2013 16:30:00Z	 SAID31 WIII 041630	METAR WIII 041630Z 17004KT 4000 BR SCT140 SCT200 25/23 Q1009=
04/07/2013 17:00:00Z	 SAID31 WIII 041700	METAR WIII 041700Z 19003KT 4000 BR FEW018 25/23 Q1009=
04/07/2013 17:30:00Z	 SAID31 WIII 041730	METAR WIII 041730Z 18004KT 4000 VCTS BR FEW016CB SCT090 25/23 Q1009 R MK CB TO NW=
04/07/2013 18:00:00Z	 SAID31 WIII 041800	METAR WIII 041800Z 22003KT 4000 BR SCT055 OVC084 25/23 Q1009=
04/07/2013 18:30:00Z	 SAID31 WIII 041830	METAR WIII 041830Z 00000KT 3000 RA BKN020 OVC072 25/23 Q1009=
04/07/2013 19:00:00Z	 SAID31 WIII 041900	METAR WIII 041900Z 23002KT 3000 RA BR BKN020 BKN069 BKN087 25/23 Q100 8=
04/07/2013 19:30:00Z	 SAID31 WIII 041930	METAR WIII 041930Z 26004KT 2000 -SHRA BR SCT050 BKN075 OVC095 25/23 Q 1008=
04/07/2013 20:00:00Z	 SAID31 WIII 042000	METAR WIII 042000Z 22002KT 1300 -RA FG BKN018 24/23 Q1008=
04/07/2013 20:30:00Z	 SAID31 WIII 042030	METAR WIII 042030Z VRB02KT 1300 FG FEW039 BKN110 24/23 Q1008=
04/07/2013 21:00:00Z	 SAID31 WIII 042100	METAR WIII 042100Z 18003KT 1600 BR BKN110 OVC130 24/23 Q1007=
04/07/2013 21:30:00Z	 SAID31 WIII 042130	METAR WIII 042130Z 18003KT 2200 VCTS BR FEW110 SCT140 BKN220 OVC240 2 4/23 Q1008=
04/07/2013 22:00:00Z	 SAID31 WIII 042200	METAR WIII 042200Z AUTO 00000KT 2600 BR FEW055 BKN150 BKN170 BKN240 2 4/23 Q1008=
04/07/2013 22:30:00Z	 SAID31 WIII 042230	METAR WIII 042230Z AUTO 00000KT 1600 BR BKN050 BKN070 OVC160 24/23 Q1 008=
04/07/2013 23:00:00Z	 SAID31 WIII 042300	METAR WIII 042300Z AUTO VRB02KT 2200 BR BKN060 24/23 Q1008=
04/07/2013 23:30:00Z	 SAID31 WIII 042330	METAR WIII 042330Z VRB05KT 2000 BR -RA SCT055 BKN073 BKN084 25/23 Q10 09=
05/07/2013 00:00:00Z	 SAID31 WIII 050000	METAR WIII 050000Z 01002KT 2100 BR -RA SCT060 SCT160 25/23 Q1009=
05/07/2013 00:30:00Z	 SAID31 WIII 050030	METAR WIII 050030Z VRB03KT 3000 BR BKN043 BKN060 25/23 Q1010=
05/07/2013 01:00:00Z	 SAID31 WIII 050100	METAR WIII 050100Z VRB02KT 4000 -DZ BR SCT043 BKN060 BKN072 26/23 Q10 10=
05/07/2013 01:30:00Z	 SAID31 WIII 050130	METAR WIII 050130Z 21003KT 5000 BR BKN060 BKN086 BKN240 26/23 Q1010=
05/07/2013 02:00:00Z	 SAID31 WIII 050200	METAR WIII 050200Z VRB03KT 5000 BR BKN022 26/23 Q1010=
05/07/2013 02:30:00Z	 SAID31 WIII 050230	METAR WIII 050230Z 18003KT 5000 -RA BR SCT029 SCT045 26/23 Q1010=
05/07/2013 03:00:00Z	 SAID31 WIII 050300	METAR WIII 050300Z VRB05KT 5000 BR SCT020 27/24 Q1010=
05/07/2013 03:30:00Z	 SAID31 WIII 050330	METAR WIII 050330Z VRB04KT 5000 BR FEW048 OVC060 27/23 Q1010=
05/07/2013 04:00:00Z	 SAID31 WIII 050400	METAR WIII 050400Z VRB03KT 5000 VCTS BR FEW18CB BKN022 28/24 Q1010 RM K CB TO NE=
05/07/2013 04:30:00Z	 SAID31 WIII 050430	METAR WIII 050430Z 07013G18KT 5000 BR FEW017 SCT025 BKN034 27/23 Q101 0=
05/07/2013 05:00:00Z	 SAID31 WIII 050500	METAR WIII 050500Z 07010KT 6000 BKN020 27/24 Q1010=
05/07/2013 05:30:00Z	 SAID31 WIII 050530	METAR WIII 050530Z 06008KT 5000 -RA SCT055 BKN140 27/24 Q1009=
05/07/2013 06:00:00Z	 SAID31 WIII 050600	METAR WIII 050600Z 08010KT 5000 -RA FEW035 BKN044 BKN050 BKN060 26/24 Q1009=
05/07/2013 06:30:00Z	 SAID31 WIII 050630	METAR WIII 050630Z 09008KT 6000 -RA BKN043 OVC050 26/24 Q1008=
05/07/2013 07:00:00Z	 SAID31 WIII 050700	METAR WIII 050700Z AUTO 12009KT 9999 -RA NCD 27/24 Q1008=
05/07/2013 07:30:00Z	 SAID31 WIII 050730	METAR WIII 050730Z AUTO 09006KT 9999 SCT046 27/24 Q1008=
05/07/2013 08:00:00Z	 SAID31 WIII 050800	METAR WIII 050800Z 08007KT 6000 VCTS FEW016CB SCT041 28/24 Q1008 RMK CB TO NW=
05/07/2013 08:30:00Z	 SAID31 WIII 050830	METAR WIII 050830Z 07008KT 6000 FEW019 OVC041 27/24 Q1008=
05/07/2013 09:00:00Z	 SAID31 WIII 050900	METAR WIII 050900Z 06007KT 6000 FEW016 BKN029 27/24 Q1008=
05/07/2013 09:30:00Z	 SAID31 WIII 050930	METAR WIII 050930Z 06006KT 6000 BKN016 27/24 Q1008=
05/07/2013 10:30:00Z	 SAID31 WIII 051030	METAR WIII 051030Z VRB03KT 6000 SCT016 SCT150 27/24 Q1009=
05/07/2013 11:00:00Z	 SAID31 WIII 051100	METAR WIII 051100Z 03003KT 5000 BR FEW019 SCT060 BKN069 BKN180 26/24 Q1009=
05/07/2013 11:30:00Z	 SAID31 WIII 051130	METAR WIII 051130Z 04008KT 4000 RA SCT037 BKN046 BKN060 OVC110 26/24 Q1010=
05/07/2013 12:00:00Z	 SAID31 WIII 051200	METAR WIII 051200Z 06005KT 3000 RA FEW016CB BKN018 OVC022 24/22 Q1010 RMK CB TO S=
05/07/2013 12:30:00Z	 SAID31 WIII 051230	METAR WIII 051230Z 36003KT 4700 -RA FEW020CB SCT022 BKN100 24/22 Q101 1 RMK CB TO SW=
05/07/2013 13:00:00Z	 SAID31 WIII 051300	METAR WIII 051300Z 31003KT 6000 SCT022 BKN110 25/23 Q1011=
05/07/2013 13:30:00Z	 SAID31 WIII 051330	METAR WIII 051330Z 29003KT 6000 SCT021 BKN130 24/23 Q1012=
05/07/2013 14:00:00Z	 SAID31 WIII 051400	METAR WIII 051400Z 27008KT 6000 FEW018CB BKN019 25/23 Q1012 RMK CB TO S=
05/07/2013 14:30:00Z	 SAID31 WIII 051430	METAR WIII 051430Z 24008KT 6000 BKN020 25/23 Q1012=
05/07/2013 15:00:00Z	 SAID31 WIII 051500	METAR WIII 051500Z 21005KT 3500 -RA SCT020 OVC110 25/23 Q1012=
05/07/2013 15:30:00Z	 SAID31 WIII 051530	METAR WIII 051530Z VRB05KT 3500 -RA SCT020 OVC140 25/23 Q1012=
05/07/2013 16:00:00Z	 SAID31 WIII 051600	METAR WIII 051600Z 16007KT 3000 -RA SCT020 BKN100 OVC140 25/23 Q1012=
05/07/2013 16:30:00Z	 SAID31 WIII 051630	METAR WIII 051630Z 15007KT 2600 BR SCT020 BKN150 24/23 Q1011=
05/07/2013 17:00:00Z	 SAID31 WIII 051700	METAR WIII 051700Z 14010KT 2000 BR SCT019 BKN160 OVC200 24/23 Q1011=
05/07/2013 17:30:00Z	 SAID31 WIII 051730	METAR WIII 051730Z 13010KT 2500 BR SCT020 BKN100 OVC180 24/23 Q1010=
05/07/2013 18:00:00Z	 SAID31 WIII 051800	METAR WIII 051800Z 13010KT 3000 BR FEW020 OVC160 25/23 Q1010=
05/07/2013 18:30:00Z	 SAID31 WIII 051830	METAR WIII 051830Z 10007KT 3000 -RA SCT021 OVC140 25/23 Q1010=
05/07/2013 19:00:00Z	 SAID31 WIII 051900	METAR WIII 051900Z 11008KT 3000 -RA SCT021 OVC130 25/23 Q1010=
05/07/2013 19:30:00Z	 SAID31 WIII 051930	METAR WIII 051930Z 09008KT 2600 RA SCT020 OVC120 25/23 Q1010=
05/07/2013 20:00:00Z	 SAID31 WIII 052000	METAR WIII 052000Z 11007KT 2800 RA SCT020 BKN100 OVC120 25/23 Q1009=
05/07/2013 20:30:00Z	 SAID31 WIII 052030	METAR WIII 052030Z 14006KT 3000 -RA SCT020 OVC130 25/23 Q1009=
05/07/2013 21:00:00Z	 SAID31 WIII 052100	METAR WIII 052100Z 15005KT 3800 BR SCT020 OVC130 25/23 Q1009 RERA=
05/07/2013 21:30:00Z	 SAID31 WIII 052130	METAR WIII 052130Z 17003KT 4000 BR SCT020 BKN160 25/23 Q1009=
05/07/2013 22:00:00Z	 SAID31 WIII 052200	METAR WIII 052200Z 17006KT 3000 BR FEW021 BKN120 25/23 Q1009=
05/07/2013 22:30:00Z	 SAID31 WIII 052230	METAR WIII 052230Z 17006KT 3200 BR FEW021 BKN120 25/23 Q1009=
05/07/2013 23:00:00Z	 SAID31 WIII 052300	METAR WIII 052300Z 18005KT 2800 BR SCT023 OVC160 25/23 Q1009=
05/07/2013 23:30:00Z	 SAID31 WIII 052330	METAR WIII 052330Z 17003KT 3300 BR FEW023 BKN120 OVC170 25/23 Q1010=
06/07/2013 00:00:00Z	 SAID31 WIII 060000	METAR WIII 060000Z 13004KT 3500 BR FEW023 BKN120 25/23 Q1010=
06/07/2013 00:30:00Z	 SAID31 WIII 060030	METAR WIII 060030Z AUTO 16004KT 5000 SCT240 27/23 Q1011=
06/07/2013 01:00:00Z	 SAID31 WIII 060100	METAR WIII 060100Z AUTO 15005KT 5000 OVC230 27/23 Q1011=
06/07/2013 01:30:00Z	 SAID31 WIII 060130	METAR WIII 060130Z 11006KT 4500 HZ FEW024 27/23 Q1011=
06/07/2013 02:00:00Z	 SAID31 WIII 060200	METAR WIII 060200Z 11006KT 5000 HZ FEW024 29/23 Q1011=
06/07/2013 02:30:00Z	 SAID31 WIII 060230	METAR WIII 060230Z 13005KT 5000 HZ FEW024 29/23 Q1012=
06/07/2013 03:00:00Z	 SAID31 WIII 060300	METAR WIII 060300Z 08008KT 5000 HZ FEW024 30/23 Q1011=
06/07/2013 03:30:00Z	 SAID31 WIII 060330	METAR WIII 060330Z 09005KT 5000 HZ FEW024 31/23 Q1011=
06/07/2013 04:00:00Z	 SAID31 WIII 060400	METAR WIII 060400Z 06007KT 7000 FEW024 31/23 Q1011=
06/07/2013 04:30:00Z	 SAID31 WIII 060430	METAR WIII 060430Z 07008KT 8000 FEW024 32/23 Q1010=
06/07/2013 05:00:00Z	 SAID31 WIII 060500	METAR WIII 060500Z 06009KT 9000 FEW024 31/23 Q1010=
06/07/2013 05:30:00Z	 SAID31 WIII 060530	METAR WIII 060530Z 06011KT 9999 FEW024 30/23 Q1009=
06/07/2013 06:00:00Z	 SAID31 WIII 060600	METAR WIII 060600Z 07011KT 9999 FEW024 31/23 Q1009=
06/07/2013 06:30:00Z	 SAID31 WIII 060630	METAR WIII 060630Z AUTO 07009KT 9999 NCD 31/24 Q1008=
06/07/2013 07:00:00Z	 SAID31 WIII 060700	METAR WIII 060700Z 06010KT 9999 FEW024 31/24 Q1008=
06/07/2013 07:30:00Z	 SAID31 WIII 060730	METAR WIII 060730Z AUTO 05010KT 9999 NCD 31/24 Q1007=
06/07/2013 08:00:00Z	 SAID31 WIII 060800	METAR WIII 060800Z AUTO 06010KT 9999 SCT037 31/23 Q1007=
06/07/2013 08:30:00Z	 SAID31 WIII 060830	METAR WIII 060830Z AUTO 05008KT 9999 SCT039 31/23 Q1007=
06/07/2013 09:00:00Z	 SAID31 WIII 060900	METAR WIII 060900Z 05009KT 9999 FEW024 31/24 Q1007=
06/07/2013 09:30:00Z	 SAID31 WIII 060930	METAR WIII 060930Z AUTO 05006KT 9999 NCD 30/23 Q1007=
06/07/2013 10:00:00Z	 SAID31 WIII 061000	METAR WIII 061000Z AUTO 05007KT 9999 NCD 30/24 Q1007=
06/07/2013 10:30:00Z	 SAID31 WIII 061030	METAR WIII 061030Z AUTO 05005KT 9999 NCD 29/24 Q1007=
06/07/2013 11:00:00Z	 SAID31 WIII 061100	METAR WIII 061100Z 03003KT 8000 FEW024 28/24 Q1008=
06/07/2013 11:30:00Z	 SAID31 WIII 061130	METAR WIII 061130Z 04004KT 8000 FEW024 28/24 Q1008=
06/07/2013 12:00:00Z	 SAID31 WIII 061200	METAR WIII 061200Z VRB02KT 8000 FEW024 28/23 Q1008=
06/07/2013 12:30:00Z	 SAID31 WIII 061230	METAR WIII 061230Z AUTO 00000KT 9999 SCT036 27/24 Q1009=
06/07/2013 13:00:00Z	 SAID31 WIII 061300	METAR WIII 061300Z AUTO 00000KT 6000 BKN034 OVC042 27/24 Q1009=
06/07/2013 13:30:00Z	 SAID31 WIII 061330	METAR WIII 061330Z 05004KT 4400 BR FEW022 27/24 Q1009=
06/07/2013 14:00:00Z	 SAID31 WIII 061400	METAR WIII 061400Z VRB02KT 6000 FEW037 SCT060 28/24 Q1010=
06/07/2013 14:30:00Z	 SAID31 WIII 061430	METAR WIII 061430Z VRB02KT 6000 SCT030 SCT036 28/24 Q1010=
06/07/2013 15:00:00Z	 SAID31 WIII 061500	METAR WIII 061500Z 26004KT 3400 BR FEW022 27/24 Q1010=
06/07/2013 15:30:00Z	 SAID31 WIII 061530	METAR WIII 061530Z 28002KT 2500 BR SCT022 27/24 Q1010=
06/07/2013 16:00:00Z	 SAID31 WIII 061600	METAR WIII 061600Z 26004KT 4200 BR SCT021 BKN240 27/24 Q1010=
06/07/2013 16:30:00Z	 SAID31 WIII 061630	METAR WIII 061630Z 28002KT 6000 FEW022 27/24 Q1010=
06/07/2013 17:00:00Z	 SAID31 WIII 061700	METAR WIII 061700Z 00000KT 5000 FEW022 27/24 Q1010=
06/07/2013 17:30:00Z	 SAID31 WIII 061730	METAR WIII 061730Z 00000KT 5000 FEW022 26/24 Q1010=
06/07/2013 18:00:00Z	 SAID31 WIII 061800	METAR WIII 061800Z 23004KT 5000 BR FEW022 26/24 Q1010=
06/07/2013 18:30:00Z	 SAID31 WIII 061830	METAR WIII 061830Z AUTO 21004KT 6000 SCT230 BKN250 27/23 Q1009=
06/07/2013 19:00:00Z	 SAID31 WIII 061900	METAR WIII 061900Z AUTO 19003KT 4200 BR FEW250 26/24 Q1009=
06/07/2013 19:30:00Z	 SAID31 WIII 061930	METAR WIII 061930Z AUTO 20002KT 4500 BR FEW085 BKN250 26/24 Q1009=
06/07/2013 20:00:00Z	 SAID31 WIII 062000	METAR WIII 062000Z AUTO 00000KT 5000 FEW065 SCT085 26/24 Q1009=
06/07/2013 20:30:00Z	 SAID31 WIII 062030	METAR WIII 062030Z AUTO VRB04KT 5000 BR BKN070 BKN085 26/24 Q1009=
06/07/2013 21:00:00Z	 SAID31 WIII 062100	METAR WIII 062100Z 13003KT 3600 BR FEW023 26/24 Q1009=
06/07/2013 21:30:00Z	 SAID31 WIII 062130	METAR WIII 062130Z AUTO 16004KT 3500 BR FEW070 SCT086 25/23 Q1009=
06/07/2013 22:00:00Z	 SAID31 WIII 062200	METAR WIII 062200Z AUTO 16004KT 3200 BR NCD 25/23 Q1009=
06/07/2013 22:30:00Z	 SAID31 WIII 062230	METAR WIII 062230Z AUTO 16004KT 3400 BR BKN080 25/23 Q1009=
06/07/2013 23:00:00Z	 SAID31 WIII 062300	METAR WIII 062300Z 15002KT 3400 BR FEW023 25/23 Q1009=
06/07/2013 23:30:00Z	 SAID31 WIII 062330	METAR WIII 062330Z 16003KT 3300 BR FEW023 26/23 Q1009=
07/07/2013 00:00:00Z	 SAID31 WIII 070000	METAR WIII 070000Z VRB03KT 3400 BR FEW022 26/22 Q1009=
07/07/2013 00:30:00Z	 SAID31 WIII 070030	METAR COR WIII 070030Z 15004KT 3000 HZ FEW020 26/23 Q1010=
07/07/2013 01:00:00Z	 SAID31 WIII 070100	METAR WIII 070100Z 15007KT 4000 HZ FEW020 28/23 Q1010=
07/07/2013 01:30:00Z	 SAID31 WIII 070130	METAR WIII 070130Z AUTO 16007KT 4900 HZ NCD 28/23 Q1011=
07/07/2013 02:00:00Z	 SAID31 WIII 070200	METAR WIII 070200Z AUTO 16006KT 6000 NCD 30/22 Q1011=
07/07/2013 02:30:00Z	 SAID31 WIII 070230	METAR WIII 070230Z 14007KT 5000 HZ FEW018 31/21 Q1010=
07/07/2013 03:00:00Z	 SAID31 WIII 070300	METAR WIII 070300Z 14007KT 6000 FEW018 31/21 Q1010=
07/07/2013 03:30:00Z	 SAID31 WIII 070330	METAR WIII 070330Z 13008KT 7000 FEW018 32/21 Q1010=
07/07/2013 04:00:00Z	 SAID31 WIII 070400	METAR WIII 070400Z 09007KT 7000 FEW018 33/22 Q1010=
07/07/2013 04:30:00Z	 SAID31 WIII 070430	METAR WIII 070430Z 05009KT 8000 FEW018 33/23 Q1009=
07/07/2013 05:00:00Z	 SAID31 WIII 070500	METAR WIII 070500Z 03008KT 8000 SCT018 33/23 Q1009=
07/07/2013 05:30:00Z	 SAID31 WIII 070530	METAR WIII 070530Z 05015KT 8000 SCT018 32/22 Q1009=
07/07/2013 06:00:00Z	 SAID31 WIII 070600	METAR WIII 070600Z 05014KT 8000 SCT018 32/23 Q1009=
07/07/2013 06:30:00Z	 SAID31 WIII 070630	METAR WIII 070630Z 06013KT 8000 SCT018 33/23 Q1008=
07/07/2013 07:00:00Z	 SAID31 WIII 070700	METAR WIII 070700Z 05014KT 8000 SCT018 32/22 Q1008=
07/07/2013 07:30:00Z	 SAID31 WIII 070730	METAR WIII 070730Z 08013KT 9999 SCT018 31/21 Q1008=
07/07/2013 08:00:00Z	 SAID31 WIII 070800	METAR COR WIII 070800Z 08013KT 9999 SCT018 32/21 Q1008=
07/07/2013 08:30:00Z	 SAID31 WIII 070830	METAR WIII 070830Z 07012KT 9999 SCT018 32/22 Q1008=
07/07/2013 09:00:00Z	 SAID31 WIII 070900	METAR WIII 070900Z 05010KT 9999 SCT018 32/21 Q1008=
07/07/2013 09:30:00Z	 SAID31 WIII 070930	METAR WIII 070930Z 06011KT 9999 SCT018 31/21 Q1008=
07/07/2013 10:00:00Z	 SAID31 WIII 071000	METAR WIII 071000Z 04010KT 8000 SCT018 30/21 Q1008=
07/07/2013 10:30:00Z	 SAID31 WIII 071030	METAR WIII 071030Z 04009KT 8000 SCT018 29/21 Q1008=
07/07/2013 11:00:00Z	 SAID31 WIII 071100	METAR WIII 071100Z 05007KT 8000 SCT018 28/21 Q1009=
07/07/2013 11:30:00Z	 SAID31 WIII 071130	METAR WIII 071130Z 08006KT 8000 SCT018 27/21 Q1009=
07/07/2013 12:00:00Z	 SAID31 WIII 071200	METAR WIII 071200Z 05005KT 7000 SCT018 27/21 Q1009=
07/07/2013 12:30:00Z	 SAID31 WIII 071230	METAR WIII 071230Z 11007KT 5000 HZ SCT018 27/21 Q1009=
07/07/2013 13:00:00Z	 SAID31 WIII 071300	METAR WIII 071300Z 05005KT 5000 HZ FEW018CB SCT020 27/20 Q1010=
07/07/2013 13:30:00Z	 SAID31 WIII 071330	METAR WIII 071330Z 06005KT 2000 HZ FEW018CB SCT020 27/21 Q1010=
07/07/2013 14:00:00Z	 SAID31 WIII 071400	METAR WIII 071400Z 12004KT 4000 HZ SCT018 26/21 Q1010=
07/07/2013 14:30:00Z	 SAID31 WIII 071430	METAR WIII 071430Z 20003KT 5000 HZ SCT018 27/21 Q1011=
07/07/2013 15:00:00Z	 SAID31 WIII 071500	METAR WIII 071500Z 22003KT 4000 HZ FEW018 27/21 Q1011=
07/07/2013 15:30:00Z	 SAID31 WIII 071530	METAR WIII 071530Z VRB02KT 3500 HZ FEW018 26/21 Q1011=
07/07/2013 16:00:00Z	 SAID31 WIII 071600	METAR WIII 071600Z 16002KT 3600 HZ FEW018 27/21 Q1011=
07/07/2013 16:30:00Z	 SAID31 WIII 071630	METAR WIII 071630Z 19003KT 3500 HZ FEW018 26/21 Q1011=
07/07/2013 17:00:00Z	 SAID31 WIII 071700	METAR WIII 071700Z 21006KT 2000 HZ FEW020 26/21 Q1011=
07/07/2013 17:30:00Z	 SAID31 WIII 071730	METAR WIII 071730Z 20004KT 2500 HZ FEW020 25/21 Q1011=
07/07/2013 18:00:00Z	 SAID31 WIII 071800	METAR WIII 071800Z 16004KT 2000 HZ FEW018 25/21 Q1011=
07/07/2013 18:30:00Z	 SAID31 WIII 071830	METAR WIII 071830Z 17004KT 2500 HZ FEW018 24/21 Q1010=
07/07/2013 19:00:00Z	 SAID31 WIII 071900	METAR WIII 071900Z 18006KT 2500 HZ FEW018 25/21 Q1010=
07/07/2013 19:30:00Z	 SAID31 WIII 071930	METAR WIII 071930Z 18005KT 3000 HZ FEW018 24/21 Q1010=
07/07/2013 20:00:00Z	 SAID31 WIII 072000	METAR WIII 072000Z 20003KT 3000 HZ FEW018CB SCT018 24/21 Q1010=
07/07/2013 20:30:00Z	 SAID31 WIII 072030	METAR WIII 072030Z AUTO VRB04KT 3300 BR NCD 24/21 Q1009=
07/07/2013 21:00:00Z	 SAID31 WIII 072100	METAR WIII 072100Z VRB02KT 3500 BR FEW018 23/21 Q1010=
07/07/2013 21:30:00Z	 SAID31 WIII 072130	METAR WIII 072130Z 20004KT 3500 BR FEW018 23/20 Q1010=
07/07/2013 22:00:00Z	 SAID31 WIII 072200	METAR WIII 072200Z 19003KT 4000 BR FEW018 24/20 Q1010=
07/07/2013 22:30:00Z	 SAID31 WIII 072230	METAR WIII 072230Z 18003KT 3000 BR FEW018 23/20 Q1010=
07/07/2013 23:00:00Z	 SAID31 WIII 072300	METAR WIII 072300Z AUTO VRB03KT 3500 BR NCD 23/21 Q1010=
07/07/2013 23:30:00Z	 SAID31 WIII 072330	METAR WIII 072330Z 21005KT 3500 BR FEW018 24/21 Q1011=
08/07/2013 00:00:00Z	 SAID31 WIII 080000	METAR WIII 080000Z 21004KT 3500 BR FEW018 25/21 Q1011=
08/07/2013 00:30:00Z	 SAID31 WIII 080030	METAR WIII 080030Z 17004KT 3400 BR FEW019 26/21 Q1011=
08/07/2013 01:00:00Z	 SAID31 WIII 080100	METAR WIII 080100Z 21004KT 3700 HZ FEW019 27/22 Q1011=
08/07/2013 01:30:00Z	 SAID31 WIII 080130	METAR WIII 080130Z VRB04KT 4000 HZ FEW019 29/22 Q1011=
08/07/2013 02:00:00Z	 SAID31 WIII 080200	METAR WIII 080200Z 20004KT 4600 HZ FEW019 30/22 Q1011=
08/07/2013 02:30:00Z	 SAID31 WIII 080230	METAR WIII 080230Z VRB05KT 5000 HZ FEW020 31/22 Q1011=
08/07/2013 03:00:00Z	 SAID31 WIII 080300	METAR WIII 080300Z VRB05KT 5000 HZ FEW020 32/21 Q1011=
08/07/2013 03:30:00Z	 SAID31 WIII 080330	METAR WIII 080330Z VRB05KT 5000 HZ FEW019 32/21 Q1011=
08/07/2013 04:00:00Z	 SAID31 WIII 080400	METAR WIII 080400Z VRB03KT 5000 HZ FEW019 33/21 Q1010=
08/07/2013 04:30:00Z	 SAID31 WIII 080430	METAR WIII 080430Z VRB04KT 5000 HZ FEW019 33/22 Q1010=
08/07/2013 05:00:00Z	 SAID31 WIII 080500	METAR WIII 080500Z 05008KT 5000 HZ SCT020 33/23 Q1010=
08/07/2013 05:30:00Z	 SAID31 WIII 080530	METAR WIII 080530Z 04010KT 5000 HZ SCT020 33/23 Q1009=
08/07/2013 06:00:00Z	 SAID31 WIII 080600	METAR WIII 080600Z 04008KT 6000 FEW020 33/23 Q1009=
08/07/2013 06:30:00Z	 SAID31 WIII 080630	METAR WIII 080630Z 05007KT 6000 FEW020 33/22 Q1008=
08/07/2013 07:00:00Z	 SAID31 WIII 080700	METAR WIII 080700Z 04007KT 6000 FEW020 33/22 Q1008=
08/07/2013 07:30:00Z	 SAID31 WIII 080730	METAR WIII 080730Z 04010KT 7000 FEW022 33/23 Q1008=
08/07/2013 08:00:00Z	 SAID31 WIII 080800	METAR WIII 080800Z 03009KT 7000 FEW022 32/23 Q1008=
08/07/2013 08:30:00Z	 SAID31 WIII 080830	METAR WIII 080830Z 01010KT 8000 FEW022 32/24 Q1007=
08/07/2013 09:00:00Z	 SAID31 WIII 080900	METAR WIII 080900Z 03010KT 8000 FEW022 31/24 Q1008=
08/07/2013 09:30:00Z	 SAID31 WIII 080930	METAR WIII 080930Z 03008KT 8000 FEW022 31/24 Q1008=
08/07/2013 10:00:00Z	 SAID31 WIII 081000	METAR WIII 081000Z 05012KT 8000 FEW021 30/23 Q1008=
08/07/2013 11:00:00Z	 SAID31 WIII 081100	METAR WIII 081100Z 04008KT 6000 FEW021 29/24 Q1009=
08/07/2013 11:30:00Z	 SAID31 WIII 081130	METAR WIII 081130Z 04009KT 6000 FEW021 29/24 Q1009=
08/07/2013 12:00:00Z	 SAID31 WIII 081200	METAR WIII 081200Z 04008KT 6000 FEW022 28/24 Q1009=
08/07/2013 12:30:00Z	 SAID31 WIII 081230	METAR WIII 081230Z AUTO 03003KT 9999 NCD 28/24 Q1010=
08/07/2013 13:00:00Z	 SAID31 WIII 081300	METAR WIII 081300Z AUTO 35002KT 9000 BKN130 28/24 Q1010=
08/07/2013 13:30:00Z	 SAID31 WIII 081330	METAR WIII 081330Z VRB02KT 5000 SCT022 28/24 Q1010=
08/07/2013 14:00:00Z	 SAID31 WIII 081400	METAR WIII 081400Z AUTO 04003KT 2100 BR OVC130 28/24 Q1010=
08/07/2013 14:30:00Z	 SAID31 WIII 081430	METAR WIII 081430Z AUTO 05002KT 4400 BR FEW130 28/24 Q1011=
08/07/2013 15:00:00Z	 SAID31 WIII 081500	METAR WIII 081500Z 07004KT 6000 SCT020 28/24 Q1011=
08/07/2013 15:30:00Z	 SAID31 WIII 081530	METAR WIII 081530Z 00000KT 6000 BKN020 29/24 Q1011=
08/07/2013 16:00:00Z	 SAID31 WIII 081600	METAR WIII 081600Z 18005KT 3700 BR BKN020 28/24 Q1011=
08/07/2013 16:30:00Z	 SAID31 WIII 081630	METAR WIII 081630Z AUTO 24003KT 3800 VCTS BR BKN022 BKN027 BKN065 28/ 24 Q1011=
08/07/2013 17:00:00Z	 SAID31 WIII 081700	METAR WIII 081700Z AUTO 22005KT 4400 BR BKN022 BKN030 BKN037 28/24 Q1 011=
08/07/2013 17:30:00Z	 SAID31 WIII 081730	METAR WIII 081730Z AUTO 19004KT 5000 VCTS BR OVC022 28/23 Q1010=
08/07/2013 18:30:00Z	 SAID31 WIII 081830	METAR WIII 081830Z AUTO 21004KT 3800 BR SCT024 BKN031 BKN036 27/24 Q1 010=
08/07/2013 19:00:00Z	 SAID31 WIII 081900	METAR WIII 081900Z AUTO 20004KT 3700 BR NCD 27/23 Q1010=
08/07/2013 19:30:00Z	 SAID31 WIII 081930	METAR WIII 081930Z AUTO 23003KT 3000 BR NCD 26/23 Q1009=
08/07/2013 20:00:00Z	 SAID31 WIII 082000	METAR WIII 082000Z AUTO 22004KT 3400 BR FEW034 SCT085 SCT110 26/23 Q1 009=
08/07/2013 20:30:00Z	 SAID31 WIII 082030	METAR WIII 082030Z AUTO 25003KT 2900 BR FEW080 26/23 Q1009=
08/07/2013 21:00:00Z	 SAID31 WIII 082100	METAR WIII 082100Z AUTO 00000KT 2500 BR NCD 25/23 Q1009=
08/07/2013 21:30:00Z	 SAID31 WIII 082130	METAR WIII 082130Z 00000KT 2800 BR NCD 25/23 Q1009=
08/07/2013 22:00:00Z	 SAID31 WIII 082200	METAR WIII 082200Z 17004KT 2800 BR FEW022 25/23 Q1009=
08/07/2013 22:30:00Z	 SAID31 WIII 082230	METAR WIII 082230Z VRB02KT 4600 BR FEW022 26/23 Q1009=
08/07/2013 23:00:00Z	 SAID31 WIII 082300	METAR WIII 082300Z 24004KT 4000 BR FEW023 26/23 Q1010=
08/07/2013 23:30:00Z	 SAID31 WIII 082330	METAR WIII 082330Z VRB02KT 4000 BR FEW020 26/23 Q1010=
09/07/2013 00:00:00Z	 SAID31 WIII 090000	METAR WIII 090000Z AUTO 00000KT 4300 BR NCD 27/23 Q1010=
09/07/2013 00:30:00Z	 SAID31 WIII 090030	METAR WIII 090030Z 23002KT 3600 BR NCD 27/23 Q1010=
09/07/2013 01:00:00Z	 SAID31 WIII 090100	METAR WIII 090100Z 20005KT 4000 HZ NCD 28/23 Q1010=
09/07/2013 01:30:00Z	 SAID31 WIII 090130	METAR WIII 090130Z 24006KT 4000 HZ NCD 30/23 Q1010=
09/07/2013 02:00:00Z	 SAID31 WIII 090200	METAR WIII 090200Z VRB03KT 4800 HZ NCD 30/24 Q1010=
09/07/2013 02:30:00Z	 SAID31 WIII 090230	METAR WIII 090230Z AUTO VRB05KT 5000 NCD 31/24 Q1010=
09/07/2013 03:00:00Z	 SAID31 WIII 090300	METAR WIII 090300Z 29004KT 5000 HZ FEW024 30/24 Q1010=
09/07/2013 03:30:00Z	 SAID31 WIII 090330	METAR WIII 090330Z VRB04KT 5000 HZ FEW024 31/24 Q1010=
09/07/2013 04:00:00Z	 SAID31 WIII 090400	METAR WIII 090400Z 26005KT 7000 FEW024 32/24 Q1009=
09/07/2013 04:30:00Z	 SAID31 WIII 090430	METAR WIII 090430Z AUTO VRB05KT 9999 NCD 33/23 Q1009=
09/07/2013 05:00:00Z	 SAID31 WIII 090500	METAR WIII 090500Z AUTO VRB05KT 9999 NCD 33/23 Q1009=
09/07/2013 05:30:00Z	 SAID31 WIII 090530	METAR WIII 090530Z VRB05KT 9999 FEW021CB FEW024 33/23 Q1008 RMK CB TO SW=
09/07/2013 06:00:00Z	 SAID31 WIII 090600	METAR WIII 090600Z 33009KT 9999 FEW021CB FEW024 32/24 Q1008 RMK CB TO E=
09/07/2013 06:30:00Z	 SAID31 WIII 090630	METAR WIII 090630Z 35009KT 6000 FEW021CB FEW024 32/24 Q1007 RMK CB TO E AND SW=
09/07/2013 07:00:00Z	 SAID31 WIII 090700	METAR WIII 090700Z 33008KT 7000 TS FEW021CB BKN025 31/23 Q1007 RMK CB TO S AND SW=
09/07/2013 07:30:00Z	 SAID31 WIII 090730	METAR WIII 090730Z 35005KT 7000 -TSRA FEW021CB BKN024 30/24 Q1007 RMK CB TO S AND SW=
09/07/2013 08:00:00Z	 SAID31 WIII 090800	METAR WIII 090800Z 33007KT 3500 -TSRA FEW021CB BKN024 29/24 Q1008 RMK CB TO S AND SW=
09/07/2013 08:30:00Z	 SAID31 WIII 090830	METAR WIII 090830Z 35005KT 2300 -TSRA FEW021CB BKN024 27/25 Q1008 RMK CB TO SW AND W=
09/07/2013 09:00:00Z	 SAID31 WIII 090900	METAR WIII 090900Z 22013KT 5000 -TSRA FEW021CB BKN024 26/23 Q1008 RMK CB TO W=
09/07/2013 09:30:00Z	 SAID31 WIII 090930	METAR WIII 090930Z 00000KT 3000 -TSRA FEW021CB BKN024 24/22 Q1009 RMK CB TO SE=
09/07/2013 10:00:00Z	 SAID31 WIII 091000	METAR WIII 091000Z 35004KT 4000 -TSRA FEW021CB BKN024 24/22 Q1009 RMK CB TO W=
09/07/2013 10:30:00Z	 SAID31 WIII 091030	METAR WIII 091030Z 30005KT 3300 -TSRA FEW021CB BKN024 24/22 Q1009 RMK CB TO SE=
09/07/2013 11:00:00Z	 SAID31 WIII 091100	METAR WIII 091100Z 23006KT 7000 -TSRA FEW021CB BKN024 24/22 Q1009 RMK CB TO N, NE, AND SE=
09/07/2013 11:30:00Z	 SAID31 WIII 091130	METAR WIII 091130Z 18005KT 6000 -TSRA FEW020 BKN023 25/23 Q1010 RMK C B TO NW, NE, AND SE=
09/07/2013 12:00:00Z	 SAID31 WIII 091200	METAR WIII 091200Z 07006KT 4000 -TSRA SCT020CB BKN023 25/23 Q1010 RMK CB TO NW, NE, AND E=
09/07/2013 12:30:00Z	 SAID31 WIII 091230	METAR WIII 091230Z VRB04KT 2400 -TSRA SCT020CB BKN022 25/23 Q1011 RMK CB TO NW AND NE=
09/07/2013 13:00:00Z	 SAID31 WIII 091300	METAR WIII 091300Z VRB03KT 4500 -TSRA FEW018CB SCT026 24/22 Q1011 RMK CB TO NE AND E=
09/07/2013 13:30:00Z	 SAID31 WIII 091330	METAR WIII 091330Z 31004KT 4000 RA BR BKN050 BKN085 24/22 Q1011=
09/07/2013 14:00:00Z	 SAID31 WIII 091400	METAR WIII 091400Z 25006KT 4000 -RA FEW016CB SCT055 OVC076 24/22 Q101 1 RMK CB TO NE=
09/07/2013 14:30:00Z	 SAID31 WIII 091430	METAR WIII 091430Z VRB02KT 4000 -RA BKN022 OVC130 24/22 Q1011=
09/07/2013 15:00:00Z	 SAID31 WIII 091500	METAR WIII 091500Z 20003KT 4000 -RA BKN017 24/23 Q1011=
09/07/2013 15:30:00Z	 SAID31 WIII 091530	METAR WIII 091530Z 00000KT 4000 -RA BKN020 24/23 Q1011=
09/07/2013 16:00:00Z	 SAID31 WIII 091600	METAR WIII 091600Z 19002KT 4000 -RA BKN020 25/23 Q1011=
09/07/2013 16:30:00Z	 SAID31 WIII 091630	METAR WIII 091630Z 21003KT 4000 -RA BR SCT015 BKN060 BKN076 OVC097 24 /23 Q1010=
09/07/2013 17:00:00Z	 SAID31 WIII 091700	METAR WIII 091700Z 21004KT 3700 -RA BR FEW013 BKN055 BKN075 OVC160 25 /23 Q1010=
09/07/2013 17:30:00Z	 SAID31 WIII 091730	METAR WIII 091730Z 21004KT 3100 -RA BR FEW007 SCT050 BKN080 25/23 Q10 09=
09/07/2013 18:00:00Z	 SAID31 WIII 091800	METAR WIII 091800Z 22003KT 3000 BR SCT020 24/23 Q1009=
09/07/2013 18:30:00Z	 SAID31 WIII 091830	METAR WIII 091830Z 23004KT 3000 BR SCT022 24/23 Q1009=
09/07/2013 19:00:00Z	 SAID31 WIII 091900	METAR WIII 091900Z AUTO 23006KT 2100 BR SCT200 24/23 Q1009=
09/07/2013 19:30:00Z	 SAID31 WIII 091930	METAR WIII 091930Z 23003KT 2300 BR SCT020 24/23 Q1009=
09/07/2013 20:00:00Z	 SAID31 WIII 092000	METAR WIII 092000Z 21005KT 3700 BR SCT200 24/23 Q1009=
09/07/2013 20:30:00Z	 SAID31 WIII 092030	METAR WIII 092030Z AUTO 22002KT 3000 BR OVC210 24/23 Q1009=
09/07/2013 21:00:00Z	 SAID31 WIII 092100	METAR WIII 092100Z 28002KT 3000 BR FEW160 SCT210 24/23 Q1008=
09/07/2013 21:30:00Z	 SAID31 WIII 092130	METAR WIII 092130Z AUTO 28003KT 2500 BR SCT160 24/23 Q1008=
09/07/2013 22:00:00Z	 SAID31 WIII 092200	METAR WIII 092200Z 25003KT 3000 BR BKN160 BKN210 24/23 Q1008=
09/07/2013 22:30:00Z	 SAID31 WIII 092230	METAR WIII 092230Z AUTO 24005KT 2400 BR FEW160 24/22 Q1008=
09/07/2013 23:00:00Z	 SAID31 WIII 092300	METAR WIII 092300Z AUTO 29003KT 2500 BR FEW210 24/22 Q1009=
09/07/2013 23:30:00Z	 SAID31 WIII 092330	METAR WIII 092330Z AUTO 27002KT 1900 BR NCD 24/22 Q1009=
10/07/2013 00:00:00Z	 SAID31 WIII 100000	METAR WIII 100000Z VRB02KT 5000 BR FEW018 25/23 Q1009=
10/07/2013 00:30:00Z	 SAID31 WIII 100030	METAR WIII 100030Z 22002KT 5000 BR FEW020 25/23 Q1010=
10/07/2013 01:00:00Z	 SAID31 WIII 100100	METAR WIII 100100Z 18002KT 5000 BR SCT022 26/23 Q1010=
10/07/2013 01:30:00Z	 SAID31 WIII 100130	METAR WIII 100130Z AUTO VRB03KT 3500 BR FEW160 27/23 Q1011=
10/07/2013 02:00:00Z	 SAID31 WIII 100200	METAR WIII 100200Z AUTO 19003KT 3400 BR NCD 28/24 Q1011=
10/07/2013 02:30:00Z	 SAID31 WIII 100230	METAR WIII 100230Z 16003KT 5000 BR SCT020 28/24 Q1011=
10/07/2013 03:00:00Z	 SAID31 WIII 100300	METAR WIII 100300Z VRB02KT 5000 HZ SCT020 29/24 Q1011=
10/07/2013 03:30:00Z	 SAID31 WIII 100330	METAR WIII 100330Z VRB03KT 6000 SCT020 30/24 Q1010=
10/07/2013 04:00:00Z	 SAID31 WIII 100400	METAR WIII 100400Z VRB04KT 8000 SCT020 30/24 Q1010=
10/07/2013 04:30:00Z	 SAID31 WIII 100430	METAR WIII 100430Z AUTO VRB04KT 9999 NCD 31/24 Q1009=
10/07/2013 05:00:00Z	 SAID31 WIII 100500	METAR WIII 100500Z VRB04KT 9999 FEW020 30/24 Q1009=
10/07/2013 05:30:00Z	 SAID31 WIII 100530	METAR WIII 100530Z VRB04KT 9999 SCT022 31/23 Q1008=
10/07/2013 06:00:00Z	 SAID31 WIII 100600	METAR WIII 100600Z VRB04KT 9999 FEW020 31/24 Q1008=
10/07/2013 06:30:00Z	 SAID31 WIII 100630	METAR WIII 100630Z VRB05KT 9999 SCT020 31/24 Q1008=
10/07/2013 07:00:00Z	 SAID31 WIII 100700	METAR WIII 100700Z VRB04KT 9999 FEW018 31/24 Q1007=
10/07/2013 07:30:00Z	 SAID31 WIII 100730	METAR WIII 100730Z 01006KT 9999 FEW033 32/24 Q1007=
10/07/2013 08:00:00Z	 SAID31 WIII 100800	METAR WIII 100800Z VRB05KT 9999 SCT025 BKN035 32/24 Q1007=
10/07/2013 08:30:00Z	 SAID31 WIII 100830	METAR WIII 100830Z AUTO VRB05KT 9999 NCD 31/24 Q1007=
10/07/2013 09:00:00Z	 SAID31 WIII 100900	METAR WIII 100900Z 02006KT 9999 FEW026 31/24 Q1007=
10/07/2013 09:30:00Z	 SAID31 WIII 100930	METAR WIII 100930Z 03006KT 9999 FEW018 30/24 Q1007=
10/07/2013 10:00:00Z	 SAID31 WIII 101000	METAR WIII 101000Z 03006KT 9999 FEW020 29/24 Q1007=
10/07/2013 10:30:00Z	 SAID31 WIII 101030	METAR WIII 101030Z 03003KT 9000 FEW020 29/23 Q1007=
10/07/2013 11:00:00Z	 SAID31 WIII 101100	METAR WIII 101100Z 03002KT 8000 FEW020 29/23 Q1008=
10/07/2013 11:30:00Z	 SAID31 WIII 101130	METAR WIII 101130Z 01002KT 8000 FEW016CB FEW018 28/23 Q1008 RMK CB TO SW=
10/07/2013 12:00:00Z	 SAID31 WIII 101200	METAR WIII 101200Z 36002KT 6000 FEW016CB SCT022 28/24 Q1009 RMK CB TO SW=
10/07/2013 12:30:00Z	 SAID31 WIII 101230	METAR WIII 101230Z 03004KT 6000 FEW018CB FEW022 28/23 Q1009 RMK CB TO SW=
10/07/2013 13:00:00Z	 SAID31 WIII 101300	METAR WIII 101300Z VRB04KT 4300 HZ FEW018CB FEW022 28/22 Q1009 RMK CB TO SW=
10/07/2013 13:30:00Z	 SAID31 WIII 101330	METAR WIII 101330Z VRB04KT 5000 HZ FEW019CB FEW022 29/22 Q1010 RMK CB TO SW=
10/07/2013 14:00:00Z	 SAID31 WIII 101400	METAR WIII 101400Z VRB05KT 4500 HZ FEW022 28/22 Q1010=
10/07/2013 14:30:00Z	 SAID31 WIII 101430	METAR WIII 101430Z VRB04KT 3300 HZ FEW022 28/22 Q1010=
10/07/2013 15:00:00Z	 SAID31 WIII 101500	METAR WIII 101500Z 18003KT 3000 HZ FEW022 27/23 Q1010=
10/07/2013 15:30:00Z	 SAID31 WIII 101530	METAR WIII 101530Z 17003KT 3000 HZ FEW021 SCT190 27/24 Q1010=
10/07/2013 16:00:00Z	 SAID31 WIII 101600	METAR WIII 101600Z VRB02KT 2500 HZ FEW021 27/24 Q1010=
10/07/2013 16:30:00Z	 SAID31 WIII 101630	METAR WIII 101630Z 26003KT 2500 HZ FEW022 27/24 Q1010=
10/07/2013 17:00:00Z	 SAID31 WIII 101700	METAR WIII 101700Z 24003KT 2200 BR FEW022 26/24 Q1010=
10/07/2013 17:30:00Z	 SAID31 WIII 101730	METAR WIII 101730Z VRB03KT 2000 BR FEW022 26/24 Q1010=
10/07/2013 18:00:00Z	 SAID31 WIII 101800	METAR WIII 101800Z 18003KT 1700 BR FEW021 26/24 Q1010=
10/07/2013 18:30:00Z	 SAID31 WIII 101830	METAR WIII 101830Z 22003KT 1500 BR FEW021 26/23 Q1009=
10/07/2013 19:00:00Z	 SAID31 WIII 101900	METAR WIII 101900Z 24003KT 1700 BR FEW022 26/24 Q1009=
10/07/2013 19:30:00Z	 SAID31 WIII 101930	METAR WIII 101930Z 24003KT 1300 BR FEW022 25/23 Q1009=
10/07/2013 20:00:00Z	 SAID31 WIII 102000	METAR WIII 102000Z 27002KT 1200 BR FEW022 25/24 Q1009=
10/07/2013 20:30:00Z	 SAID31 WIII 102030	METAR WIII 102030Z VRB03KT 1200 BR FEW023 25/24 Q1009=
10/07/2013 21:00:00Z	 SAID31 WIII 102100	METAR WIII 102100Z 20003KT 1300 BR FEW023 25/24 Q1009=
10/07/2013 21:30:00Z	 SAID31 WIII 102130	METAR WIII 102130Z 00000KT 1500 BR FEW023 25/23 Q1009=
10/07/2013 22:00:00Z	 SAID31 WIII 102200	METAR WIII 102200Z 18003KT 2000 BR FEW023 25/23 Q1009=
10/07/2013 22:30:00Z	 SAID31 WIII 102230	METAR WIII 102230Z 21002KT 1500 BR FEW022 SCT170 25/23 Q1009=
10/07/2013 23:00:00Z	 SAID31 WIII 102300	METAR WIII 102300Z 20004KT 1400 BR FEW023 SCT170 25/23 Q1009=
10/07/2013 23:30:00Z	 SAID31 WIII 102330	METAR WIII 102330Z VRB02KT 1800 BR FEW023 26/23 Q1009=
11/07/2013 00:00:00Z	 SAID31 WIII 110000	METAR WIII 110000Z 19002KT 1900 BR FEW023 26/23 Q1009=
11/07/2013 00:30:00Z	 SAID31 WIII 110030	METAR WIII 110030Z VRB02KT 2500 HZ FEW023 27/23 Q1009=
11/07/2013 01:00:00Z	 SAID31 WIII 110100	METAR WIII 110100Z 14003KT 3800 HZ FEW025 28/23 Q1009=
11/07/2013 01:30:00Z	 SAID31 WIII 110130	METAR WIII 110130Z VRB02KT 4000 HZ FEW024 30/24 Q1010=
11/07/2013 02:00:00Z	 SAID31 WIII 110200	METAR WIII 110200Z 06002KT 4000 HZ FEW024 31/23 Q1010=
11/07/2013 02:30:00Z	 SAID31 WIII 110230	METAR WIII 110230Z VRB04KT 4000 HZ FEW024 31/24 Q1010=
11/07/2013 03:00:00Z	 SAID31 WIII 110300	METAR WIII 110300Z 00000KT 5000 HZ FEW024 32/23 Q1010=
11/07/2013 03:30:00Z	 SAID31 WIII 110330	METAR WIII 110330Z VRB04KT 5000 HZ FEW024 32/23 Q1010=
11/07/2013 04:00:00Z	 SAID31 WIII 110400	METAR WIII 110400Z VRB05KT 7000 FEW024 32/23 Q1009=
11/07/2013 04:30:00Z	 SAID31 WIII 110430	METAR WIII 110430Z 02007KT 8000 SCT027 32/23 Q1009=
11/07/2013 05:00:00Z	 SAID31 WIII 110500	METAR WIII 110500Z 04006KT 9000 FEW026 32/23 Q1009=
11/07/2013 05:30:00Z	 SAID31 WIII 110530	METAR WIII 110530Z 02006KT 9000 FEW024 33/23 Q1009=
11/07/2013 06:00:00Z	 SAID31 WIII 110600	METAR WIII 110600Z 04009KT 9999 FEW024 32/23 Q1008=
11/07/2013 06:30:00Z	 SAID31 WIII 110630	METAR WIII 110630Z 03009KT 9999 FEW024 33/24 Q1008=
11/07/2013 07:00:00Z	 SAID31 WIII 110700	METAR WIII 110700Z 02007KT 9000 FEW021CB FEW024 32/24 Q1007 RMK CB TO W=
11/07/2013 07:30:00Z	 SAID31 WIII 110730	METAR WIII 110730Z 35008KT 9999 FEW021CB FEW024 32/24 Q1007 RMK CB TO SW=
11/07/2013 08:00:00Z	 SAID31 WIII 110800	METAR WIII 110800Z 02009KT 8000 FEW021CB FEW024 32/24 Q1007 RMK CB TO S=
11/07/2013 08:30:00Z	 SAID31 WIII 110830	METAR WIII 110830Z 01007KT 9999 FEW021CB FEW024 31/24 Q1007 RMK CB TO S=
11/07/2013 09:00:00Z	 SAID31 WIII 110900	METAR WIII 110900Z VRB05KT 9999 FEW026 31/24 Q1007=
11/07/2013 09:30:00Z	 SAID31 WIII 110930	METAR WIII 110930Z VRB04KT 9999 VCTS FEW021CB FEW025 31/24 Q1008 RMK CB TO SE, S, AND SW=
11/07/2013 10:30:00Z	 SAID31 WIII 111030	METAR WIII 111030Z 18015KT 6000 VCTS SCT020CB BKN026 29/22 Q1010 RMK CB TO SE AND SW TEMPO 33010G20KT 2000 TSRA SCT016CB BKN018=
11/07/2013 11:00:00Z	 SAID31 WIII 111100	METAR WIII 111100Z 15018KT 1500 +TSRA SCT015CB BKN016 OVC023 24/22 Q1 011 RMK CB OVER THE FIELD=
11/07/2013 11:30:00Z	 SAID31 WIII 111130	METAR WIII 111130Z 13007KT 4000 TSRA FEW021CB BKN037 OVC055 24/22 Q1011 RMK CB OVER THE FIELD=
11/07/2013 12:00:00Z	 SAID31 WIII 111200	METAR WIII 111200Z VRB02KT 6000 -TSRA FEW021CB BKN026 24/22 Q1010 RMK CB OVER THE FIELD=
11/07/2013 12:30:00Z	 SAID31 WIII 111230	METAR WIII 111230Z 15006KT 7000 -RA BKN024 24/22 Q1010 RETS=
11/07/2013 13:00:00Z	 SAID31 WIII 111300	METAR WIII 111300Z 15005KT 5000 RA BKN020 24/22 Q1010=
11/07/2013 13:30:00Z	 SAID31 WIII 111330	METAR WIII 111330Z 12005KT 5000 SCT020 24/22 Q1010=
11/07/2013 14:00:00Z	 SAID31 WIII 111400	METAR WIII 111400Z VRB03KT 6000 SCT020 25/22 Q1010=
11/07/2013 14:30:00Z	 SAID31 WIII 111430	METAR WIII 111430Z 20004KT 6000 SCT020 25/23 Q1011=
11/07/2013 15:00:00Z	 SAID31 WIII 111500	METAR WIII 111500Z 20004KT 6000 SCT020 25/23 Q1011=
11/07/2013 15:30:00Z	 SAID31 WIII 111530	METAR WIII 111530Z 20004KT 6000 SCT020 25/23 Q1011=
11/07/2013 16:00:00Z	 SAID31 WIII 111600	METAR WIII 111600Z 17002KT 6000 SCT020 25/22 Q1011=
11/07/2013 16:30:00Z	 SAID31 WIII 111630	METAR WIII 111630Z VRB02KT 7000 FEW022 25/22 Q1011=
11/07/2013 17:00:00Z	 SAID31 WIII 111700	METAR WIII 111700Z 32002KT 5000 BR FEW022 24/23 Q1011=
11/07/2013 17:30:00Z	 SAID31 WIII 111730	METAR WIII 111730Z 34002KT 4500 BR FEW022 24/23 Q1010=
11/07/2013 18:00:00Z	 SAID31 WIII 111800	METAR WIII 111800Z 22003KT 3200 BR FEW022 24/23 Q1010=
11/07/2013 18:30:00Z	 SAID31 WIII 111830	METAR WIII 111830Z AUTO 00000KT 5000 BR NCD 24/23 Q1010=
11/07/2013 19:00:00Z	 SAID31 WIII 111900	METAR WIII 111900Z AUTO 23003KT 2600 BR NCD 24/23 Q1010=
11/07/2013 19:30:00Z	 SAID31 WIII 111930	METAR WIII 111930Z AUTO 21002KT 2100 BR NCD 24/23 Q1009=
11/07/2013 20:00:00Z	 SAID31 WIII 112000	METAR WIII 112000Z AUTO 18002KT 3500 BR NCD 24/23 Q1009=
11/07/2013 20:30:00Z	 SAID31 WIII 112030	METAR WIII 112030Z AUTO VRB02KT 3000 BR NCD 24/23 Q1009=
11/07/2013 21:00:00Z	 SAID31 WIII 112100	METAR WIII 112100Z 00000KT 2500 BR FEW022 24/23 Q1009=
11/07/2013 21:30:00Z	 SAID31 WIII 112130	METAR WIII 112130Z 00000KT 2100 BR FEW023 24/23 Q1009=
11/07/2013 22:00:00Z	 SAID31 WIII 112200	METAR WIII 112200Z 34002KT 2000 BR FEW022 24/23 Q1009=
11/07/2013 22:30:00Z	 SAID31 WIII 112230	METAR WIII 112230Z 29002KT 1500 FG FEW020 24/23 Q1009=
11/07/2013 23:00:00Z	 SAID31 WIII 112300	METAR WIII 112300Z AUTO 21002KT 1200 FG NCD 24/23 Q1009=
11/07/2013 23:30:00Z	 SAID31 WIII 112330	METAR WIII 112330Z VRB02KT 3700 BR NCD 24/23 Q1009=
12/07/2013 00:00:00Z	 SAID31 WIII 120000	METAR WIII 120000Z 00000KT 3200 BR FEW022 25/23 Q1010=
12/07/2013 00:30:00Z	 SAID31 WIII 120030	METAR WIII 120030Z AUTO 18003KT 3000 BR NCD 26/23 Q1010=
12/07/2013 01:00:00Z	 SAID31 WIII 120100	METAR WIII 120100Z AUTO 18003KT 3900 BR NCD 27/23 Q1010=
12/07/2013 01:30:00Z	 SAID31 WIII 120130	METAR WIII 120130Z 18006KT 5000 HZ FEW018 27/23 Q1010=
12/07/2013 02:00:00Z	 SAID31 WIII 120200	METAR WIII 120200Z 15004KT 7000 FEW020 29/23 Q1010=
12/07/2013 02:30:00Z	 SAID31 WIII 120230	METAR WIII 120230Z 11003KT 8000 FEW020 31/23 Q1010=
12/07/2013 03:00:00Z	 SAID31 WIII 120300	METAR WIII 120300Z 11005KT 8000 FEW020 32/23 Q1009=
12/07/2013 03:30:00Z	 SAID31 WIII 120330	METAR WIII 120330Z AUTO VRB05KT 9999 NCD 32/23 Q1009=
12/07/2013 04:00:00Z	 SAID31 WIII 120400	METAR WIII 120400Z 06004KT 8000 SCT018 33/23 Q1009=
12/07/2013 04:30:00Z	 SAID31 WIII 120430	METAR WIII 120430Z 05009KT 4000 HZ SCT020 32/24 Q1009=
12/07/2013 05:00:00Z	 SAID31 WIII 120500	METAR WIII 120500Z 03008KT 8000 SCT020 32/24 Q1008=
12/07/2013 05:30:00Z	 SAID31 WIII 120530	METAR WIII 120530Z AUTO 03009KT 9999 NCD 33/24 Q1008=
12/07/2013 06:00:00Z	 SAID31 WIII 120600	METAR WIII 120600Z 02009G19KT 8000 FEW018CB SCT020 32/24 Q1007=
12/07/2013 06:30:00Z	 SAID31 WIII 120630	METAR WIII 120630Z 04006G16KT 8000 FEW018CB SCT020 33/25 Q1007=
12/07/2013 07:00:00Z	 SAID31 WIII 120700	METAR WIII 120700Z 04006G16KT 8000 FEW018CB BKN020 32/24 Q1007=
12/07/2013 07:30:00Z	 SAID31 WIII 120730	METAR WIII 120730Z 05010KT 8000 TS FEW018CB BKN020 31/24 Q1007=
12/07/2013 08:00:00Z	 SAID31 WIII 120800	METAR WIII 120800Z 05012KT 8000 TS FEW018CB BKN020 30/24 Q1007=
12/07/2013 08:30:00Z	 SAID31 WIII 120830	METAR WIII 120830Z 04011G21KT 8000 FEW018CB BKN020 30/24 Q1007=
12/07/2013 09:00:00Z	 SAID31 WIII 120900	METAR WIII 120900Z 04008G18KT 8000 FEW016CB BKN018 29/24 Q1007=
12/07/2013 09:30:00Z	 SAID31 WIII 120930	METAR WIII 120930Z 07006G16KT 8000 FEW018CB BKN020 29/23 Q1007=
12/07/2013 10:00:00Z	 SAID31 WIII 121000	METAR WIII 121000Z 04011KT 9999 FEW018CB SCT018 28/23 Q1007=
12/07/2013 10:30:00Z	 SAID31 WIII 121030	METAR WIII 121030Z 06009KT 9999 FEW018CB BKN018 28/24 Q1007=
12/07/2013 11:00:00Z	 SAID31 WIII 121100	METAR WIII 121100Z 07006KT 8000 FEW018CB SCT018 27/24 Q1008=
12/07/2013 11:30:00Z	 SAID31 WIII 121130	METAR WIII 121130Z 08006KT 8000 FEW018CB BKN018 28/25 Q1008=
12/07/2013 12:00:00Z	 SAID31 WIII 121200	METAR WIII 121200Z 03004KT 8000 FEW018CB SCT018 28/24 Q1008=
12/07/2013 12:30:00Z	 SAID31 WIII 121230	METAR WIII 121230Z 01003KT 8000 FEW016CB BKN018 28/24 Q1009=
12/07/2013 13:00:00Z	 SAID31 WIII 121300	METAR WIII 121300Z 17004KT 8000 TS FEW018CB BKN018 28/24 Q1009=
12/07/2013 13:30:00Z	 SAID31 WIII 121330	METAR WIII 121330Z VRB02KT 8000 FEW018CB BKN018 28/24 Q1009=
12/07/2013 14:00:00Z	 SAID31 WIII 121400	METAR WIII 121400Z 18003KT 7000 FEW018CB BKN018 27/24 Q1009=
12/07/2013 14:30:00Z	 SAID31 WIII 121430	METAR WIII 121430Z 22004KT 5000 HZ SCT018 BKN018 27/24 Q1009=
12/07/2013 15:00:00Z	 SAID31 WIII 121500	METAR WIII 121500Z 16004KT 4000 BR FEW018CB BKN018 27/24 Q1009=
12/07/2013 15:30:00Z	 SAID31 WIII 121530	METAR WIII 121530Z 17004KT 3500 BR BKN018 27/24 Q1010=
12/07/2013 16:00:00Z	 SAID31 WIII 121600	METAR WIII 121600Z 20004KT 3000 BR FEW018CB SCT018 26/24 Q1010=
12/07/2013 16:30:00Z	 SAID31 WIII 121630	METAR WIII 121630Z 17002KT 3000 BR FEW018CB SCT020 26/24 Q1010=
12/07/2013 17:00:00Z	 SAID31 WIII 121700	METAR WIII 121700Z 20002KT 3500 BR SCT018 26/24 Q1010=
12/07/2013 17:30:00Z	 SAID31 WIII 121730	METAR WIII 121730Z 18004KT 3000 BR BKN020 26/24 Q1010=
12/07/2013 18:00:00Z	 SAID31 WIII 121800	METAR WIII 121800Z 18006KT 2500 TS SCT016CB BKN018 26/24 Q1009=
12/07/2013 18:30:00Z	 SAID31 WIII 121830	METAR WIII 121830Z VRB02KT 2500 TS SCT016 BKN018 26/24 Q1009=
12/07/2013 19:00:00Z	 SAID31 WIII 121900	METAR WIII 121900Z VRB02KT 2500 TS SCT016 BKN018 26/24 Q1008=
12/07/2013 19:30:00Z	 SAID31 WIII 121930	METAR WIII 121930Z 03003KT 2500 BR SCT016CB BKN016 26/24 Q1008=
12/07/2013 20:00:00Z	 SAID31 WIII 122000	METAR WIII 122000Z VRB02KT 5000 BR SCT016CB BKN016 26/24 Q1008=
12/07/2013 20:30:00Z	 SAID31 WIII 122030	METAR WIII 122030Z 08002KT 5000 TS SCT016CB BKN016 26/24 Q1008=
12/07/2013 21:00:00Z	 SAID31 WIII 122100	METAR WIII 122100Z 08006KT 6000 -TSRA SCT016 OVC018 26/23 Q1008=
12/07/2013 21:30:00Z	 SAID31 WIII 122130	METAR WIII 122130Z 08003KT 5000 -RA FEW016CB OVC018 26/24 Q1008 RMK R ETS CB TO W=
12/07/2013 22:00:00Z	 SAID31 WIII 122200	METAR WIII 122200Z 18003KT 6000 FEW016CB BKN018 26/24 Q1009 RMK RERA CB TO SW=
12/07/2013 22:30:00Z	 SAID31 WIII 122230	METAR WIII 122230Z 20004KT 6000 FEW016CB BKN018 26/24 Q1009=
12/07/2013 23:00:00Z	 SAID31 WIII 122300	METAR WIII 122300Z VRB02KT 5000 BR FEW018CB BKN018 26/24 Q1009=
12/07/2013 23:30:00Z	 SAID31 WIII 122330	METAR WIII 122330Z VRB02KT 3500 BR FEW018CB OVC018 26/24 Q1009=
13/07/2013 00:00:00Z	 SAID31 WIII 130000	METAR WIII 130000Z 00000KT 3000 BR BKN016 26/24 Q1009=
13/07/2013 00:30:00Z	 SAID31 WIII 130030	METAR WIII 130030Z 26003KT 2100 BR FEW020 BKN100 27/24 Q1010=
13/07/2013 01:00:00Z	 SAID31 WIII 130100	METAR WIII 130100Z VRB03KT 1900 BR SCT023 27/24 Q1010=
13/07/2013 01:30:00Z	 SAID31 WIII 130130	METAR WIII 130130Z VRB03KT 2000 BR BKN023 28/25 Q1010=
13/07/2013 02:00:00Z	 SAID31 WIII 130200	METAR WIII 130200Z VRB03KT 2000 HZ SCT023 28/24 Q1010=
13/07/2013 02:30:00Z	 SAID31 WIII 130230	METAR WIII 130230Z 29004KT 2000 HZ SCT023 29/24 Q1010=
13/07/2013 03:00:00Z	 SAID31 WIII 130300	METAR WIII 130300Z VRB04KT 2000 HZ BKN020 30/25 Q1010=
13/07/2013 03:30:00Z	 SAID31 WIII 130330	METAR WIII 130330Z 31004KT 2300 HZ FEW020CB SCT022 30/24 Q1010 RMK CB TO N=
13/07/2013 04:00:00Z	 SAID31 WIII 130400	METAR WIII 130400Z VRB04KT 3300 HZ FEW020CB BKN022 30/24 Q1009 RMK CB TO N=
13/07/2013 04:30:00Z	 SAID31 WIII 130430	METAR WIII 130430Z VRB05KT 3000 HZ FEW020CB BKN022 29/24 Q1009 RMK CB TO N=
13/07/2013 05:00:00Z	 SAID31 WIII 130500	METAR WIII 130500Z 19008G22KT 160V310 2700 -RA FEW019CB BKN022 28/25 Q1009 RMK CB TO W=
13/07/2013 05:30:00Z	 SAID31 WIII 130530	METAR WIII 130530Z 21015KT 3000 -RA SCT018CB BKN022 26/23 Q1009 RMK C B TO W=
13/07/2013 06:00:00Z	 SAID31 WIII 130600	METAR WIII 130600Z 29006KT 6000 FEW018CB SCT022 BKN050 27/23 Q1008 RM K CB TO E AND W=
13/07/2013 06:30:00Z	 SAID31 WIII 130630	METAR WIII 130630Z VRB05KT 6000 VCTS FEW019CB SCT022 BKN120 28/24 Q10 08 RMK CB TO SE=
13/07/2013 07:00:00Z	 SAID31 WIII 130700	METAR WIII 130700Z 22006KT 4000 VCTS -RA SCT019CB BKN022 27/24 Q1008 RMK CB TO S AND SE=
13/07/2013 07:30:00Z	 SAID31 WIII 130730	METAR WIII 130730Z 24003KT 4500 -RA FEW019CB SCT021 BKN080 27/25 Q100 8 RMK CB TO S=
13/07/2013 08:00:00Z	 SAID31 WIII 130800	METAR WIII 130800Z 25004KT 6000 BKN021 27/25 Q1007 RERA=
13/07/2013 08:30:00Z	 SAID31 WIII 130830	METAR WIII 130830Z 24005KT 6000 BKN020 27/24 Q1007=
13/07/2013 09:00:00Z	 SAID31 WIII 130900	METAR WIII 130900Z 27007KT 7000 FEW020 SCT110 28/24 Q1008=
13/07/2013 09:30:00Z	 SAID31 WIII 130930	METAR WIII 130930Z 29005KT 7000 FEW020 28/24 Q1008=
13/07/2013 10:00:00Z	 SAID31 WIII 131000	METAR WIII 131000Z 26008KT 6000 FEW020CB BKN023 28/24 Q1009 RMK CB TO SE=
13/07/2013 10:30:00Z	 SAID31 WIII 131030	METAR WIII 131030Z 25007KT 6000 FEW020CB BKN023 27/24 Q1008 RMK CB TO SE=
13/07/2013 11:00:00Z	 SAID31 WIII 131100	METAR WIII 131100Z 24004KT 6000 VCTS FEW020CB SCT022 27/24 Q1009 RMK CB TO SE=
13/07/2013 11:30:00Z	 SAID31 WIII 131130	METAR WIII 131130Z 22006KT 3500 -RA FEW019CB SCT020 BKN095 26/24 Q100 9 RMK CB TO NE=
13/07/2013 12:00:00Z	 SAID31 WIII 131200	METAR WIII 131200Z 20009KT 3000 -RA FEW019CB BKN021 26/24 Q1009 RMK C B TO NE=
13/07/2013 12:30:00Z	 SAID31 WIII 131230	METAR WIII 131230Z 22009KT 3000 -RA FEW019CB BKN021 26/24 Q1010 RMK C B TO N=
13/07/2013 13:00:00Z	 SAID31 WIII 131300	METAR WIII 131300Z 23007KT 5000 RA FEW020CB SCT020 26/24 Q1010 RMK CB TO SW=
13/07/2013 13:30:00Z	 SAID31 WIII 131330	METAR WIII 131330Z AUTO 27006KT 4700 -RA BR BKN010 BKN015 OVC031 25/2 3 Q1011=
13/07/2013 14:00:00Z	 SAID31 WIII 131400	METAR WIII 131400Z 27006KT 7000 -TSRA FEW020 SCT020 25/23 Q1011 RMK C B TO NE=
13/07/2013 14:30:00Z	 SAID31 WIII 131430	METAR WIII 131430Z 25004KT 7000 -RA SCT020 25/23 Q1012=
13/07/2013 15:00:00Z	 SAID31 WIII 131500	METAR WIII 131500Z 24006KT 7000 RA BKN020 24/23 Q1012=
13/07/2013 16:00:00Z	 SAID31 WIII 131600	METAR WIII 131600Z 25011KT 4100 RA BKN019 24/23 Q1011=
13/07/2013 16:30:00Z	 SAID31 WIII 131630	METAR WIII 131630Z 24011KT 6000 RA SCT020 24/23 Q1011=
13/07/2013 17:00:00Z	 SAID31 WIII 131700	METAR WIII 131700Z 26009KT 7000 -RA BKN016 OVC026 24/22 Q1011=
13/07/2013 17:30:00Z	 SAID31 WIII 131730	METAR WIII 131730Z 26008KT 7000 -RA BKN016 24/22 Q1011=
13/07/2013 18:00:00Z	 SAID31 WIII 131800	METAR WIII 131800Z 25010KT 8000 -DZ BKN018 24/22 Q1011=
13/07/2013 18:30:00Z	 SAID31 WIII 131830	METAR WIII 131830Z AUTO 25008KT 9999 OVC060 24/22 Q1011=
13/07/2013 19:00:00Z	 SAID31 WIII 131900	METAR WIII 131900Z AUTO 25007KT 9999 BKN070 OVC084 24/22 Q1010=
13/07/2013 19:30:00Z	 SAID31 WIII 131930	METAR WIII 131930Z AUTO 24006KT 9999 BKN085 BKN110 OVC150 24/22 Q1010=
13/07/2013 20:00:00Z	 SAID31 WIII 132000	METAR WIII 132000Z AUTO 21005KT 9999 OVC140 24/21 Q1010=
13/07/2013 20:30:00Z	 SAID31 WIII 132030	METAR WIII 132030Z AUTO 19005KT 9999 BKN110 BKN140 BKN170 24/22 Q1010=
13/07/2013 21:00:00Z	 SAID31 WIII 132100	METAR WIII 132100Z AUTO 19005KT 9999 OVC110 24/22 Q1009=
13/07/2013 21:30:00Z	 SAID31 WIII 132130	METAR WIII 132130Z AUTO 21007KT 9999 FEW075 OVC120 24/22 Q1009=
13/07/2013 22:00:00Z	 SAID31 WIII 132200	METAR WIII 132200Z AUTO 21007KT 9999 SCT080 OVC120 24/21 Q1009=
13/07/2013 22:30:00Z	 SAID31 WIII 132230	METAR WIII 132230Z AUTO 21007KT 9999 FEW085 OVC130 25/21 Q1009=
13/07/2013 23:00:00Z	 SAID31 WIII 132300	METAR WIII 132300Z AUTO 21007KT 9999 OVC130 25/21 Q1009=
13/07/2013 23:30:00Z	 SAID31 WIII 132330	METAR WIII 132330Z AUTO 21008KT 9999 SCT110 OVC130 25/21 Q1009=
14/07/2013 00:00:00Z	 SAID31 WIII 140000	METAR WIII 140000Z 20007KT 9000 FEW022 25/21 Q1010=
14/07/2013 00:30:00Z	 SAID31 WIII 140030	METAR WIII 140030Z 22009KT 9000 -SHRA SCT020 25/22 Q1010=
14/07/2013 01:00:00Z	 SAID31 WIII 140100	METAR WIII 140100Z 21009KT 9999 -RA SCT018 OVC020 26/22 Q1010=
14/07/2013 01:30:00Z	 SAID31 WIII 140130	METAR WIII 140130Z 22011KT 9999 BKN018 26/22 Q1010=
14/07/2013 02:00:00Z	 SAID31 WIII 140200	METAR WIII 140200Z 21005G15KT 9999 BKN018 27/22 Q1010=
14/07/2013 02:30:00Z	 SAID31 WIII 140230	METAR WIII 140230Z 22013KT 9999 BKN018 28/22 Q1010=
14/07/2013 03:00:00Z	 SAID31 WIII 140300	METAR WIII 140300Z 23009KT 9999 BKN018 28/23 Q1010=
14/07/2013 03:30:00Z	 SAID31 WIII 140330	METAR WIII 140330Z 24011KT 9999 BKN018 29/23 Q1010=
14/07/2013 04:00:00Z	 SAID31 WIII 140400	METAR WIII 140400Z 25011KT 9999 BKN018 29/23 Q1009=
14/07/2013 04:30:00Z	 SAID31 WIII 140430	METAR WIII 140430Z 24012KT 9999 BKN018 30/23 Q1009=
14/07/2013 05:00:00Z	 SAID31 WIII 140500	METAR WIII 140500Z 21007G17KT 9999 BKN018 30/23 Q1009=
14/07/2013 05:30:00Z	 SAID31 WIII 140530	METAR WIII 140530Z 23010KT 9999 BKN018 30/23 Q1009=
14/07/2013 06:00:00Z	 SAID31 WIII 140600	METAR WIII 140600Z 25011KT 9999 BKN018 30/23 Q1009=
14/07/2013 06:30:00Z	 SAID31 WIII 140630	METAR WIII 140630Z 25012KT 9999 SCT018 31/24 Q1008=
14/07/2013 07:00:00Z	 SAID31 WIII 140700	METAR WIII 140700Z 25006G16KT 9999 SCT018 31/23 Q1008=
14/07/2013 07:30:00Z	 SAID31 WIII 140730	METAR WIII 140730Z 24011KT 9999 SCT018 31/23 Q1008=
14/07/2013 08:00:00Z	 SAID31 WIII 140800	METAR WIII 140800Z AUTO 24008KT 9999 NCD 31/23 Q1008=
14/07/2013 08:30:00Z	 SAID31 WIII 140830	METAR WIII 140830Z 25010KT 9999 SCT018 30/23 Q1008=
14/07/2013 09:00:00Z	 SAID31 WIII 140900	METAR WIII 140900Z 22009KT 9999 SCT018 30/24 Q1008=
14/07/2013 09:30:00Z	 SAID31 WIII 140930	METAR WIII 140930Z 25009KT 9999 BKN018 30/23 Q1008=
14/07/2013 10:00:00Z	 SAID31 WIII 141000	METAR WIII 141000Z 22008KT 9999 SCT018 29/24 Q1008=
14/07/2013 10:30:00Z	 SAID31 WIII 141030	METAR WIII 141030Z 27006KT 9999 BKN018 28/24 Q1009=
14/07/2013 11:00:00Z	 SAID31 WIII 141100	METAR WIII 141100Z AUTO VRB02KT 9999 BKN250 28/23 Q1009=
14/07/2013 11:30:00Z	 SAID31 WIII 141130	METAR WIII 141130Z 26004KT 9999 BKN018 28/23 Q1009=
14/07/2013 12:00:00Z	 SAID31 WIII 141200	METAR WIII 141200Z 25006KT 8000 BKN018 27/23 Q1009=
14/07/2013 12:30:00Z	 SAID31 WIII 141230	METAR WIII 141230Z AUTO 22003KT 9999 BKN230 BKN250 28/23 Q1010=
14/07/2013 13:00:00Z	 SAID31 WIII 141300	METAR WIII 141300Z AUTO 26003KT 9999 SCT220 27/24 Q1010=
14/07/2013 13:30:00Z	 SAID31 WIII 141330	METAR WIII 141330Z VRB02KT 7000 SCT180 28/24 Q1011=
14/07/2013 14:00:00Z	 SAID31 WIII 141400	METAR WIII 141400Z VRB03KT 6000 SCT180 28/23 Q1011=
14/07/2013 14:30:00Z	 SAID31 WIII 141430	METAR WIII 141430Z VRB02KT 6000 BKN190 28/23 Q1011=
14/07/2013 15:00:00Z	 SAID31 WIII 141500	METAR WIII 141500Z 22002KT 5000 BR FEW018 28/23 Q1011=
14/07/2013 15:30:00Z	 SAID31 WIII 141530	METAR WIII 141530Z VRB05KT 5000 BR BKN210 OVC230 27/23 Q1011=
14/07/2013 16:00:00Z	 SAID31 WIII 141600	METAR WIII 141600Z 29003KT 5000 BR BKN190 BKN230 27/23 Q1011=
14/07/2013 16:30:00Z	 SAID31 WIII 141630	METAR WIII 141630Z 23002KT 5000 BR BKN220 26/24 Q1011=
14/07/2013 17:00:00Z	 SAID31 WIII 141700	METAR WIII 141700Z VRB02KT 5000 BR BKN220 26/23 Q1010=
14/07/2013 17:30:00Z	 SAID31 WIII 141730	METAR WIII 141730Z 15005KT 5000 BR FEW018 26/24 Q1010=
14/07/2013 18:00:00Z	 SAID31 WIII 141800	METAR WIII 141800Z VRB05KT 5000 BR FEW018 26/24 Q1010=
14/07/2013 18:30:00Z	 SAID31 WIII 141830	METAR WIII 141830Z 14003KT 3200 BR FEW190 BKN240 26/24 Q1010=
14/07/2013 19:00:00Z	 SAID31 WIII 141900	METAR WIII 141900Z 18002KT 3000 BR FEW190 BKN220 26/24 Q1010=
14/07/2013 19:30:00Z	 SAID31 WIII 141930	METAR WIII 141930Z AUTO 00000KT 2200 BR OVC210 26/24 Q1009=
14/07/2013 20:00:00Z	 SAID31 WIII 142000	METAR WIII 142000Z 16003KT 3000 BR BKN190 BKN210 26/24 Q1009=
14/07/2013 20:30:00Z	 SAID31 WIII 142030	METAR WIII 142030Z 20003KT 3000 BR BKN210 BKN230 26/24 Q1009=
14/07/2013 21:00:00Z	 SAID31 WIII 142100	METAR WIII 142100Z 19002KT 3000 BR BKN210 BKN230 25/24 Q1009=
14/07/2013 21:30:00Z	 SAID31 WIII 142130	METAR WIII 142130Z 19002KT 3000 BR BKN200 OVC220 25/24 Q1009=
14/07/2013 22:00:00Z	 SAID31 WIII 142200	METAR WIII 142200Z AUTO 23003KT 3100 BR SCT170 OVC200 25/23 Q1009=
14/07/2013 22:30:00Z	 SAID31 WIII 142230	METAR WIII 142230Z AUTO 24003KT 5000 BKN150 BKN170 26/23 Q1010=
14/07/2013 23:00:00Z	 SAID31 WIII 142300	METAR WIII 142300Z AUTO 26003KT 9000 BKN150 26/23 Q1010=
14/07/2013 23:30:00Z	 SAID31 WIII 142330	METAR WIII 142330Z 22003KT 5000 BR FEW020 26/23 Q1010=
15/07/2013 00:00:00Z	 SAID31 WIII 150000	METAR WIII 150000Z 20004KT 5000 -RA BKN020 26/23 Q1010=
15/07/2013 00:30:00Z	 SAID31 WIII 150030	METAR WIII 150030Z 18003KT 6000 SCT020 26/23 Q1011=
15/07/2013 01:00:00Z	 SAID31 WIII 150100	METAR WIII 150100Z AUTO VRB05KT 7000 SCT220 28/23 Q1011=
15/07/2013 01:30:00Z	 SAID31 WIII 150130	METAR WIII 150130Z 19005KT 6000 FEW024 29/23 Q1011=
15/07/2013 02:00:00Z	 SAID31 WIII 150200	METAR WIII 150200Z 23003KT 7000 FEW024 29/23 Q1011=
15/07/2013 02:30:00Z	 SAID31 WIII 150230	METAR WIII 150230Z 20003KT 9000 FEW024 30/23 Q1011=
15/07/2013 03:00:00Z	 SAID31 WIII 150300	METAR WIII 150300Z VRB02KT 9000 FEW026 31/24 Q1011=
15/07/2013 03:30:00Z	 SAID31 WIII 150330	METAR WIII 150330Z VRB04KT 9000 FEW024 31/24 Q1010=
15/07/2013 04:00:00Z	 SAID31 WIII 150400	METAR WIII 150400Z AUTO VRB04KT 8000 FEW028 31/24 Q1010=
15/07/2013 04:30:00Z	 SAID31 WIII 150430	METAR WIII 150430Z VRB02KT 6000 FEW024 31/23 Q1010=
15/07/2013 05:00:00Z	 SAID31 WIII 150500	METAR WIII 150500Z 03003KT 5000 HZ BKN030 31/24 Q1009=
15/07/2013 05:30:00Z	 SAID31 WIII 150530	METAR WIII 150530Z 05005KT 7000 BKN028 33/24 Q1009=
15/07/2013 06:00:00Z	 SAID31 WIII 150600	METAR WIII 150600Z 03007KT 7000 FEW026 SCT041 31/24 Q1008=
15/07/2013 06:30:00Z	 SAID31 WIII 150630	METAR WIII 150630Z 05007KT 9000 FEW030 31/24 Q1008=
15/07/2013 07:00:00Z	 SAID31 WIII 150700	METAR WIII 150700Z 04007KT 9000 FEW024 30/24 Q1008=
15/07/2013 07:30:00Z	 SAID31 WIII 150730	METAR WIII 150730Z 03007KT 9000 FEW024 30/24 Q1008=
15/07/2013 08:00:00Z	 SAID31 WIII 150800	METAR WIII 150800Z 04006KT 8000 SCT026 30/24 Q1008=
15/07/2013 08:30:00Z	 SAID31 WIII 150830	METAR WIII 150830Z VRB05KT 9000 SCT030 30/24 Q1008=
15/07/2013 09:00:00Z	 SAID31 WIII 150900	METAR WIII 150900Z 02005KT 9999 FEW024 30/24 Q1008=
15/07/2013 09:30:00Z	 SAID31 WIII 150930	METAR WIII 150930Z 02004KT 8000 FEW024 30/24 Q1008=
15/07/2013 10:00:00Z	 SAID31 WIII 151000	METAR WIII 151000Z 05005KT 8000 FEW024 29/24 Q1008=
15/07/2013 10:30:00Z	 SAID31 WIII 151030	METAR WIII 151030Z 03002KT 7000 FEW021CB FEW024 29/24 Q1009 RMK CB TO SW=
15/07/2013 11:30:00Z	 SAID31 WIII 151130	METAR WIII 151130Z 02002KT 4600 HZ FEW021CB FEW024 28/25 Q1009 RMK CB TO W=
15/07/2013 12:00:00Z	 SAID31 WIII 151200	METAR WIII 151200Z 35003KT 4300 HZ FEW021CB FEW024 28/25 Q1009 RMK CB TO W=
15/07/2013 12:30:00Z	 SAID31 WIII 151230	METAR WIII 151230Z VRB03KT 3500 HZ FEW021CB FEW023 27/25 Q1010 RMK CB TO W=
15/07/2013 13:00:00Z	 SAID31 WIII 151300	METAR WIII 151300Z 24010KT 2900 HZ FEW020CB SCT022 27/25 Q1010 RMK CB TO W=
15/07/2013 13:30:00Z	 SAID31 WIII 151330	METAR WIII 151330Z 25012KT 4000 HZ SCT022 BKN055 26/22 Q1011=
15/07/2013 14:00:00Z	 SAID31 WIII 151400	METAR WIII 151400Z 24006KT 5000 HZ FEW022 25/22 Q1011=
15/07/2013 14:30:00Z	 SAID31 WIII 151430	METAR WIII 151430Z 22007KT 6000 FEW022 25/22 Q1011=
15/07/2013 15:00:00Z	 SAID31 WIII 151500	METAR WIII 151500Z VRB03KT 6000 FEW022 26/22 Q1011=
15/07/2013 15:30:00Z	 SAID31 WIII 151530	METAR WIII 151530Z VRB03KT 4500 HZ FEW022 BKN210 25/22 Q1011=
15/07/2013 16:00:00Z	 SAID31 WIII 151600	METAR WIII 151600Z 14004KT 5000 HZ FEW022 BKN210 25/22 Q1011=
15/07/2013 16:30:00Z	 SAID31 WIII 151630	METAR WIII 151630Z VRB03KT 5000 HZ FEW022 SCT200 25/22 Q1011=
15/07/2013 17:00:00Z	 SAID31 WIII 151700	METAR WIII 151700Z VRB03KT 5000 HZ FEW022 25/22 Q1011=
15/07/2013 17:30:00Z	 SAID31 WIII 151730	METAR WIII 151730Z 16002KT 6000 FEW022 25/22 Q1010=
15/07/2013 18:00:00Z	 SAID31 WIII 151800	METAR WIII 151800Z VRB03KT 3000 BR FEW022 25/22 Q1010=
15/07/2013 18:30:00Z	 SAID31 WIII 151830	METAR WIII 151830Z 15003KT 3000 BR FEW022 25/22 Q1010=
15/07/2013 19:00:00Z	 SAID31 WIII 151900	METAR WIII 151900Z VRB02KT 4000 BR FEW022 25/22 Q1009=
15/07/2013 19:30:00Z	 SAID31 WIII 151930	METAR WIII 151930Z VRB02KT 3400 BR FEW023 SCT200 25/22 Q1009=
15/07/2013 20:00:00Z	 SAID31 WIII 152000	METAR WIII 152000Z 22003KT 2700 BR FEW023 25/22 Q1009=
15/07/2013 20:30:00Z	 SAID31 WIII 152030	METAR WIII 152030Z 15004KT 3000 BR FEW023 25/22 Q1009=
15/07/2013 21:00:00Z	 SAID31 WIII 152100	METAR WIII 152100Z 15006KT 3000 BR FEW023 25/22 Q1009=
15/07/2013 21:30:00Z	 SAID31 WIII 152130	METAR WIII 152130Z 14004KT 3800 BR FEW023 25/22 Q1009=
15/07/2013 22:00:00Z	 SAID31 WIII 152200	METAR WIII 152200Z 15002KT 3300 BR SCT023 BKN150 25/22 Q1009=
15/07/2013 22:30:00Z	 SAID31 WIII 152230	METAR WIII 152230Z 17005KT 4500 BR SCT023 BKN160 25/22 Q1009=
15/07/2013 23:00:00Z	 SAID31 WIII 152300	METAR WIII 152300Z 16005KT 4200 BR FEW023 BKN200 25/22 Q1009=
15/07/2013 23:30:00Z	 SAID31 WIII 152330	METAR WIII 152330Z 16003KT 3400 BR FEW023 BKN220 26/22 Q1009=
16/07/2013 00:00:00Z	 SAID31 WIII 160000	METAR WIII 160000Z 17004KT 3800 HZ FEW023 SCT210 26/22 Q1009=
16/07/2013 00:30:00Z	 SAID31 WIII 160030	METAR WIII 160030Z AUTO 16005KT 5000 HZ SCT230 26/22 Q1010=
16/07/2013 01:00:00Z	 SAID31 WIII 160100	METAR WIII 160100Z 17004KT 4800 HZ FEW024 28/23 Q1010=
16/07/2013 01:30:00Z	 SAID31 WIII 160130	METAR WIII 160130Z VRB02KT 4500 HZ FEW024 29/23 Q1010=
16/07/2013 02:00:00Z	 SAID31 WIII 160200	METAR WIII 160200Z VRB02KT 5000 HZ FEW024 30/23 Q1010=
16/07/2013 02:30:00Z	 SAID31 WIII 160230	METAR WIII 160230Z VRB03KT 4500 HZ FEW024 30/23 Q1010=
16/07/2013 03:00:00Z	 SAID31 WIII 160300	METAR WIII 160300Z 04005KT 4000 HZ FEW024 30/23 Q1010=
16/07/2013 03:30:00Z	 SAID31 WIII 160330	METAR WIII 160330Z VRB05KT 4000 HZ FEW024 31/24 Q1010=
16/07/2013 04:00:00Z	 SAID31 WIII 160400	METAR WIII 160400Z 35004KT 6000 FEW025 32/24 Q1009=
16/07/2013 04:30:00Z	 SAID31 WIII 160430	METAR WIII 160430Z VRB04KT 8000 FEW024 33/23 Q1009=
16/07/2013 05:00:00Z	 SAID31 WIII 160500	METAR WIII 160500Z 05009KT 8000 FEW024 33/23 Q1008=
16/07/2013 05:30:00Z	 SAID31 WIII 160530	METAR WIII 160530Z 06011KT 9999 SCT022 32/23 Q1008=
16/07/2013 06:00:00Z	 SAID31 WIII 160600	METAR WIII 160600Z 07013KT 9999 FEW024 33/23 Q1008=
16/07/2013 06:30:00Z	 SAID31 WIII 160630	METAR WIII 160630Z 06009KT 9999 FEW024 33/23 Q1007=
16/07/2013 07:00:00Z	 SAID31 WIII 160700	METAR WIII 160700Z 04012KT 9999 FEW024 32/24 Q1007=
16/07/2013 07:30:00Z	 SAID31 WIII 160730	METAR WIII 160730Z 04011KT 9999 FEW024 32/24 Q1007=
16/07/2013 08:00:00Z	 SAID31 WIII 160800	METAR WIII 160800Z 04009KT 9999 FEW026 32/24 Q1006=
16/07/2013 08:30:00Z	 SAID31 WIII 160830	METAR WIII 160830Z AUTO 04009KT 9999 NCD 31/24 Q1007=
16/07/2013 09:00:00Z	 SAID31 WIII 160900	METAR WIII 160900Z 03011KT 9999 FEW026 31/24 Q1007=
16/07/2013 09:30:00Z	 SAID31 WIII 160930	METAR WIII 160930Z 03009KT 9999 FEW021CB FEW024 31/24 Q1007 RMK CB TO W=
16/07/2013 10:00:00Z	 SAID31 WIII 161000	METAR WIII 161000Z 04009KT 9999 FEW024 31/24 Q1007=
16/07/2013 10:30:00Z	 SAID31 WIII 161030	METAR WIII 161030Z 04008KT 9000 FEW024 30/24 Q1007=
16/07/2013 11:00:00Z	 SAID31 WIII 161100	METAR WIII 161100Z 05007KT 9999 FEW024 29/24 Q1008=
16/07/2013 11:30:00Z	 SAID31 WIII 161130	METAR WIII 161130Z 05008KT 9999 FEW024 29/24 Q1008=
16/07/2013 12:00:00Z	 SAID31 WIII 161200	METAR WIII 161200Z 05006KT 9999 FEW024 29/24 Q1008=
16/07/2013 12:30:00Z	 SAID31 WIII 161230	METAR WIII 161230Z AUTO 05005KT 9999 NCD 29/23 Q1009=
16/07/2013 13:00:00Z	 SAID31 WIII 161300	METAR WIII 161300Z 05006KT 9999 SCT021 29/24 Q1009=
16/07/2013 13:30:00Z	 SAID31 WIII 161330	METAR WIII 161330Z 03003KT 9999 SCT021 28/24 Q1009=
16/07/2013 14:00:00Z	 SAID31 WIII 161400	METAR WIII 161400Z 05003KT 9999 SCT021 28/24 Q1010=
16/07/2013 14:30:00Z	 SAID31 WIII 161430	METAR WIII 161430Z 04003KT 9999 FEW022 28/24 Q1010=
16/07/2013 15:00:00Z	 SAID31 WIII 161500	METAR WIII 161500Z 00000KT 9999 SCT022 BKN029 28/25 Q1010=
16/07/2013 15:30:00Z	 SAID31 WIII 161530	METAR WIII 161530Z 04002KT 9999 SCT022 BKN031 29/24 Q1010=
16/07/2013 16:00:00Z	 SAID31 WIII 161600	METAR WIII 161600Z VRB04KT 9999 BKN022 29/24 Q1010=
16/07/2013 16:30:00Z	 SAID31 WIII 161630	METAR WIII 161630Z 07005KT 7000 FEW022 SCT031 28/24 Q1010=
16/07/2013 17:00:00Z	 SAID31 WIII 161700	METAR WIII 161700Z 09008KT 8000 FEW022 28/24 Q1010=
16/07/2013 18:00:00Z	 SAID31 WIII 161800	METAR WIII 161800Z VRB03KT 7000 FEW022 28/24 Q1009=
16/07/2013 18:30:00Z	 SAID31 WIII 161830	METAR WIII 161830Z VRB02KT 4800 BR FEW022 27/24 Q1009=
16/07/2013 19:00:00Z	 SAID31 WIII 161900	METAR WIII 161900Z AUTO VRB03KT 2700 BR FEW025 27/24 Q1009=
16/07/2013 19:30:00Z	 SAID31 WIII 161930	METAR WIII 161930Z AUTO VRB03KT 2500 BR NCD 26/24 Q1009=
16/07/2013 20:00:00Z	 SAID31 WIII 162000	METAR WIII 162000Z AUTO VRB03KT 2500 BR NCD 26/24 Q1009=
16/07/2013 20:30:00Z	 SAID31 WIII 162030	METAR WIII 162030Z AUTO VRB02KT 1700 BR NCD 26/24 Q1009=
16/07/2013 21:00:00Z	 SAID31 WIII 162100	METAR WIII 162100Z 25002KT 1600 BR FEW022 26/24 Q1009=
16/07/2013 21:30:00Z	 SAID31 WIII 162130	METAR WIII 162130Z 21002KT 1800 BR FEW022 25/24 Q1009=
16/07/2013 22:00:00Z	 SAID31 WIII 162200	METAR WIII 162200Z AUTO 23002KT 2300 BR NCD 25/24 Q1009=
16/07/2013 22:30:00Z	 SAID31 WIII 162230	METAR WIII 162230Z AUTO 29002KT 2000 BR NCD 25/24 Q1009=
16/07/2013 23:00:00Z	 SAID31 WIII 162300	METAR WIII 162300Z AUTO 26002KT 1500 BR NCD 25/24 Q1009=
16/07/2013 23:30:00Z	 SAID31 WIII 162330	METAR WIII 162330Z 00000KT 1200 FG NCD 25/24 Q1009=
17/07/2013 00:30:00Z	 SAID31 WIII 170030	METAR WIII 170030Z AUTO 29002KT 1800 BR NCD 27/24 Q1010=
17/07/2013 01:00:00Z	 SAID31 WIII 170100	METAR WIII 170100Z VRB03KT 5000 BR FEW022 28/24 Q1011=
17/07/2013 01:30:00Z	 SAID31 WIII 170130	METAR WIII 170130Z VRB03KT 5000 BR FEW022 30/24 Q1010=
17/07/2013 02:00:00Z	 SAID31 WIII 170200	METAR WIII 170200Z VRB03KT 7000 FEW022 31/24 Q1010=
17/07/2013 02:30:00Z	 SAID31 WIII 170230	METAR WIII 170230Z VRB03KT 8000 FEW022 31/22 Q1010=
17/07/2013 03:00:00Z	 SAID31 WIII 170300	METAR WIII 170300Z VRB03KT 7000 FEW018 31/24 Q1010=
17/07/2013 03:30:00Z	 SAID31 WIII 170330	METAR WIII 170330Z 31004KT 9000 FEW020 32/24 Q1010=
17/07/2013 04:00:00Z	 SAID31 WIII 170400	METAR WIII 170400Z 31005KT 9000 FEW022 32/24 Q1009=
17/07/2013 04:30:00Z	 SAID31 WIII 170430	METAR WIII 170430Z AUTO 30007KT 6000 NCD 32/23 Q1009=
17/07/2013 05:00:00Z	 SAID31 WIII 170500	METAR WIII 170500Z AUTO 31008KT 6000 BR NCD 32/24 Q1009=
17/07/2013 05:30:00Z	 SAID31 WIII 170530	METAR WIII 170530Z AUTO 33007KT 7000 NCD 32/24 Q1009=
17/07/2013 06:00:00Z	 SAID31 WIII 170600	METAR WIII 170600Z AUTO 32008KT 8000 NCD 31/23 Q1008=
17/07/2013 06:30:00Z	 SAID31 WIII 170630	METAR WIII 170630Z 34006KT 9000 SCT020 31/23 Q1008=
17/07/2013 07:00:00Z	 SAID31 WIII 170700	METAR WIII 170700Z 35006KT 8000 FEW016CB BKN022 31/23 Q1008 RMK CB TO SE=
17/07/2013 07:30:00Z	 SAID31 WIII 170730	METAR WIII 170730Z 35006KT 9000 BKN022 31/23 Q1007=
17/07/2013 08:00:00Z	 SAID31 WIII 170800	METAR WIII 170800Z 32006KT 9000 SCT020 30/23 Q1008=
17/07/2013 08:30:00Z	 SAID31 WIII 170830	METAR WIII 170830Z 34006KT 9000 SCT022 30/23 Q1008=
17/07/2013 09:00:00Z	 SAID31 WIII 170900	METAR WIII 170900Z 34007KT 9000 SCT020 30/23 Q1008=
17/07/2013 09:30:00Z	 SAID31 WIII 170930	METAR WIII 170930Z 32007KT 8000 FEW026 SCT047 30/24 Q1008=
17/07/2013 10:00:00Z	 SAID31 WIII 171000	METAR WIII 171000Z 31006KT 8000 SCT049 29/25 Q1008=
17/07/2013 10:30:00Z	 SAID31 WIII 171030	METAR WIII 171030Z 31006KT 8000 SCT049 29/25 Q1009=
17/07/2013 11:00:00Z	 SAID31 WIII 171100	METAR WIII 171100Z 31004KT 7000 SCT022 28/24 Q1009=
17/07/2013 11:30:00Z	 SAID31 WIII 171130	METAR WIII 171130Z 30004KT 7000 BKN055 28/24 Q1009=
17/07/2013 12:00:00Z	 SAID31 WIII 171200	METAR WIII 171200Z 28004KT 7000 SCT028 28/24 Q1010=
17/07/2013 12:30:00Z	 SAID31 WIII 171230	METAR WIII 171230Z AUTO 24006KT 9999 FEW015 SCT028 SCT036 OVC065 27/2 3 Q1010=
17/07/2013 13:00:00Z	 SAID31 WIII 171300	METAR WIII 171300Z 23006G16KT 2500 +RA OVC015 26/24 Q1011=
17/07/2013 13:30:00Z	 SAID31 WIII 171330	METAR WIII 171330Z 22006KT 4000 BR SCT015 BKN018 26/24 Q1011 RMK RERA=
17/07/2013 14:00:00Z	 SAID31 WIII 171400	METAR WIII 171400Z 19007KT 5000 BR SCT016 26/23 Q1011=
17/07/2013 14:30:00Z	 SAID31 WIII 171430	METAR WIII 171430Z 17004KT 5000 BR BKN016 26/23 Q1011=
17/07/2013 15:00:00Z	 SAID31 WIII 171500	METAR WIII 171500Z 14004KT 3000 -RA BKN016 26/24 Q1011=
17/07/2013 15:30:00Z	 SAID31 WIII 171530	METAR WIII 171530Z 14004KT 2500 -TSRA FEW016CB OVC018 26/24 Q1011 RMK CB TO E=
17/07/2013 16:00:00Z	 SAID31 WIII 171600	METAR WIII 171600Z 19004KT 3000 -RA FEW016CB OVC016 26/24 Q1011=
17/07/2013 16:30:00Z	 SAID31 WIII 171630	METAR WIII 171630Z 19003KT 4000 BR FEW016CB BKN016 26/24 Q1011 RMK RE RA=
17/07/2013 17:00:00Z	 SAID31 WIII 171700	METAR WIII 171700Z VRB02KT 2500 TS FEW016CB BKN016 26/24 Q1011=
17/07/2013 17:30:00Z	 SAID31 WIII 171730	METAR WIII 171730Z 15003KT 3000 BR FEW016CB OVC016 26/24 Q1011=
17/07/2013 18:00:00Z	 SAID31 WIII 171800	METAR WIII 171800Z 35003KT 2000 BR FEW018CB BKN020 26/24 Q1010=
17/07/2013 18:30:00Z	 SAID31 WIII 171830	METAR WIII 171830Z 17003KT 2500 TS BR FEW016CB BKN018 26/24 Q1010=
17/07/2013 19:00:00Z	 SAID31 WIII 171900	METAR WIII 171900Z AUTO 00000KT 2100 BR SCT019 BKN025 BKN040 OVC090 26/24 Q1010=
17/07/2013 19:30:00Z	 SAID31 WIII 171930	METAR WIII 171930Z 00000KT 1800 TSBR FEW016CB BKN016 26/24 Q1010 RMK RERA CB TO NW=
17/07/2013 20:00:00Z	 SAID31 WIII 172000	METAR WIII 172000Z 31007KT 2000 TS BR FEW016CB OVC018 26/24 Q1010=
17/07/2013 20:30:00Z	 SAID31 WIII 172030	METAR WIII 172030Z 33004KT 5000 BR SCT016 25/23 Q1010=
17/07/2013 21:00:00Z	 SAID31 WIII 172100	METAR WIII 172100Z 32002KT 6000 BKN018 25/23 Q1009=
17/07/2013 21:30:00Z	 SAID31 WIII 172130	METAR WIII 172130Z 35002KT 5000 BR BKN018 25/23 Q1009=
17/07/2013 22:00:00Z	 SAID31 WIII 172200	METAR WIII 172200Z 00000KT 5000 BR BKN018 25/23 Q1009=
17/07/2013 22:30:00Z	 SAID31 WIII 172230	METAR WIII 172230Z AUTO 27002KT 5000 BR BKN210 25/23 Q1009=
17/07/2013 23:00:00Z	 SAID31 WIII 172300	METAR WIII 172300Z 15003KT 5000 BR BKN018 25/23 Q1010=
17/07/2013 23:30:00Z	 SAID31 WIII 172330	METAR WIII 172330Z 16004KT 4000 BR BKN018 25/23 Q1010=
18/07/2013 00:00:00Z	 SAID31 WIII 180000	METAR WIII 180000Z 18003KT 5000 BR BKN018 26/23 Q1010=
18/07/2013 00:30:00Z	 SAID31 WIII 180030	METAR WIII 180030Z 17003KT 4000 BR SCT019 BKN087 26/23 Q1011=
18/07/2013 01:00:00Z	 SAID31 WIII 180100	METAR WIII 180100Z VRB02KT 4000 BR SCT019 27/24 Q1011=
18/07/2013 01:30:00Z	 SAID31 WIII 180130	METAR WIII 180130Z VRB03KT 3100 BR SCT021 27/24 Q1011=
18/07/2013 02:30:00Z	 SAID31 WIII 180230	METAR WIII 180230Z VRB02KT 4500 HZ SCT021 29/24 Q1011=
18/07/2013 03:00:00Z	 SAID31 WIII 180300	METAR WIII 180300Z VRB02KT 4800 HZ SCT021 29/24 Q1011=
18/07/2013 03:30:00Z	 SAID31 WIII 180330	METAR WIII 180330Z VRB05KT 4800 HZ FEW021 BKN100 30/24 Q1011=
18/07/2013 04:00:00Z	 SAID31 WIII 180400	METAR WIII 180400Z 33004KT 4500 HZ FEW021 BKN100 31/24 Q1010=
18/07/2013 04:30:00Z	 SAID31 WIII 180430	METAR WIII 180430Z 33006KT 5000 HZ SCT020 32/24 Q1010=
18/07/2013 05:00:00Z	 SAID31 WIII 180500	METAR WIII 180500Z 32005KT 6000 SCT020 32/24 Q1009=
18/07/2013 05:30:00Z	 SAID31 WIII 180530	METAR WIII 180530Z 33010KT 6000 BKN020 33/24 Q1009=
18/07/2013 06:00:00Z	 SAID31 WIII 180600	METAR WIII 180600Z 08008G19KT 350V100 2000 TSRA SCT018 BKN019 30/24 Q 1008 RMK CB OVER THE FIELDS=
18/07/2013 06:30:00Z	 SAID31 WIII 180630	METAR WIII 180630Z 19016KT 170V280 2900 VCTS RA SCT019CB BKN021 27/24 Q1008 RMK CB TO S AND SW=
18/07/2013 07:00:00Z	 SAID31 WIII 180700	METAR WIII 180700Z 26006KT 6000 FEW019CB SCT021 BKN100 27/24 Q1008 RM K CB TO SW=
18/07/2013 07:30:00Z	 SAID31 WIII 180730	METAR WIII 180730Z VRB03KT 6000 SCT021 BKN100 29/24 Q1007=
18/07/2013 08:00:00Z	 SAID31 WIII 180800	METAR WIII 180800Z 36005KT 6000 FEW022 BKN100 30/24 Q1007=
18/07/2013 08:30:00Z	 SAID31 WIII 180830	METAR WIII 180830Z 36005KT 6000 SCT022 30/24 Q1007=
18/07/2013 09:00:00Z	 SAID31 WIII 180900	METAR WIII 180900Z 35004KT 6000 FEW022 BKN100 29/24 Q1007=
18/07/2013 09:30:00Z	 SAID31 WIII 180930	METAR WIII 180930Z 33003KT 6000 FEW022 29/24 Q1007=
18/07/2013 10:00:00Z	 SAID31 WIII 181000	METAR WIII 181000Z 31004KT 6000 FEW022 29/24 Q1007=
18/07/2013 10:30:00Z	 SAID31 WIII 181030	METAR WIII 181030Z 32004KT 6000 FEW022 29/24 Q1008=
18/07/2013 11:00:00Z	 SAID31 WIII 181100	METAR WIII 181100Z 33003KT 6000 FEW023 28/24 Q1008=
18/07/2013 11:30:00Z	 SAID31 WIII 181130	METAR WIII 181130Z 30003KT 5000 HZ FEW023 SCT055 BKN190 28/24 Q1008=
18/07/2013 12:00:00Z	 SAID31 WIII 181200	METAR WIII 181200Z 27004KT 3800 HZ SCT023 BKN055 27/25 Q1009=
18/07/2013 12:30:00Z	 SAID31 WIII 181230	METAR WIII 181230Z 28003KT 4000 HZ SCT023 27/24 Q1009=
18/07/2013 13:00:00Z	 SAID31 WIII 181300	METAR WIII 181300Z AUTO 35002KT 4200 BR BKN200 27/24 Q1010=
18/07/2013 13:30:00Z	 SAID31 WIII 181330	METAR WIII 181330Z 00000KT 3900 BR FEW022 27/24 Q1010=
18/07/2013 14:00:00Z	 SAID31 WIII 181400	METAR WIII 181400Z 20002KT 2900 BR FEW022 SCT220 27/24 Q1011=
18/07/2013 14:30:00Z	 SAID31 WIII 181430	METAR WIII 181430Z AUTO 22003KT 6000 SCT220 27/24 Q1011=
18/07/2013 15:00:00Z	 SAID31 WIII 181500	METAR WIII 181500Z 21002KT 5000 FEW022 27/24 Q1011=
18/07/2013 15:30:00Z	 SAID31 WIII 181530	METAR WIII 181530Z AUTO 20004KT 4400 BR FEW020 SCT200 SCT220 27/24 Q1 011=
18/07/2013 16:00:00Z	 SAID31 WIII 181600	METAR WIII 181600Z AUTO 19005KT 2900 BR FEW022 SCT042 SCT200 BKN220 2 7/24 Q1011=
18/07/2013 16:30:00Z	 SAID31 WIII 181630	METAR WIII 181630Z 16009KT 3300 TSRA FEW018CB BKN020 27/24 Q1011 RMK CB OVER THE FIELDS=
18/07/2013 17:00:00Z	 SAID31 WIII 181700	METAR WIII 181700Z VRB05KT 5000 TSRA SCT018CB SCT020 26/24 Q1011 RMK CB OVER THE FIELDS=
18/07/2013 17:30:00Z	 SAID31 WIII 181730	METAR WIII 181730Z 06005KT 2400 TSRA FEW020CB BKN020 24/22 Q1011 RMK CB TO E=
18/07/2013 18:00:00Z	 SAID31 WIII 181800	METAR WIII 181800Z 18006KT 4000 -RA BKN020 25/23 Q1010=
18/07/2013 18:30:00Z	 SAID31 WIII 181830	METAR WIII 181830Z 20003KT 5000 BR SCT020 OVC098 25/23 Q1010=
18/07/2013 19:00:00Z	 SAID31 WIII 181900	METAR WIII 181900Z 23003KT 5000 BR SCT021 25/24 Q1010=
18/07/2013 19:30:00Z	 SAID31 WIII 181930	METAR WIII 181930Z 00000KT 6000 SCT020 25/23 Q1009=
18/07/2013 20:00:00Z	 SAID31 WIII 182000	METAR WIII 182000Z AUTO 26004KT 6000 OVC110 25/23 Q1009=
18/07/2013 20:30:00Z	 SAID31 WIII 182030	METAR WIII 182030Z AUTO 00000KT 5000 FEW060 OVC110 25/23 Q1009=
18/07/2013 21:30:00Z	 SAID31 WIII 182130	METAR WIII 182130Z 00000KT 3100 BR SCT020 25/23 Q1009=
18/07/2013 22:00:00Z	 SAID31 WIII 182200	METAR WIII 182200Z AUTO VRB02KT 6000 OVC110 25/23 Q1009=
18/07/2013 22:30:00Z	 SAID31 WIII 182230	METAR WIII 182230Z AUTO 23004KT 7000 -RA OVC110 25/23 Q1009=
18/07/2013 23:00:00Z	 SAID31 WIII 182300	METAR WIII 182300Z AUTO 00000KT 5000 OVC110 25/23 Q1010=
18/07/2013 23:30:00Z	 SAID31 WIII 182330	METAR WIII 182330Z 26003KT 3500 HZ SCT030 25/23 Q1010=
19/07/2013 00:00:00Z	 SAID31 WIII 190000	METAR WIII 190000Z 20002KT 3500 HZ FEW026 25/23 Q1010=
19/07/2013 00:30:00Z	 SAID31 WIII 190030	METAR WIII 190030Z 00000KT 3500 HZ FEW027 27/24 Q1010=
19/07/2013 01:00:00Z	 SAID31 WIII 190100	METAR WIII 190100Z 00000KT 4000 HZ SCT024 27/23 Q1011=
19/07/2013 01:30:00Z	 SAID31 WIII 190130	METAR WIII 190130Z AUTO 00000KT 9000 SCT060 BKN120 28/24 Q1011=
19/07/2013 02:00:00Z	 SAID31 WIII 190200	METAR WIII 190200Z VRB03KT 6000 FEW024 29/23 Q1011=
19/07/2013 02:30:00Z	 SAID31 WIII 190230	METAR WIII 190230Z 17004KT 6000 FEW024 30/23 Q1010=
19/07/2013 03:00:00Z	 SAID31 WIII 190300	METAR WIII 190300Z 15006KT 8000 FEW024 31/23 Q1010=
19/07/2013 03:30:00Z	 SAID31 WIII 190330	METAR WIII 190330Z 11008KT 9999 FEW024 32/21 Q1010=
19/07/2013 04:00:00Z	 SAID31 WIII 190400	METAR WIII 190400Z 11008KT 9999 FEW024 32/22 Q1009=
19/07/2013 04:30:00Z	 SAID31 WIII 190430	METAR WIII 190430Z VRB05KT 9999 FEW024 33/21 Q1008=
19/07/2013 05:00:00Z	 SAID31 WIII 190500	METAR WIII 190500Z 06009KT 7000 FEW024 32/23 Q1008=
19/07/2013 05:30:00Z	 SAID31 WIII 190530	METAR WIII 190530Z 04007KT 7000 FEW024 32/23 Q1008=
19/07/2013 06:00:00Z	 SAID31 WIII 190600	METAR WIII 190600Z 03007KT 9000 FEW026 32/21 Q1007=
19/07/2013 06:30:00Z	 SAID31 WIII 190630	METAR WIII 190630Z 05008KT 9999 FEW024 32/21 Q1007=
19/07/2013 07:00:00Z	 SAID31 WIII 190700	METAR WIII 190700Z 05009KT 9999 FEW024 33/21 Q1006=
19/07/2013 07:30:00Z	 SAID31 WIII 190730	METAR WIII 190730Z 05008KT 9999 FEW024 33/21 Q1006=
19/07/2013 08:00:00Z	 SAID31 WIII 190800	METAR WIII 190800Z 05011KT 9999 FEW024 32/21 Q1005=
19/07/2013 08:30:00Z	 SAID31 WIII 190830	METAR WIII 190830Z 06010KT 9999 FEW024 32/21 Q1005=
19/07/2013 09:00:00Z	 SAID31 WIII 190900	METAR WIII 190900Z 04009KT 9999 NCD 32/21 Q1005=
19/07/2013 09:30:00Z	 SAID31 WIII 190930	METAR WIII 190930Z 05008KT 9999 NCD 32/20 Q1006=
19/07/2013 10:00:00Z	 SAID31 WIII 191000	METAR WIII 191000Z 02007KT 9999 NCD 31/22 Q1006=
19/07/2013 10:30:00Z	 SAID31 WIII 191030	METAR WIII 191030Z 05005KT 9999 NCD 30/21 Q1007=
19/07/2013 11:00:00Z	 SAID31 WIII 191100	METAR WIII 191100Z AUTO 04006KT 9999 NCD 29/22 Q1007=
19/07/2013 11:30:00Z	 SAID31 WIII 191130	METAR WIII 191130Z AUTO 04005KT 9999 NCD 29/22 Q1008=
19/07/2013 12:00:00Z	 SAID31 WIII 191200	METAR WIII 191200Z 03004KT 9999 NCD 29/22 Q1008=
19/07/2013 12:30:00Z	 SAID31 WIII 191230	METAR WIII 191230Z AUTO 03003KT 9999 FEW055 28/22 Q1009=
19/07/2013 13:00:00Z	 SAID31 WIII 191300	METAR WIII 191300Z AUTO 03004KT 9999 NCD 28/22 Q1009=
19/07/2013 13:30:00Z	 SAID31 WIII 191330	METAR WIII 191330Z AUTO 04004KT 9999 NCD 28/22 Q1009=
19/07/2013 14:00:00Z	 SAID31 WIII 191400	METAR WIII 191400Z AUTO 04003KT 9999 SCT055 28/23 Q1010=
19/07/2013 14:30:00Z	 SAID31 WIII 191430	METAR WIII 191430Z AUTO 04002KT 9999 BKN055 28/23 Q1010=
19/07/2013 15:00:00Z	 SAID31 WIII 191500	METAR WIII 191500Z 00000KT 5000 BR BKN050 28/23 Q1010=
19/07/2013 15:30:00Z	 SAID31 WIII 191530	METAR WIII 191530Z 00000KT 5000 BR BKN060 28/23 Q1010=
19/07/2013 16:00:00Z	 SAID31 WIII 191600	METAR WIII 191600Z 00000KT 5000 BR BKN065 28/23 Q1010=
19/07/2013 16:30:00Z	 SAID31 WIII 191630	METAR WIII 191630Z 20003KT 5000 BR BKN065 28/24 Q1010=
19/07/2013 17:00:00Z	 SAID31 WIII 191700	METAR WIII 191700Z 22003KT 5000 BR BKN065 27/23 Q1010=
19/07/2013 17:30:00Z	 SAID31 WIII 191730	METAR WIII 191730Z 22004KT 4700 BR SCT030 BKN065 27/23 Q1010=
19/07/2013 18:00:00Z	 SAID31 WIII 191800	METAR WIII 191800Z 20004KT 4500 BR SCT030 BKN038 BKN055 BKN066 28/23 Q1009=
19/07/2013 18:30:00Z	 SAID31 WIII 191830	METAR WIII 191830Z VRB05KT 5000 BR SCT028 OVC065 27/23 Q1009=
19/07/2013 19:00:00Z	 SAID31 WIII 191900	METAR WIII 191900Z AUTO 01004KT 9999 BKN028 BKN034 BKN043 OVC060 27/23 Q1009=
19/07/2013 19:30:00Z	 SAID31 WIII 191930	METAR WIII 191930Z AUTO 02006KT 4400 BR SCT028 OVC044 25/23 Q1009=
19/07/2013 20:00:00Z	 SAID31 WIII 192000	METAR WIII 192000Z VRB02KT 4000 BR SCT020 OVC060 25/24 Q1009=
19/07/2013 20:30:00Z	 SAID31 WIII 192030	METAR WIII 192030Z VRB02KT 5000 BR OVC060 26/23 Q1009=
19/07/2013 21:00:00Z	 SAID31 WIII 192100	METAR WIII 192100Z 20003KT 5000 BR OVC065 26/24 Q1008=
19/07/2013 21:30:00Z	 SAID31 WIII 192130	METAR WIII 192130Z 27002KT 5000 BR FEW046 BKN060 26/24 Q1008=
19/07/2013 22:00:00Z	 SAID31 WIII 192200	METAR WIII 192200Z AUTO VRB03KT 4300 BR SCT030 BKN065 26/24 Q1009=
19/07/2013 22:30:00Z	 SAID31 WIII 192230	METAR WIII 192230Z 34004KT 4000 -RA BR BKN028 OVC038 26/24 Q1009=
19/07/2013 23:00:00Z	 SAID31 WIII 192300	METAR WIII 192300Z AUTO 00000KT 3700 BR FEW030 OVC039 26/24 Q1009=
19/07/2013 23:30:00Z	 SAID31 WIII 192330	METAR WIII 192330Z AUTO VRB02KT 5000 SCT028 OVC035 26/23 Q1010=
20/07/2013 00:00:00Z	 SAID31 WIII 200000	METAR WIII 200000Z 00000KT 5000 -RA SCT018 OVC050 26/23 Q1010=
20/07/2013 00:30:00Z	 SAID31 WIII 200030	METAR WIII 200030Z 16002KT 5000 -RA BKN020 27/24 Q1010=
20/07/2013 01:00:00Z	 SAID31 WIII 200100	METAR WIII 200100Z 19004KT 5000 BR OVC022 27/24 Q1010=
20/07/2013 01:30:00Z	 SAID31 WIII 200130	METAR WIII 200130Z 26004KT 5000 BR OVC055 27/24 Q1010=
20/07/2013 02:00:00Z	 SAID31 WIII 200200	METAR WIII 200200Z 25005KT 5000 BR BKN055 27/24 Q1010=
20/07/2013 02:30:00Z	 SAID31 WIII 200230	METAR WIII 200230Z 23005KT 5000 BR BKN060 28/24 Q1010=
20/07/2013 03:00:00Z	 SAID31 WIII 200300	METAR WIII 200300Z VRB05KT 6000 BKN020 29/24 Q1010=
20/07/2013 03:30:00Z	 SAID31 WIII 200330	METAR WIII 200330Z VRB03KT 6000 SCT020 30/24 Q1010=
20/07/2013 04:00:00Z	 SAID31 WIII 200400	METAR WIII 200400Z VRB02KT 6000 SCT020 30/24 Q1009=
20/07/2013 04:30:00Z	 SAID31 WIII 200430	METAR WIII 200430Z VRB03KT 7000 SCT027 31/23 Q1009=
20/07/2013 05:00:00Z	 SAID31 WIII 200500	METAR WIII 200500Z VRB04KT 8000 FEW018 32/23 Q1008=
20/07/2013 05:30:00Z	 SAID31 WIII 200530	METAR WIII 200530Z VRB03KT 7000 SCT035 31/23 Q1008=
20/07/2013 06:00:00Z	 SAID31 WIII 200600	METAR WIII 200600Z VRB04KT 7000 OVC029 31/23 Q1007 RMK VC PREC TO NW AND W=
20/07/2013 06:30:00Z	 SAID31 WIII 200630	METAR WIII 200630Z VRB05KT 8000 SCT029 OVC036 31/24 Q1007 RMK VC PREC TO NW AND SW=
20/07/2013 07:00:00Z	 SAID31 WIII 200700	METAR WIII 200700Z 29008KT 8000 BKN020 28/24 Q1007 RMK VC PREC TO SW AND W=
20/07/2013 07:30:00Z	 SAID31 WIII 200730	METAR WIII 200730Z AUTO 25005KT 8000 FEW043 OVC075 28/24 Q1007=
20/07/2013 08:00:00Z	 SAID31 WIII 200800	METAR WIII 200800Z AUTO 00000KT 6000 NCD 28/22 Q1006=
20/07/2013 08:30:00Z	 SAID31 WIII 200830	METAR WIII 200830Z AUTO VRB02KT 6000 FEW080 29/23 Q1006=
20/07/2013 09:00:00Z	 SAID31 WIII 200900	METAR WIII 200900Z AUTO 02002KT 5000 FEW085 29/23 Q1006=
20/07/2013 09:30:00Z	 SAID31 WIII 200930	METAR WIII 200930Z 04002KT 8000 FEW029 SCT075 29/24 Q1007=
20/07/2013 10:00:00Z	 SAID31 WIII 201000	METAR WIII 201000Z 35002KT 5000 BR BKN020 29/24 Q1007 RMK VC PREC TO SW AND SE=
20/07/2013 10:30:00Z	 SAID31 WIII 201030	METAR WIII 201030Z 11017KT 3000 +RA BR BKN021 BKN028 OVC040 26/23 Q1007=
20/07/2013 11:00:00Z	 SAID31 WIII 201100	METAR WIII 201100Z VRB07KT 4000 VCTS RA FEW016CB BKN018 OVC023 26/23 Q1008 RMK CB TO NW=
20/07/2013 11:30:00Z	 SAID31 WIII 201130	METAR WIII 201130Z VRB02KT 5000 -RA SCT035 OVC055 26/24 Q1008=
20/07/2013 12:30:00Z	 SAID31 WIII 201230	METAR WIII 201230Z 20003KT 4000 BR SCT022 OVC070 27/24 Q1009=
20/07/2013 13:00:00Z	 SAID31 WIII 201300	METAR WIII 201300Z VRB05KT 3000 BR SCT020 BKN110 28/24 Q1009=
20/07/2013 13:30:00Z	 SAID31 WIII 201330	METAR WIII 201330Z 21005KT 3000 BR SCT022 BKN075 27/24 Q1009=
20/07/2013 14:00:00Z	 SAID31 WIII 201400	METAR WIII 201400Z 22003KT 2400 BR SCT020 BKN035 27/24 Q1010=
20/07/2013 14:30:00Z	 SAID31 WIII 201430	METAR WIII 201430Z 18009KT 2000 RA SCT021 BKN037 OVC089 26/24 Q1010=
20/07/2013 15:00:00Z	 SAID31 WIII 201500	METAR WIII 201500Z 19007KT 2800 BR SCT022 BKN041 OVC110 26/24 Q1010=
20/07/2013 15:30:00Z	 SAID31 WIII 201530	METAR WIII 201530Z VRB04KT 2300 BR SCT023 BKN110 26/24 Q1010=
20/07/2013 16:00:00Z	 SAID31 WIII 201600	METAR WIII 201600Z 16006KT 2500 BR SCT022 BKN160 26/24 Q1010=
20/07/2013 16:30:00Z	 SAID31 WIII 201630	METAR WIII 201630Z 20005KT 2500 BR SCT023 25/24 Q1010=
20/07/2013 17:00:00Z	 SAID31 WIII 201700	METAR WIII 201700Z 20003KT 2900 BR SCT023 BKN085 26/23 Q1009=
20/07/2013 17:30:00Z	 SAID31 WIII 201730	METAR WIII 201730Z VRB05KT 2200 -RA SCT023 BKN055 OVC130 25/24 Q1009=
20/07/2013 18:00:00Z	 SAID31 WIII 201800	METAR WIII 201800Z VRB03KT 1900 -RA SCT023 BKN049 26/24 Q1009=
20/07/2013 18:30:00Z	 SAID31 WIII 201830	METAR WIII 201830Z 28004KT 2200 -RA SCT020 BKN055 26/24 Q1009=
20/07/2013 19:00:00Z	 SAID31 WIII 201900	METAR WIII 201900Z 26004KT 1500 -RA SCT023 BKN071 25/24 Q1008=
20/07/2013 19:30:00Z	 SAID31 WIII 201930	METAR WIII 201930Z 22005KT 1500 -RA SCT023 BKN100 25/24 Q1008=
20/07/2013 20:00:00Z	 SAID31 WIII 202000	METAR WIII 202000Z 23004KT 1800 -DZ FEW020CB SCT023 OVC110 25/24 Q100 8 RMK CB TO W=
20/07/2013 20:30:00Z	 SAID31 WIII 202030	METAR WIII 202030Z 19005KT 2300 BR FEW020CB SCT022 OVC130 25/24 Q1008 RMK CB TO W=
20/07/2013 21:00:00Z	 SAID31 WIII 202100	METAR WIII 202100Z 15004KT 2700 BR SCT023 BKN080 25/23 Q1008=
20/07/2013 21:30:00Z	 SAID31 WIII 202130	METAR WIII 202130Z 15002KT 2000 -RA BKN018 OVC120 25/23 Q1008=
20/07/2013 22:00:00Z	 SAID31 WIII 202200	METAR WIII 202200Z 22004KT 3000 BR SCT018 BKN110 25/23 Q1008=
20/07/2013 22:30:00Z	 SAID31 WIII 202230	METAR WIII 202230Z 25003KT 3000 BR SCT020 BKN120 25/23 Q1008=
20/07/2013 23:00:00Z	 SAID31 WIII 202300	METAR WIII 202300Z 25003KT 1600 BR SCT023 BKN150 25/23 Q1008=
20/07/2013 23:30:00Z	 SAID31 WIII 202330	METAR WIII 202330Z 24006KT 1700 BR SCT023 BKN150 25/23 Q1009=
21/07/2013 00:00:00Z	 SAID31 WIII 210000	METAR WIII 210000Z 24005KT 2600 BR SCT023 BKN150 26/23 Q1009=
21/07/2013 00:30:00Z	 SAID31 WIII 210030	METAR WIII 210030Z 22004KT 3000 BR SCT023 26/24 Q1009=
21/07/2013 01:00:00Z	 SAID31 WIII 210100	METAR WIII 210100Z AUTO 20002KT 5000 BR SCT150 27/24 Q1009=
21/07/2013 01:30:00Z	 SAID31 WIII 210130	METAR WIII 210130Z 22002KT 5000 HZ FEW024 29/24 Q1009=
21/07/2013 02:00:00Z	 SAID31 WIII 210200	METAR WIII 210200Z 11003KT 7000 FEW024 30/24 Q1009=
21/07/2013 02:30:00Z	 SAID31 WIII 210230	METAR WIII 210230Z VRB02KT 8000 FEW024 31/24 Q1009=
21/07/2013 03:00:00Z	 SAID31 WIII 210300	METAR WIII 210300Z VRB06KT 8000 FEW024 32/23 Q1009=
21/07/2013 03:30:00Z	 SAID31 WIII 210330	METAR WIII 210330Z 01006KT 8000 FEW024 31/23 Q1009=
21/07/2013 04:00:00Z	 SAID31 WIII 210400	METAR WIII 210400Z VRB04KT 8000 FEW024 31/23 Q1008=
21/07/2013 04:30:00Z	 SAID31 WIII 210430	METAR WIII 210430Z AUTO 02006KT 9999 SCT075 32/23 Q1008=
21/07/2013 05:00:00Z	 SAID31 WIII 210500	METAR WIII 210500Z 18004KT 9000 BKN033 32/23 Q1007=
21/07/2013 05:30:00Z	 SAID31 WIII 210530	METAR WIII 210530Z 19012KT 7000 BKN030 29/23 Q1007=
21/07/2013 06:00:00Z	 SAID31 WIII 210600	METAR WIII 210600Z 25009KT 7000 TS FEW020CB BKN028 28/23 Q1007 RMK CB TO W=
21/07/2013 06:30:00Z	 SAID31 WIII 210630	METAR WIII 210630Z 25007KT 8000 -RA FEW020CB SCT055 27/22 Q1007 RETS RMK CB TO NW=
21/07/2013 07:30:00Z	 SAID31 WIII 210730	METAR WIII 210730Z VRB02KT 9999 SCT030 30/22 Q1006=
21/07/2013 08:00:00Z	 SAID31 WIII 210800	METAR WIII 210800Z VRB02KT 9999 SCT030 32/23 Q1005=
21/07/2013 08:30:00Z	 SAID31 WIII 210830	METAR WIII 210830Z VRB03KT 9999 FEW024 32/23 Q1005=
21/07/2013 09:00:00Z	 SAID31 WIII 210900	METAR WIII 210900Z VRB02KT 9999 FEW039 31/23 Q1005=
21/07/2013 09:30:00Z	 SAID31 WIII 210930	METAR WIII 210930Z 03005KT 9999 BKN029 31/23 Q1005=
21/07/2013 10:00:00Z	 SAID31 WIII 211000	METAR WIII 211000Z 35005KT 9999 FEW028 30/23 Q1005=
21/07/2013 10:30:00Z	 SAID31 WIII 211030	METAR WIII 211030Z 04006KT 9999 FEW028 29/24 Q1006=
21/07/2013 11:00:00Z	 SAID31 WIII 211100	METAR WIII 211100Z AUTO 35003KT 7000 BKN080 29/24 Q1006=
21/07/2013 11:30:00Z	 SAID31 WIII 211130	METAR WIII 211130Z AUTO 36002KT 5000 NCD 28/24 Q1006=
21/07/2013 12:00:00Z	 SAID31 WIII 211200	METAR WIII 211200Z 36002KT 3800 HZ FEW030 28/24 Q1007=
21/07/2013 12:30:00Z	 SAID31 WIII 211230	METAR WIII 211230Z AUTO 36002KT 3400 BR SCT022 28/24 Q1007=
21/07/2013 13:00:00Z	 SAID31 WIII 211300	METAR WIII 211300Z AUTO 31002KT 2200 BR FEW095 27/24 Q1008=
21/07/2013 13:30:00Z	 SAID31 WIII 211330	METAR WIII 211330Z 29002KT 2500 BR NCD 27/24 Q1008=
21/07/2013 14:00:00Z	 SAID31 WIII 211400	METAR WIII 211400Z 30002KT 3000 BR NCD 27/24 Q1008=
21/07/2013 14:30:00Z	 SAID31 WIII 211430	METAR WIII 211430Z 31002KT 2600 BR NCD 27/25 Q1008=
21/07/2013 15:00:00Z	 SAID31 WIII 211500	METAR WIII 211500Z 27002KT 2600 VCTS FEW020CB FEW021 27/25 Q1009 RMK CB TO SW=
21/07/2013 15:30:00Z	 SAID31 WIII 211530	METAR WIII 211530Z 26005KT 3200 BR SCT020 27/24 Q1009=
21/07/2013 16:00:00Z	 SAID31 WIII 211600	METAR WIII 211600Z 23007KT 1800 BR FEW022 27/24 Q1009=
21/07/2013 16:30:00Z	 SAID31 WIII 211630	METAR WIII 211630Z 21007KT 3100 BR FEW020CB SCT021 27/24 Q1009 CB TO NE=
21/07/2013 17:00:00Z	 SAID31 WIII 211700	METAR WIII 211700Z 21008KT 7000 VCTS SCT019CB SCT020 26/23 Q1009 RMK CB TO SE TILL NE=
21/07/2013 17:30:00Z	 SAID31 WIII 211730	METAR WIII 211730Z 14006KT 5000 TS SCT019CB BKN020 26/23 Q1009 RMK CB TO E=
21/07/2013 18:00:00Z	 SAID31 WIII 211800	METAR WIII 211800Z VRB03KT 3900 -TSRA FEW016CB BKN021 25/23 Q1009 RMK CB TO N=
21/07/2013 18:30:00Z	 SAID31 WIII 211830	METAR WIII 211830Z 07004KT 4600 BR SCT020 25/24 Q1009=
21/07/2013 19:00:00Z	 SAID31 WIII 211900	METAR WIII 211900Z VRB04KT 5000 -RA FEW020CB OVC021 25/23 Q1008 RMK C B TO NW=
21/07/2013 19:30:00Z	 SAID31 WIII 211930	METAR WIII 211930Z AUTO 17002KT 8000 VCTS OVC024 25/23 Q1008=
21/07/2013 20:00:00Z	 SAID31 WIII 212000	METAR WIII 212000Z AUTO 00000KT 4300 TS BR BKN028 OVC034 26/24 Q1008=
21/07/2013 20:30:00Z	 SAID31 WIII 212030	METAR WIII 212030Z AUTO 00000KT 3000 BR SCT026 OVC060 25/23 Q1008=
21/07/2013 21:00:00Z	 SAID31 WIII 212100	METAR WIII 212100Z VRB02KT 4700 BR SCT020 25/23 Q1008=
21/07/2013 21:30:00Z	 SAID31 WIII 212130	METAR WIII 212130Z 22003KT 3500 BR BKN020 25/23 Q1008=
21/07/2013 22:00:00Z	 SAID31 WIII 212200	METAR WIII 212200Z 25004KT 3200 BR BKN021 25/23 Q1008=
21/07/2013 22:30:00Z	 SAID31 WIII 212230	METAR WIII 212230Z VRB02KT 2700 BR BKN020 25/23 Q1008=
21/07/2013 23:00:00Z	 SAID31 WIII 212300	METAR WIII 212300Z VRB03KT 2700 BR BKN020 25/23 Q1008=
21/07/2013 23:30:00Z	 SAID31 WIII 212330	METAR WIII 212330Z VRB02KT 2900 BR BKN020 26/23 Q1009=
22/07/2013 00:00:00Z	 SAID31 WIII 220000	METAR WIII 220000Z 03003KT 3200 VCTS FEW020CB BKN020 25/23 Q1009 RMK CB TO NE=
22/07/2013 01:00:00Z	 SAID31 WIII 220100	METAR WIII 220100Z AUTO 03007KT 2500 SHRA BR BKN045 OVC055 25/23 Q101 1=
22/07/2013 01:30:00Z	 SAID31 WIII 220130	METAR WIII 220130Z 36007KT 2500 -RA FEW016CB OVC020 25/23 Q1011=
22/07/2013 02:00:00Z	 SAID31 WIII 220200	METAR WIII 220200Z 02007KT 2500 -RA SCT016CB OVC020 24/23 Q1011=
22/07/2013 03:00:00Z	 SAID31 WIII 220300	METAR WIII 220300Z 09008KT 5000 -TSRA FEW016CB OVC018 25/23 Q1011=
22/07/2013 03:31:00Z	 SAID31 WIII 220331	METAR WIII 220331Z 09009KT 5000 -TSRA FEW016CB OVC020 25/23 Q1011=
22/07/2013 04:00:00Z	 SAID31 WIII 220400	METAR WIII 220400Z 12007KT 5000 -RA BKN018 OVC020 25/23 Q1010 RMK RET S=
22/07/2013 04:30:00Z	 SAID31 WIII 220430	METAR WIII 220430Z 15007KT 5000 -RA BKN018 OVC020 26/23 Q1010 RMK RET S=
22/07/2013 05:00:00Z	 SAID31 WIII 220500	METAR WIII 220500Z 18007KT 5000 -RA BKN016 OVC020 27/24 Q1009=
22/07/2013 05:30:00Z	 SAID31 WIII 220530	METAR WIII 220530Z 17006KT 5000 HZ BKN018 27/24 Q1009=
22/07/2013 06:00:00Z	 SAID31 WIII 220600	METAR WIII 220600Z 17005KT 6000 BKN018 27/23 Q1009=
22/07/2013 06:30:00Z	 SAID31 WIII 220630	METAR WIII 220630Z 16005KT 5000 HZ BKN018 27/23 Q1008=
22/07/2013 07:00:00Z	 SAID31 WIII 220700	METAR WIII 220700Z 16006KT 6000 BKN018 27/23 Q1008=
22/07/2013 07:30:00Z	 SAID31 WIII 220730	METAR WIII 220730Z 12004KT 5000 HZ BKN018 28/23 Q1007=
22/07/2013 08:00:00Z	 SAID31 WIII 220800	METAR WIII 220800Z 13003KT 7000 SCT018 28/23 Q1007=
22/07/2013 08:30:00Z	 SAID31 WIII 220830	METAR WIII 220830Z 15005KT 7000 BKN018 28/23 Q1006=
22/07/2013 09:00:00Z	 SAID31 WIII 220900	METAR WIII 220900Z 13005KT 5000 HZ SCT018 28/23 Q1006=
22/07/2013 09:30:00Z	 SAID31 WIII 220930	METAR WIII 220930Z 15003KT 5000 HZ SCT018 28/23 Q1006=
22/07/2013 10:00:00Z	 SAID31 WIII 221000	METAR WIII 221000Z VRB02KT 5000 HZ SCT018 28/23 Q1007=
22/07/2013 10:30:00Z	 SAID31 WIII 221030	METAR WIII 221030Z 11006KT 5000 HZ SCT018 28/22 Q1007=
22/07/2013 11:00:00Z	 SAID31 WIII 221100	METAR WIII 221100Z 12006KT 5000 HZ SCT018 28/23 Q1008=
22/07/2013 11:30:00Z	 SAID31 WIII 221130	METAR WIII 221130Z 11004KT 5000 HZ BKN018 28/22 Q1008=
22/07/2013 12:00:00Z	 SAID31 WIII 221200	METAR WIII 221200Z 15004KT 7000 BKN020 28/22 Q1008=
22/07/2013 12:30:00Z	 SAID31 WIII 221230	METAR WIII 221230Z 17005KT 7000 BKN020 27/22 Q1009=
22/07/2013 13:00:00Z	 SAID31 WIII 221300	METAR WIII 221300Z 12006KT 4000 HZ BKN020 27/22 Q1009=
22/07/2013 13:30:00Z	 SAID31 WIII 221330	METAR WIII 221330Z 12004KT 6000 BKN020 27/22 Q1009=
22/07/2013 14:00:00Z	 SAID31 WIII 221400	METAR WIII 221400Z 17002KT 5000 HZ BKN020 27/22 Q1009=
22/07/2013 14:30:00Z	 SAID31 WIII 221430	METAR WIII 221430Z 13003KT 5000 HZ FEW018CB BKN020 27/22 Q1010=
22/07/2013 15:00:00Z	 SAID31 WIII 221500	METAR WIII 221500Z 10004KT 6000 FEW018CB SCT020 27/22 Q1010=
22/07/2013 15:30:00Z	 SAID31 WIII 221530	METAR WIII 221530Z AUTO 12004KT 6000 NCD 26/22 Q1010=
22/07/2013 16:00:00Z	 SAID31 WIII 221600	METAR WIII 221600Z 31002KT 6000 FEW018CB SCT020 27/22 Q1010=
22/07/2013 16:30:00Z	 SAID31 WIII 221630	METAR WIII 221630Z VRB02KT 2500 BR FEW018CB SCT020 25/23 Q1010=
22/07/2013 17:00:00Z	 SAID31 WIII 221700	METAR WIII 221700Z VRB02KT 5000 BR SCT018 25/22 Q1010=
22/07/2013 17:30:00Z	 SAID31 WIII 221730	METAR WIII 221730Z 22004KT 2500 BR SCT018 25/22 Q1010=
22/07/2013 18:00:00Z	 SAID31 WIII 221800	METAR WIII 221800Z 21003KT 2500 BR SCT020 25/23 Q1010=
22/07/2013 18:30:00Z	 SAID31 WIII 221830	METAR WIII 221830Z AUTO 25002KT 1800 BR NCD 25/22 Q1009=
22/07/2013 19:00:00Z	 SAID31 WIII 221900	METAR WIII 221900Z AUTO VRB04KT 2500 BR NCD 24/22 Q1009=
22/07/2013 19:30:00Z	 SAID31 WIII 221930	METAR WIII 221930Z AUTO 29003KT 2000 BR NCD 24/22 Q1009=
22/07/2013 20:00:00Z	 SAID31 WIII 222000	METAR WIII 222000Z 32002KT 1500 BR FEW018CB SCT020 24/22 Q1009=
22/07/2013 20:30:00Z	 SAID31 WIII 222030	METAR WIII 222030Z 00000KT 1500 FG FEW018CB SCT020 24/23 Q1009=
22/07/2013 21:00:00Z	 SAID31 WIII 222100	METAR WIII 222100Z 14003KT 1700 BR SCT018 24/22 Q1009=
22/07/2013 21:30:00Z	 SAID31 WIII 222130	METAR WIII 222130Z 12003KT 2000 BR SCT020 24/22 Q1009=
22/07/2013 22:00:00Z	 SAID31 WIII 222200	METAR WIII 222200Z AUTO 00000KT 3000 BR NCD 24/22 Q1009=
22/07/2013 22:30:00Z	 SAID31 WIII 222230	METAR WIII 222230Z 00000KT 4000 BR BKN020 25/22 Q1009=
22/07/2013 23:00:00Z	 SAID31 WIII 222300	METAR WIII 222300Z AUTO VRB02KT 3500 BR FEW026 BKN033 BKN046 OVC180 2 5/22 Q1009=
22/07/2013 23:30:00Z	 SAID31 WIII 222330	METAR WIII 222330Z 21004KT 3000 HZ FEW016CB BKN018 25/22 Q1010=
23/07/2013 00:00:00Z	 SAID31 WIII 230000	METAR WIII 230000Z 20005KT 3000 BR OVC016 25/22 Q1010=
23/07/2013 00:30:00Z	 SAID31 WIII 230030	METAR WIII 230030Z 16005KT 3200 HZ FEW020 SCT100 26/22 Q1010=
23/07/2013 01:00:00Z	 SAID31 WIII 230100	METAR WIII 230100Z 19004KT 3500 HZ FEW020 27/23 Q1010=
23/07/2013 01:30:00Z	 SAID31 WIII 230130	METAR WIII 230130Z VRB03KT 4000 HZ SCT023 28/23 Q1011=
23/07/2013 02:00:00Z	 SAID31 WIII 230200	METAR WIII 230200Z VRB05KT 3500 HZ SCT023 30/24 Q1010=
23/07/2013 02:30:00Z	 SAID31 WIII 230230	METAR WIII 230230Z 10012KT 5000 HZ BKN023 31/24 Q1010=
23/07/2013 03:00:00Z	 SAID31 WIII 230300	METAR WIII 230300Z 11013KT 5000 HZ FEW021CB SCT023 30/23 Q1010 RMK CB TO NE=
23/07/2013 03:30:00Z	 SAID31 WIII 230330	METAR WIII 230330Z 11015KT 6000 FEW021CB BKN023 31/23 Q1010 RMK CB TO NE=
23/07/2013 04:00:00Z	 SAID31 WIII 230400	METAR WIII 230400Z 09015KT 6000 SCT023 31/23 Q1010=
23/07/2013 04:30:00Z	 SAID31 WIII 230430	METAR WIII 230430Z 10014KT 7000 SCT022 32/23 Q1010=
23/07/2013 05:00:00Z	 SAID31 WIII 230500	METAR WIII 230500Z 10014KT 8000 SCT023 32/23 Q1009=
23/07/2013 05:30:00Z	 SAID31 WIII 230530	METAR WIII 230530Z AUTO 08011KT 9999 FEW039 33/23 Q1009=
23/07/2013 06:00:00Z	 SAID31 WIII 230600	METAR WIII 230600Z 11017KT 8000 SCT023 32/23 Q1008=
23/07/2013 06:30:00Z	 SAID31 WIII 230630	METAR WIII 230630Z 06015KT 8000 SCT022 32/24 Q1008=
23/07/2013 07:00:00Z	 SAID31 WIII 230700	METAR WIII 230700Z 07013KT 8000 FEW020CB SCT022 32/24 Q1007 RMK CB TO N=
23/07/2013 07:30:00Z	 SAID31 WIII 230730	METAR WIII 230730Z 06013KT 9000 SCT022 32/23 Q1007=
23/07/2013 08:00:00Z	 SAID31 WIII 230800	METAR WIII 230800Z 06015KT 9000 SCT022 32/23 Q1007=
23/07/2013 08:30:00Z	 SAID31 WIII 230830	METAR WIII 230830Z 06015KT 9000 SCT021 32/23 Q1007=
23/07/2013 09:00:00Z	 SAID31 WIII 230900	METAR WIII 230900Z 06018KT 9000 FEW022 32/23 Q1007=
23/07/2013 09:30:00Z	 SAID31 WIII 230930	METAR WIII 230930Z 07016KT 8000 FEW020CB FEW023 31/23 Q1007 RMK CB TO S=
23/07/2013 10:00:00Z	 SAID31 WIII 231000	METAR WIII 231000Z 07014KT 8000 FEW020CB FEW023 31/22 Q1007 RMK CB TO S=
23/07/2013 10:30:00Z	 SAID31 WIII 231030	METAR WIII 231030Z 07015KT 8000 FEW020CB FEW022 30/23 Q1007 RMK CB TO S=
23/07/2013 11:00:00Z	 SAID31 WIII 231100	METAR WIII 231100Z 06013KT 7000 FEW020CB FEW021 29/22 Q1008 RMK CB TO S=
23/07/2013 11:30:00Z	 SAID31 WIII 231130	METAR WIII 231130Z 07013KT 7000 FEW020CB FEW021 29/22 Q1008 RMK CB TO S=
23/07/2013 12:00:00Z	 SAID31 WIII 231200	METAR WIII 231200Z 07013KT 7000 FEW020CB FEW022 28/23 Q1009 RMK CB TO S=
23/07/2013 12:30:00Z	 SAID31 WIII 231230	METAR WIII 231230Z 06013KT 7000 FEW020CB FEW022 28/23 Q1009 RMK CB TO SW=
23/07/2013 13:00:00Z	 SAID31 WIII 231300	METAR WIII 231300Z 11008KT 6000 FEW021 28/23 Q1010=
23/07/2013 13:30:00Z	 SAID31 WIII 231330	METAR WIII 231330Z 11007KT 7000 FEW021 28/23 Q1010=
23/07/2013 14:00:00Z	 SAID31 WIII 231400	METAR WIII 231400Z 12006KT 7000 FEW021 28/23 Q1010=
23/07/2013 14:30:00Z	 SAID31 WIII 231430	METAR WIII 231430Z AUTO 12005KT 8000 NCD 28/23 Q1011=
23/07/2013 15:00:00Z	 SAID31 WIII 231500	METAR WIII 231500Z 13005KT 8000 FEW022 28/24 Q1011=
23/07/2013 15:30:00Z	 SAID31 WIII 231530	METAR WIII 231530Z VRB05KT 8000 FEW022 28/24 Q1011=
23/07/2013 16:00:00Z	 SAID31 WIII 231600	METAR WIII 231600Z 11007KT 7000 NCD 28/24 Q1011=
23/07/2013 16:30:00Z	 SAID31 WIII 231630	METAR WIII 231630Z VRB04KT 5000 FEW022 28/24 Q1011=
23/07/2013 17:00:00Z	 SAID31 WIII 231700	METAR WIII 231700Z VRB03KT 3800 BR FEW022 27/24 Q1011=
23/07/2013 17:30:00Z	 SAID31 WIII 231730	METAR WIII 231730Z VRB03KT 4100 BR FEW022 27/24 Q1011=
23/07/2013 18:00:00Z	 SAID31 WIII 231800	METAR WIII 231800Z 23003KT 2900 BR SCT021 27/24 Q1011=
23/07/2013 18:30:00Z	 SAID31 WIII 231830	METAR WIII 231830Z 22002KT 2700 BR SCT021 27/24 Q1010=
23/07/2013 19:00:00Z	 SAID31 WIII 231900	METAR WIII 231900Z 22003KT 3100 BR FEW021 27/24 Q1010=
23/07/2013 19:30:00Z	 SAID31 WIII 231930	METAR WIII 231930Z AUTO 21003KT 2300 BR FEW023 26/24 Q1010=
23/07/2013 20:00:00Z	 SAID31 WIII 232000	METAR WIII 232000Z AUTO 19006KT 2700 BR SCT025 SCT220 BKN240 26/24 Q1009=
23/07/2013 20:30:00Z	 SAID31 WIII 232030	METAR WIII 232030Z 09008KT 2000 TSRA FEW018CB BKN020 26/24 Q1010 RMK CB TO N=
23/07/2013 21:00:00Z	 SAID31 WIII 232100	METAR WIII 232100Z 05007KT 4000 -RA BKN020 25/23 Q1010=
23/07/2013 21:30:00Z	 SAID31 WIII 232130	METAR WIII 232130Z 05005KT 5000 -RA BKN020 25/23 Q1010=
23/07/2013 22:00:00Z	 SAID31 WIII 232200	METAR WIII 232200Z 07002KT 7000 FEW020CB SCT020 25/23 Q1010 RMK CB TO W=
23/07/2013 22:30:00Z	 SAID31 WIII 232230	METAR WIII 232230Z AUTO VRB04KT 9999 BKN200 25/23 Q1010=
23/07/2013 23:00:00Z	 SAID31 WIII 232300	METAR WIII 232300Z AUTO 16006KT 9999 FEW170 BKN200 25/23 Q1010=
23/07/2013 23:30:00Z	 SAID31 WIII 232330	METAR WIII 232330Z 15005KT 8000 FEW022 SCT210 25/22 Q1010=
24/07/2013 00:00:00Z	 SAID31 WIII 240000	METAR WIII 240000Z 13004KT 8000 FEW022 26/23 Q1011=
24/07/2013 00:30:00Z	 SAID31 WIII 240030	METAR WIII 240030Z AUTO VRB05KT 9999 NCD 27/23 Q1011=
24/07/2013 01:00:00Z	 SAID31 WIII 240100	METAR WIII 240100Z AUTO 17005KT 9999 NCD 27/23 Q1011=
24/07/2013 01:30:00Z	 SAID31 WIII 240130	METAR WIII 240130Z 17004KT 9000 FEW028 29/23 Q1012=
24/07/2013 02:00:00Z	 SAID31 WIII 240200	METAR WIII 240200Z VRB04KT 8000 FEW030 30/23 Q1012=
24/07/2013 02:30:00Z	 SAID31 WIII 240230	METAR WIII 240230Z 08006KT 8000 FEW024 30/23 Q1011=
24/07/2013 03:00:00Z	 SAID31 WIII 240300	METAR WIII 240300Z VRB05KT 8000 FEW024 31/23 Q1011=
24/07/2013 03:30:00Z	 SAID31 WIII 240330	METAR WIII 240330Z AUTO 06010KT 9999 SCT035 31/24 Q1011=
24/07/2013 04:00:00Z	 SAID31 WIII 240400	METAR WIII 240400Z 06010KT 7000 FEW037 30/24 Q1011=
24/07/2013 04:30:00Z	 SAID31 WIII 240430	METAR WIII 240430Z 07011KT 7000 FEW024 30/24 Q1011=
24/07/2013 05:00:00Z	 SAID31 WIII 240500	METAR WIII 240500Z 06013KT 9000 FEW024 31/24 Q1010=
24/07/2013 05:30:00Z	 SAID31 WIII 240530	METAR WIII 240530Z 08014KT 9999 FEW024 31/24 Q1009=
24/07/2013 06:00:00Z	 SAID31 WIII 240600	METAR WIII 240600Z 08014KT 9999 FEW024 31/24 Q1009=
24/07/2013 06:30:00Z	 SAID31 WIII 240630	METAR WIII 240630Z 07014KT 9999 FEW039 30/24 Q1009=
24/07/2013 07:00:00Z	 SAID31 WIII 240700	METAR WIII 240700Z 08015KT 9999 FEW023 31/24 Q1009=
24/07/2013 07:30:00Z	 SAID31 WIII 240730	METAR WIII 240730Z 07015KT 9999 FEW024 30/25 Q1008=
24/07/2013 08:00:00Z	 SAID31 WIII 240800	METAR COR WIII 240800Z 06009KT 9999 FEW021CB FEW024 30/24 Q1008 RMK C B TO SW=
24/07/2013 08:30:00Z	 SAID31 WIII 240830	METAR WIII 240830Z 07011KT 9999 FEW021CB SCT030 30/25 Q1008 RMK CB TO W=
24/07/2013 09:00:00Z	 SAID31 WIII 240900	METAR WIII 240900Z 05010KT 9999 FEW024 30/24 Q1008=
24/07/2013 09:30:00Z	 SAID31 WIII 240930	METAR WIII 240930Z 06007KT 9999 FEW024 30/23 Q1008=
24/07/2013 10:00:00Z	 SAID31 WIII 241000	METAR WIII 241000Z 06007KT 9999 FEW024 30/24 Q1008=
24/07/2013 10:30:00Z	 SAID31 WIII 241030	METAR WIII 241030Z 04005KT 9000 FEW024 29/24 Q1009=
24/07/2013 11:00:00Z	 SAID31 WIII 241100	METAR WIII 241100Z AUTO 01002KT 6000 NCD 29/24 Q1009=
24/07/2013 11:30:00Z	 SAID31 WIII 241130	METAR WIII 241130Z AUTO 24009KT 5000 BR BKN027 OVC033 28/24 Q1009=
24/07/2013 12:00:00Z	 SAID31 WIII 241200	METAR WIII 241200Z AUTO 24010KT 9999 BKN025 BKN060 28/23 Q1010=
24/07/2013 12:30:00Z	 SAID31 WIII 241230	METAR WIII 241230Z AUTO 22008KT 9000 FEW014 SCT031 BKN047 OVC055 27/2 3 Q1011=
24/07/2013 13:00:00Z	 SAID31 WIII 241300	METAR WIII 241300Z AUTO 23004KT 9999 FEW033 26/23 Q1011=
24/07/2013 13:30:00Z	 SAID31 WIII 241330	METAR WIII 241330Z AUTO VRB02KT 9000 NCD 26/23 Q1011=
24/07/2013 14:00:00Z	 SAID31 WIII 241400	METAR WIII 241400Z VRB02KT 5000 BR FEW016CB FEW018 25/23 Q1011 RMK CB TO W=
24/07/2013 14:30:00Z	 SAID31 WIII 241430	METAR WIII 241430Z 25004KT 5000 BR FEW018 25/23 Q1012=
24/07/2013 15:00:00Z	 SAID31 WIII 241500	METAR WIII 241500Z VRB02KT 5000 BR SCT035 25/23 Q1012=
24/07/2013 15:30:00Z	 SAID31 WIII 241530	METAR WIII 241530Z VRB04KT 5000 BR FEW035 26/24 Q1011=
24/07/2013 16:00:00Z	 SAID31 WIII 241600	METAR WIII 241600Z VRB03G199KT 5000 BR FEW035 26/23 Q1011=
24/07/2013 16:30:00Z	 SAID31 WIII 241630	METAR WIII 241630Z 17004KT 4000 BR FEW018 26/23 Q1012=
24/07/2013 17:00:00Z	 SAID31 WIII 241700	METAR WIII 241700Z 17005KT 4600 BR FEW070 26/23 Q1011=
24/07/2013 17:30:00Z	 SAID31 WIII 241730	METAR WIII 241730Z 00000KT 5000 BR FEW070 26/23 Q1011=
24/07/2013 18:00:00Z	 SAID31 WIII 241800	METAR WIII 241800Z VRB04KT 5000 BR FEW020 26/23 Q1011=
24/07/2013 18:30:00Z	 SAID31 WIII 241830	METAR WIII 241830Z 14002KT 4000 BR FEW020 25/23 Q1011=
24/07/2013 19:00:00Z	 SAID31 WIII 241900	METAR WIII 241900Z VRB05KT 4000 BR FEW020 26/23 Q1011=
24/07/2013 19:30:00Z	 SAID31 WIII 241930	METAR WIII 241930Z 20002KT 3000 BR FEW020 25/23 Q1010=
24/07/2013 20:00:00Z	 SAID31 WIII 242000	METAR WIII 242000Z 22003KT 3000 BR FEW020 25/24 Q1009=
24/07/2013 20:30:00Z	 SAID31 WIII 242030	METAR WIII 242030Z 00000KT 2500 BR FEW011 26/23 Q1009=
24/07/2013 21:00:00Z	 SAID31 WIII 242100	METAR WIII 242100Z 16004KT 3000 BR FEW020 25/23 Q1010=
24/07/2013 21:30:00Z	 SAID31 WIII 242130	METAR WIII 242130Z 15004KT 4000 BR FEW020 25/23 Q1010=
24/07/2013 22:00:00Z	 SAID31 WIII 242200	METAR WIII 242200Z 4000 BR FEW020 26/23 Q1010=
24/07/2013 22:30:00Z	 SAID31 WIII 242230	METAR WIII 242230Z AUTO VRB02KT 4200 BR FEW220 26/23 Q1010=
24/07/2013 23:00:00Z	 SAID31 WIII 242300	METAR WIII 242300Z 17004KT 5000 BR FEW020 26/23 Q1010=
24/07/2013 23:30:00Z	 SAID31 WIII 242330	METAR WIII 242330Z VRB04KT 4000 HZ FEW020 26/23 Q1010=
25/07/2013 00:00:00Z	 SAID31 WIII 250000	METAR WIII 250000Z 16004KT 5000 BR FEW020 26/24 Q1011=
25/07/2013 00:30:00Z	 SAID31 WIII 250030	METAR WIII 250030Z VRB04KT 5000 HZ FEW020 27/23 Q1011=
25/07/2013 01:00:00Z	 SAID31 WIII 250100	METAR WIII 250100Z VRB03KT 6000 FEW020 28/23 Q1011=
25/07/2013 01:30:00Z	 SAID31 WIII 250130	METAR WIII 250130Z 08010KT 9000 FEW020 29/24 Q1011=
25/07/2013 02:00:00Z	 SAID31 WIII 250200	METAR WIII 250200Z 11011KT 9999 FEW020 30/23 Q1011=
25/07/2013 02:30:00Z	 SAID31 WIII 250230	METAR WIII 250230Z 09012KT 9999 FEW020 30/23 Q1011=
25/07/2013 03:00:00Z	 SAID31 WIII 250300	METAR WIII 250300Z 07014KT 9999 FEW020 30/23 Q1011=
25/07/2013 03:30:00Z	 SAID31 WIII 250330	METAR WIII 250330Z 05014KT 9999 FEW032 31/24 Q1011=
25/07/2013 04:00:00Z	 SAID31 WIII 250400	METAR WIII 250400Z 06013KT 9999 FEW020 31/24 Q1010=
25/07/2013 04:30:00Z	 SAID31 WIII 250430	METAR WIII 250430Z AUTO 06011KT 9999 NCD 32/25 Q1010=
25/07/2013 05:00:00Z	 SAID31 WIII 250500	METAR WIII 250500Z 06014KT 9999 FEW018 32/25 Q1010=
25/07/2013 05:30:00Z	 SAID31 WIII 250530	METAR WIII 250530Z 05011KT 9999 FEW018 32/24 Q1010=
25/07/2013 06:00:00Z	 SAID31 WIII 250600	METAR WIII 250600Z 05012KT 9999 FEW018 32/24 Q1010=
25/07/2013 06:30:00Z	 SAID31 WIII 250630	METAR WIII 250630Z 06014KT 8000 SCT018 32/24 Q1009 RMK VC PREC TO S A ND SW=
25/07/2013 07:00:00Z	 SAID31 WIII 250700	METAR WIII 250700Z 06013KT 7000 -RA BKN020 27/23 Q1009=
25/07/2013 07:30:00Z	 SAID31 WIII 250730	METAR WIII 250730Z 07014KT 9999 SCT020 30/24 Q1009=
25/07/2013 08:00:00Z	 SAID31 WIII 250800	METAR WIII 250800Z 07017KT 9999 SCT018 30/24 Q1009=
25/07/2013 08:30:00Z	 SAID31 WIII 250830	METAR WIII 250830Z 07016KT 9999 FEW018 29/22 Q1009=
25/07/2013 09:00:00Z	 SAID31 WIII 250900	METAR WIII 250900Z 07014KT 9999 FEW018 29/23 Q1009=
25/07/2013 09:30:00Z	 SAID31 WIII 250930	METAR WIII 250930Z AUTO 08013KT 9999 NCD 29/23 Q1009=
25/07/2013 10:00:00Z	 SAID31 WIII 251000	METAR WIII 251000Z AUTO 07013KT 9999 FEW110 29/23 Q1010=
25/07/2013 10:30:00Z	 SAID31 WIII 251030	METAR WIII 251030Z AUTO 07012KT 9999 FEW180 29/23 Q1010=
25/07/2013 11:00:00Z	 SAID31 WIII 251100	METAR WIII 251100Z 09012KT 9000 SCT020 28/22 Q1010=
25/07/2013 11:30:00Z	 SAID31 WIII 251130	METAR WIII 251130Z 10009KT 8000 SCT090 SCT160 BKN180 BKN210 28/23 Q10 10=
25/07/2013 12:00:00Z	 SAID31 WIII 251200	METAR WIII 251200Z 09011KT 8000 FEW016CB SCT020 28/23 Q1011 RMK CB TO S=
25/07/2013 12:30:00Z	 SAID31 WIII 251230	METAR WIII 251230Z 07008KT 8000 FEW018CB SCT020 BKN090 28/23 Q1011 RM K CB TO SW=
25/07/2013 13:00:00Z	 SAID31 WIII 251300	METAR WIII 251300Z 08010KT 8000 SCT020 BKN096 28/23 Q1012=
25/07/2013 13:30:00Z	 SAID31 WIII 251330	METAR WIII 251330Z 08008KT 8000 SCT020 BKN100 28/23 Q1012=
25/07/2013 14:00:00Z	 SAID31 WIII 251400	METAR WIII 251400Z 08009KT 7000 SCT020 27/23 Q1012=
25/07/2013 14:30:00Z	 SAID31 WIII 251430	METAR WIII 251430Z 08006KT 7000 SCT021 27/23 Q1012=
25/07/2013 15:00:00Z	 SAID31 WIII 251500	METAR WIII 251500Z 05004KT 7000 FEW021 27/22 Q1012=
25/07/2013 15:30:00Z	 SAID31 WIII 251530	METAR WIII 251530Z 06003KT 7000 FEW021 27/22 Q1012=
25/07/2013 16:00:00Z	 SAID31 WIII 251600	METAR WIII 251600Z VRB03KT 7000 SCT020 BKN055 28/23 Q1012=
25/07/2013 16:30:00Z	 SAID31 WIII 251630	METAR WIII 251630Z 08006KT 060V140 5000 -DZ SCT020 BKN130 27/23 Q1012=
25/07/2013 17:30:00Z	 SAID31 WIII 251730	METAR WIII 251730Z 05008KT 3000 -RA FEW018CB SCT020 OVC095 25/23 Q101 2 RMK CB TO E=
25/07/2013 18:00:00Z	 SAID31 WIII 251800	METAR WIII 251800Z 07006KT 2500 RA BKN020 OVC110 25/23 Q1012=
25/07/2013 18:30:00Z	 SAID31 WIII 251830	METAR WIII 251830Z 10003KT 6000 SCT021 BKN140 25/24 Q1011=
25/07/2013 19:00:00Z	 SAID31 WIII 251900	METAR WIII 251900Z VRB04KT 3600 -RA SCT021 BKN140 25/23 Q1011=
25/07/2013 19:30:00Z	 SAID31 WIII 251930	METAR WIII 251930Z 17005KT 3800 -RA SCT021 BKN090 OVC110 25/23 Q1010=
25/07/2013 20:00:00Z	 SAID31 WIII 252000	METAR WIII 252000Z 16004KT 5000 BR SCT020 OVC150 25/23 Q1010 RERA=
25/07/2013 20:30:00Z	 SAID31 WIII 252030	METAR WIII 252030Z 17005KT 5000 BR SCT020 OVC150 25/23 Q1010=
25/07/2013 21:00:00Z	 SAID31 WIII 252100	METAR WIII 252100Z 16005KT 3500 DZ SCT020 OVC160 25/23 Q1010=
25/07/2013 21:30:00Z	 SAID31 WIII 252130	METAR WIII 252130Z 14004KT 3500 DZ SCT020 BKN130 25/23 Q1011=
25/07/2013 22:00:00Z	 SAID31 WIII 252200	METAR WIII 252200Z 10004KT 3000 DZ SCT020 BKN140 25/23 Q1011=
25/07/2013 22:30:00Z	 SAID31 WIII 252230	METAR WIII 252230Z 06006KT 4000 BR SCT022 BKN150 25/23 Q1011=
25/07/2013 23:00:00Z	 SAID31 WIII 252300	METAR WIII 252300Z 09008KT 4000 BR SCT022 BKN100 25/23 Q1011=
25/07/2013 23:30:00Z	 SAID31 WIII 252330	METAR WIII 252330Z 09008KT 5000 BR SCT022 BKN200 25/23 Q1011=
26/07/2013 00:00:00Z	 SAID31 WIII 260000	METAR WIII 260000Z 11008KT 5000 HZ FEW023 BKN180 26/23 Q1011=
26/07/2013 00:30:00Z	 SAID31 WIII 260030	METAR WIII 260030Z 12007KT 7000 FEW023 26/23 Q1011=
26/07/2013 01:00:00Z	 SAID31 WIII 260100	METAR WIII 260100Z 11004KT 8000 FEW024 27/22 Q1011=
26/07/2013 01:30:00Z	 SAID31 WIII 260130	METAR WIII 260130Z 12007KT 9000 FEW024 29/22 Q1011=
26/07/2013 02:00:00Z	 SAID31 WIII 260200	METAR WIII 260200Z 10010KT 9999 FEW024 31/23 Q1011=
26/07/2013 02:30:00Z	 SAID31 WIII 260230	METAR WIII 260230Z 10012KT 9999 FEW024 31/22 Q1011=
26/07/2013 03:00:00Z	 SAID31 WIII 260300	METAR WIII 260300Z 11009KT 9999 FEW024 32/22 Q1011=
26/07/2013 03:30:00Z	 SAID31 WIII 260330	METAR WIII 260330Z 12011KT 9999 FEW022 32/22 Q1011=
26/07/2013 04:00:00Z	 SAID31 WIII 260400	METAR WIII 260400Z 13005KT 9999 FEW024 31/22 Q1010=
26/07/2013 04:30:00Z	 SAID31 WIII 260430	METAR WIII 260430Z 07012KT 9999 SCT023 32/23 Q1010=
26/07/2013 05:00:00Z	 SAID31 WIII 260500	METAR WIII 260500Z 05010KT 9999 SCT025 32/23 Q1010=
26/07/2013 05:30:00Z	 SAID31 WIII 260530	METAR WIII 260530Z 06013KT 9999 FEW024 33/22 Q1010=
26/07/2013 06:00:00Z	 SAID31 WIII 260600	METAR WIII 260600Z 05010KT 9999 FEW024 33/22 Q1009=
26/07/2013 06:30:00Z	 SAID31 WIII 260630	METAR WIII 260630Z 05011KT 9999 FEW024 33/23 Q1009=
26/07/2013 07:00:00Z	 SAID31 WIII 260700	METAR WIII 260700Z 05011KT 9999 FEW024 33/23 Q1008=
26/07/2013 07:30:00Z	 SAID31 WIII 260730	METAR WIII 260730Z 04012KT 9999 FEW024 33/24 Q1008=
26/07/2013 08:00:00Z	 SAID31 WIII 260800	METAR WIII 260800Z 05010KT 9999 FEW024 33/24 Q1008=
26/07/2013 08:30:00Z	 SAID31 WIII 260830	METAR WIII 260830Z 04009KT 9999 FEW022 32/24 Q1008=
26/07/2013 09:00:00Z	 SAID31 WIII 260900	METAR WIII 260900Z 05012KT 9999 FEW024 32/25 Q1008=
26/07/2013 09:30:00Z	 SAID31 WIII 260930	METAR WIII 260930Z 05012KT 9999 FEW024 31/24 Q1008=
26/07/2013 10:00:00Z	 SAID31 WIII 261000	METAR WIII 261000Z 05009KT 9999 NCD 31/24 Q1008=
26/07/2013 10:30:00Z	 SAID31 WIII 261030	METAR WIII 261030Z 05009KT 9999 NCD 30/24 Q1008=
26/07/2013 11:00:00Z	 SAID31 WIII 261100	METAR WIII 261100Z 06008KT 9999 NCD 29/24 Q1009=
26/07/2013 11:30:00Z	 SAID31 WIII 261130	METAR WIII 261130Z AUTO 05007KT 9999 NCD 29/24 Q1009=
26/07/2013 12:00:00Z	 SAID31 WIII 261200	METAR WIII 261200Z 06008KT 9999 FEW024 29/24 Q1009=
26/07/2013 12:30:00Z	 SAID31 WIII 261230	METAR WIII 261230Z AUTO 06009KT 9999 NCD 28/24 Q1010=
26/07/2013 13:00:00Z	 SAID31 WIII 261300	METAR WIII 261300Z AUTO 08008KT 9999 NCD 28/24 Q1010=
26/07/2013 13:30:00Z	 SAID31 WIII 261330	METAR WIII 261330Z AUTO 08007KT 9999 NCD 28/24 Q1011=
26/07/2013 14:00:00Z	 SAID31 WIII 261400	METAR WIII 261400Z 11008KT 8000 FEW018CB SCT020 28/24 Q1011=
26/07/2013 14:30:00Z	 SAID31 WIII 261430	METAR WIII 261430Z 12005KT 8000 SCT018 28/24 Q1011=
26/07/2013 15:00:00Z	 SAID31 WIII 261500	METAR WIII 261500Z 12007KT 8000 FEW018 28/24 Q1011=
26/07/2013 15:30:00Z	 SAID31 WIII 261530	METAR WIII 261530Z 13006KT 8000 FEW018 28/24 Q1012=
26/07/2013 16:00:00Z	 SAID31 WIII 261600	METAR WIII 261600Z 10006KT 8000 FEW018 28/24 Q1012=
26/07/2013 16:30:00Z	 SAID31 WIII 261630	METAR WIII 261630Z 13003KT 8000 FEW018CB SCT020 28/24 Q1012=
26/07/2013 17:00:00Z	 SAID31 WIII 261700	METAR WIII 261700Z 19004KT 8000 FEW018CB SCT018 28/24 Q1011=
26/07/2013 17:30:00Z	 SAID31 WIII 261730	METAR WIII 261730Z VRB02KT 3500 BR FEW018CB SCT018 28/24 Q1011=
26/07/2013 18:00:00Z	 SAID31 WIII 261800	METAR WIII 261800Z 23004KT 3000 BR SCT018 27/24 Q1011=
26/07/2013 18:30:00Z	 SAID31 WIII 261830	METAR WIII 261830Z 25003KT 2400 BR BKN020 26/24 Q1011=
26/07/2013 19:00:00Z	 SAID31 WIII 261900	METAR WIII 261900Z 20003KT 2000 BR SCT018 26/24 Q1011=
26/07/2013 19:30:00Z	 SAID31 WIII 261930	METAR WIII 261930Z 16004KT 2500 BR FEW018 27/24 Q1010=
26/07/2013 20:00:00Z	 SAID31 WIII 262000	METAR WIII 262000Z 20003KT 2500 BR FEW018CB BKN020 26/24 Q1010=
26/07/2013 20:30:00Z	 SAID31 WIII 262030	METAR WIII 262030Z AUTO 19005KT 3200 BR FEW022 BKN032 26/24 Q1010=
26/07/2013 21:00:00Z	 SAID31 WIII 262100	METAR WIII 262100Z AUTO 17006KT 3200 BR FEW031 26/24 Q1010=
26/07/2013 21:30:00Z	 SAID31 WIII 262130	METAR WIII 262130Z 16003KT 4000 BR FEW018CB SCT020 26/23 Q1010=
26/07/2013 22:00:00Z	 SAID31 WIII 262200	METAR WIII 262200Z VRB02KT 4000 BR FEW018CB SCT018 26/23 Q1010=
26/07/2013 22:30:00Z	 SAID31 WIII 262230	METAR WIII 262230Z AUTO 16006KT 5000 BR NCD 26/23 Q1011=
26/07/2013 23:00:00Z	 SAID31 WIII 262300	METAR WIII 262300Z 18002KT 5000 BR FEW016 26/23 Q1011=
26/07/2013 23:30:00Z	 SAID31 WIII 262330	METAR WIII 262330Z VRB02KT 5000 HZ SCT018 27/23 Q1011=
27/07/2013 00:00:00Z	 SAID31 WIII 270000	METAR WIII 270000Z VRB02KT 5000 HZ FEW018 27/23 Q1011=
27/07/2013 00:30:00Z	 SAID31 WIII 270030	METAR WIII 270030Z AUTO VRB02KT 7000 NCD 28/23 Q1011=
27/07/2013 01:00:00Z	 SAID31 WIII 270100	METAR WIII 270100Z AUTO 00000KT 8000 NCD 29/23 Q1011=
27/07/2013 01:30:00Z	 SAID31 WIII 270130	METAR WIII 270130Z V13005KT 6000 FEW020 30/23 Q1011=
27/07/2013 02:00:00Z	 SAID31 WIII 270200	METAR WIII 270200Z VRB05KT 6000 FEW021 31/23 Q1011=
27/07/2013 02:30:00Z	 SAID31 WIII 270230	METAR WIII 270230Z 00000KT 6000 FEW021 31/23 Q1011=
27/07/2013 03:00:00Z	 SAID31 WIII 270300	METAR WIII 270300Z VRB03KT 6000 FEW021 31/23 Q1011=
27/07/2013 03:30:00Z	 SAID31 WIII 270330	METAR WIII 270330Z VRB05KT 7000 FEW021 32/24 Q1011=
27/07/2013 04:00:00Z	 SAID31 WIII 270400	METAR WIII 270400Z 03008KT 8000 FEW020 32/23 Q1011=
27/07/2013 04:30:00Z	 SAID31 WIII 270430	METAR WIII 270430Z 35008KT 9000 FEW020 32/23 Q1011=
27/07/2013 05:00:00Z	 SAID31 WIII 270500	METAR WIII 270500Z 03008KT 9000 SCT021 32/24 Q1010=
27/07/2013 05:30:00Z	 SAID31 WIII 270530	METAR WIII 270530Z 02008KT 9000 SCT020 32/24 Q1010=
27/07/2013 06:00:00Z	 SAID31 WIII 270600	METAR WIII 270600Z 05008KT 9999 SCT020 33/24 Q1010=
27/07/2013 06:30:00Z	 SAID31 WIII 270630	METAR WIII 270630Z 01010KT 9999 FEW021 33/24 Q1009=
27/07/2013 07:00:00Z	 SAID31 WIII 270700	METAR WIII 270700Z 02007KT 9000 FEW020CB FEW021 32/24 Q1009 CB TO SE=
27/07/2013 07:30:00Z	 SAID31 WIII 270730	METAR WIII 270730Z 05008KT 9999 FEW018CB SCT020 32/24 Q1008 RMK CB TO S=
27/07/2013 08:00:00Z	 SAID31 WIII 270800	METAR WIII 270800Z 04008KT 9999 SCT020 33/24 Q1008=
27/07/2013 08:30:00Z	 SAID31 WIII 270830	METAR WIII 270830Z 05009KT 9999 SCT020 33/24 Q1008=
27/07/2013 09:00:00Z	 SAID31 WIII 270900	METAR WIII 270900Z 05008KT 9999 SCT020 31/23 Q1008=
27/07/2013 09:30:00Z	 SAID31 WIII 270930	METAR WIII 270930Z 05008KT 9999 SCT020 31/23 Q1008=
27/07/2013 10:00:00Z	 SAID31 WIII 271000	METAR WIII 271000Z 06008KT 9999 FEW020 30/23 Q1008=
27/07/2013 10:30:00Z	 SAID31 WIII 271030	METAR WIII 271030Z AUTO 05007KT 9999 SCT130 30/23 Q1009=
27/07/2013 11:00:00Z	 SAID31 WIII 271100	METAR WIII 271100Z AUTO 06005KT 9999 FEW130 29/24 Q1009=
27/07/2013 11:30:00Z	 SAID31 WIII 271130	METAR WIII 271130Z 04004KT 9999 FEW020 28/24 Q1009=
27/07/2013 12:00:00Z	 SAID31 WIII 271200	METAR WIII 271200Z 05004KT 7000 FEW021 28/24 Q1010=
27/07/2013 12:30:00Z	 SAID31 WIII 271230	METAR WIII 271230Z AUTO 05004KT 9999 NCD 28/24 Q1010=
27/07/2013 13:00:00Z	 SAID31 WIII 271300	METAR WIII 271300Z AUTO 05004KT 7000 NCD 28/24 Q1010=
27/07/2013 13:30:00Z	 SAID31 WIII 271330	METAR WIII 271330Z 02002KT 5000 HZ FEW018 28/24 Q1011=
27/07/2013 14:00:00Z	 SAID31 WIII 271400	METAR WIII 271400Z 07002KT 7000 FEW020 28/24 Q1011=
27/07/2013 14:30:00Z	 SAID31 WIII 271430	METAR WIII 271430Z 08004KT 8000 FEW018CB SCT020 28/24 Q1011=
27/07/2013 15:00:00Z	 SAID31 WIII 271500	METAR WIII 271500Z 08004KT 9999 SCT018 28/24 Q1011=
27/07/2013 15:30:00Z	 SAID31 WIII 271530	METAR WIII 271530Z 15003KT 3500 BR SCT018 28/24 Q1012=
27/07/2013 16:00:00Z	 SAID31 WIII 271600	METAR WIII 271600Z 16002KT 4000 BR FEW020CB SCT022 28/24 Q1011=
27/07/2013 16:30:00Z	 SAID31 WIII 271630	METAR WIII 271630Z 19006KT 3500 BR SCT018 27/24 Q1012=
27/07/2013 17:00:00Z	 SAID31 WIII 271700	METAR WIII 271700Z 20005KT 4000 BR FEW018 27/24 Q1011=
27/07/2013 17:30:00Z	 SAID31 WIII 271730	METAR WIII 271730Z 18003KT 4500 BR FEW018 27/23 Q1011=
27/07/2013 18:00:00Z	 SAID31 WIII 271800	METAR WIII 271800Z 21003KT 4500 BR FEW020CB BKN022 27/23 Q1011=
27/07/2013 18:30:00Z	 SAID31 WIII 271830	METAR WIII 271830Z 20002KT 4000 BR FEW020CB BKN022 27/24 Q1011=
27/07/2013 19:00:00Z	 SAID31 WIII 271900	METAR WIII 271900Z AUTO VRB05KT 3400 BR FEW022 SCT028 SCT034 27/24 Q1 011=
27/07/2013 19:30:00Z	 SAID31 WIII 271930	METAR WIII 271930Z AUTO VRB03G199KT 3600 BR FEW025 26/24 Q1011=
27/07/2013 20:00:00Z	 SAID31 WIII 272000	METAR WIII 272000Z 17002KT 2500 BR FEW018CB SCT020 26/24 Q1010=
27/07/2013 20:30:00Z	 SAID31 WIII 272030	METAR WIII 272030Z AUTO 17004KT 3400 BR NCD 26/23 Q1010=
27/07/2013 21:00:00Z	 SAID31 WIII 272100	METAR WIII 272100Z 18004KT 4000 BR FEW018CB SCT020 26/23 Q1011=
27/07/2013 21:30:00Z	 SAID31 WIII 272130	METAR WIII 272130Z 15006KT 5000 BR FEW018CB SCT020 26/23 Q1011=
27/07/2013 22:00:00Z	 SAID31 WIII 272200	METAR WIII 272200Z 17003KT 5000 BR FEW018CB BKN020 26/23 Q1011=
27/07/2013 22:30:00Z	 SAID31 WIII 272230	METAR WIII 272230Z 17004KT 5000 BR FEW018CB SCT020 26/23 Q1011=
27/07/2013 23:00:00Z	 SAID31 WIII 272300	METAR WIII 272300Z 22002KT 5000 BR BKN036 26/22 Q1011=
27/07/2013 23:30:00Z	 SAID31 WIII 272330	METAR WIII 272330Z 22003KT 5000 BR FEW018CB BKN020 27/23 Q1012=
28/07/2013 00:00:00Z	 SAID31 WIII 280000	METAR WIII 280000Z 20005KT 5000 BR FEW018CB SCT020 27/23 Q1012=
28/07/2013 00:30:00Z	 SAID31 WIII 280030	METAR WIII 280030Z 18005KT 4400 HZ FEW020CB SCT023 28/23 Q1012 RMK CB TO NW=
28/07/2013 01:00:00Z	 SAID31 WIII 280100	METAR WIII 280100Z 17004KT 4700 HZ FEW020CB SCT023 28/23 Q1012 RMK CB TO NW=
28/07/2013 01:30:00Z	 SAID31 WIII 280130	METAR WIII 280130Z VRB03KT 5000 HZ SCT023 BKN100 29/22 Q1013=
28/07/2013 02:00:00Z	 SAID31 WIII 280200	METAR WIII 280200Z 28003KT 5000 HZ SCT023 29/23 Q1013=
28/07/2013 02:30:00Z	 SAID31 WIII 280230	METAR WIII 280230Z 31006KT 4100 HZ FEW020 SCT100 30/24 Q1013=
28/07/2013 03:00:00Z	 SAID31 WIII 280300	METAR WIII 280300Z 30010KT 3000 HZ FEW020CB SCT023 30/24 Q1012 RMK CB TO N=
28/07/2013 03:30:00Z	 SAID31 WIII 280330	METAR WIII 280330Z 30012KT 5000 HZ SCT021 29/24 Q1012=
28/07/2013 04:00:00Z	 SAID31 WIII 280400	METAR WIII 280400Z 31014KT 6000 BKN022 29/24 Q1012=
28/07/2013 04:30:00Z	 SAID31 WIII 280430	METAR WIII 280430Z 30010KT 6000 FEW020CB BKN022 30/24 Q1012 RMK CB TO E=
28/07/2013 05:00:00Z	 SAID31 WIII 280500	METAR WIII 280500Z 31007KT 7000 FEW020CB SCT022 30/24 Q1011 RMK CB TO SE=
28/07/2013 05:30:00Z	 SAID31 WIII 280530	METAR WIII 280530Z VRB05KT 7000 FEW020CB SCT022 30/24 Q1011 RMK CB TO SE=
28/07/2013 06:00:00Z	 SAID31 WIII 280600	METAR WIII 280600Z VRB05KT 7000 SCT022 31/23 Q1010=
28/07/2013 06:30:00Z	 SAID31 WIII 280630	METAR WIII 280630Z VRB05KT 8000 SCT023 32/24 Q1009=
28/07/2013 07:00:00Z	 SAID31 WIII 280700	METAR WIII 280700Z VRB06KT 8000 FEW023 32/23 Q1009=
28/07/2013 07:30:00Z	 SAID31 WIII 280730	METAR WIII 280730Z 05008KT 8000 FEW023 32/23 Q1008=
28/07/2013 08:00:00Z	 SAID31 WIII 280800	METAR WIII 280800Z 04008KT 8000 FEW022 32/23 Q1008=
28/07/2013 08:30:00Z	 SAID31 WIII 280830	METAR WIII 280830Z 05008KT 8000 FEW022 31/23 Q1007=
28/07/2013 09:00:00Z	 SAID31 WIII 280900	METAR WIII 280900Z 06007KT 9000 FEW023 31/23 Q1008=
28/07/2013 09:30:00Z	 SAID31 WIII 280930	METAR WIII 280930Z 02008KT 8000 FEW022 31/24 Q1007=
28/07/2013 10:00:00Z	 SAID31 WIII 281000	METAR WIII 281000Z 06009KT 8000 FEW022 30/24 Q1008=
28/07/2013 10:30:00Z	 SAID31 WIII 281030	METAR WIII 281030Z 05008KT 8000 FEW023 29/24 Q1008=
28/07/2013 11:00:00Z	 SAID31 WIII 281100	METAR WIII 281100Z 05007KT 7000 FEW023 28/24 Q1008=
28/07/2013 11:30:00Z	 SAID31 WIII 281130	METAR WIII 281130Z 05008KT 7000 FEW023 28/24 Q1009=
28/07/2013 12:00:00Z	 SAID31 WIII 281200	METAR WIII 281200Z 05010KT 7000 FEW022 28/23 Q1009=
28/07/2013 12:30:00Z	 SAID31 WIII 281230	METAR WIII 281230Z 05008KT 7000 FEW022 28/23 Q1009=
28/07/2013 13:00:00Z	 SAID31 WIII 281300	METAR WIII 281300Z AUTO 06004KT 9999 NCD 28/23 Q1010=
28/07/2013 13:30:00Z	 SAID31 WIII 281330	METAR WIII 281330Z 05005KT 8000 FEW021 28/23 Q1010=
28/07/2013 14:00:00Z	 SAID31 WIII 281400	METAR WIII 281400Z 05005KT 9000 SCT020 28/23 Q1011=
28/07/2013 14:30:00Z	 SAID31 WIII 281430	METAR WIII 281430Z 05003KT 9000 FEWE021 28/23 Q1011=
28/07/2013 15:00:00Z	 SAID31 WIII 281500	METAR WIII 281500Z 05002KT 9000 SCT020 28/23 Q1011=
28/07/2013 15:30:00Z	 SAID31 WIII 281530	METAR WIII 281530Z 01003KT 9000 SCT021 28/23 Q1011=
28/07/2013 16:00:00Z	 SAID31 WIII 281600	METAR WIII 281600Z AUTO 34002KT 9000 FEW026 BKN037 BKN045 28/24 Q1011=
28/07/2013 16:30:00Z	 SAID31 WIII 281630	METAR WIII 281630Z 04003KT 9000 SCT021 28/24 Q1012=
28/07/2013 17:00:00Z	 SAID31 WIII 281700	METAR WIII 281700Z VRB02KT 9000 SCT021 28/24 Q1011=
28/07/2013 17:30:00Z	 SAID31 WIII 281730	METAR WIII 281730Z 00000KT 9000 VCTS FEW020CB SCT020 28/24 Q1011 RMK CB TO NE=
28/07/2013 18:00:00Z	 SAID31 WIII 281800	METAR WIII 281800Z VRB02KT 7000 SCT020CB SCT021 28/24 Q1011 RMK CB TO NE AND SW=
28/07/2013 18:30:00Z	 SAID31 WIII 281830	METAR WIII 281830Z AUTO 06007KT 8000 VCTS FEW008 BKN020 BKN028 OVC033 26/24 Q1011=
28/07/2013 19:00:00Z	 SAID31 WIII 281900	METAR WIII 281900Z AUTO VRB05KT 9999 FEW008 SCT022 BKN028 BKN041 26/2 3 Q1010=
28/07/2013 19:30:00Z	 SAID31 WIII 281930	METAR WIII 281930Z AUTO 00000KT 9999 FEW022 BKN029 BKN038 BKN048 26/2 3 Q1010=
28/07/2013 20:00:00Z	 SAID31 WIII 282000	METAR WIII 282000Z AUTO 00000KT 9999 VCTS FEW023 BKN030 OVC042 26/24 Q1010=
28/07/2013 20:30:00Z	 SAID31 WIII 282030	METAR WIII 282030Z 27003KT 7000 BKN021 BKN027 OVC060 26/24 Q1010=
28/07/2013 21:00:00Z	 SAID31 WIII 282100	METAR WIII 282100Z 25003KT 5000 -TSRA FEW018CB BKN019 26/24 Q1011 RMK CB TO NW=
28/07/2013 21:30:00Z	 SAID31 WIII 282130	METAR WIII 282130Z 27006KT 4600 -TSRA FEW017 BKN019 26/24 Q1011 RMK C B TO NW=
28/07/2013 22:00:00Z	 SAID31 WIII 282200	METAR WIII 282200Z AUTO 27009KT 8000 BR OVC013 25/23 Q1011=
28/07/2013 22:30:00Z	 SAID31 WIII 282230	METAR WIII 282230Z 26007KT 3500 TSRA FEW013CB SCT020 25/23 Q1011 RMK CB OVER THE FIELD=
28/07/2013 23:00:00Z	 SAID31 WIII 282300	METAR WIII 282300Z 01004KT 1900 -TSRA FEW018CB BKN020 24/22 Q1012 RMK CB TO N=
28/07/2013 23:30:00Z	 SAID31 WIII 282330	METAR WIII 282330Z 00000KT 7000 SCT020 23/21 Q1011=
29/07/2013 00:00:00Z	 SAID31 WIII 290000	METAR WIII 290000Z 00000KT 9000 FEW021 24/22 Q1011=
29/07/2013 00:30:00Z	 SAID31 WIII 290030	METAR WIII 290030Z AUTO 24003KT 9999 NCD 26/23 Q1012=
29/07/2013 01:00:00Z	 SAID31 WIII 290100	METAR WIII 290100Z 21002KT 8000 FEW024 27/24 Q1012=
29/07/2013 01:30:00Z	 SAID31 WIII 290130	METAR WIII 290130Z VRB02KT 6000 FEW024 29/24 Q1012=
29/07/2013 02:00:00Z	 SAID31 WIII 290200	METAR WIII 290200Z 23004KT 5000 HZ FEW024 29/24 Q1012=
29/07/2013 02:30:00Z	 SAID31 WIII 290230	METAR WIII 290230Z VRB03KT 7000 FEW022 30/23 Q1012=
29/07/2013 03:00:00Z	 SAID31 WIII 290300	METAR WIII 290300Z 00000KT 7000 FEW026 31/23 Q1011=
29/07/2013 03:30:00Z	 SAID31 WIII 290330	METAR WIII 290330Z VRB03KT 7000 FEW022 31/23 Q1011=
29/07/2013 04:00:00Z	 SAID31 WIII 290400	METAR WIII 290400Z 01004KT 7000 FEW023 31/22 Q1011=
29/07/2013 04:30:00Z	 SAID31 WIII 290430	METAR WIII 290430Z VRB05KT 9000 FEW024 31/22 Q1010=
29/07/2013 05:00:00Z	 SAID31 WIII 290500	METAR WIII 290500Z VRB05KT 9999 FEW024 32/22 Q1010=
29/07/2013 05:30:00Z	 SAID31 WIII 290530	METAR WIII 290530Z VRB05KT 9999 FEW024 32/22 Q1009=
29/07/2013 06:00:00Z	 SAID31 WIII 290600	METAR WIII 290600Z 03004KT 9999 FEW024 33/22 Q1008=
29/07/2013 06:30:00Z	 SAID31 WIII 290630	METAR WIII 290630Z 36006KT 9999 FEW022 32/22 Q1008=
29/07/2013 07:00:00Z	 SAID31 WIII 290700	METAR WIII 290700Z 36006KT 9999 FEW024 32/23 Q1008=
29/07/2013 07:30:00Z	 SAID31 WIII 290730	METAR WIII 290730Z 32006KT 9999 FEW024 32/23 Q1008=
29/07/2013 08:00:00Z	 SAID31 WIII 290800	METAR WIII 290800Z AUTO VRB05KT 9999 FEW045 32/23 Q1008=
29/07/2013 08:30:00Z	 SAID31 WIII 290830	METAR WIII 290830Z AUTO VRB04KT 9999 FEW045 31/23 Q1008=
29/07/2013 09:00:00Z	 SAID31 WIII 290900	METAR WIII 290900Z 32005KT 9999 FEW024 31/23 Q1008=
29/07/2013 09:30:00Z	 SAID31 WIII 290930	METAR WIII 290930Z 34005KT 9999 FEW024 31/23 Q1008=
29/07/2013 10:30:00Z	 SAID31 WIII 291030	METAR WIII 291030Z 35004KT 9999 FEW024 30/23 Q1009=
29/07/2013 11:00:00Z	 SAID31 WIII 291100	METAR WIII 291100Z AUTO 35002KT 9999 NCD 29/23 Q1009=
29/07/2013 11:30:00Z	 SAID31 WIII 291130	METAR WIII 291130Z AUTO 36002KT 8000 FEW055 29/24 Q1010=
29/07/2013 12:00:00Z	 SAID31 WIII 291200	METAR WIII 291200Z 02003KT 7000 FEW024 28/23 Q1010=
29/07/2013 12:30:00Z	 SAID31 WIII 291230	METAR WIII 291230Z AUTO 33002KT 8000 BKN050 OVC075 28/23 Q1010=
29/07/2013 13:00:00Z	 SAID31 WIII 291300	METAR WIII 291300Z AUTO 00000KT 3900 BR BKN050 OVC075 28/24 Q1011=
29/07/2013 13:30:00Z	 SAID31 WIII 291330	METAR WIII 291330Z 33002KT 5000 BR FEW050 27/24 Q1011=
29/07/2013 14:00:00Z	 SAID31 WIII 291400	METAR WIII 291400Z 06002KT 5000 BR FEW018 27/24 Q1011=
29/07/2013 14:30:00Z	 SAID31 WIII 291430	METAR WIII 291430Z AUTO 00000KT 8000 FEW033 28/23 Q1011=
29/07/2013 15:00:00Z	 SAID31 WIII 291500	METAR WIII 291500Z VRB02KT 5000 BR SCT020 28/23 Q1011=
29/07/2013 15:30:00Z	 SAID31 WIII 291530	METAR WIII 291530Z 18004KT 5000 BR FEW030 BKN070 28/24 Q1011=
29/07/2013 16:00:00Z	 SAID31 WIII 291600	METAR WIII 291600Z 16005KT 4000 BR SCT020 27/24 Q1011=
29/07/2013 16:30:00Z	 SAID31 WIII 291630	METAR WIII 291630Z 18005KT 4000 BR SCT055 BKN082 27/23 Q1011=
29/07/2013 17:00:00Z	 SAID31 WIII 291700	METAR WIII 291700Z 16007KT 4400 BR FEW032 SCT060 27/23 Q1011=
29/07/2013 17:30:00Z	 SAID31 WIII 291730	METAR WIII 291730Z 17005KT 5000 BR BKN036 BKN045 27/23 Q1011=
29/07/2013 18:00:00Z	 SAID31 WIII 291800	METAR WIII 291800Z 17004KT 5000 BR BKN055 BKN067 BKN098 27/23 Q1010=
29/07/2013 18:30:00Z	 SAID31 WIII 291830	METAR WIII 291830Z 15004KT 5000 BR FEW020 26/23 Q1010=
29/07/2013 19:30:00Z	 SAID31 WIII 291930	METAR WIII 291930Z AUTO VRB02KT 4900 BR FEW055 26/23 Q1010=
29/07/2013 20:00:00Z	 SAID31 WIII 292000	METAR WIII 292000Z AUTO VRB02KT 6000 NCD 26/22 Q1009=
29/07/2013 20:30:00Z	 SAID31 WIII 292030	METAR WIII 292030Z 19003KT 4500 BR FEW020 26/23 Q1009=
29/07/2013 21:00:00Z	 SAID31 WIII 292100	METAR WIII 292100Z 18002KT 4200 BR FEW020 25/23 Q1009=
29/07/2013 21:30:00Z	 SAID31 WIII 292130	METAR WIII 292130Z VRB02KT 5000 BR FEW018 25/22 Q1009=
29/07/2013 22:00:00Z	 SAID31 WIII 292200	METAR WIII 292200Z AUTO 22002KT 6000 NCD 25/22 Q1009=
29/07/2013 22:30:00Z	 SAID31 WIII 292230	METAR WIII 292230Z AUTO 25002KT 5000 NCD 25/22 Q1010=
29/07/2013 23:00:00Z	 SAID31 WIII 292300	METAR WIII 292300Z AUTO 20002KT 4100 BR NCD 26/22 Q1010=
29/07/2013 23:30:00Z	 SAID31 WIII 292330	METAR WIII 292330Z AUTO 22003KT 6000 NCD 26/22 Q1010=
30/07/2013 00:00:00Z	 SAID31 WIII 300000	METAR WIII 300000Z VRB02KT 5000 BR FEW022 27/22 Q1010=
30/07/2013 00:30:00Z	 SAID31 WIII 300030	METAR WIII 300030Z VRB03KT 5000 BR FEW024 27/23 Q1011=
30/07/2013 01:00:00Z	 SAID31 WIII 300100	METAR WIII 300100Z AUTO 24002KT 3600 HZ NCD 27/23 Q1011=
30/07/2013 01:30:00Z	 SAID31 WIII 300130	METAR WIII 300130Z AUTO 00000KT 5000 HZ NCD 29/23 Q1012=
30/07/2013 02:00:00Z	 SAID31 WIII 300200	METAR WIII 300200Z 32002KT 9999 FEW020 30/23 Q1011=
30/07/2013 02:30:00Z	 SAID31 WIII 300230	METAR WIII 300230Z VRB02KT 9999 FEW020 31/23 Q1011=
30/07/2013 03:00:00Z	 SAID31 WIII 300300	METAR WIII 300300Z 06007KT 9999 FEW025 31/23 Q1011=
30/07/2013 03:30:00Z	 SAID31 WIII 300330	METAR WIII 300330Z VRB04KT 9999 FEW020 31/23 Q1011=
30/07/2013 04:00:00Z	 SAID31 WIII 300400	METAR WIII 300400Z 06006KT 9999 FEW049 31/23 Q1010=
30/07/2013 04:30:00Z	 SAID31 WIII 300430	METAR WIII 300430Z 04007KT 9999 FEW020 32/23 Q1010=
30/07/2013 05:00:00Z	 SAID31 WIII 300500	METAR WIII 300500Z 02007KT 9999 FEW020 31/23 Q1009=
30/07/2013 05:30:00Z	 SAID31 WIII 300530	METAR WIII 300530Z 02008KT 9999 FEW022 32/23 Q1009=
30/07/2013 06:00:00Z	 SAID31 WIII 300600	METAR WIII 300600Z 02006KT 9999 FEW020 32/24 Q1008=
30/07/2013 06:30:00Z	 SAID31 WIII 300630	METAR WIII 300630Z 01006KT 9999 FEW020 32/23 Q1007=
30/07/2013 07:00:00Z	 SAID31 WIII 300700	METAR WIII 300700Z 02006KT 9999 FEW020 32/24 Q1007=
30/07/2013 07:30:00Z	 SAID31 WIII 300730	METAR WIII 300730Z VRB05KT 9999 FEW046 32/23 Q1006=
30/07/2013 08:00:00Z	 SAID31 WIII 300800	METAR WIII 300800Z 04006KT 9999 FEW022 32/23 Q1006=
30/07/2013 08:30:00Z	 SAID31 WIII 300830	METAR WIII 300830Z 03005KT 9999 SCT022 31/23 Q1006=
30/07/2013 09:00:00Z	 SAID31 WIII 300900	METAR WIII 300900Z VRB04KT 9999 FEW020 31/23 Q1006=
30/07/2013 09:30:00Z	 SAID31 WIII 300930	METAR WIII 300930Z AUTO VRB05KT 9999 FEW042 31/22 Q1006=
30/07/2013 10:00:00Z	 SAID31 WIII 301000	METAR WIII 301000Z AUTO 01005KT 9999 NCD 30/23 Q1007=
30/07/2013 10:30:00Z	 SAID31 WIII 301030	METAR WIII 301030Z 05005KT 9000 SCT022 30/23 Q1007=
30/07/2013 11:00:00Z	 SAID31 WIII 301100	METAR WIII 301100Z 04005KT 8000 BKN041 BKN047 29/23 Q1007=
30/07/2013 11:30:00Z	 SAID31 WIII 301130	METAR WIII 301130Z 04005KT 8000 BKN020 29/23 Q1008=
30/07/2013 12:00:00Z	 SAID31 WIII 301200	METAR WIII 301200Z 04005KT 8000 BKN020 29/23 Q1008=
30/07/2013 12:30:00Z	 SAID31 WIII 301230	METAR WIII 301230Z 04006KT 7000 BKN022 29/23 Q1008=
30/07/2013 13:00:00Z	 SAID31 WIII 301300	METAR WIII 301300Z 02007KT 7000 SCT020 BKN048 29/24 Q1009=
30/07/2013 13:30:00Z	 SAID31 WIII 301330	METAR WIII 301330Z 04006KT 7000 SCT020 29/24 Q1009=
30/07/2013 14:00:00Z	 SAID31 WIII 301400	METAR WIII 301400Z 03006KT 7000 BKN022 28/24 Q1009=
30/07/2013 14:30:00Z	 SAID31 WIII 301430	METAR WIII 301430Z 04006KT 7000 SCT022 29/24 Q1009=
30/07/2013 15:00:00Z	 SAID31 WIII 301500	METAR WIII 301500Z 05007KT 7000 SCT022 BKN050 28/24 Q1009=
30/07/2013 15:30:00Z	 SAID31 WIII 301530	METAR WIII 301530Z 07004KT 3000 -RA BKN020 OVC030 28/24 Q1009=
30/07/2013 16:00:00Z	 SAID31 WIII 301600	METAR WIII 301600Z 25007KT 3100 -RA BKN021 28/24 Q1010=
30/07/2013 16:30:00Z	 SAID31 WIII 301630	METAR WIII 301630Z 24009KT 3400 -RA BKN021 OVC031 27/23 Q1010=
30/07/2013 17:30:00Z	 SAID31 WIII 301730	METAR WIII 301730Z 21008KT 3500 BR BKN022 OVC060 26/23 Q1009=
30/07/2013 18:00:00Z	 SAID31 WIII 301800	METAR WIII 301800Z 20010KT 4600 BR SCT022 BKN060 25/23 Q1009=
30/07/2013 18:30:00Z	 SAID31 WIII 301830	METAR WIII 301830Z VRB06KT 2000 RA FEW020CB BKN022 25/23 Q1010 RMK CB TO N=
30/07/2013 19:00:00Z	 SAID31 WIII 301900	METAR WIII 301900Z VRB05KT 1100 +RA FEW018CB BKN019 OVC034 25/23 Q100 9 RMK CB TO W=
30/07/2013 19:30:00Z	 SAID31 WIII 301930	METAR WIII 301930Z 21005KT 2000 -RA FEW018CB BKN023 OVC085 25/23 Q100 9 RMK CB TO W=
30/07/2013 20:00:00Z	 SAID31 WIII 302000	METAR WIII 302000Z 21007KT 2700 -RA SCT022 BKN055 OVC090 24/23 Q1009=
30/07/2013 20:30:00Z	 SAID31 WIII 302030	METAR WIII 302030Z 20007KT 3000 -RA SCT022 BKN055 OVC072 24/23 Q1009=
30/07/2013 21:30:00Z	 SAID31 WIII 302130	METAR WIII 302130Z 21004KT 4000 BR SCT023 BKN100 24/22 Q1009=
30/07/2013 22:00:00Z	 SAID31 WIII 302200	METAR WIII 302200Z 20005KT 4300 BR FEW022 SCT120 BKN160 24/22 Q1009=
30/07/2013 22:30:00Z	 SAID31 WIII 302230	METAR WIII 302230Z 17003KT 4000 BR FEW023 BKN150 24/22 Q1009=
30/07/2013 23:00:00Z	 SAID31 WIII 302300	METAR WIII 302300Z VRB04KT 2500 BR FEW023 SCT065 BKN150 24/22 Q1010=
30/07/2013 23:30:00Z	 SAID31 WIII 302330	METAR WIII 302330Z 30003KT 3000 BR FEW023 BKN065 24/22 Q1010=
31/07/2013 00:00:00Z	 SAID31 WIII 310000	METAR WIII 310000Z VRB03KT 3000 BR FEW023 SCT065 25/23 Q1010=
31/07/2013 00:30:00Z	 SAID31 WIII 310030	METAR WIII 310030Z 19003KT 3000 BR FEW023 SCT110 26/23 Q1010=
31/07/2013 01:00:00Z	 SAID31 WIII 310100	METAR WIII 310100Z AUTO 19006KT 5000 BR SCT120 26/23 Q1010=
31/07/2013 03:30:00Z	 SAID31 WIII 310330	METAR WIII 310330Z 12002KT 9999 FEW024 31/22 Q1009=
31/07/2013 04:00:00Z	 SAID31 WIII 310400	METAR WIII 310400Z 17005KT 9999 FEW024 33/22 Q1009=
31/07/2013 04:30:00Z	 SAID31 WIII 310430	METAR WIII 310430Z VRB05KT 9999 FEW024 33/22 Q1009=
31/07/2013 05:00:00Z	 SAID31 WIII 310500	METAR WIII 310500Z 18003KT 9000 FEW024 32/22 Q1008=
31/07/2013 05:30:00Z	 SAID31 WIII 310530	METAR WIII 310530Z VRB04KT 9999 FEW024 33/22 Q1008=
31/07/2013 06:00:00Z	 SAID31 WIII 310600	METAR WIII 310600Z VRB03KT 8000 FEW024 31/24 Q1008=
31/07/2013 06:30:00Z	 SAID31 WIII 310630	METAR WIII 310630Z 01006KT 8000 BKN024 30/24 Q1007=
31/07/2013 07:00:00Z	 SAID31 WIII 310700	METAR WIII 310700Z 28007KT 8000 FEW034 30/23 Q1007=
31/07/2013 07:30:00Z	 SAID31 WIII 310730	METAR WIII 310730Z 27007KT 9999 FEW031 SCT038 31/24 Q1007=
31/07/2013 08:00:00Z	 SAID31 WIII 310800	METAR WIII 310800Z AUTO 30007KT 9999 FEW034 30/22 Q1006=
31/07/2013 08:30:00Z	 SAID31 WIII 310830	METAR WIII 310830Z 30006KT 9999 FEW024 31/22 Q1006=
31/07/2013 09:00:00Z	 SAID31 WIII 310900	METAR WIII 310900Z 28005KT 9999 FEW024 31/22 Q1006=
31/07/2013 09:30:00Z	 SAID31 WIII 310930	METAR WIII 310930Z 31007KT 9000 FEW024 30/22 Q1007=
31/07/2013 10:00:00Z	 SAID31 WIII 311000	METAR WIII 311000Z 31006KT 9999 FEW024 29/22 Q1007=
31/07/2013 10:30:00Z	 SAID31 WIII 311030	METAR WIII 311030Z 33003KT 9999 FEW024 29/22 Q1007=
31/07/2013 11:00:00Z	 SAID31 WIII 311100	METAR WIII 311100Z 00000KT 7000 FEW024 28/23 Q1008=
31/07/2013 11:30:00Z	 SAID31 WIII 311130	METAR WIII 311130Z 33002KT 7000 FEW024 28/22 Q1008=
31/07/2013 12:00:00Z	 SAID31 WIII 311200	METAR WIII 311200Z 00000KT 6000 FEW024 28/23 Q1008=
31/07/2013 12:30:00Z	 SAID31 WIII 311230	METAR WIII 311230Z 35002KT 5000 HZ BKN130 28/23 Q1009=
31/07/2013 13:00:00Z	 SAID31 WIII 311300	METAR WIII 311300Z AUTO 35002KT 4400 BR BKN140 28/23 Q1009=
31/07/2013 13:30:00Z	 SAID31 WIII 311330	METAR WIII 311330Z 04002KT 2700 BR FEW022 27/24 Q1009=
31/07/2013 14:00:00Z	 SAID31 WIII 311400	METAR WIII 311400Z 35002KT 2500 BR FEW022 27/24 Q1009=
31/07/2013 14:30:00Z	 SAID31 WIII 311430	METAR WIII 311430Z 00000KT 2100 BR FEW022 27/24 Q1009=
31/07/2013 15:00:00Z	 SAID31 WIII 311500	METAR WIII 311500Z 36002KT 2000 BR FEW022 26/24 Q1010=
31/07/2013 15:30:00Z	 SAID31 WIII 311530	METAR WIII 311530Z 04002KT 2700 BR SCT021 27/23 Q1010=
31/07/2013 16:00:00Z	 SAID31 WIII 311600	METAR WIII 311600Z 36002KT 5000 SCT021 27/23 Q1010=
31/07/2013 16:30:00Z	 SAID31 WIII 311630	METAR WIII 311630Z 03002KT 2900 BR SCT021 27/24 Q1010=
31/07/2013 17:00:00Z	 SAID31 WIII 311700	METAR WIII 311700Z VRB03KT 1900 BR SCT021 27/24 Q1010=
31/07/2013 17:30:00Z	 SAID31 WIII 311730	METAR WIII 311730Z VRB03KT 3100 BR SCT021 28/23 Q1010=
31/07/2013 18:00:00Z	 SAID31 WIII 311800	METAR WIII 311800Z VRB04KT 2700 BR SCT021 27/23 Q1009=
31/07/2013 18:30:00Z	 SAID31 WIII 311830	METAR WIII 311830Z VRB04KT 2600 BR SCT021 27/23 Q1009=
31/07/2013 19:00:00Z	 SAID31 WIII 311900	METAR WIII 311900Z 17006KT 3300 BR SCT021 27/23 Q1009=
31/07/2013 19:30:00Z	 SAID31 WIII 311930	METAR WIII 311930Z 17006KT 4200 BR SCT021 26/23 Q1009=
31/07/2013 20:00:00Z	 SAID31 WIII 312000	METAR WIII 312000Z 00000KT 5000 FEW022 26/23 Q1009=
31/07/2013 20:30:00Z	 SAID31 WIII 312030	METAR WIII 312030Z AUTO VRB02KT 3400 BR FEW031 SCT035 BKN042 OVC060 2 6/23 Q1009=
31/07/2013 21:00:00Z	 SAID31 WIII 312100	METAR WIII 312100Z AUTO 20006KT 4900 BR BKN046 OVC055 26/23 Q1008=
31/07/2013 21:30:00Z	 SAID31 WIII 312130	METAR WIII 312130Z AUTO 19002KT 6000 BKN050 BKN060 OVC073 25/22 Q1008=
31/07/2013 22:00:00Z	 SAID31 WIII 312200	METAR WIII 312200Z AUTO 18003KT 6000 FEW050 25/22 Q1009=
31/07/2013 22:30:00Z	 SAID31 WIII 312230	METAR WIII 312230Z VRB03KT 5000 FEW022 25/22 Q1009=
31/07/2013 23:00:00Z	 SAID31 WIII 312300	METAR WIII 312300Z 18002KT 5000 FEW021 25/22 Q1009=
31/07/2013 23:30:00Z	 SAID31 WIII 312330	METAR WIII 312330Z 15002KT 5000 FEW022 26/22 Q1009=
