01/02/2013 00:00:00Z	 SAID31 WIII 010000	METAR WIII 010000Z 25004KT 4600 FEW022CB OVC050 26/24 Q1012 CB TO NE=
01/02/2013 00:30:00Z	 SAID31 WIII 010030	METAR WIII 010030Z 18004KT 7000 FEW022CB FEW050 27/24 Q1012 CB TO NE=
01/02/2013 01:00:00Z	 SAID31 WIII 010100	METAR WIII 010100Z 28004KT 7000 FEW021CB FEW050 27/24 Q1012 CB TO N A ND E=
01/02/2013 01:30:00Z	 SAID31 WIII 010130	METAR WIII 010130Z 30003KT 5000 HZ FEW021CB SCT050 28/24 Q1013 CB TO NE=
01/02/2013 02:00:00Z	 SAID31 WIII 010200	METAR WIII 010200Z 33005KT 5000 HZ FEW021CB FEW024 28/24 Q1013 CB TO NE AND E=
01/02/2013 02:30:00Z	 SAID31 WIII 010230	METAR WIII 010230Z 29004KT 8000 FEW021CB FEW024 29/24 Q1013 CB TO NE AND E=
01/02/2013 03:00:00Z	 SAID31 WIII 010300	METAR WIII 010300Z 26004KT 9999 FEW024 30/24 Q1012=
01/02/2013 03:30:00Z	 SAID31 WIII 010330	METAR WIII 010330Z 30005KT 9999 SCT025 30/24 Q1012=
01/02/2013 04:00:00Z	 SAID31 WIII 010400	METAR WIII 010400Z 34004KT 9999 FEW024 30/24 Q1011=
01/02/2013 04:30:00Z	 SAID31 WIII 010430	METAR WIII 010430Z 31007KT 9999 SCT026 30/24 Q1011=
01/02/2013 05:00:00Z	 SAID31 WIII 010500	METAR WIII 010500Z 34007KT 9999 FEW024 30/24 Q1011=
01/02/2013 05:30:00Z	 SAID31 WIII 010530	METAR WIII 010530Z 32008KT 9999 FEW024 30/24 Q1010=
01/02/2013 06:00:00Z	 SAID31 WIII 010600	METAR WIII 010600Z 34007KT 9000 FEW024 30/25 Q1010=
01/02/2013 06:30:00Z	 SAID31 WIII 010630	METAR WIII 010630Z 01006KT 9999 SCT024 30/24 Q1009=
01/02/2013 07:00:00Z	 SAID31 WIII 010700	METAR WIII 010700Z 32007KT 9999 FEW022 31/24 Q1009=
01/02/2013 07:30:00Z	 SAID31 WIII 010730	METAR WIII 010730Z 32006KT 9999 FEW024 31/25 Q1008=
01/02/2013 08:00:00Z	 SAID31 WIII 010800	METAR WIII 010800Z 33006KT 9999 FEW024 30/23 Q1008=
01/02/2013 08:30:00Z	 SAID31 WIII 010830	METAR WIII 010830Z 32007KT 9999 FEW024 30/24 Q1008=
01/02/2013 09:00:00Z	 SAID31 WIII 010900	METAR WIII 010900Z 31005KT 9999 FEW021CB FEW024 30/24 Q1008 CB TO SW=
01/02/2013 09:30:00Z	 SAID31 WIII 010930	METAR WIII 010930Z 34005KT 9999 FEW021CB FEW024 29/25 Q1008 CB TO E=
01/02/2013 10:00:00Z	 SAID31 WIII 011000	METAR WIII 011000Z 33008KT 9999 FEW024 29/24 Q1008=
01/02/2013 10:30:00Z	 SAID31 WIII 011030	METAR WIII 011030Z 33008KT 9999 FEW021CB FEW024 29/24 Q1008 CB TO SE AND S=
01/02/2013 11:00:00Z	 SAID31 WIII 011100	METAR WIII 011100Z 31005KT 9000 FEW021CB FEW024 28/24 Q1008 CB TO SE=
01/02/2013 11:30:00Z	 SAID31 WIII 011130	METAR WIII 011130Z 30002KT 7000 FEW021CB FEW024 28/24 Q1009 CB TO SE=
01/02/2013 12:00:00Z	 SAID31 WIII 011200	METAR WIII 011200Z 33002KT 5000 HZ FEW024 28/24 Q1009=
01/02/2013 12:30:00Z	 SAID31 WIII 011230	METAR WIII 011230Z 32002KT 3100 HZ FEW024 28/24 Q1010=
01/02/2013 13:00:00Z	 SAID31 WIII 011300	METAR WIII 011300Z 34002KT 2600 HZ FEW024 27/25 Q1010=
01/02/2013 13:30:00Z	 SAID31 WIII 011330	METAR WIII 011330Z 16003KT 3000 FEW024 28/24 Q1011=
01/02/2013 14:00:00Z	 SAID31 WIII 011400	METAR WIII 011400Z 32002KT 4000 HZ FEW024 27/25 Q1011=
01/02/2013 14:30:00Z	 SAID31 WIII 011430	METAR WIII 011430Z 00000KT 2700 HZ SCT023 27/25 Q1011=
01/02/2013 15:00:00Z	 SAID31 WIII 011500	METAR WIII 011500Z 35002KT 4600 HZ SCT023 BKN032 28/25 Q1012=
01/02/2013 15:30:00Z	 SAID31 WIII 011530	METAR WIII 011530Z 36002KT 2900 HZ SCT023 27/25 Q1012=
01/02/2013 16:00:00Z	 SAID31 WIII 011600	METAR WIII 011600Z 34002KT 3100 HZ SCT022 27/25 Q1012=
01/02/2013 16:30:00Z	 SAID31 WIII 011630	METAR WIII 011630Z 32002KT 2700 HZ FEW020CB FEW022 27/25 Q1011 CB TO NW=
01/02/2013 17:00:00Z	 SAID31 WIII 011700	METAR WIII 011700Z 29003KT 3300 HZ SCT021 27/25 Q1011=
01/02/2013 17:30:00Z	 SAID31 WIII 011730	METAR WIII 011730Z 28003KT 4800 HZ SCT021 27/24 Q1011=
01/02/2013 18:00:00Z	 SAID31 WIII 011800	METAR WIII 011800Z 23003KT 3200 HZ SCT019 27/24 Q1011=
01/02/2013 18:30:00Z	 SAID31 WIII 011830	METAR WIII 011830Z 25002KT 4700 HZ SCT020 27/24 Q1010=
01/02/2013 19:00:00Z	 SAID31 WIII 011900	METAR WIII 011900Z VRB02KT 3500 HZ FEW020CB SCT021 27/24 Q1010 CB TO NW=
01/02/2013 19:30:00Z	 SAID31 WIII 011930	METAR WIII 011930Z 20002KT 3800 HZ FEW020CB SCT022 27/24 Q1010 CB TO NW=
01/02/2013 20:00:00Z	 SAID31 WIII 012000	METAR WIII 012000Z VRB04KT 3400 HZ FEW019CB SCT022 27/24 Q1010 CB TO NW=
01/02/2013 20:30:00Z	 SAID31 WIII 012030	METAR WIII 012030Z 30006KT 240V310 3000 BR FEW020CB BKN023 26/25 Q101 0 CB TO N=
01/02/2013 21:00:00Z	 SAID31 WIII 012100	METAR WIII 012100Z VRB03KT 2500 RA FEW019CB BKN022 25/23 Q1010 CB TO N=
01/02/2013 21:30:00Z	 SAID31 WIII 012130	METAR WIII 012130Z 01004KT 3000 -RA FEW019CB BKN022 25/24 Q1011 CB TO NE=
01/02/2013 22:00:00Z	 SAID31 WIII 012200	METAR WIII 012200Z 27003KT 4800 VCTS FEW020CB SCT022 BKN055 25/24 Q10 10 RERA CB TO N=
01/02/2013 22:30:00Z	 SAID31 WIII 012230	METAR WIII 012230Z 31003KT 4900 BR FEW020CB SCT023 25/24 Q1010 CB TO W=
01/02/2013 23:00:00Z	 SAID31 WIII 012300	METAR WIII 012300Z 27004KT 6000 FEW020CB SCT022 25/24 Q1011 CB TO N=
01/02/2013 23:30:00Z	 SAID31 WIII 012330	METAR WIII 012330Z 25004KT 6000 FEW020CB SCT021 BKN065 25/24 Q1011 CB TO N=
02/02/2013 00:00:00Z	 SAID31 WIII 020000	METAR WIII 020000Z 26004KT 6000 FEW020CB SCT022 BKN065 26/24 Q1011 CB TO N=
02/02/2013 00:30:00Z	 SAID31 WIII 020030	METAR WIII 020030Z 27005KT 7000 FEW020CB SCT023 BKN065 26/24 Q1011 CB TO N=
02/02/2013 01:00:00Z	 SAID31 WIII 020100	METAR WIII 020100Z 29004KT 6000 FEW016CB SCT018 27/25 Q1012 CB TO N=
02/02/2013 01:30:00Z	 SAID31 WIII 020130	METAR WIII 020130Z 31005KT 7000 FEW016CB BKN020 27/25 Q1012 CB TO N=
02/02/2013 02:00:00Z	 SAID31 WIII 020200	METAR WIII 020200Z 30007KT 4000 TSRA FEW016CB OVC018 25/24 Q1012 CB T O NW AND W=
02/02/2013 02:30:00Z	 SAID31 WIII 020230	METAR WIII 020230Z VRB04KT 1000 +RA FEW014CB OVC016 25/24 Q1012 CB TO N=
02/02/2013 03:00:00Z	 SAID31 WIII 020300	METAR WIII 020300Z 04002KT 4000 RA FEW016CB BKN022 OVC020 25/24 Q1012 CB TO N=
02/02/2013 03:30:00Z	 SAID31 WIII 020330	METAR WIII 020330Z VRB03KT 6000 VCTS -RA FEW016CB BKN020 25/25 Q1012 CB TO N=
02/02/2013 04:00:00Z	 SAID31 WIII 020400	METAR WIII 020400Z 33004KT 6000 -RA OVC020 26/25 Q1012=
02/02/2013 04:30:00Z	 SAID31 WIII 020430	METAR WIII 020430Z 36009KT 1000 +TSRA FEW012CB OVC014 24/24 Q1012 CB OVER THE FIELD=
02/02/2013 05:00:00Z	 SAID31 WIII 020500	METAR WIII 020500Z 03005KT 5000 RA SCT008 BKN012 BKN019 OVC044 25/24 Q1012=
02/02/2013 05:30:00Z	 SAID31 WIII 020530	METAR WIII 020530Z VRB04KT 6000 -RA SCT039 OVC055 25/24 Q1011=
02/02/2013 06:00:00Z	 SAID31 WIII 020600	METAR WIII 020600Z 02002KT 8000 SCT018 25/24 Q1011 VC PREC TO SW=
02/02/2013 06:30:00Z	 SAID31 WIII 020630	METAR WIII 020630Z 02004KT 8000 VCTS FEW016CB BKN020 26/24 Q1010 CB T O S=
02/02/2013 07:00:00Z	 SAID31 WIII 020700	METAR WIII 020700Z VRB03KT 8000 BKN020 26/24 Q1010=
02/02/2013 07:30:00Z	 SAID31 WIII 020730	METAR WIII 020730Z AUTO VRB02KT 9999 FEW048 BKN065 BKN075 26/24 Q1009=
02/02/2013 08:00:00Z	 SAID31 WIII 020800	METAR WIII 020800Z AUTO 00000KT 9999 NCD 27/24 Q1009=
02/02/2013 08:30:00Z	 SAID31 WIII 020830	METAR WIII 020830Z VRB03KT 9999 FEW018 28/24 Q1008=
02/02/2013 09:00:00Z	 SAID31 WIII 020900	METAR WIII 020900Z VRB03KT 9999 FEW020 28/24 Q1008=
02/02/2013 09:30:00Z	 SAID31 WIII 020930	METAR WIII 020930Z AUTO VRB03KT 9999 NCD 28/24 Q1007=
02/02/2013 10:00:00Z	 SAID31 WIII 021000	METAR WIII 021000Z AUTO 00000KT 9999 NCD 28/24 Q1008=
02/02/2013 10:30:00Z	 SAID31 WIII 021030	METAR WIII 021030Z AUTO VRB02KT 9999 NCD 28/24 Q1008=
02/02/2013 11:00:00Z	 SAID31 WIII 021100	METAR WIII 021100Z AUTO 05002KT 9999 NCD 27/24 Q1008=
02/02/2013 11:30:00Z	 SAID31 WIII 021130	METAR WIII 021130Z AUTO VRB03KT 9999 NCD 27/24 Q1009=
02/02/2013 12:00:00Z	 SAID31 WIII 021200	METAR WIII 021200Z 06003KT 8000 FEW020 27/24 Q1009=
02/02/2013 12:30:00Z	 SAID31 WIII 021230	METAR WIII 021230Z AUTO 00000KT 9999 NCD 26/24 Q1009=
02/02/2013 13:00:00Z	 SAID31 WIII 021300	METAR WIII 021300Z AUTO VRB04KT 7000 NCD 26/24 Q1010=
02/02/2013 13:30:00Z	 SAID31 WIII 021330	METAR WIII 021330Z 17006KT 5000 FEW019CB FEW020 26/24 Q1010 CB TO N=
02/02/2013 14:00:00Z	 SAID31 WIII 021400	METAR WIII 021400Z 15005KT 5000 FEW020 26/24 Q1010=
02/02/2013 14:30:00Z	 SAID31 WIII 021430	METAR WIII 021430Z VRB03KT 5000 FEW020 26/24 Q1011=
02/02/2013 15:00:00Z	 SAID31 WIII 021500	METAR WIII 021500Z VRB02KT 4000 HZ FEW020CB FEW020 26/24 Q1011 CB TO N=
02/02/2013 15:30:00Z	 SAID31 WIII 021530	METAR WIII 021530Z 16004KT 3000 BR FEW020 26/24 Q1011=
02/02/2013 16:00:00Z	 SAID31 WIII 021600	METAR WIII 021600Z VRB03KT 3000 BR FEW020 26/24 Q1011=
02/02/2013 16:30:00Z	 SAID31 WIII 021630	METAR WIII 021630Z 13003KT 3000 BR FEW020 25/24 Q1011=
02/02/2013 17:00:00Z	 SAID31 WIII 021700	METAR WIII 021700Z 14003KT 2000 BR FEW020 25/24 Q1010=
02/02/2013 17:30:00Z	 SAID31 WIII 021730	METAR WIII 021730Z 14005KT 3000 BR FEW020 25/23 Q1010=
02/02/2013 18:00:00Z	 SAID31 WIII 021800	METAR WIII 021800Z 14003KT 3000 BR FEW018CB FEW020 25/24 Q1009 CB TO NW=
02/02/2013 18:30:00Z	 SAID31 WIII 021830	METAR WIII 021830Z 28004KT 2000 BR FEW018CB FEW020 24/23 Q1009 CB TO NW=
02/02/2013 19:00:00Z	 SAID31 WIII 021900	METAR WIII 021900Z 00000KT 2000 BR FEW020 24/23 Q1009=
02/02/2013 19:30:00Z	 SAID31 WIII 021930	METAR WIII 021930Z 19004KT 2000 BR FEW018CB FEW020 24/23 Q1009 CB TO S AND W=
02/02/2013 20:00:00Z	 SAID31 WIII 022000	METAR WIII 022000Z 21003KT 2500 BR FEW018CB FEW020 24/23 Q1009 CB TO N=
02/02/2013 20:30:00Z	 SAID31 WIII 022030	METAR WIII 022030Z 19003KT 3000 BR FEW018CB FEW020 24/23 Q1009 CB TO N=
02/02/2013 21:00:00Z	 SAID31 WIII 022100	METAR WIII 022100Z 16005KT 4000 BR FEW018CB FEW020 24/23 Q1009 CB TO N AND NW=
02/02/2013 21:30:00Z	 SAID31 WIII 022130	METAR WIII 022130Z 15002KT 4000 BR FEW020 24/23 Q1009=
02/02/2013 22:00:00Z	 SAID31 WIII 022200	METAR WIII 022200Z 18004KT 4000 BR FEW018CB FEW020 24/22 Q1009 CB TO N=
02/02/2013 22:30:00Z	 SAID31 WIII 022230	METAR WIII 022230Z VRB02KT 4000 BR FEW018CB SCT020 24/22 Q1009 CB TO N=
02/02/2013 23:00:00Z	 SAID31 WIII 022300	METAR WIII 022300Z 13003KT 5000 BR FEW018CB SCT020 24/22 Q1009 CB TO N=
02/02/2013 23:30:00Z	 SAID31 WIII 022330	METAR WIII 022330Z 00000KT 5000 FEW018CB SCT020 24/23 Q1010 CB TO N=
03/02/2013 00:00:00Z	 SAID31 WIII 030000	METAR WIII 030000Z 34005KT 4000 HZ SCT020 25/23 Q1010=
03/02/2013 00:30:00Z	 SAID31 WIII 030030	METAR WIII 030030Z AUTO 00000KT 7000 SCT027 BKN037 OVC050 25/23 Q1011=
03/02/2013 01:00:00Z	 SAID31 WIII 030100	METAR WIII 030100Z 00000KT 6000 BKN021 26/23 Q1011=
03/02/2013 01:00:00Z	 SAID20 WIII 030100	METAR WIII 030100Z WIIF SIGMET 01 VALID 030100/030500 WIII- WIIF JAKARTA FIR AREA OF ISOL CB/TS OBS SW OF E095 EQ E107 S03 STNR NC=
03/02/2013 01:30:00Z	 SAID31 WIII 030130	METAR WIII 030130Z AUTO VRB03KT 9999 SCT015 SCT021 OVC047 26/24 Q1011=
03/02/2013 02:00:00Z	 SAID31 WIII 030200	METAR WIII 030200Z 29004KT 8000 BKN020 27/24 Q1011=
03/02/2013 02:30:00Z	 SAID31 WIII 030230	METAR WIII 030230Z 29004KT 9000 SCT021 28/24 Q1011=
03/02/2013 03:00:00Z	 SAID31 WIII 030300	METAR WIII 030300Z 34004KT 9000 BKN020 28/24 Q1011=
03/02/2013 03:30:00Z	 SAID31 WIII 030330	METAR WIII 030330Z AUTO VRB05KT 9999 FEW016 SCT029 OVC065 28/24 Q1011=
03/02/2013 04:00:00Z	 SAID31 WIII 030400	METAR WIII 030400Z AUTO 34006KT 9999 FEW018 SCT029 SCT060 BKN089 28/2 4 Q1011=
03/02/2013 04:30:00Z	 SAID31 WIII 030430	METAR WIII 030430Z 31007KT 9999 FEW018CB BKN 020 28/24 Q1011 CB TO=
03/02/2013 05:00:00Z	 SAID31 WIII 030500	METAR WIII 030500Z 31006KT 9999 SCT020 29/24 Q1010=
03/02/2013 05:30:00Z	 SAID31 WIII 030530	METAR WIII 030530Z AUTO 31006KT 9999 SCT019 29/24 Q1010=
03/02/2013 06:00:00Z	 SAID31 WIII 030600	METAR WIII 030600Z 31008KT 9999 SCT020 29/23 Q1009=
03/02/2013 06:30:00Z	 SAID31 WIII 030630	METAR WIII 030630Z 31007KT 9999 FEW020 29/23 Q1009=
03/02/2013 07:00:00Z	 SAID31 WIII 030700	METAR WIII 030700Z 35006KT 9999 FEW022 30/24 Q1008=
03/02/2013 07:30:00Z	 SAID31 WIII 030730	METAR WIII 030730Z 32008KT 9999 FEW022 29/24 Q1008=
03/02/2013 08:00:00Z	 SAID31 WIII 030800	METAR WIII 030800Z 01007KT 9999 FEW022 30/23 Q1008=
03/02/2013 08:30:00Z	 SAID31 WIII 030830	METAR WIII 030830Z AUTO VRB04KT 9999 NCD 30/23 Q1007=
03/02/2013 09:00:00Z	 SAID31 WIII 030900	METAR WIII 030900Z 32006KT 9999 FEW022 30/22 Q1007=
03/02/2013 09:30:00Z	 SAID31 WIII 030930	METAR WIII 030930Z AUTO VRB05KT 9999 NCD 29/23 Q1007=
03/02/2013 10:00:00Z	 SAID31 WIII 031000	METAR WIII 031000Z 32004KT 9999 FEW022 29/23 Q1007=
03/02/2013 10:30:00Z	 SAID31 WIII 031030	METAR WIII 031030Z AUTO VRB04KT 9999 NCD 29/23 Q1008=
03/02/2013 11:00:00Z	 SAID31 WIII 031100	METAR WIII 031100Z AUTO VRB03KT 9999 NCD 28/24 Q1008=
03/02/2013 11:30:00Z	 SAID31 WIII 031130	METAR WIII 031130Z 04002KT 9999 FEW022 27/24 Q1009=
03/02/2013 12:00:00Z	 SAID31 WIII 031200	METAR WIII 031200Z VRB02KT 7000 FEW022 28/25 Q1009=
03/02/2013 12:30:00Z	 SAID31 WIII 031230	METAR WIII 031230Z 00000KT 7000 FEW022 27/25 Q1010=
03/02/2013 13:00:00Z	 SAID31 WIII 031300	METAR WIII 031300Z VRB03KT 8000 FEW022 27/24 Q1010=
03/02/2013 13:30:00Z	 SAID31 WIII 031330	METAR WIII 031330Z AUTO VRB02KT 9999 NCD 27/24 Q1010=
03/02/2013 14:00:00Z	 SAID31 WIII 031400	METAR WIII 031400Z VRB02KT 9999 FEW022 28/24 Q1010=
03/02/2013 14:30:00Z	 SAID31 WIII 031430	METAR WIII 031430Z VRB02KT 7000 FEW022 27/24 Q1011=
03/02/2013 15:00:00Z	 SAID31 WIII 031500	METAR WIII 031500Z VRB02KT 9999 FEW022 27/24 Q1011=
03/02/2013 15:30:00Z	 SAID31 WIII 031530	METAR WIII 031530Z AUTO VRB02KT 8000 NCD 27/24 Q1011=
03/02/2013 16:00:00Z	 SAID31 WIII 031600	METAR WIII 031600Z AUTO VRB05KT 6000 NCD 27/24 Q1011=
03/02/2013 16:30:00Z	 SAID31 WIII 031630	METAR WIII 031630Z VRB02KT 7000 FEW022 26/24 Q1010=
03/02/2013 17:00:00Z	 SAID31 WIII 031700	METAR WIII 031700Z 00000KT 6000 FEW022 26/24 Q1010=
03/02/2013 17:30:00Z	 SAID31 WIII 031730	METAR WIII 031730Z 00000KT 4000 BR FEW022 26/24 Q1010=
03/02/2013 18:00:00Z	 SAID31 WIII 031800	METAR WIII 031800Z 33002KT 2700 BR FEW022 26/24 Q1010=
03/02/2013 18:30:00Z	 SAID31 WIII 031830	METAR WIII 031830Z 00000KT 2300 BR FEW022 25/24 Q1010=
03/02/2013 19:00:00Z	 SAID31 WIII 031900	METAR WIII 031900Z 27002KT 2200 BR SCT022 25/25 Q1010=
03/02/2013 19:30:00Z	 SAID31 WIII 031930	METAR WIII 031930Z 26002KT 2200 BR FEW022 25/25 Q1010=
03/02/2013 20:00:00Z	 SAID31 WIII 032000	METAR WIII 032000Z 00000KT 2300 BR FEW022 25/25 Q1009=
03/02/2013 20:30:00Z	 SAID31 WIII 032030	METAR WIII 032030Z AUTO 29002KT 2300 BR OVC180 26/24 Q1009=
03/02/2013 21:00:00Z	 SAID31 WIII 032100	METAR WIII 032100Z AUTO 24002KT 2200 BR OVC180 26/25 Q1009=
03/02/2013 21:30:00Z	 SAID31 WIII 032130	METAR WIII 032130Z AUTO 18002KT 2300 BR BKN190 25/24 Q1009=
03/02/2013 22:00:00Z	 SAID31 WIII 032200	METAR WIII 032200Z AUTO 19003KT 2200 HZ BKN190 25/24 Q1009=
03/02/2013 22:30:00Z	 SAID31 WIII 032230	METAR WIII 032230Z AUTO VRB04KT 3700 HZ SCT180 BKN200 25/24 Q1010=
03/02/2013 23:00:00Z	 SAID31 WIII 032300	METAR WIII 032300Z VRB02KT 3200 HZ FEW022 25/24 Q1010=
03/02/2013 23:30:00Z	 SAID31 WIII 032330	METAR WIII 032330Z 00000KT 4200 FEW022 26/24 Q1011=
04/02/2013 00:00:00Z	 SAID31 WIII 040000	METAR WIII 040000Z VRB03KT 3900 HZ FEW022 26/24 Q1011=
04/02/2013 00:30:00Z	 SAID31 WIII 040030	METAR WIII 040030Z VRB03KT 3200 HZ FEW024 26/24 Q1011=
04/02/2013 01:00:00Z	 SAID31 WIII 040100	METAR WIII 040100Z 12003KT 2800 HZ FEW021CB FEW024 27/24 Q1012 CB TO NE=
04/02/2013 01:30:00Z	 SAID31 WIII 040130	METAR WIII 040130Z 10003KT 2500 HZ FEW024 28/24 Q1012=
04/02/2013 02:00:00Z	 SAID31 WIII 040200	METAR WIII 040200Z 06006KT 3000 HZ FEW024 29/25 Q1012=
04/02/2013 02:30:00Z	 SAID31 WIII 040230	METAR WIII 040230Z AUTO VRB05KT 4900 NCD 30/24 Q1012=
04/02/2013 03:00:00Z	 SAID31 WIII 040300	METAR WIII 040300Z 05003KT 6000 FEW024 31/23 Q1012=
04/02/2013 03:30:00Z	 SAID31 WIII 040330	METAR WIII 040330Z 04006KT 6000 FEW024 31/24 Q1011=
04/02/2013 04:00:00Z	 SAID31 WIII 040400	METAR WIII 040400Z 30005KT 7000 FEW024 31/23 Q1011=
04/02/2013 04:30:00Z	 SAID31 WIII 040430	METAR COR WIII 040430Z 30004KT -RA 7000 FEW024 31/23 Q1010=
04/02/2013 05:00:00Z	 SAID31 WIII 040500	METAR WIII 040500Z 30004KT 8000 FEW024 31/24 Q1010 RERA=
04/02/2013 05:30:00Z	 SAID31 WIII 040530	METAR WIII 040530Z 01004KT 9000 FEW024 31/23 Q1010=
04/02/2013 06:00:00Z	 SAID31 WIII 040600	METAR WIII 040600Z 02007KT 9999 FEW024 31/23 Q1009=
04/02/2013 06:30:00Z	 SAID31 WIII 040630	METAR WIII 040630Z 32005KT 9999 FEW024 32/23 Q1008=
04/02/2013 07:00:00Z	 SAID31 WIII 040700	METAR WIII 040700Z 36005KT 9999 FEW024 32/24 Q1008=
04/02/2013 07:30:00Z	 SAID31 WIII 040730	METAR WIII 040730Z 01007KT 9999 FEW024 32/24 Q1008=
04/02/2013 08:00:00Z	 SAID31 WIII 040800	METAR WIII 040800Z 01006KT 9999 FEW021CB FEW024 31/24 Q1007 CB TO S A ND SW=
04/02/2013 08:30:00Z	 SAID31 WIII 040830	METAR WIII 040830Z 03008KT 9999 FEW021CB FEW024 31/24 Q1008 CB TO SE AND SW=
04/02/2013 09:00:00Z	 SAID31 WIII 040900	METAR WIII 040900Z 03010KT 9999 FEW021CB FEW024 30/24 Q1008 CB TO SE, S, AND SW=
04/02/2013 09:30:00Z	 SAID31 WIII 040930	METAR WIII 040930Z 01006KT 9000 VCTS FEW021CB FEW024 30/24 Q1008 CB T O SE, S, AND SW=
04/02/2013 10:00:00Z	 SAID31 WIII 041000	METAR WIII 041000Z 34004KT 9000 VCTS FEW021CB SCT026 29/24 Q1009 CB T O SE, S, SW, AND W=
04/02/2013 10:30:00Z	 SAID31 WIII 041030	METAR WIII 041030Z 25007KT 6000 VCTS FEW021CB OVC060 29/24 Q1010 CB TO SE, S, AND W=
04/02/2013 11:00:00Z	 SAID31 WIII 041100	METAR WIII 041100Z 24010KT 4000 VCTS FEW021CB BKN038 27/24 Q1011 VC P REC TO S AND CB TO E, SE, SW, AND SW=
04/02/2013 11:30:00Z	 SAID31 WIII 041130	METAR WIII 041130Z 18016KT 4000 VCTS -RA FEW021CB BKN026 BKN036 25/23 Q1012 CB TO S, SW, AND W=
04/02/2013 12:00:00Z	 SAID31 WIII 041200	METAR WIII 041200Z 21016KT 7000 VCTS -RA FEW021CB SCT026 24/23 Q1012 CB TO S AND SW=
04/02/2013 12:30:00Z	 SAID31 WIII 041230	METAR WIII 041230Z 21011KT 6000 VCTS FEW021CB SCT022 BKN070 24/22 Q10 13 CB TO S AND W=
04/02/2013 13:00:00Z	 SAID31 WIII 041300	METAR WIII 041300Z 19007KT 140V220 3000 TSRA SCT021CB SCT023 BKN065 2 3/22 Q1013 CB OVER THE FIELDS=
04/02/2013 13:30:00Z	 SAID31 WIII 041330	METAR WIII 041330Z VRB04KT 4000 -TSRA FEW020CB SCT022 BKN070 24/22 Q1 013 CB TO S AND NW=
04/02/2013 14:00:00Z	 SAID31 WIII 041400	METAR WIII 041400Z 22007KT 5000 -RA FEW020CB SCT022 BKN065 24/23 Q101 3 RETS CB TO S=
04/02/2013 14:30:00Z	 SAID31 WIII 041430	METAR WIII 041430Z 21009KT 6000 FEW020CB SCT022 BKN065 24/23 Q1013 RE RA CB TO SW=
04/02/2013 15:00:00Z	 SAID31 WIII 041500	METAR WIII 041500Z 22008KT 7000 SCT023 24/22 Q1013=
04/02/2013 15:30:00Z	 SAID31 WIII 041530	METAR WIII 041530Z VRB03KT 7000 SCT023 24/22 Q1013=
04/02/2013 16:00:00Z	 SAID31 WIII 041600	METAR WIII 041600Z 20005KT 7000 SCT024 24/23 Q1013=
04/02/2013 16:30:00Z	 SAID31 WIII 041630	METAR WIII 041630Z 27005KT 6000 FEW023 24/23 Q1012=
04/02/2013 17:00:00Z	 SAID31 WIII 041700	METAR WIII 041700Z 21004KT 6000 FEW023 24/23 Q1012=
04/02/2013 17:30:00Z	 SAID31 WIII 041730	METAR WIII 041730Z 21002KT 6000 FEW023 24/23 Q1011=
04/02/2013 18:00:00Z	 SAID31 WIII 041800	METAR WIII 041800Z 27002KT 4900 BR FEW023 24/23 Q1011=
04/02/2013 18:30:00Z	 SAID31 WIII 041830	METAR WIII 041830Z 24004KT 1400 BR SCT024 24/23 Q1011=
04/02/2013 19:00:00Z	 SAID31 WIII 041900	METAR WIII 041900Z 25002KT 1800 BR FEW023 24/23 Q1011=
04/02/2013 19:30:00Z	 SAID31 WIII 041930	METAR WIII 041930Z 26005KT 2000 BR FEW023 24/23 Q1011=
04/02/2013 20:00:00Z	 SAID31 WIII 042000	METAR WIII 042000Z 24004KT 1300 BR FEW024 24/23 Q1011=
04/02/2013 20:30:00Z	 SAID31 WIII 042030	METAR WIII 042030Z 25003KT 1900 BR FEW024 24/23 Q1011=
04/02/2013 21:00:00Z	 SAID31 WIII 042100	METAR WIII 042100Z 22002KT 2200 BR FEW024 24/23 Q1010 NOSIG=
04/02/2013 21:30:00Z	 SAID31 WIII 042130	METAR WIII 042130Z 29002KT 2800 BR FEW024 24/23 Q1011=
04/02/2013 22:00:00Z	 SAID31 WIII 042200	METAR WIII 042200Z 00000KT 2400 BR FEW024 24/23 Q1011=
04/02/2013 22:30:00Z	 SAID31 WIII 042230	METAR WIII 042230Z 00000KT 2400 BR FEW024 24/23 Q1011=
04/02/2013 23:00:00Z	 SAID31 WIII 042300	METAR WIII 042300Z 28003KT 1900 BR FEW024 24/23 Q1011=
04/02/2013 23:30:00Z	 SAID31 WIII 042330	METAR WIII 042330Z 28002KT 1500 BR FEW024 24/23 Q1011=
05/02/2013 00:00:00Z	 SAID31 WIII 050000	METAR WIII 050000Z 18003KT 3100 BR FEW024 25/24 Q1012 NOSIG=
05/02/2013 00:30:00Z	 SAID31 WIII 050030	METAR WIII 050030Z 19003KT 4800 HZ FEW023 26/24 Q1012=
05/02/2013 01:00:00Z	 SAID31 WIII 050100	METAR WIII 050100Z 21004KT 4800 HZ FEW023 27/24 Q1012=
05/02/2013 01:30:00Z	 SAID31 WIII 050130	METAR WIII 050130Z AUTO VRB04KT 4700 NCD 28/24 Q1012=
05/02/2013 02:00:00Z	 SAID31 WIII 050200	METAR WIII 050200Z 36002KT 4000 HZ FEW020 29/23 Q1012=
05/02/2013 02:30:00Z	 SAID31 WIII 050230	METAR WIII 050230Z 05003KT 4000 HZ FEW020 29/23 Q1012=
05/02/2013 03:00:00Z	 SAID31 WIII 050300	METAR WIII 050300Z 33005KT 5000 HZ FEW020 30/24 Q1012=
05/02/2013 03:30:00Z	 SAID31 WIII 050330	METAR WIII 050330Z 30007KT 6000 FEW020 30/24 Q1012=
05/02/2013 04:00:00Z	 SAID31 WIII 050400	METAR WIII 050400Z 34006KT 7000 SCT020 30/24 Q1012=
05/02/2013 04:30:00Z	 SAID31 WIII 050430	METAR WIII 050430Z 36006KT 8000 SCT020 31/24 Q1011=
05/02/2013 05:30:00Z	 SAID31 WIII 050530	METAR WIII 050530Z 32010KT 7000 SCT020 31/24 Q1010=
05/02/2013 06:00:00Z	 SAID31 WIII 050600	METAR WIII 050600Z 33008KT 8000 FEW018CB SCT020 31/24 Q1010 CB TO SW=
05/02/2013 06:30:00Z	 SAID31 WIII 050630	METAR WIII 050630Z 33010KT 9999 FEW018CB SCT020 31/24 Q1010 CB TO E A ND S=
05/02/2013 07:00:00Z	 SAID31 WIII 050700	METAR WIII 050700Z 34012KT 8000 FEW018CB SCT020 31/24 Q1009 CB TO S A ND SW=
05/02/2013 07:30:00Z	 SAID31 WIII 050730	METAR WIII 050730Z 32011KT 9999 FEW018CB SCT020 31/24 Q1009 CB TO S A ND SW=
05/02/2013 08:00:00Z	 SAID31 WIII 050800	METAR WIII 050800Z 32011KT 9999 FEW018CB SCT020 31/24 Q1008 CB TO S A ND SW=
05/02/2013 08:30:00Z	 SAID31 WIII 050830	METAR WIII 050830Z 32007KT 8000 VCTS FEW018CB SCT020 31/25 Q1008 CB T O S AND SW=
05/02/2013 09:00:00Z	 SAID31 WIII 050900	METAR WIII 050900Z 30010KT 6000 -TSRA SCT018CB SCT020 30/25 Q1008 CB TO S AND SW=
05/02/2013 09:30:00Z	 SAID31 WIII 050930	METAR WIII 050930Z 24016G26KT 6000 FEW018 SCT020 28/23 Q1009 CB TO SW AND W=
05/02/2013 10:00:00Z	 SAID31 WIII 051000	METAR WIII 051000Z 25014KT 6000 FEW018CB SCT020 28/23 Q1009 CB TO S A ND W=
05/02/2013 10:30:00Z	 SAID31 WIII 051030	METAR WIII 051030Z 23012KT 6000 FEW018CB SCT020 26/24 Q1009 CB TO S A ND W=
05/02/2013 11:00:00Z	 SAID31 WIII 051100	METAR WIII 051100Z 23008KT 6000 FEW018CB SCT020 27/23 Q1010 CB TO SE AND W=
05/02/2013 11:30:00Z	 SAID31 WIII 051130	METAR WIII 051130Z 24010KT 5000 BR FEW018CB SCT020 27/23 Q1011 CB TO SE=
05/02/2013 12:00:00Z	 SAID31 WIII 051200	METAR WIII 051200Z 23010KT 5000 -DZ FEW018CB SCT020 28/24 Q1011 CB TO SE AND S=
05/02/2013 12:30:00Z	 SAID31 WIII 051230	METAR WIII 051230Z 20009KT 5000 FEW018CB SCT020 27/24 Q1012 CB TO SE=
05/02/2013 13:00:00Z	 SAID31 WIII 051300	METAR WIII 051300Z VRB05KT 7000 SCT018 27/24 Q1012=
05/02/2013 13:30:00Z	 SAID31 WIII 051330	METAR WIII 051330Z AUTO 21006KT 9999 SCT100 BKN120 27/24 Q1012=
05/02/2013 14:00:00Z	 SAID31 WIII 051400	METAR WIII 051400Z AUTO 20006KT 9000 SCT110 SCT130 27/24 Q1012=
05/02/2013 14:30:00Z	 SAID31 WIII 051430	METAR WIII 051430Z AUTO 20007KT 9999 VCTS FEW024 SCT090 BKN140 27/23 Q1012=
05/02/2013 15:00:00Z	 SAID31 WIII 051500	METAR WIII 051500Z VRB04KT 5000 BR SCT020 27/24 Q1013=
05/02/2013 15:30:00Z	 SAID31 WIII 051530	METAR WIII 051530Z 25009KT 4000 -RA BKN020 27/24 Q1013=
05/02/2013 16:00:00Z	 SAID31 WIII 051600	METAR WIII 051600Z 24014KT 4000 -RA BKN020 26/24 Q1012=
05/02/2013 16:30:00Z	 SAID31 WIII 051630	METAR WIII 051630Z 25009KT 4000 BR BKN020 26/24 Q1012=
05/02/2013 17:00:00Z	 SAID31 WIII 051700	METAR WIII 051700Z 24008KT 4000 BR BKN020 26/24 Q1012=
05/02/2013 17:30:00Z	 SAID31 WIII 051730	METAR WIII 051730Z 24008KT 4000 BR BKN020 26/24 Q1012=
05/02/2013 18:00:00Z	 SAID31 WIII 051800	METAR WIII 051800Z 26007KT 4000 BR BKN020 26/24 Q1012=
05/02/2013 18:30:00Z	 SAID31 WIII 051830	METAR WIII 051830Z 26007KT 4000 BR BKN020 26/24 Q1011=
05/02/2013 19:00:00Z	 SAID31 WIII 051900	METAR WIII 051900Z 26007KT 4000 BR BKN020 25/24 Q1011=
05/02/2013 19:30:00Z	 SAID31 WIII 051930	METAR WIII 051930Z 27008KT 4000 BR BKN020 25/23 Q1011=
05/02/2013 20:00:00Z	 SAID31 WIII 052000	METAR WIII 052000Z 25008KT 4000 BR BKN020 25/23 Q1010=
05/02/2013 20:30:00Z	 SAID31 WIII 052030	METAR WIII 052030Z 25012KT 4000 BR SCT020 25/23 Q1010=
05/02/2013 21:00:00Z	 SAID31 WIII 052100	METAR WIII 052100Z 26008KT 4000 BR SCT020 25/23 Q1010=
05/02/2013 21:30:00Z	 SAID31 WIII 052130	METAR WIII 052130Z 25009KT 4000 BR SCT022 25/23 Q1010=
05/02/2013 22:00:00Z	 SAID31 WIII 052200	METAR WIII 052200Z 26008KT 5000 BR SCT022 25/23 Q1010=
05/02/2013 22:30:00Z	 SAID31 WIII 052230	METAR WIII 052230Z 27007KT 5000 BR FEW018 25/23 Q1011=
05/02/2013 23:30:00Z	 SAID31 WIII 052330	METAR WIII 052330Z 25008KT 5000 BR FEW022 25/23 Q1011=
06/02/2013 00:00:00Z	 SAID31 WIII 060000	METAR WIII 060000Z 24009KT 6000 FEW020 26/23 Q1012=
06/02/2013 00:30:00Z	 SAID31 WIII 060030	METAR WIII 060030Z 27007KT 7000 FEW018 26/23 Q1012=
06/02/2013 01:00:00Z	 SAID31 WIII 060100	METAR WIII 060100Z 26009KT 7000 FEW018CB SCT020 27/24 Q1012 CB TO NE=
06/02/2013 01:30:00Z	 SAID31 WIII 060130	METAR WIII 060130Z 27010KT 8000 FEW018CB SCT020 28/24 Q1012 CB TO NE=
06/02/2013 02:00:00Z	 SAID31 WIII 060200	METAR WIII 060200Z 25014KT 8000 FEW018CB SCT020 29/24 Q1013 CB TO NE=
06/02/2013 02:30:00Z	 SAID31 WIII 060230	METAR WIII 060230Z 25015KT 8000 FEW018CB SCT020 29/24 Q1012 CB TO SW=
06/02/2013 03:00:00Z	 SAID31 WIII 060300	METAR WIII 060300Z 26009G19KT 8000 SCT020 29/24 Q1012=
06/02/2013 03:30:00Z	 SAID31 WIII 060330	METAR WIII 060330Z 22007G17KT 8000 SCT020 30/23 Q1012=
06/02/2013 04:00:00Z	 SAID31 WIII 060400	METAR WIII 060400Z 25010KT 9999 FEW018CB SCT020 31/24 Q1012 CB TO S=
06/02/2013 04:30:00Z	 SAID31 WIII 060430	METAR WIII 060430Z 27008KT 9999 SCT020 31/24 Q1011=
06/02/2013 05:00:00Z	 SAID31 WIII 060500	METAR WIII 060500Z 25012KT 9999 SCT020 30/24 Q1011=
06/02/2013 05:30:00Z	 SAID31 WIII 060530	METAR WIII 060530Z 28012KT 9999 SCT020 31/24 Q1010=
06/02/2013 06:00:00Z	 SAID31 WIII 060600	METAR WIII 060600Z 28012KT 9999 SCT020 31/23 Q1009=
06/02/2013 06:30:00Z	 SAID31 WIII 060630	METAR WIII 060630Z 30009KT 9999 FEW018CB SCT020 31/24 Q1009 CB TO E A ND SE=
06/02/2013 07:00:00Z	 SAID31 WIII 060700	METAR WIII 060700Z 28010KT 8000 FEW018CB SCT020 31/24 Q1009 CB TO E A ND SE=
06/02/2013 07:30:00Z	 SAID31 WIII 060730	METAR WIII 060730Z 27010KT 8000 FEW018CB SCT020 31/24 Q1008 CB TO SE=
06/02/2013 08:00:00Z	 SAID31 WIII 060800	METAR WIII 060800Z 30012KT 7000 SCT018CB BKN020 30/23 Q1008 CB TO NE E AND SE=
06/02/2013 08:30:00Z	 SAID31 WIII 060830	METAR WIII 060830Z 30010KT 7000 SCT018CB BKN020 30/24 Q1008 CB TO E S E AND S=
06/02/2013 09:00:00Z	 SAID31 WIII 060900	METAR WIII 060900Z 27010KT 6000 VCTS SCT018CB BKN020 29/24 Q1008 CB T O E SE AND S=
06/02/2013 09:30:00Z	 SAID31 WIII 060930	METAR WIII 060930Z 24012KT 4000 TSRA SCT016CB OVC018 28/23 Q1009 CB A LL RWY TEMPO FM0930 TL1030 4000 TSRA=
06/02/2013 10:00:00Z	 SAID31 WIII 061000	METAR WIII 061000Z 22008KT 4000 TSRA BKN016 OVC018 26/24 Q1009 CB ALL RWY TEMPO TL1030 4000 TSRA=
06/02/2013 10:30:00Z	 SAID31 WIII 061030	METAR WIII 061030Z 26006KT 4000 TSRA BKN016 OVC018 26/24 Q1010 TEMPO TL1130 4000 TSRA=
06/02/2013 11:00:00Z	 SAID31 WIII 061100	METAR WIII 061100Z 23008KT 4000 TSRA BKN016CB OVC018 26/24 Q1010 CB A LL RWY TEMPO TILL1130 3000 TSRA=
06/02/2013 11:30:00Z	 SAID31 WIII 061130	METAR WIII 061130Z 21006KT 3000 TSRA BKN016CB OVC018 26/24 Q1011 CB A LL RWY=
06/02/2013 12:00:00Z	 SAID31 WIII 061200	METAR WIII 061200Z 18006KT 3000 TSRA BKN016CB OVC018 25/24 Q1011 CB A LL RWY=
06/02/2013 12:30:00Z	 SAID31 WIII 061230	METAR WIII 061230Z 21005KT 4000 TSRA SCT016 OVC018 25/24 Q1011 CB ALL RWY=
06/02/2013 13:30:00Z	 SAID31 WIII 061330	METAR WIII 061330Z 24005KT 6000 -RA FEW065 SCT110 OVC140 25/24 Q1011=
06/02/2013 14:00:00Z	 SAID31 WIII 061400	METAR WIII 061400Z 27003KT 6000 -RA FEW026 BKN130 25/24 Q1011=
06/02/2013 14:30:00Z	 SAID31 WIII 061430	METAR WIII 061430Z 27003KT 6000 FEW026 BKN250 25/24 Q1011=
06/02/2013 15:00:00Z	 SAID31 WIII 061500	METAR WIII 061500Z 20003KT 4000 BR FEW024 25/24 Q1011=
06/02/2013 15:30:00Z	 SAID31 WIII 061530	METAR WIII 061530Z 25004KT 3000 BR FEW026 25/24 Q1011=
06/02/2013 16:00:00Z	 SAID31 WIII 061600	METAR WIII 061600Z 31003KT 3000 BR FEW028 25/24 Q1011=
06/02/2013 16:30:00Z	 SAID31 WIII 061630	METAR WIII 061630Z 29002KT 3000 BR FEW028 25/24 Q1011=
06/02/2013 17:00:00Z	 SAID31 WIII 061700	METAR WIII 061700Z 27003KT 2500 BR FEW028 24/24 Q1011=
06/02/2013 17:30:00Z	 SAID31 WIII 061730	METAR WIII 061730Z 23005KT 3000 BR FEW028 25/24 Q1010=
06/02/2013 18:00:00Z	 SAID31 WIII 061800	METAR WIII 061800Z 21005KT 2500 BR FEW028 25/24 Q1010=
06/02/2013 18:30:00Z	 SAID31 WIII 061830	METAR WIII 061830Z 24005KT 4000 BR FEW028 25/24 Q1009=
06/02/2013 19:00:00Z	 SAID31 WIII 061900	METAR WIII 061900Z 23006KT 5000 FEW028 25/24 Q1009=
06/02/2013 19:30:00Z	 SAID31 WIII 061930	METAR WIII 061930Z 24005KT 4000 BR FEW028 25/24 Q1009=
06/02/2013 20:00:00Z	 SAID31 WIII 062000	METAR WIII 062000Z 23005KT 5000 BR FEW023CB FEW028 25/24 Q1009 CB TO SW=
06/02/2013 20:30:00Z	 SAID31 WIII 062030	METAR WIII 062030Z 23005KT 6000 FEW026 25/23 Q1009=
06/02/2013 21:00:00Z	 SAID31 WIII 062100	METAR WIII 062100Z 23006KT 6000 FEW028 25/23 Q1009=
06/02/2013 21:30:00Z	 SAID31 WIII 062130	METAR WIII 062130Z 27003KT 7000 FEW026 24/23 Q1009=
06/02/2013 22:00:00Z	 SAID31 WIII 062200	METAR WIII 062200Z 26005KT 7000 FEW027 24/23 Q1009=
06/02/2013 22:30:00Z	 SAID31 WIII 062230	METAR WIII 062230Z 26005KT 6000 FEW026 24/23 Q1009=
06/02/2013 23:00:00Z	 SAID31 WIII 062300	METAR WIII 062300Z 00000KT 7000 FEW027 24/23 Q1009=
06/02/2013 23:30:00Z	 SAID31 WIII 062330	METAR WIII 062330Z 20004KT 7000 FEW027 24/23 Q1009=
07/02/2013 00:00:00Z	 SAID31 WIII 070000	METAR WIII 070000Z 22004KT 3500 HZ FEW028 25/24 Q1010=
07/02/2013 00:30:00Z	 SAID31 WIII 070030	METAR WIII 070030Z 25005KT 6000 FEW028 26/24 Q1010=
07/02/2013 01:00:00Z	 SAID31 WIII 070100	METAR WIII 070100Z 27007KT 7000 FEW027 26/24 Q1011=
07/02/2013 01:30:00Z	 SAID31 WIII 070130	METAR WIII 070130Z 29003KT 7000 FEW020 27/24 Q1011=
07/02/2013 02:00:00Z	 SAID31 WIII 070200	METAR WIII 070200Z VRB04KT 9999 FEW020 28/25 Q1011=
07/02/2013 02:30:00Z	 SAID31 WIII 070230	METAR WIII 070230Z VRB03KT 9000 FEW020 28/25 Q1010=
07/02/2013 03:00:00Z	 SAID31 WIII 070300	METAR WIII 070300Z VRB05KT 9999 FEW020 29/25 Q1010=
07/02/2013 03:30:00Z	 SAID31 WIII 070330	METAR WIII 070330Z 30006KT 9999 FEW026 30/25 Q1010=
07/02/2013 04:00:00Z	 SAID31 WIII 070400	METAR WIII 070400Z AUTO 29007KT 9999 FEW028 30/25 Q1010=
07/02/2013 04:30:00Z	 SAID31 WIII 070430	METAR WIII 070430Z 31005KT 9999 FEW025 31/24 Q1009=
07/02/2013 05:00:00Z	 SAID31 WIII 070500	METAR WIII 070500Z 32007KT 9999 SCT018 31/25 Q1009=
07/02/2013 05:30:00Z	 SAID31 WIII 070530	METAR WIII 070530Z 33007KT 9000 SCT018 30/25 Q1009=
07/02/2013 06:00:00Z	 SAID31 WIII 070600	METAR WIII 070600Z 32008KT 9999 SCT018 30/25 Q1008 VC PREC TO S=
07/02/2013 06:30:00Z	 SAID31 WIII 070630	METAR WIII 070630Z 33008KT 9999 SCT018 31/25 Q1008=
07/02/2013 07:00:00Z	 SAID31 WIII 070700	METAR WIII 070700Z VRB05KT 9999 SCT018 31/26 Q1007=
07/02/2013 07:30:00Z	 SAID31 WIII 070730	METAR WIII 070730Z 34006KT 9999 SCT020 30/25 Q1007=
07/02/2013 09:00:00Z	 SAID31 WIII 070900	METAR WIII 070900Z VRB05KT 9999 SCT020 29/25 Q1006=
07/02/2013 09:30:00Z	 SAID31 WIII 070930	METAR WIII 070930Z 34006KT 9999 SCT020 29/24 Q1006=
07/02/2013 10:00:00Z	 SAID31 WIII 071000	METAR WIII 071000Z VRB03KT 9999 SCT020 29/24 Q1007=
07/02/2013 10:30:00Z	 SAID31 WIII 071030	METAR WIII 071030Z AUTO VRB05KT 9999 NCD 29/25 Q1007=
07/02/2013 11:00:00Z	 SAID31 WIII 071100	METAR WIII 071100Z AUTO VRB04KT 9999 NCD 29/24 Q1008=
07/02/2013 11:30:00Z	 SAID31 WIII 071130	METAR WIII 071130Z 26008KT 8000 FEW016CB SCT020 28/24 Q1009 CB TO S=
07/02/2013 12:00:00Z	 SAID31 WIII 071200	METAR WIII 071200Z 25007KT 7000 SCT018 27/24 Q1009=
07/02/2013 12:30:00Z	 SAID31 WIII 071230	METAR WIII 071230Z AUTO 25006KT 9999 FEW025 27/24 Q1009=
07/02/2013 13:00:00Z	 SAID31 WIII 071300	METAR WIII 071300Z AUTO 20007KT 9999 BKN027 28/24 Q1010=
07/02/2013 13:30:00Z	 SAID31 WIII 071330	METAR WIII 071330Z AUTO 20006KT 9999 SCT029 27/24 Q1010=
07/02/2013 14:00:00Z	 SAID31 WIII 071400	METAR WIII 071400Z 19007KT 8000 FEW022 SCT230 26/23 Q1011=
07/02/2013 14:30:00Z	 SAID31 WIII 071430	METAR WIII 071430Z 18005KT 8000 FEW022 25/22 Q1010=
07/02/2013 15:00:00Z	 SAID31 WIII 071500	METAR WIII 071500Z 18004KT 8000 FEW022 25/22 Q1011=
07/02/2013 15:30:00Z	 SAID31 WIII 071530	METAR WIII 071530Z 19007KT 8000 FEW022 25/22 Q1011=
07/02/2013 16:00:00Z	 SAID31 WIII 071600	METAR WIII 071600Z 19005KT 8000 FEW022 25/22 Q1010=
07/02/2013 16:30:00Z	 SAID31 WIII 071630	METAR WIII 071630Z VRB02KT 8000 FEW022 25/22 Q1010=
07/02/2013 17:00:00Z	 SAID31 WIII 071700	METAR WIII 071700Z 19003KT 7000 FEW022 25/22 Q1010=
07/02/2013 17:30:00Z	 SAID31 WIII 071730	METAR WIII 071730Z 17003KT 4900 BR FEW022 25/22 Q1009=
07/02/2013 18:00:00Z	 SAID31 WIII 071800	METAR WIII 071800Z 00000KT 4200 BR FEW022 25/23 Q1009=
07/02/2013 18:30:00Z	 SAID31 WIII 071830	METAR WIII 071830Z AUTO 19003KT 3300 BR NCD 24/22 Q1009=
07/02/2013 19:00:00Z	 SAID31 WIII 071900	METAR WIII 071900Z AUTO 21003KT 3700 BR NCD 24/22 Q1009=
07/02/2013 19:30:00Z	 SAID31 WIII 071930	METAR WIII 071930Z AUTO VRB02KT 3200 BR NCD 24/22 Q1009=
07/02/2013 20:00:00Z	 SAID31 WIII 072000	METAR WIII 072000Z AUTO 18002KT 3400 BR NCD 24/22 Q1009=
07/02/2013 20:30:00Z	 SAID31 WIII 072030	METAR WIII 072030Z AUTO 00000KT 3700 BR NCD 24/22 Q1009=
07/02/2013 21:00:00Z	 SAID31 WIII 072100	METAR WIII 072100Z VRB02KT 3200 BR FEW02 24/23 Q1009=
07/02/2013 21:30:00Z	 SAID31 WIII 072130	METAR WIII 072130Z AUTO 00000KT 3400 BR NCD 24/22 Q1009=
07/02/2013 22:00:00Z	 SAID31 WIII 072200	METAR WIII 072200Z 15002KT 3100 BR NCD 24/23 Q1009=
07/02/2013 22:30:00Z	 SAID31 WIII 072230	METAR WIII 072230Z 19003KT 2800 BR FEW023 24/23 Q1009=
07/02/2013 23:00:00Z	 SAID31 WIII 072300	METAR WIII 072300Z 19004KT 2300 BR FEW023 24/23 Q1009=
07/02/2013 23:30:00Z	 SAID31 WIII 072330	METAR WIII 072330Z VRB03KT 2200 BR FEW023 25/23 Q1010=
08/02/2013 00:00:00Z	 SAID31 WIII 080000	METAR WIII 080000Z AUTO VRB02KT 4200 BR NCD 25/23 Q1010=
08/02/2013 00:30:00Z	 SAID31 WIII 080030	METAR WIII 080030Z AUTO VRB02KT 3300 BR NCD 26/24 Q1011=
08/02/2013 01:00:00Z	 SAID31 WIII 080100	METAR WIII 080100Z 16002KT 4000 HZ FEW028 27/24 Q1011=
08/02/2013 01:30:00Z	 SAID31 WIII 080130	METAR WIII 080130Z 25003KT 6000 FEW028 28/24 Q1011=
08/02/2013 02:00:00Z	 SAID31 WIII 080200	METAR WIII 080200Z 20003KT 7000 FEW024 29/23 Q1011=
08/02/2013 03:00:00Z	 SAID31 WIII 080300	METAR WIII 080300Z 35002KT 9999 FEW024 30/23 Q1011=
08/02/2013 03:30:00Z	 SAID31 WIII 080330	METAR WIII 080330Z 20002KT 9999 FEW024 30/23 Q1011=
08/02/2013 04:00:00Z	 SAID31 WIII 080400	METAR WIII 080400Z 35005KT 9999 FEW024 30/23 Q1010=
08/02/2013 04:30:00Z	 SAID31 WIII 080430	METAR WIII 080430Z 35005KT 9999 FEW027 31/24 Q1010=
08/02/2013 05:00:00Z	 SAID31 WIII 080500	METAR WIII 080500Z 33005KT 9999 FEW024 31/24 Q1010=
08/02/2013 05:30:00Z	 SAID31 WIII 080530	METAR WIII 080530Z 33005KT 9999 FEW024 31/23 Q1009=
08/02/2013 06:00:00Z	 SAID31 WIII 080600	METAR WIII 080600Z 01007KT 9999 FEW025 32/23 Q1009=
08/02/2013 06:30:00Z	 SAID31 WIII 080630	METAR WIII 080630Z 33005KT 9999 FEW024 31/23 Q1008=
08/02/2013 07:00:00Z	 SAID31 WIII 080700	METAR WIII 080700Z 34005KT 9999 FEW027 31/23 Q1008=
08/02/2013 07:30:00Z	 SAID31 WIII 080730	METAR WIII 080730Z 35006KT 9999 FEW024 31/23 Q1007=
08/02/2013 08:00:00Z	 SAID31 WIII 080800	METAR WIII 080800Z 01006KT 9999 FEW027 31/24 Q1007=
08/02/2013 08:30:00Z	 SAID31 WIII 080830	METAR WIII 080830Z 35006KT 9999 FEW024 31/23 Q1007=
08/02/2013 09:00:00Z	 SAID31 WIII 080900	METAR WIII 080900Z 36006KT 9999 FEW023CB FEW027 31/23 Q1007 CB TO SW=
08/02/2013 09:30:00Z	 SAID31 WIII 080930	METAR WIII 080930Z 34006KT 9999 FEW022CB FEW027 30/23 Q1007 CB TO SW=
08/02/2013 10:00:00Z	 SAID31 WIII 081000	METAR WIII 081000Z 33006KT 9999 FEW028 30/23 Q1007=
08/02/2013 10:30:00Z	 SAID31 WIII 081030	METAR WIII 081030Z 34005KT 9999 FEW022CB FEW028 29/24 Q1007 CB TO SW=
08/02/2013 11:00:00Z	 SAID31 WIII 081100	METAR WIII 081100Z 32005KT 9999 FEW022CB FEW027 29/24 Q1008 CB TO SW=
08/02/2013 11:30:00Z	 SAID31 WIII 081130	METAR WIII 081130Z 28002KT 6000 FEW022CB FEW027 28/24 Q1008 CB TO SW=
08/02/2013 12:00:00Z	 SAID31 WIII 081200	METAR WIII 081200Z 27002KT 6000 FEW024 28/24 Q1009=
08/02/2013 12:30:00Z	 SAID31 WIII 081230	METAR WIII 081230Z 28002KT 5000 HZ FEW028 28/25 Q1009=
08/02/2013 13:00:00Z	 SAID31 WIII 081300	METAR WIII 081300Z AUTO 00000KT 2400 BR NCD 27/25 Q1010=
08/02/2013 13:30:00Z	 SAID31 WIII 081330	METAR WIII 081330Z AUTO 32002KT 2400 BR NCD 27/25 Q1010=
08/02/2013 14:00:00Z	 SAID31 WIII 081400	METAR WIII 081400Z 00000KT 2100 BR NCD 27/25 Q1011=
08/02/2013 14:30:00Z	 SAID31 WIII 081430	METAR WIII 081430Z 27005KT 3400 BR FEW022 27/25 Q1011=
08/02/2013 15:00:00Z	 SAID31 WIII 081500	METAR WIII 081500Z 23006KT 5000 FEW023 28/24 Q1011=
08/02/2013 15:30:00Z	 SAID31 WIII 081530	METAR WIII 081530Z 21004KT 5000 FEW023 27/24 Q1011=
08/02/2013 16:00:00Z	 SAID31 WIII 081600	METAR WIII 081600Z 22006KT 5000 FEW023 27/24 Q1011=
08/02/2013 16:30:00Z	 SAID31 WIII 081630	METAR WIII 081630Z 26003KT 7000 VCTS FEW020CB FEW022 27/24 Q1011 CB TO S=
08/02/2013 17:00:00Z	 SAID31 WIII 081700	METAR WIII 081700Z VRB03KT 5000 FEW022 27/24 Q1011=
08/02/2013 17:30:00Z	 SAID31 WIII 081730	METAR WIII 081730Z 22006KT 5000 FEW022 27/24 Q1011=
08/02/2013 18:00:00Z	 SAID31 WIII 081800	METAR WIII 081800Z 23006KT 5000 FEW023 27/24 Q1011=
08/02/2013 18:30:00Z	 SAID31 WIII 081830	METAR WIII 081830Z 27004KT 6000 FEW023 26/24 Q1010=
08/02/2013 19:00:00Z	 SAID31 WIII 081900	METAR WIII 081900Z 30003KT 3600 BR FEW022 26/24 Q1010=
08/02/2013 19:30:00Z	 SAID31 WIII 081930	METAR WIII 081930Z AUTO 27002KT 2500 BR NCD 25/24 Q1010=
08/02/2013 20:00:00Z	 SAID31 WIII 082000	METAR WIII 082000Z AUTO 28003KT 3400 BR NCD 25/24 Q1010=
08/02/2013 20:30:00Z	 SAID31 WIII 082030	METAR WIII 082030Z AUTO 25004KT 2700 BR BKN080 25/24 Q1010=
08/02/2013 21:00:00Z	 SAID31 WIII 082100	METAR WIII 082100Z AUTO 25005KT 3100 BR FEW085 25/24 Q1010=
08/02/2013 21:30:00Z	 SAID31 WIII 082130	METAR WIII 082130Z AUTO 25005KT 2900 BR NCD 25/24 Q1009=
08/02/2013 22:00:00Z	 SAID31 WIII 082200	METAR WIII 082200Z AUTO 27005KT 3700 BR NCD 25/24 Q1010=
08/02/2013 22:30:00Z	 SAID31 WIII 082230	METAR WIII 082230Z AUTO 28004KT 2800 BR NCD 25/24 Q1010=
08/02/2013 23:00:00Z	 SAID31 WIII 082300	METAR WIII 082300Z AUTO 27005KT 4200 BR NCD 24/23 Q1010=
08/02/2013 23:30:00Z	 SAID31 WIII 082330	METAR WIII 082330Z 26005KT 3500 BR NCD 25/24 Q1011=
09/02/2013 00:00:00Z	 SAID31 WIII 090000	METAR WIII 090000Z 26005KT 2500 BR NCD 26/24 Q1011=
09/02/2013 00:30:00Z	 SAID31 WIII 090030	METAR WIII 090030Z 24006KT 5000 FEW023 26/24 Q1011=
09/02/2013 01:00:00Z	 SAID31 WIII 090100	METAR WIII 090100Z 26007KT 6000 FEW028 27/24 Q1012=
09/02/2013 01:30:00Z	 SAID31 WIII 090130	METAR WIII 090130Z 26006KT 7000 FEW025 28/24 Q1012=
09/02/2013 02:00:00Z	 SAID31 WIII 090200	METAR WIII 090200Z 26006KT 7000 FEW028 29/24 Q1012=
09/02/2013 02:30:00Z	 SAID31 WIII 090230	METAR WIII 090230Z 26006KT 8000 FEW028 29/24 Q1011=
09/02/2013 03:00:00Z	 SAID31 WIII 090300	METAR WIII 090300Z 28006KT 9000 FEW027 30/24 Q1011=
09/02/2013 03:30:00Z	 SAID31 WIII 090330	METAR WIII 090330Z 24005KT 9000 FEW027 30/24 Q1011=
09/02/2013 04:00:00Z	 SAID31 WIII 090400	METAR WIII 090400Z 27004KT 9999 FEW027 30/23 Q1011=
09/02/2013 04:30:00Z	 SAID31 WIII 090430	METAR WIII 090430Z 29006KT 9999 FEW026 31/23 Q1010=
09/02/2013 05:00:00Z	 SAID31 WIII 090500	METAR WIII 090500Z 30006KT 9999 FEW028 32/23 Q1010=
09/02/2013 05:30:00Z	 SAID31 WIII 090530	METAR WIII 090530Z 29005KT 9999 FEW028 33/23 Q1009=
09/02/2013 06:00:00Z	 SAID31 WIII 090600	METAR WIII 090600Z 30007KT 9999 FEW024 32/24 Q1009=
09/02/2013 06:30:00Z	 SAID31 WIII 090630	METAR WIII 090630Z 32011KT 9999 FEW028 32/24 Q1008=
09/02/2013 07:00:00Z	 SAID31 WIII 090700	METAR WIII 090700Z 32007KT 9999 FEW025 32/25 Q1007=
09/02/2013 07:30:00Z	 SAID31 WIII 090730	METAR WIII 090730Z 34009KT 9999 FEW022CB FEW026 31/25 Q1007 CB TO S=
09/02/2013 08:00:00Z	 SAID31 WIII 090800	METAR WIII 090800Z 32008KT 9999 FEW021CB FEW024 31/25 Q1007 CB TO SE AND S=
09/02/2013 08:30:00Z	 SAID31 WIII 090830	METAR WIII 090830Z 33006KT 9000 FEW021CB FEW024 30/24 Q1007 CB TO E, SE, AND S=
09/02/2013 09:00:00Z	 SAID31 WIII 090900	METAR WIII 090900Z 27013KT 4000 -TSRA SCT021CB BKN030 28/23 Q1008 CB OVER THE FIELD=
09/02/2013 09:30:00Z	 SAID31 WIII 090930	METAR WIII 090930Z 15008KT 4500 VCTS RA SCT021CB BKN032 OVC085 25/24 Q1008 CB ALL RWY=
09/02/2013 10:00:00Z	 SAID31 WIII 091000	METAR WIII 091000Z 12008KT 7000 -RA FEW021CB BKN035 25/24 Q1008 CB TO SE=
09/02/2013 10:30:00Z	 SAID31 WIII 091030	METAR WIII 091030Z 12002KT 6500 -RA FEW024 BKN035 26/23 Q1009=
09/02/2013 11:00:00Z	 SAID31 WIII 091100	METAR WIII 091100Z 11002KT 7000 FEW028 SCT035 26/23 Q1009 RERA CB TO W=
09/02/2013 11:30:00Z	 SAID31 WIII 091130	METAR WIII 091130Z 11002KT 5000 HZ FEW021CB BKN035 26/23 Q1010 CB TO W=
09/02/2013 12:00:00Z	 SAID31 WIII 091200	METAR WIII 091200Z 18002KT 6000 FEW024 SCT032 26/24 Q1010=
09/02/2013 12:30:00Z	 SAID31 WIII 091230	METAR WIII 091230Z 17006KT 6000 FEW028 26/24 Q1010=
09/02/2013 13:00:00Z	 SAID31 WIII 091300	METAR WIII 091300Z AUTO VRB04KT 5000 FEW050 BKN080 OVC097 26/24 Q1010=
09/02/2013 13:30:00Z	 SAID31 WIII 091330	METAR WIII 091330Z VRB02KT 4000 BR BKN090 BKN110 26/24 Q1011=
09/02/2013 14:00:00Z	 SAID31 WIII 091400	METAR WIII 091400Z VRB03KT 4000 BR SCT085 SCT110 SCT250 26/24 Q1011=
09/02/2013 14:30:00Z	 SAID31 WIII 091430	METAR WIII 091430Z VRB02KT 4500 BR SCT070 SCT250 26/24 Q1011=
09/02/2013 15:00:00Z	 SAID31 WIII 091500	METAR WIII 091500Z 00000KT 4000 BR SCT022 26/23 Q1011=
09/02/2013 15:30:00Z	 SAID31 WIII 091530	METAR WIII 091530Z VRB03KT 4100 BR FEW065 25/24 Q1011=
09/02/2013 16:00:00Z	 SAID31 WIII 091600	METAR WIII 091600Z AUTO 28003KT 3000 BR FEW170 25/24 Q1011=
09/02/2013 16:30:00Z	 SAID31 WIII 091630	METAR WIII 091630Z AUTO 25004KT 2800 BR FEW170 25/24 Q1011=
09/02/2013 17:00:00Z	 SAID31 WIII 091700	METAR WIII 091700Z 27004KT 4000 BR SCT250 25/24 Q1011=
09/02/2013 17:30:00Z	 SAID31 WIII 091730	METAR WIII 091730Z 26004KT 2100 BR SCT250 25/24 Q1010=
09/02/2013 18:00:00Z	 SAID31 WIII 091800	METAR WIII 091800Z 27002KT 3000 BR FEW190 BKN250 25/24 Q1010=
09/02/2013 18:30:00Z	 SAID31 WIII 091830	METAR WIII 091830Z AUTO 26003KT 1900 BR OVC190 25/24 Q1010=
09/02/2013 19:00:00Z	 SAID31 WIII 091900	METAR WIII 091900Z AUTO 27003KT 2600 BR OVC200 25/24 Q1009=
09/02/2013 19:30:00Z	 SAID31 WIII 091930	METAR WIII 091930Z AUTO 25003KT 2300 BR BKN190 BKN210 25/24 Q1009=
09/02/2013 20:00:00Z	 SAID31 WIII 092000	METAR WIII 092000Z AUTO 26004KT 2300 BR OVC210 25/24 Q1009=
09/02/2013 20:30:00Z	 SAID31 WIII 092030	METAR WIII 092030Z AUTO 24005KT 3200 BR FEW180 OVC200 25/24 Q1009=
09/02/2013 21:00:00Z	 SAID31 WIII 092100	METAR WIII 092100Z AUTO 23006KT 7000 FEW180 OVC200 25/24 Q1009=
09/02/2013 21:30:00Z	 SAID31 WIII 092130	METAR WIII 092130Z AUTO 21006KT 9999 OVC200 25/24 Q1009=
09/02/2013 22:00:00Z	 SAID31 WIII 092200	METAR WIII 092200Z AUTO 23003KT 9999 BKN200 25/23 Q1009=
09/02/2013 22:30:00Z	 SAID31 WIII 092230	METAR WIII 092230Z AUTO 24003KT 6000 SCT180 SCT200 25/23 Q1009=
09/02/2013 23:00:00Z	 SAID31 WIII 092300	METAR WIII 092300Z AUTO 23004KT 9000 FEW200 25/23 Q1009=
09/02/2013 23:30:00Z	 SAID31 WIII 092330	METAR WIII 092330Z AUTO 26006KT 4700 NCD 25/23 Q1009=
10/02/2013 00:00:00Z	 SAID31 WIII 100000	METAR WIII 100000Z 25006KT 6000 FEW024 26/24 Q1009=
10/02/2013 00:30:00Z	 SAID31 WIII 100030	METAR WIII 100030Z AUTO 23010KT 9999 NCD 27/24 Q1010=
10/02/2013 01:00:00Z	 SAID31 WIII 100100	METAR WIII 100100Z 25007KT 6000 NCD 28/24 Q1010=
10/02/2013 01:30:00Z	 SAID31 WIII 100130	METAR WIII 100130Z 26004KT 7000 NCD 28/24 Q1010=
10/02/2013 02:00:00Z	 SAID31 WIII 100200	METAR WIII 100200Z 13003KT 7000 NCD 29/24 Q1010=
10/02/2013 02:30:00Z	 SAID31 WIII 100230	METAR WIII 100230Z 18004KT 7000 FEW024 30/22 Q1010=
10/02/2013 03:00:00Z	 SAID31 WIII 100300	METAR WIII 100300Z 30002KT 7000 FEW024 30/23 Q1010=
10/02/2013 03:30:00Z	 SAID31 WIII 100330	METAR WIII 100330Z VRB03KT 8000 FEW024 31/23 Q1010=
10/02/2013 04:00:00Z	 SAID31 WIII 100400	METAR WIII 100400Z VRB04KT 9999 SCT022 32/23 Q1009=
10/02/2013 04:30:00Z	 SAID31 WIII 100430	METAR WIII 100430Z 14003KT 9999 BKN022 32/23 Q1009=
10/02/2013 05:00:00Z	 SAID31 WIII 100500	METAR WIII 100500Z 02005KT 9999 BKN023 32/24 Q1008=
10/02/2013 05:30:00Z	 SAID31 WIII 100530	METAR WIII 100530Z 04008KT 9999 BKN023 32/25 Q1008=
10/02/2013 06:00:00Z	 SAID31 WIII 100600	METAR WIII 100600Z 01006KT 9999 SCT020 32/25 Q1007=
10/02/2013 06:30:00Z	 SAID31 WIII 100630	METAR WIII 100630Z 34004KT 7000 FEW019CB SCT020 31/25 Q1007 CB/ PREC. TO SW=
10/02/2013 07:00:00Z	 SAID31 WIII 100700	METAR WIII 100700Z 36006KT 6000 FEW019CB SCT020 30/24 Q1006 CB / PREC . TO S=
10/02/2013 07:30:00Z	 SAID31 WIII 100730	METAR WIII 100730Z 01007KT 6000 VCTS FEW019CB SCT020 32/24 Q1006 CB T O S=
10/02/2013 08:00:00Z	 SAID31 WIII 100800	METAR WIII 100800Z 30005KT 5000 VCTS FEW019CB SCT020 31/24 Q1006 CB/ PREC. TO SE=
10/02/2013 08:30:00Z	 SAID31 WIII 100830	METAR WIII 100830Z 27004KT 5000 VCTS FEW019CB SCT020 30/24 Q1006 CB T O SE=
10/02/2013 09:00:00Z	 SAID31 WIII 100900	METAR WIII 100900Z 18008KT 9999 VCTS BKN028 BKN033 27/23 Q1007=
10/02/2013 09:30:00Z	 SAID31 WIII 100930	METAR WIII 100930Z 16009KT 6000 VCTS FEW019CB SCT020 27/23 Q1007 CB/ PREC. TO S=
10/02/2013 10:00:00Z	 SAID31 WIII 101000	METAR WIII 101000Z 21003KT 6000 FEW020CB SCT021 27/23 Q1007 CB TO S=
10/02/2013 10:30:00Z	 SAID31 WIII 101030	METAR WIII 101030Z 13003KT 7000 FEW020CB SCT022 27/23 Q1007 CB TO SE=
10/02/2013 11:00:00Z	 SAID31 WIII 101100	METAR WIII 101100Z 14005KT 7000 FEW020CB FEW022 27/23 Q1007 CB TO S=
10/02/2013 11:30:00Z	 SAID31 WIII 101130	METAR COR WIII 101130Z 17007KT 5000 HZ FEW023 27/24 Q1007=
10/02/2013 12:00:00Z	 SAID31 WIII 101200	METAR WIII 101200Z 18004KT 5000 HZ FEW020CB FEW022 26/24 Q1008 CB TO SE=
10/02/2013 12:30:00Z	 SAID31 WIII 101230	METAR WIII 101230Z 13004KT 4500 HZ FEW022 26/24 Q1008=
10/02/2013 13:00:00Z	 SAID31 WIII 101300	METAR WIII 101300Z VRB03KT 4600 HZ SCT023 26/24 Q1009=
10/02/2013 13:30:00Z	 SAID31 WIII 101330	METAR WIII 101330Z 13003KT 4400 HZ SCT023 26/24 Q1009=
10/02/2013 14:00:00Z	 SAID31 WIII 101400	METAR WIII 101400Z VRB04KT 3000 HZ SCT023 26/24 Q1009=
10/02/2013 14:30:00Z	 SAID31 WIII 101430	METAR WIII 101430Z 17003KT 3500 HZ SCT023 26/24 Q1010=
10/02/2013 15:00:00Z	 SAID31 WIII 101500	METAR WIII 101500Z 15002KT 3000 HZ FEW023 26/24 Q1009=
10/02/2013 15:30:00Z	 SAID31 WIII 101530	METAR WIII 101530Z 15003KT 2900 HZ FEW023 SCT060 26/24 Q1010=
10/02/2013 16:00:00Z	 SAID31 WIII 101600	METAR WIII 101600Z 14004KT 2100 HZ FEW023 26/24 Q1010=
10/02/2013 16:30:00Z	 SAID31 WIII 101630	METAR WIII 101630Z 17002KT 1600 BR FEW023 26/24 Q1010=
10/02/2013 17:00:00Z	 SAID31 WIII 101700	METAR WIII 101700Z 21002KT 2000 BR FEW023 25/24 Q1009=
10/02/2013 17:30:00Z	 SAID31 WIII 101730	METAR WIII 101730Z 16003KT 2500 BR FEW023 25/23 Q1009=
10/02/2013 18:00:00Z	 SAID31 WIII 101800	METAR WIII 101800Z 13002KT 2600 BR FEW023 25/23 Q1009=
10/02/2013 18:30:00Z	 SAID31 WIII 101830	METAR WIII 101830Z 18002KT 2100 BR FEW023 25/23 Q1008=
10/02/2013 19:00:00Z	 SAID31 WIII 101900	METAR WIII 101900Z 00000KT 2000 BR FEW023 25/23 Q1008=
10/02/2013 20:00:00Z	 SAID31 WIII 102000	METAR WIII 102000Z 19002KT 2600 BR FEW023 SCT096 25/23 Q1008=
10/02/2013 20:30:00Z	 SAID31 WIII 102030	METAR WIII 102030Z 20004KT 2100 BR FEW022 SCT060 25/24 Q1008=
10/02/2013 21:00:00Z	 SAID31 WIII 102100	METAR WIII 102100Z 00000KT 2300 BR FEW022 SCT060 25/24 Q1008=
10/02/2013 21:30:00Z	 SAID31 WIII 102130	METAR WIII 102130Z 00000KT 3100 BR SCT023 BKN095 25/24 Q1008=
10/02/2013 22:00:00Z	 SAID31 WIII 102200	METAR WIII 102200Z 19002KT 3400 BR SCT023 BKN095 25/23 Q1008=
10/02/2013 22:30:00Z	 SAID31 WIII 102230	METAR WIII 102230Z 17003KT 3100 BR SCT024 BKN095 25/24 Q1008=
10/02/2013 23:00:00Z	 SAID31 WIII 102300	METAR WIII 102300Z 22002KT 1900 BR FEW022 BKN095 25/24 Q1009=
10/02/2013 23:30:00Z	 SAID31 WIII 102330	METAR WIII 102330Z 00000KT 1900 BR SCT022 BKN095 25/24 Q1009=
11/02/2013 00:00:00Z	 SAID31 WIII 110000	METAR WIII 110000Z 00000KT 1900 BR SCT023 BKN095 25/24 Q1009=
11/02/2013 00:30:00Z	 SAID31 WIII 110030	METAR WIII 110030Z 17003KT 2000 BR SCT023 BKN060 26/24 Q1010=
11/02/2013 01:00:00Z	 SAID31 WIII 110100	METAR WIII 110100Z AUTO VRB02KT 2700 BR BKN100 27/24 Q1010=
11/02/2013 01:30:00Z	 SAID31 WIII 110130	METAR WIII 110130Z AUTO 00000KT 3700 BR SCT100 28/24 Q1010=
11/02/2013 02:00:00Z	 SAID31 WIII 110200	METAR WIII 110200Z AUTO VRB02KT 5000 BKN100 29/24 Q1010=
11/02/2013 02:30:00Z	 SAID31 WIII 110230	METAR WIII 110230Z AUTO VRB03KT 9999 SCT110 29/24 Q1010=
11/02/2013 03:00:00Z	 SAID31 WIII 110300	METAR WIII 110300Z VRB02KT 5000 HZ FEW022 29/24 Q1010=
11/02/2013 03:30:00Z	 SAID31 WIII 110330	METAR WIII 110330Z VRB04KT 6000 FEW022 29/24 Q1010=
11/02/2013 04:00:00Z	 SAID31 WIII 110400	METAR WIII 110400Z 04004KT 6000 FEW022 30/24 Q1010=
11/02/2013 04:30:00Z	 SAID31 WIII 110430	METAR WIII 110430Z 03005KT 7000 FEW023 SCT033 30/24 Q1009=
11/02/2013 05:00:00Z	 SAID31 WIII 110500	METAR WIII 110500Z 04008KT 7000 FEW022 30/24 Q1009=
11/02/2013 05:30:00Z	 SAID31 WIII 110530	METAR WIII 110530Z 01007KT 7000 FEW023 30/24 Q1009=
11/02/2013 06:00:00Z	 SAID31 WIII 110600	METAR WIII 110600Z 35008KT 6000 FEW020CB SCT023 29/25 Q1008 CB TO TD Z=
11/02/2013 06:30:00Z	 SAID31 WIII 110630	METAR WIII 110630Z AUTO VRB05KT 9999 SCT021 29/24 Q1008=
11/02/2013 07:00:00Z	 SAID31 WIII 110700	METAR WIII 110700Z 33008KT 7000 SCT019 29/24 Q1007=
11/02/2013 07:30:00Z	 SAID31 WIII 110730	METAR WIII 110730Z 35006KT 7000 FEW020CB SCT022 29/24 Q1007 CB TO TDZ=
11/02/2013 08:00:00Z	 SAID31 WIII 110800	METAR WIII 110800Z 36006KT 7000 FEW020CB BKN021 29/24 Q1006 CB TO S=
11/02/2013 08:30:00Z	 SAID31 WIII 110830	METAR WIII 110830Z 36006KT 7000 FEW020CB SCT022 29/25 Q1006 CB TO S/ SMOKE TO TDZ=
11/02/2013 09:00:00Z	 SAID31 WIII 110900	METAR WIII 110900Z VRB05KT 7000 FEW020CB FEW022 29/24 Q1006 CB TO S/ SMOKE TO TDZ=
11/02/2013 09:30:00Z	 SAID31 WIII 110930	METAR WIII 110930Z 04006KT 9000 SCT018 28/24 Q1006=
11/02/2013 10:00:00Z	 SAID31 WIII 111000	METAR WIII 111000Z 02006KT 9000 SCT020 28/24 Q1007=
11/02/2013 10:30:00Z	 SAID31 WIII 111030	METAR WIII 111030Z AUTO 02003KT 9999 NCD 28/24 Q1007=
11/02/2013 11:00:00Z	 SAID31 WIII 111100	METAR WIII 111100Z 04004KT 9000 FEW020CB SCT021 28/24 Q1007 CB TO SE=
11/02/2013 12:00:00Z	 SAID31 WIII 111200	METAR WIII 111200Z 04003KT 9000 VCTS FEW020CB SCT021 27/24 Q1008 CB T O SE=
11/02/2013 12:30:00Z	 SAID31 WIII 111230	METAR WIII 111230Z 00000KT 7000 SCT021 27/24 Q1008=
11/02/2013 13:00:00Z	 SAID31 WIII 111300	METAR WIII 111300Z AUTO 01002KT 8000 NCD 27/24 Q1008=
11/02/2013 13:30:00Z	 SAID31 WIII 111330	METAR WIII 111330Z 00000KT 7000 FEW021 27/24 Q1009=
11/02/2013 14:00:00Z	 SAID31 WIII 111400	METAR WIII 111400Z AUTO 00000KT 4300 BR NCD 27/25 Q1009=
11/02/2013 14:30:00Z	 SAID31 WIII 111430	METAR WIII 111430Z AUTO VRB02KT 9999 NCD 27/24 Q1009=
11/02/2013 15:00:00Z	 SAID31 WIII 111500	METAR WIII 111500Z VRB04KT 5000 FEW021 27/24 Q1009=
11/02/2013 15:30:00Z	 SAID31 WIII 111530	METAR WIII 111530Z AUTO 23003KT 7000 NCD 26/24 Q1010=
11/02/2013 16:00:00Z	 SAID31 WIII 111600	METAR WIII 111600Z 21003KT 7000 FEW021 26/23 Q1010=
11/02/2013 16:30:00Z	 SAID31 WIII 111630	METAR WIII 111630Z 00000KT 6000 FEW021 26/24 Q1010=
11/02/2013 17:00:00Z	 SAID31 WIII 111700	METAR WIII 111700Z AUTO 27002KT 5000 BKN095 26/24 Q1010=
11/02/2013 17:30:00Z	 SAID31 WIII 111730	METAR WIII 111730Z AUTO 00000KT 2400 BR BKN020 BKN026 26/24 Q1009=
11/02/2013 18:00:00Z	 SAID31 WIII 111800	METAR WIII 111800Z 21003KT 4000 BR SCT020 26/24 Q1009=
11/02/2013 18:30:00Z	 SAID31 WIII 111830	METAR WIII 111830Z 18004KT 3300 BR SCT020 26/24 Q1009=
11/02/2013 19:00:00Z	 SAID31 WIII 111900	METAR WIII 111900Z AUTO 17002KT 4100 BR FEW031 SCT070 BKN092 26/24 Q1 009=
11/02/2013 19:30:00Z	 SAID31 WIII 111930	METAR WIII 111930Z AUTO 20002KT 4300 BR FEW070 BKN093 26/24 Q1009=
11/02/2013 20:00:00Z	 SAID31 WIII 112000	METAR WIII 112000Z AUTO 21002KT 4300 BR FEW095 26/24 Q1008=
11/02/2013 20:30:00Z	 SAID31 WIII 112030	METAR WIII 112030Z AUTO 25004KT 4100 BR SCT100 26/24 Q1008=
11/02/2013 21:00:00Z	 SAID31 WIII 112100	METAR WIII 112100Z AUTO 23003KT 3000 BR FEW100 25/24 Q1008=
11/02/2013 21:30:00Z	 SAID31 WIII 112130	METAR WIII 112130Z AUTO 19002KT 4400 BR NCD 25/24 Q1008=
11/02/2013 22:00:00Z	 SAID31 WIII 112200	METAR WIII 112200Z AUTO 00000KT 4000 BR FEW018 SCT028 SCT032 25/24 Q1 008=
11/02/2013 22:30:00Z	 SAID31 WIII 112230	METAR WIII 112230Z VRB02KT 2800 BR SCT018 25/24 Q1009=
11/02/2013 23:00:00Z	 SAID31 WIII 112300	METAR WIII 112300Z VRB03KT 2500 BR FEW021 25/24 Q1009=
11/02/2013 23:30:00Z	 SAID31 WIII 112330	METAR WIII 112330Z VRB02KT 4700 FEW022 26/24 Q1009=
12/02/2013 00:00:00Z	 SAID31 WIII 120000	METAR WIII 120000Z VRB03KT 4000 FEW022 26/24 Q1009=
12/02/2013 00:30:00Z	 SAID31 WIII 120030	METAR WIII 120030Z AUTO VRB03KT 3600 BR NCD 27/24 Q1010=
12/02/2013 01:00:00Z	 SAID31 WIII 120100	METAR WIII 120100Z 14003KT 6000 FEW024 27/24 Q1010=
12/02/2013 01:30:00Z	 SAID31 WIII 120130	METAR WIII 120130Z VRB03KT 6000 FEW024 28/24 Q1010=
12/02/2013 02:00:00Z	 SAID31 WIII 120200	METAR WIII 120200Z VRB02KT 8000 FEW024 28/24 Q1010=
12/02/2013 02:30:00Z	 SAID31 WIII 120230	METAR WIII 120230Z 00000KT 9999 FEW020 29/24 Q1010=
12/02/2013 03:00:00Z	 SAID31 WIII 120300	METAR WIII 120300Z VRB04KT 9999 SCT018 29/24 Q1010=
12/02/2013 03:30:00Z	 SAID31 WIII 120330	METAR WIII 120330Z VRB05KT 9999 SCT026 30/24 Q1010=
12/02/2013 04:30:00Z	 SAID31 WIII 120430	METAR WIII 120430Z VRB03KT 9000 VCTS FEW016CB SCT018 30/23 Q1009 CB T O SE=
12/02/2013 05:00:00Z	 SAID31 WIII 120500	METAR WIII 120500Z VRB05KT 9999 SCT020 30/24 Q1009=
12/02/2013 05:30:00Z	 SAID31 WIII 120530	METAR WIII 120530Z AUTO 04008KT 9999 SCT030 30/23 Q1008=
12/02/2013 06:00:00Z	 SAID31 WIII 120600	METAR WIII 120600Z 01007KT 8000 FEW016CB BKN020 30/23 Q1008 CB TO SE=
12/02/2013 06:30:00Z	 SAID31 WIII 120630	METAR WIII 120630Z VRB05KT 8000 SCT018 29/23 Q1007=
12/02/2013 07:00:00Z	 SAID31 WIII 120700	METAR WIII 120700Z 03006KT 9999 FEW022 29/24 Q1007=
12/02/2013 07:30:00Z	 SAID31 WIII 120730	METAR WIII 120730Z 34007KT 9999 SCT022 30/25 Q1007=
12/02/2013 08:00:00Z	 SAID31 WIII 120800	METAR WIII 120800Z 34008KT 9999 BKN022 BKN028 30/25 Q1006=
12/02/2013 08:30:00Z	 SAID31 WIII 120830	METAR WIII 120830Z 01009KT 9999 FEW020 SCT028 SCT034 30/25 Q1006=
12/02/2013 09:00:00Z	 SAID31 WIII 120900	METAR WIII 120900Z 01007KT 9999 SCT020 29/24 Q1006=
12/02/2013 09:30:00Z	 SAID31 WIII 120930	METAR WIII 120930Z 35006KT 9999 FEW023 29/24 Q1006=
12/02/2013 10:00:00Z	 SAID31 WIII 121000	METAR WIII 121000Z 01006KT 9999 SCT020 29/25 Q1006=
12/02/2013 10:30:00Z	 SAID31 WIII 121030	METAR WIII 121030Z 02006KT 8000 FEW020CB SCT021 29/24 Q1006 CB TO S=
12/02/2013 11:00:00Z	 SAID31 WIII 121100	METAR WIII 121100Z 02004KT 8000 FEW020CB SCT021 28/24 Q1007 CB TO SW=
12/02/2013 11:30:00Z	 SAID31 WIII 121130	METAR WIII 121130Z VRB03KT 3600 VCTS FEW019CB SCT020 28/24 Q1008 CB T O SW=
12/02/2013 12:00:00Z	 SAID31 WIII 121200	METAR WIII 121200Z VRB02KT 8000 VCTS FEW019CB BKN020 28/24 Q1009 CB T O S AND SW=
12/02/2013 12:30:00Z	 SAID31 WIII 121230	METAR WIII 121230Z 20014KT 8000 FEW020CB BKN022 25/23 Q1009 CB TO S=
12/02/2013 13:00:00Z	 SAID31 WIII 121300	METAR WIII 121300Z 17010KT 8000 BKN02025/22 Q1010=
12/02/2013 13:30:00Z	 SAID31 WIII 121330	METAR WIII 121330Z 17009KT 8000 -RA BKN020 25/22 Q1010=
12/02/2013 14:00:00Z	 SAID31 WIII 121400	METAR WIII 121400Z AUTO 15007KT 9999 FEW230 24/21 Q1010=
12/02/2013 14:30:00Z	 SAID31 WIII 121430	METAR WIII 121430Z 16005KT 8000 SCT020 25/22 Q1011=
12/02/2013 15:00:00Z	 SAID31 WIII 121500	METAR WIII 121500Z 15005KT 8000 SCT020 25/23 Q1011=
12/02/2013 15:30:00Z	 SAID31 WIII 121530	METAR WIII 121530Z 15005KT 7000 SCT020 25/23 Q1011=
12/02/2013 16:00:00Z	 SAID31 WIII 121600	METAR WIII 121600Z 17006KT 7000 FEW022 25/23 Q1011=
12/02/2013 16:30:00Z	 SAID31 WIII 121630	METAR WIII 121630Z 14004KT 7000 FEW021 25/23 Q1011=
12/02/2013 17:00:00Z	 SAID31 WIII 121700	METAR WIII 121700Z 15002KT 3700 BR FEW022 25/23 Q1010=
12/02/2013 17:30:00Z	 SAID31 WIII 121730	METAR WIII 121730Z 15003KT 7000 FEW022 25/23 Q1010=
12/02/2013 18:00:00Z	 SAID31 WIII 121800	METAR WIII 121800Z 00000KT 3700 BR FEW020 25/23 Q1009=
12/02/2013 18:30:00Z	 SAID31 WIII 121830	METAR WIII 121830Z 20003KT 5000 FEW021 25/23 Q1009=
12/02/2013 19:00:00Z	 SAID31 WIII 121900	METAR WIII 121900Z VRB03KT 5000 SCT020 25/23 Q1009=
12/02/2013 19:30:00Z	 SAID31 WIII 121930	METAR WIII 121930Z AUTO 31002KT 9000 BKN065 OVC083 25/23 Q1009=
12/02/2013 20:00:00Z	 SAID31 WIII 122000	METAR WIII 122000Z AUTO 00000KT 6000 FEW060 BKN079 OVC091 25/23 Q1008=
12/02/2013 20:30:00Z	 SAID31 WIII 122030	METAR WIII 122030Z AUTO 13006KT 6000 OVC095 25/23 Q1008=
12/02/2013 21:00:00Z	 SAID31 WIII 122100	METAR WIII 122100Z AUTO 12003KT 7000 FEW095 25/23 Q1008=
12/02/2013 21:30:00Z	 SAID31 WIII 122130	METAR WIII 122130Z AUTO VRB03KT 6000 BKN230 25/23 Q1008=
12/02/2013 22:00:00Z	 SAID31 WIII 122200	METAR WIII 122200Z AUTO 26005KT 4400 BR FEW042 24/23 Q1008=
12/02/2013 22:30:00Z	 SAID31 WIII 122230	METAR WIII 122230Z 28005KT 2500 BR SCT021 24/23 Q1008=
12/02/2013 23:00:00Z	 SAID31 WIII 122300	METAR WIII 122300Z 29002KT 2600 BR FEW022 24/24 Q1008=
12/02/2013 23:30:00Z	 SAID31 WIII 122330	METAR WIII 122330Z 00000KT 2900 BR FEW022 24/23 Q1008=
13/02/2013 00:00:00Z	 SAID31 WIII 130000	METAR WIII 130000Z 28003KT 4000 BR FEW022 25/23 Q1009=
13/02/2013 00:30:00Z	 SAID31 WIII 130030	METAR WIII 130030Z AUTO VRB03KT 5000 NCD 27/23 Q1009=
13/02/2013 01:00:00Z	 SAID31 WIII 130100	METAR WIII 130100Z 24002KT 6000 FEW028 28/22 Q1009=
13/02/2013 01:30:00Z	 SAID31 WIII 130130	METAR WIII 130130Z 24005KT 7000 FEW028 29/23 Q1009=
13/02/2013 02:00:00Z	 SAID31 WIII 130200	METAR WIII 130200Z 30003KT 7000 FEW028 29/22 Q1009=
13/02/2013 02:30:00Z	 SAID31 WIII 130230	METAR WIII 130230Z 28003KT 8000 FEW028 29/22 Q1009=
13/02/2013 03:00:00Z	 SAID31 WIII 130300	METAR WIII 130300Z 30003KT 9999 FEW028 30/23 Q1009=
13/02/2013 03:30:00Z	 SAID31 WIII 130330	METAR WIII 130330Z 29006KT 9999 FEW028 30/23 Q1009=
13/02/2013 04:00:00Z	 SAID31 WIII 130400	METAR WIII 130400Z 32006KT 9999 FEW026 30/24 Q1008=
13/02/2013 04:30:00Z	 SAID31 WIII 130430	METAR WIII 130430Z 33008KT 9999 FEW028 30/24 Q1008=
13/02/2013 05:00:00Z	 SAID31 WIII 130500	METAR WIII 130500Z 33004KT 9999 FEW028 30/24 Q1008=
13/02/2013 05:30:00Z	 SAID31 WIII 130530	METAR WIII 130530Z 31007KT 9999 FEW028 31/25 Q1007=
13/02/2013 06:00:00Z	 SAID31 WIII 130600	METAR WIII 130600Z 35007KT 9999 FEW027 31/25 Q1007=
13/02/2013 06:30:00Z	 SAID31 WIII 130630	METAR WIII 130630Z 32009KT 9999 FEW021CB FEW025 31/24 Q1006 CB TO S A ND SW=
13/02/2013 07:00:00Z	 SAID31 WIII 130700	METAR WIII 130700Z 33009KT 9999 FEW021CB FEW025 31/24 Q1006 CB TO S A ND SW=
13/02/2013 07:30:00Z	 SAID31 WIII 130730	METAR WIII 130730Z 33008KT 9999 FEW021CB FEW028 31/24 Q1005 CB TO SE AND S=
13/02/2013 08:00:00Z	 SAID31 WIII 130800	METAR WIII 130800Z 35005KT 9999 FEW021CB FEW027 31/24 Q1005 CB TO SE, S, AND SW=
13/02/2013 08:30:00Z	 SAID31 WIII 130830	METAR WIII 130830Z 33006KT 9999 FEW021CB FEW028 31/24 Q1005 CB TO SE, S, AND SW=
13/02/2013 09:00:00Z	 SAID31 WIII 130900	METAR WIII 130900Z 36008KT 9999 VCTS FEW021CB FEW028 30/24 Q1005 CB T O SE, S, AND SW=
13/02/2013 09:30:00Z	 SAID31 WIII 130930	METAR WIII 130930Z 33007KT 9999 VCTS FEW021CB FEW028 30/23 Q1006 CB T O SE, S, AND SW=
13/02/2013 10:00:00Z	 SAID31 WIII 131000	METAR WIII 131000Z 31005KT 9999 VCTS FEW021CB FEW028 30/23 Q1006 CB T O SE, S, AND SW=
13/02/2013 10:30:00Z	 SAID31 WIII 131030	METAR WIII 131030Z 20005KT 9000 FEW021CB SCT026 29/23 Q1007 CB TO SE AND S=
13/02/2013 11:00:00Z	 SAID31 WIII 131100	METAR WIII 131100Z 22007KT 9000 VCTS FEW021CB SCT027 28/23 Q1007 CB T O SE, S, AND NW=
13/02/2013 11:30:00Z	 SAID31 WIII 131130	METAR WIII 131130Z 18005KT 8000 FEW021CB FEW027 27/23 Q1008 CB TO SE AND S=
13/02/2013 12:00:00Z	 SAID31 WIII 131200	METAR WIII 131200Z 20004KT 7000 FEW021CB FEW027 27/23 Q1008 CB TO S=
13/02/2013 12:30:00Z	 SAID31 WIII 131230	METAR WIII 131230Z 17005KT 7000 FEW021CB FEW024 27/23 Q1008 CB TO S=
13/02/2013 13:00:00Z	 SAID31 WIII 131300	METAR WIII 131300Z 16005KT 7000 FEW021CB FEW024 26/23 Q1009 CB TO S=
13/02/2013 13:30:00Z	 SAID31 WIII 131330	METAR WIII 131330Z 13004KT 7000 FEW021CB FEW024 26/23 Q1009 CB TO SW=
13/02/2013 14:00:00Z	 SAID31 WIII 131400	METAR WIII 131400Z 16003KT 4500 HZ FEW024 26/23 Q1009=
13/02/2013 14:30:00Z	 SAID31 WIII 131430	METAR WIII 131430Z 15006KT 4600 HZ FEW024 SCT041 27/23 Q1009=
13/02/2013 15:00:00Z	 SAID31 WIII 131500	METAR WIII 131500Z 12005KT 4600 HZ SCT024 BKN045 27/23 Q1010=
13/02/2013 15:30:00Z	 SAID31 WIII 131530	METAR WIII 131530Z VRB02KT 4600 HZ SCT024 27/23 Q1010=
13/02/2013 16:00:00Z	 SAID31 WIII 131600	METAR WIII 131600Z 15003KT 4400 HZ SCT024 27/23 Q1009=
13/02/2013 16:30:00Z	 SAID31 WIII 131630	METAR WIII 131630Z 17002KT 4600 HZ SCT024 26/23 Q1009=
13/02/2013 17:00:00Z	 SAID31 WIII 131700	METAR WIII 131700Z VRB02KT 4000 HZ SCT024 26/23 Q1009=
13/02/2013 17:30:00Z	 SAID31 WIII 131730	METAR WIII 131730Z 00000KT 3600 HZ SCT024 26/23 Q1009=
13/02/2013 18:00:00Z	 SAID31 WIII 131800	METAR WIII 131800Z 00000KT 4300 HZ SCT024 26/23 Q1008=
13/02/2013 18:30:00Z	 SAID31 WIII 131830	METAR WIII 131830Z 00000KT 4600 HZ SCT024 26/24 Q1007=
13/02/2013 19:00:00Z	 SAID31 WIII 131900	METAR WIII 131900Z 15002KT 4600 HZ SCT024 26/23 Q1008=
13/02/2013 19:30:00Z	 SAID31 WIII 131930	METAR WIII 131930Z 29003KT 3600 BR SCT023 25/24 Q1008=
13/02/2013 20:00:00Z	 SAID31 WIII 132000	METAR WIII 132000Z 24002KT 3100 BR FEW023 25/23 Q1007=
13/02/2013 20:30:00Z	 SAID31 WIII 132030	METAR WIII 132030Z 21005KT 3900 BR FEW023 25/23 Q1007=
13/02/2013 21:00:00Z	 SAID31 WIII 132100	METAR WIII 132100Z 00000KT 3400 BR FEW022 25/23 Q1007=
13/02/2013 21:30:00Z	 SAID31 WIII 132130	METAR WIII 132130Z 19004KT 3700 BR FEW019 25/23 Q1007=
13/02/2013 22:00:00Z	 SAID31 WIII 132200	METAR WIII 132200Z 21006KT 3000 BR FEW020 25/23 Q1007 NOSIG=
13/02/2013 22:30:00Z	 SAID31 WIII 132230	METAR WIII 132230Z 19004KT 3600 BR FEW020 25/23 Q1007=
13/02/2013 23:00:00Z	 SAID31 WIII 132300	METAR WIII 132300Z 20004KT 2800 BR FEW022 25/23 Q1008=
13/02/2013 23:30:00Z	 SAID31 WIII 132330	METAR WIII 132330Z 21004KT 3200 BR FEW019 26/23 Q1008=
14/02/2013 00:00:00Z	 SAID31 WIII 140000	METAR WIII 140000Z 20005KT 3300 BR FEW021CB FEW022 26/24 Q1008 CB TO N=
14/02/2013 00:30:00Z	 SAID31 WIII 140030	METAR WIII 140030Z AUTO VRB04KT 5000 NCD 28/24 Q1009=
14/02/2013 01:00:00Z	 SAID31 WIII 140100	METAR WIII 140100Z 22005KT 6000 FEW018 29/24 Q1009=
14/02/2013 01:30:00Z	 SAID31 WIII 140130	METAR WIII 140130Z 25005KT 4000 HZ FEW018CB SCT020 29/24 Q1009 CB TO N AND NE=
14/02/2013 02:00:00Z	 SAID31 WIII 140200	METAR WIII 140200Z 30006KT 5000 VCTS SCT018CB BKN020 29/24 Q1009 CB T O NW N AND NE=
14/02/2013 02:30:00Z	 SAID31 WIII 140230	METAR WIII 140230Z 30009KT 5000 FEW018CB BKN020 28/24 Q1009 CB TO NE AND W=
14/02/2013 03:00:00Z	 SAID31 WIII 140300	METAR WIII 140300Z 30008KT 4000 SCT018CB BKN020 28/24 Q1009 CB TO N N E AND E=
14/02/2013 03:30:00Z	 SAID31 WIII 140330	METAR WIII 140330Z 30007KT 4000 TS SCT018CB BKN020 28/24 Q1009 CB ALL RWY=
14/02/2013 04:00:00Z	 SAID31 WIII 140400	METAR WIII 140400Z 31006KT 4000 -TSRA SCT018CB BKN020 27/24 Q1009 CB ALL RWY=
14/02/2013 04:30:00Z	 SAID31 WIII 140430	METAR WIII 140430Z 30007KT 4000 -TSRA SCT018CB BKN020 27/25 Q1009 CB ALL RWY=
14/02/2013 05:00:00Z	 SAID31 WIII 140500	METAR WIII 140500Z 30007KT 4000 -TSRA SCT018CB BKN020 27/25 Q1008 CB NE S AND SW=
14/02/2013 05:30:00Z	 SAID31 WIII 140530	METAR WIII 140530Z 32007KT 4000 -RA FEW018CB SCT020 27/25 Q1008 CB TO NE AND SW=
14/02/2013 06:00:00Z	 SAID31 WIII 140600	METAR WIII 140600Z 31005KT 5000 FEW018CB SCT020 27/24 Q1008 CB TO NE=
14/02/2013 06:30:00Z	 SAID31 WIII 140630	METAR WIII 140630Z 32006KT 5000 -RA FEW018 SCT020 28/25 Q1007=
14/02/2013 07:00:00Z	 SAID31 WIII 140700	METAR WIII 140700Z 31007KT 5000 -RA BKN02028/25 Q1007=
14/02/2013 07:30:00Z	 SAID31 WIII 140730	METAR WIII 140730Z 31007KT 6000 FEW018CB SCT020 28/24 Q1006 CB TO S=
14/02/2013 08:00:00Z	 SAID31 WIII 140800	METAR WIII 140800Z 32008KT 6000 SCT020 29/24 Q1006=
14/02/2013 08:30:00Z	 SAID31 WIII 140830	METAR WIII 140830Z 32008KT 6000 SCT018CB BKN020 29/25 Q1006 CB TO NE AND S=
14/02/2013 09:00:00Z	 SAID31 WIII 140900	METAR WIII 140900Z 25013KT 5000 SCT018CB BKN020 28/23 Q1006 CB TO S SW AND W=
14/02/2013 09:30:00Z	 SAID31 WIII 140930	METAR WIII 140930Z 25011KT 5000 HZ FEW018CB SCT020 28/23 Q1007 CB TO SE=
14/02/2013 10:00:00Z	 SAID31 WIII 141000	METAR WIII 141000Z 25016KT 5000 HZ SCT018CB BKN020 27/23 Q1007 CB TO SE AND S=
14/02/2013 10:30:00Z	 SAID31 WIII 141030	METAR WIII 141030Z 25010KT 5000 HZ SCT018CB BKN020 27/23 Q1007 CB TO SE AND S=
14/02/2013 11:00:00Z	 SAID31 WIII 141100	METAR WIII 141100Z 24011KT 5000 HZ FEW018CB SCT020 26/23 Q1007=
14/02/2013 11:30:00Z	 SAID31 WIII 141130	METAR WIII 141130Z 25010KT 5000 HZ SCT020 26/23 Q1008=
14/02/2013 12:00:00Z	 SAID31 WIII 141200	METAR WIII 141200Z 24010KT 5000 HZ FEW018CB SCT020 26/23 Q1008 CB TO NW=
14/02/2013 12:30:00Z	 SAID31 WIII 141230	METAR WIII 141230Z AUTO 23012KT 9999 NCD 26/23 Q1008=
14/02/2013 13:00:00Z	 SAID31 WIII 141300	METAR WIII 141300Z 26009KT 5000 BR FEW018 26/23 Q1009=
14/02/2013 13:30:00Z	 SAID31 WIII 141330	METAR WIII 141330Z 26007KT 5000 BR SCT220 26/23 Q1009=
14/02/2013 14:00:00Z	 SAID31 WIII 141400	METAR WIII 141400Z 25007KT 5000 BR FEW018 26/23 Q1009=
14/02/2013 14:30:00Z	 SAID31 WIII 141430	METAR WIII 141430Z 28003KT 5000 BR FEW018 25/23 Q1008=
14/02/2013 15:00:00Z	 SAID31 WIII 141500	METAR WIII 141500Z 32002KT 5000 BR FEW018 25/23 Q1008=
14/02/2013 15:30:00Z	 SAID31 WIII 141530	METAR WIII 141530Z 28003KT 5000 BR FEW020 25/23 Q1008=
14/02/2013 16:00:00Z	 SAID31 WIII 141600	METAR WIII 141600Z 29002KT 4100 BR FEW020 25/23 Q1008=
14/02/2013 16:30:00Z	 SAID31 WIII 141630	METAR WIII 141630Z AUTO 28003KT 4800 NCD 25/23 Q1008=
14/02/2013 17:00:00Z	 SAID31 WIII 141700	METAR WIII 141700Z AUTO 31002KT 2800 BR NCD 25/23 Q1008=
14/02/2013 17:30:00Z	 SAID31 WIII 141730	METAR WIII 141730Z AUTO 00000KT 3700 BR BKN220 24/23 Q1008=
14/02/2013 18:00:00Z	 SAID31 WIII 141800	METAR WIII 141800Z AUTO 26003KT 3700 BR BKN190 BKN210 BKN250 24/23 Q1 008=
14/02/2013 18:30:00Z	 SAID31 WIII 141830	METAR WIII 141830Z AUTO 19002KT 3700 BR BKN190 25/23 Q1007=
14/02/2013 19:00:00Z	 SAID31 WIII 141900	METAR WIII 141900Z AUTO 21005KT 6000 SCT180 25/23 Q1007=
14/02/2013 19:30:00Z	 SAID31 WIII 141930	METAR WIII 141930Z AUTO 20004KT 9000 NCD 24/23 Q1007=
14/02/2013 20:00:00Z	 SAID31 WIII 142000	METAR WIII 142000Z AUTO 20004KT 9999 NCD 24/23 Q1007=
14/02/2013 20:30:00Z	 SAID31 WIII 142030	METAR WIII 142030Z AUTO 18002KT 9999 BKN210 24/23 Q1007=
14/02/2013 21:00:00Z	 SAID31 WIII 142100	METAR WIII 142100Z AUTO 00000KT 9999 BKN200 OVC220 24/23 Q1007=
14/02/2013 21:30:00Z	 SAID31 WIII 142130	METAR WIII 142130Z AUTO 00000KT 8000 BKN220 24/23 Q1007=
14/02/2013 22:00:00Z	 SAID31 WIII 142200	METAR WIII 142200Z AUTO 28003KT 5000 BKN190 OVC220 24/23 Q1007=
14/02/2013 22:30:00Z	 SAID31 WIII 142230	METAR WIII 142230Z AUTO 30003KT 4300 BR OVC180 24/23 Q1007=
14/02/2013 23:00:00Z	 SAID31 WIII 142300	METAR WIII 142300Z AUTO 27004KT 3200 BR SCT170 BKN190 24/23 Q1007=
14/02/2013 23:30:00Z	 SAID31 WIII 142330	METAR WIII 142330Z 27003KT 5000 BR BKN180 24/23 Q1008=
15/02/2013 00:00:00Z	 SAID31 WIII 150000	METAR WIII 150000Z 23006KT 5000 BR SCT020 25/22 Q1008=
15/02/2013 00:30:00Z	 SAID31 WIII 150030	METAR WIII 150030Z AUTO 21006KT 6000 NCD 26/23 Q1009=
15/02/2013 01:00:00Z	 SAID31 WIII 150100	METAR WIII 150100Z 22007KT 6000 FEW024 27/23 Q1009=
15/02/2013 01:30:00Z	 SAID31 WIII 150130	METAR WIII 150130Z 23006KT 7000 FEW021CB FEW024 28/23 Q1009 CB TO NE=
15/02/2013 02:00:00Z	 SAID31 WIII 150200	METAR WIII 150200Z 28007KT 8000 FEW021CB FEW024 29/23 Q1009 CB TO W=
15/02/2013 02:30:00Z	 SAID31 WIII 150230	METAR WIII 150230Z 30008KT 8000 FEW021CB FEW024 29/24 Q1009 CB TO W=
15/02/2013 03:00:00Z	 SAID31 WIII 150300	METAR WIII 150300Z 28007KT 9000 FEW022 29/24 Q1009=
15/02/2013 03:30:00Z	 SAID31 WIII 150330	METAR WIII 150330Z 31006KT 9000 FEW021CB FEW024 30/24 Q1009 CB TO S=
15/02/2013 04:00:00Z	 SAID31 WIII 150400	METAR WIII 150400Z 29006KT 9999 SCT023 30/24 Q1008=
15/02/2013 04:30:00Z	 SAID31 WIII 150430	METAR WIII 150430Z 32006KT 9999 FEW024 30/25 Q1008=
15/02/2013 05:00:00Z	 SAID31 WIII 150500	METAR WIII 150500Z 32007KT 9999 FEW024 29/25 Q1007=
15/02/2013 05:30:00Z	 SAID31 WIII 150530	METAR WIII 150530Z 33007KT 9999 FEW024 29/24 Q1007=
15/02/2013 06:00:00Z	 SAID31 WIII 150600	METAR WIII 150600Z 31008KT 9999 FEW022 30/25 Q1006=
15/02/2013 06:30:00Z	 SAID31 WIII 150630	METAR WIII 150630Z AUTO 31010KT 9999 FEW022 30/25 Q1006=
15/02/2013 07:00:00Z	 SAID31 WIII 150700	METAR WIII 150700Z 31009KT 9999 FEW022 30/25 Q1006=
15/02/2013 07:30:00Z	 SAID31 WIII 150730	METAR WIII 150730Z 31010KT 9999 FEW023 31/25 Q1005=
15/02/2013 08:00:00Z	 SAID31 WIII 150800	METAR WIII 150800Z 33009KT 9999 FEW021CB FEW024 31/25 Q1004 CB TO SE AND SW=
15/02/2013 08:30:00Z	 SAID31 WIII 150830	METAR WIII 150830Z 29008KT 9999 FEW021CB FEW024 31/25 Q1004 CB TO S=
15/02/2013 09:00:00Z	 SAID31 WIII 150900	METAR WIII 150900Z 28009KT 9999 FEW023 31/24 Q1004=
15/02/2013 09:30:00Z	 SAID31 WIII 150930	METAR WIII 150930Z 29008KT 9999 FEW021CB FEW024 31/23 Q1004 CB TO S=
15/02/2013 10:00:00Z	 SAID31 WIII 151000	METAR WIII 151000Z 24010KT 9999 FEW021CB FEW024 30/24 Q1005 CB TO SE=
15/02/2013 10:30:00Z	 SAID31 WIII 151030	METAR WIII 151030Z AUTO 25016KT 9999 SCT031 BKN042 BKN049 BKN060 29/2 4 Q1005=
15/02/2013 11:00:00Z	 SAID31 WIII 151100	METAR WIII 151100Z AUTO 25012KT 9999 NCD 29/23 Q1005=
15/02/2013 11:30:00Z	 SAID31 WIII 151130	METAR WIII 151130Z AUTO 25014KT 9999 NCD 28/23 Q1006=
15/02/2013 12:00:00Z	 SAID31 WIII 151200	METAR WIII 151200Z AUTO 26010KT 9999 NCD 28/23 Q1007=
15/02/2013 12:30:00Z	 SAID31 WIII 151230	METAR WIII 151230Z 26010KT 8000 FEW022 SCT070 27/24 Q1007=
15/02/2013 13:00:00Z	 SAID31 WIII 151300	METAR WIII 151300Z 26008KT 8000 FEW022 27/24 Q1007=
15/02/2013 13:30:00Z	 SAID31 WIII 151330	METAR WIII 151330Z 26009KT 8000 FEW022 27/24 Q1007=
15/02/2013 14:00:00Z	 SAID31 WIII 151400	METAR WIII 151400Z 26009KT 8000 FEW022 27/24 Q1008=
15/02/2013 14:30:00Z	 SAID31 WIII 151430	METAR WIII 151430Z 27008KT 8000 FEW022 27/24 Q1008=
15/02/2013 15:00:00Z	 SAID31 WIII 151500	METAR WIII 151500Z 26008KT 8000 FEW022 27/24 Q1008=
15/02/2013 15:30:00Z	 SAID31 WIII 151530	METAR WIII 151530Z 26007KT 8000 FEW023 27/24 Q1008=
15/02/2013 16:00:00Z	 SAID31 WIII 151600	METAR WIII 151600Z 26007KT 8000 FEW023 27/24 Q1008 NOSIG=
15/02/2013 16:30:00Z	 SAID31 WIII 151630	METAR WIII 151630Z 26007KT 8000 FEW023 27/24 Q1008 NOSIG=
15/02/2013 17:00:00Z	 SAID31 WIII 151700	METAR WIII 151700Z 27006KT 8000 FEW022 SCT065 27/24 Q1008 NOSIG=
15/02/2013 17:30:00Z	 SAID31 WIII 151730	METAR WIII 151730Z 26007KT 8000 FEW022 26/24 Q1008=
15/02/2013 18:00:00Z	 SAID31 WIII 151800	METAR WIII 151800Z 26005KT 8000 FEW023 26/24 Q1007 NOSIG=
15/02/2013 18:30:00Z	 SAID31 WIII 151830	METAR WIII 151830Z 27005KT 7000 FEW022 26/24 Q1007=
15/02/2013 19:00:00Z	 SAID31 WIII 151900	METAR WIII 151900Z 27010KT FEW023 SCT065 26/24 Q1007=
15/02/2013 19:30:00Z	 SAID31 WIII 151930	METAR WIII 151930Z 26006KT 6000 FEW022 26/24 Q1007=
15/02/2013 20:00:00Z	 SAID31 WIII 152000	METAR WIII 152000Z 26006KT 4800 HZ FEW023 26/24 Q1007=
15/02/2013 20:30:00Z	 SAID31 WIII 152030	METAR WIII 152030Z 26005KT 4500 HZ FEW023 26/24 Q1007=
15/02/2013 21:00:00Z	 SAID31 WIII 152100	METAR WIII 152100Z 26005KT 6000 FEW023 25/24 Q1007=
15/02/2013 21:30:00Z	 SAID31 WIII 152130	METAR WIII 152130Z 26006KT 6000 FEW023 25/24 Q1007=
15/02/2013 22:00:00Z	 SAID31 WIII 152200	METAR WIII 152200Z 27006KT 6000 FEW024 26/24 Q1007=
15/02/2013 22:30:00Z	 SAID31 WIII 152230	METAR WIII 152230Z 26005KT 6000 FEW023 SCT065 25/24 Q1007=
15/02/2013 23:00:00Z	 SAID31 WIII 152300	METAR WIII 152300Z 26005KT 4800 HZ FEW021CB FEW023 BKN065 26/24 Q1007 CB TO NW=
15/02/2013 23:30:00Z	 SAID31 WIII 152330	METAR WIII 152330Z 25008KT 4900 HZ SCT023 26/24 Q1007=
16/02/2013 00:00:00Z	 SAID31 WIII 160000	METAR WIII 160000Z 27007KT 4900 HZ FEW021CB SCT023 26/24 Q1008 CB TO NE=
16/02/2013 00:30:00Z	 SAID31 WIII 160030	METAR WIII 160030Z 29008KT 5000 VCTS FEW018CB SCT020 26/24 Q1008 CB T O NW=
16/02/2013 01:00:00Z	 SAID31 WIII 160100	METAR WIII 160100Z 30007KT 5000 VCTS FEW018CB BKN020 27/24 Q1009 CB T O NW AND N=
16/02/2013 01:30:00Z	 SAID31 WIII 160130	METAR WIII 160130Z 31008KT 5000 HZ FEW018CB BKN020 27/24 Q1009 CB TO NW=
16/02/2013 02:00:00Z	 SAID31 WIII 160200	METAR WIII 160200Z 30009KT 6000 SCT020 27/23 Q1009=
16/02/2013 02:30:00Z	 SAID31 WIII 160230	METAR WIII 160230Z 32008KT 7000 FEW018 CB SCT020 28/24 Q1009 CB TO SE=
16/02/2013 03:00:00Z	 SAID31 WIII 160300	METAR WIII 160300Z 30010KT 7000 SCT020 28/25 Q1009=
16/02/2013 03:30:00Z	 SAID31 WIII 160330	METAR WIII 160330Z 28015KT 7000 SCT016 27/23 Q1009=
16/02/2013 04:00:00Z	 SAID31 WIII 160400	METAR WIII 160400Z 29015KT 8000 FEW018 SCT020 28/23 Q1009=
16/02/2013 04:30:00Z	 SAID31 WIII 160430	METAR WIII 160430Z 29015KT 8000 SCT020 29/24 Q1008=
16/02/2013 05:00:00Z	 SAID31 WIII 160500	METAR WIII 160500Z 28011G21KT 9999 SCT020 30/24 Q1007=
16/02/2013 05:30:00Z	 SAID31 WIII 160530	METAR WIII 160530Z 30017KT 9999 SCT020 30/24 Q1007=
16/02/2013 06:00:00Z	 SAID31 WIII 160600	METAR WIII 160600Z 28009G19KT 9999 SCT020 30/24 Q1006=
16/02/2013 06:30:00Z	 SAID31 WIII 160630	METAR WIII 160630Z 29013KT 9999 SCT020 30/24 Q1006=
16/02/2013 07:00:00Z	 SAID31 WIII 160700	METAR WIII 160700Z 27015KT 9999 SCT020 30/25 Q1005=
16/02/2013 07:30:00Z	 SAID31 WIII 160730	METAR WIII 160730Z AUTO 23012KT 9999 FEW027 BKN038 29/23 Q1005=
16/02/2013 08:00:00Z	 SAID31 WIII 160800	METAR WIII 160800Z AUTO 24010KT 9999 NCD 29/23 Q1005=
16/02/2013 08:30:00Z	 SAID31 WIII 160830	METAR WIII 160830Z 27012KT 8000 SCT020 29/23 Q1005=
16/02/2013 09:00:00Z	 SAID31 WIII 160900	METAR WIII 160900Z 27009G19KT 8000 SCT020 30/23 Q1005=
16/02/2013 09:30:00Z	 SAID31 WIII 160930	METAR WIII 160930Z 28015KT 8000 FEW018CB SCT020 29/23 Q1005 CB TO NW=
16/02/2013 10:00:00Z	 SAID31 WIII 161000	METAR WIII 161000Z 27014KT 8000 SCT020 29/23 Q1005=
16/02/2013 10:30:00Z	 SAID31 WIII 161030	METAR WIII 161030Z 27012KT 8000 SCT020 29/23 Q1006=
16/02/2013 11:00:00Z	 SAID31 WIII 161100	METAR WIII 161100Z 23009KT 8000 SCT020 28/23 Q1006=
16/02/2013 11:30:00Z	 SAID31 WIII 161130	METAR WIII 161130Z 27008KT 6000 SCT020 28/23 Q1007=
16/02/2013 12:00:00Z	 SAID31 WIII 161200	METAR COR WIII 161200Z 24011KT 6000 FEW018CB SCT020 28/23 Q1007 CB TO N=
16/02/2013 12:30:00Z	 SAID31 WIII 161230	METAR WIII 161230Z 27008KT 6000 FEW019CB FEW021 27/23 Q1008 CB TO N=
16/02/2013 13:00:00Z	 SAID31 WIII 161300	METAR WIII 161300Z 26007KT 6000 FEW022 27/23 Q1008=
16/02/2013 13:30:00Z	 SAID31 WIII 161330	METAR WIII 161330Z 26007KT 6000 FEW022 27/23 Q1008 NOSIG=
16/02/2013 14:00:00Z	 SAID31 WIII 161400	METAR WIII 161400Z 25009KT 7000 FEW022 27/23 Q1009 NOSIG=
16/02/2013 14:30:00Z	 SAID31 WIII 161430	METAR WIII 161430Z 25010KT 7000 SCT022 27/23 Q1009=
16/02/2013 15:00:00Z	 SAID31 WIII 161500	METAR WIII 161500Z 26007KT 7000 SCT022 26/23 Q1009=
16/02/2013 15:30:00Z	 SAID31 WIII 161530	METAR WIII 161530Z 22007KT 7000 FEW022 27/23 Q1009=
16/02/2013 16:00:00Z	 SAID31 WIII 161600	METAR WIII 161600Z 23007KT 7000 FEW022 26/23 Q1009=
16/02/2013 16:30:00Z	 SAID31 WIII 161630	METAR WIII 161630Z 27005KT 7000 FEW024 26/23 Q1008 NOSIG=
16/02/2013 17:00:00Z	 SAID31 WIII 161700	METAR WIII 161700Z 22006KT 7000 SCT024 26/23 Q1008=
16/02/2013 17:30:00Z	 SAID31 WIII 161730	METAR WIII 161730Z 23007KT 7000 FEW024 SCT047 26/23 Q1008 NOSIG=
16/02/2013 18:00:00Z	 SAID31 WIII 161800	METAR WIII 161800Z VRB03KT 6000 FEW022CB BKN024 26/23 Q1008 CB TO NW=
16/02/2013 18:30:00Z	 SAID31 WIII 161830	METAR WIII 161830Z VRB03KT 5000 VCTS FEW022CB SCT024 BKN050 25/24 Q10 07 CB TO W=
16/02/2013 19:00:00Z	 SAID31 WIII 161900	METAR COR WIII 161900Z 30007KT 2000 TSRA FEW020CB BKN022 25/24 Q1007 CB TO N=
16/02/2013 19:30:00Z	 SAID31 WIII 161930	METAR WIII 161930Z 00000KT 3000 -RA FEW020CB BKN022 25/24 Q1007 RETS CB TO NE=
16/02/2013 20:00:00Z	 SAID31 WIII 162000	METAR WIII 162000Z 30003KT 3300 -RA SCT015 BKN020 24/24 Q1007=
16/02/2013 20:30:00Z	 SAID31 WIII 162030	METAR WIII 162030Z 20003KT 3300 -RA SCT020 BKN069 24/24 Q1007=
16/02/2013 21:00:00Z	 SAID31 WIII 162100	METAR WIII 162100Z 20003KT 3500 -RA SCT018 BKN055 25/24 Q1007=
16/02/2013 21:30:00Z	 SAID31 WIII 162130	METAR WIII 162130Z 21003KT 3400 -RA SCT020 BKN038 OVC055 25/24 Q1007=
16/02/2013 22:00:00Z	 SAID31 WIII 162200	METAR WIII 162200Z 21004KT 3800 DZ SCT021 BKN045 25/24 Q1007 RERA=
16/02/2013 22:30:00Z	 SAID31 WIII 162230	METAR WIII 162230Z 19004KT 4600 BR SCT021 25/24 Q1007=
16/02/2013 23:00:00Z	 SAID31 WIII 162300	METAR WIII 162300Z 26005KT 4900 BR SCT020 BKN060 25/24 Q1007=
16/02/2013 23:30:00Z	 SAID31 WIII 162330	METAR WIII 162330Z 24007KT 6000 SCT022 25/24 Q1008=
17/02/2013 00:00:00Z	 SAID31 WIII 170000	METAR WIII 170000Z 20004KT 6000 SCT022 25/24 Q1008=
17/02/2013 00:30:00Z	 SAID31 WIII 170030	METAR WIII 170030Z 22004KT 6000 SCT022 25/24 Q1008=
17/02/2013 01:00:00Z	 SAID31 WIII 170100	METAR WIII 170100Z AUTO 26006KT 9999 SCT140 SCT160 26/24 Q1009=
17/02/2013 01:30:00Z	 SAID31 WIII 170130	METAR WIII 170130Z 26007KT 5000 BR BKN020 26/24 Q1009=
17/02/2013 02:00:00Z	 SAID31 WIII 170200	METAR WIII 170200Z 27006KT 6000 BKN020 26/24 Q1009 VC PREC TO N AND N E=
17/02/2013 02:30:00Z	 SAID31 WIII 170230	METAR WIII 170230Z 27004KT 7000 SCT018 27/24 Q1009=
17/02/2013 03:00:00Z	 SAID31 WIII 170300	METAR WIII 170300Z VRB02KT 7000 FEW015 SCT025 BKN038 27/24 Q1009=
17/02/2013 03:30:00Z	 SAID31 WIII 170330	METAR WIII 170330Z VRB05KT 8000 BKN020 27/25 Q1009=
17/02/2013 04:00:00Z	 SAID31 WIII 170400	METAR WIII 170400Z VRB05KT 8000 BKN020 27/24 Q1009 VC PREC TO W AND N=
17/02/2013 04:30:00Z	 SAID31 WIII 170430	METAR WIII 170430Z 33006KT 8000 BKN018 BKN025 BKN030 28/24 Q1008=
17/02/2013 05:00:00Z	 SAID31 WIII 170500	METAR WIII 170500Z VRB05KT 9000 SCT018 BKN025 28/24 Q1008=
17/02/2013 05:30:00Z	 SAID31 WIII 170530	METAR WIII 170530Z 33006KT 9999 SCT018 29/24 Q1007=
17/02/2013 06:00:00Z	 SAID31 WIII 170600	METAR WIII 170600Z VRB04KT 9999 SCT020 29/24 Q1006=
17/02/2013 06:30:00Z	 SAID31 WIII 170630	METAR WIII 170630Z VRB04KT 9999 SCT018 29/25 Q1006=
17/02/2013 07:00:00Z	 SAID31 WIII 170700	METAR WIII 170700Z 25015KT 5000 RA BKN016 28/23 Q1005=
17/02/2013 07:30:00Z	 SAID31 WIII 170730	METAR WIII 170730Z 27007KT 6000 -RA BKN020 28/25 Q1005=
17/02/2013 08:00:00Z	 SAID31 WIII 170800	METAR WIII 170800Z 34006KT 9999 SCT018 29/25 Q1005=
17/02/2013 08:30:00Z	 SAID31 WIII 170830	METAR WIII 170830Z 32006KT 9999 SCT020 28/24 Q1005=
17/02/2013 09:00:00Z	 SAID31 WIII 170900	METAR WIII 170900Z 31006KT 8000 BKN020 28/25 Q1005 VC PREC TO SW=
17/02/2013 09:30:00Z	 SAID31 WIII 170930	METAR WIII 170930Z 26015G21KT 3000 +RA BKN016 27/24 Q1005=
17/02/2013 10:00:00Z	 SAID31 WIII 171000	METAR WIII 171000Z 26013KT 1000 TSRA FEW014CB OVC016 25/23 Q1006 CB O VER THE FIELD=
17/02/2013 11:00:00Z	 SAID31 WIII 171100	METAR WIII 171100Z 25008KT 5000 -RA BKN020 25/24 Q1006=
17/02/2013 11:30:00Z	 SAID31 WIII 171130	METAR WIII 171130Z VRB05KT 4000 -RA BKN018 26/24 Q1006=
17/02/2013 12:00:00Z	 SAID31 WIII 171200	METAR WIII 171200Z 22008KT 4000 -RA BKN020 26/24 Q1007=
17/02/2013 12:30:00Z	 SAID31 WIII 171230	METAR WIII 171230Z AUTO 23007KT 9999 -SHRA FEW041 BKN070 BKN150 BKN17 0 26/24 Q1007=
17/02/2013 13:00:00Z	 SAID31 WIII 171300	METAR WIII 171300Z 26004KT 7000 -RA FEW020 26/24 Q1007=
17/02/2013 13:30:00Z	 SAID31 WIII 171330	METAR WIII 171330Z AUTO 22007KT 9999 BKN190 BKN240 26/24 Q1007=
17/02/2013 14:00:00Z	 SAID31 WIII 171400	METAR WIII 171400Z 24005KT 8000 FEW020 26/24 Q1008=
17/02/2013 14:30:00Z	 SAID31 WIII 171430	METAR WIII 171430Z 26006KT 8000 FEW020 26/24 Q1008=
17/02/2013 15:00:00Z	 SAID31 WIII 171500	METAR WIII 171500Z VRB02KT 9000 FEW020 25/24 Q1008=
17/02/2013 15:30:00Z	 SAID31 WIII 171530	METAR WIII 171530Z 27003KT 6000 FEW021 25/24 Q1008=
17/02/2013 16:00:00Z	 SAID31 WIII 171600	METAR WIII 171600Z 26004KT 5000 FEW021 25/24 Q1008=
17/02/2013 16:30:00Z	 SAID31 WIII 171630	METAR WIII 171630Z 26005KT 8000 FEW021 25/24 Q1008=
17/02/2013 17:00:00Z	 SAID31 WIII 171700	METAR WIII 171700Z 26006KT 8000 FEW021 25/24 Q1007=
17/02/2013 17:30:00Z	 SAID31 WIII 171730	METAR WIII 171730Z 26007KT 8000 FEW021 25/23 Q1007=
17/02/2013 18:00:00Z	 SAID31 WIII 171800	METAR WIII 171800Z 28007KT 8000 FEW021 25/23 Q1007=
17/02/2013 18:30:00Z	 SAID31 WIII 171830	METAR WIII 171830Z 26006KT 8000 FEW021 25/23 Q1006=
17/02/2013 19:00:00Z	 SAID31 WIII 171900	METAR WIII 171900Z 25005KT 7000 FEW021 24/23 Q1006=
17/02/2013 19:30:00Z	 SAID31 WIII 171930	METAR WIII 171930Z 27004KT 7000 NCD 24/23 Q1005=
17/02/2013 20:00:00Z	 SAID31 WIII 172000	METAR WIII 172000Z 26003KT 7000 NCD 24/22 Q1005=
17/02/2013 20:30:00Z	 SAID31 WIII 172030	METAR WIII 172030Z 26003KT 7000 FEW020 24/22 Q1006=
17/02/2013 21:00:00Z	 SAID31 WIII 172100	METAR WIII 172100Z 25005KT 7000 FEW020 24/22 Q1006=
17/02/2013 21:30:00Z	 SAID31 WIII 172130	METAR WIII 172130Z 28003KT 7000 SCT020 24/22 Q1006=
17/02/2013 22:00:00Z	 SAID31 WIII 172200	METAR WIII 172200Z 24005KT 7000 SCT020 24/23 Q1006=
17/02/2013 22:30:00Z	 SAID31 WIII 172230	METAR WIII 172230Z 26006KT 8000 SCT020 25/23 Q1006=
17/02/2013 23:00:00Z	 SAID31 WIII 172300	METAR WIII 172300Z 25005KT 5000 FEW022 25/23 Q1006=
17/02/2013 23:30:00Z	 SAID31 WIII 172330	METAR WIII 172330Z 28005KT 8000 FEW022 25/23 Q1006=
18/02/2013 00:00:00Z	 SAID31 WIII 180000	METAR WIII 180000Z 26006KT 9000 SCT020 25/23 Q1007=
18/02/2013 00:30:00Z	 SAID31 WIII 180030	METAR WIII 180030Z AUTO 27004KT 9999 BKN085 25/23 Q1007=
18/02/2013 01:00:00Z	 SAID31 WIII 180100	METAR WIII 180100Z 28005KT 9999 FEW024 26/23 Q1008=
18/02/2013 01:30:00Z	 SAID31 WIII 180130	METAR WIII 180130Z 27006KT 9999 FEW027 27/24 Q1008=
18/02/2013 02:00:00Z	 SAID31 WIII 180200	METAR WIII 180200Z 28003KT 9999 FEW027 27/24 Q1008=
18/02/2013 02:30:00Z	 SAID31 WIII 180230	METAR WIII 180230Z 28006KT 9999 FEW024 27/24 Q1008=
18/02/2013 03:00:00Z	 SAID31 WIII 180300	METAR WIII 180300Z 31005KT 9999 FEW025 28/24 Q1008=
18/02/2013 03:30:00Z	 SAID31 WIII 180330	METAR WIII 180330Z 32007KT 9999 SCT022 28/24 Q1008=
18/02/2013 04:00:00Z	 SAID31 WIII 180400	METAR WIII 180400Z 33007KT 9999 SCT024 28/24 Q1008=
18/02/2013 04:30:00Z	 SAID31 WIII 180430	METAR WIII 180430Z 31005KT 9999 SCT020 28/24 Q1007=
18/02/2013 05:00:00Z	 SAID31 WIII 180500	METAR WIII 180500Z 30007KT 9999 FEW024 28/24 Q1006=
18/02/2013 05:30:00Z	 SAID31 WIII 180530	METAR WIII 180530Z 32006KT 9999 FEW022 29/23 Q1006=
18/02/2013 06:00:00Z	 SAID31 WIII 180600	METAR WIII 180600Z 31006KT 9999 FEW022 29/23 Q1005=
18/02/2013 06:30:00Z	 SAID31 WIII 180630	METAR WIII 180630Z 29008KT 9999 FEW024 29/24 Q1005=
18/02/2013 07:00:00Z	 SAID31 WIII 180700	METAR WIII 180700Z 31006KT 9999 FEW023 29/24 Q1004=
18/02/2013 07:30:00Z	 SAID31 WIII 180730	METAR WIII 180730Z 32006KT 9999 FEW024 29/24 Q1004=
18/02/2013 08:00:00Z	 SAID31 WIII 180800	METAR WIII 180800Z 31006KT 9999 SCT024 29/24 Q1004=
18/02/2013 08:30:00Z	 SAID31 WIII 180830	METAR WIII 180830Z 32003KT 9999 SCT023 29/24 Q1003=
18/02/2013 09:00:00Z	 SAID31 WIII 180900	METAR WIII 180900Z 30006KT 300V360 9000 -RA SCT024 29/24 Q1003=
18/02/2013 09:30:00Z	 SAID31 WIII 180930	METAR WIII 180930Z 28015KT 5000 RA FEW021 SCT036 26/23 Q1004=
18/02/2013 10:00:00Z	 SAID31 WIII 181000	METAR WIII 181000Z 29010KT 9999 FEW037 SCT090 27/23 Q1004=
18/02/2013 10:30:00Z	 SAID31 WIII 181030	METAR WIII 181030Z 28006KT 9000 FEW024 27/24 Q1004=
18/02/2013 11:00:00Z	 SAID31 WIII 181100	METAR WIII 181100Z 27007KT 9000 SCT028 27/23 Q1005=
18/02/2013 11:30:00Z	 SAID31 WIII 181130	METAR WIII 181130Z 28006KT 9999 FEW021CB FEW024 27/23 Q1005 CB TO NW=
18/02/2013 12:00:00Z	 SAID31 WIII 181200	METAR WIII 181200Z 27005KT 9999 FEW024 26/23 Q1006=
18/02/2013 12:30:00Z	 SAID31 WIII 181230	METAR WIII 181230Z AUTO 27006KT 9999 SCT110 SCT130 BKN240 26/23 Q1006=
18/02/2013 13:00:00Z	 SAID31 WIII 181300	METAR WIII 181300Z AUTO 27007KT 9999 BKN140 BKN160 BKN230 26/23 Q1007=
18/02/2013 13:30:00Z	 SAID31 WIII 181330	METAR WIII 181330Z AUTO 29006KT 9999 SCT080 BKN120 OVC140 26/23 Q1007=
18/02/2013 14:00:00Z	 SAID31 WIII 181400	METAR WIII 181400Z 28003KT 9000 SCT021 26/23 Q1007=
18/02/2013 14:30:00Z	 SAID31 WIII 181430	METAR WIII 181430Z 27003KT 9000 SCT021 26/23 Q1008=
18/02/2013 15:00:00Z	 SAID31 WIII 181500	METAR WIII 181500Z 26006KT 7000 -RA SCT020 26/24 Q1008=
18/02/2013 15:30:00Z	 SAID31 WIII 181530	METAR WIII 181530Z 26014KT 4200 +RA BKN020 25/24 Q1008=
18/02/2013 16:00:00Z	 SAID31 WIII 181600	METAR WIII 181600Z 27017KT 5000 +RA SCT020 24/22 Q1007=
18/02/2013 16:30:00Z	 SAID31 WIII 181630	METAR WIII 181630Z 25010KT 7000 -RA SCT020 23/22 Q1007=
18/02/2013 17:00:00Z	 SAID31 WIII 181700	METAR WIII 181700Z 28008KT 7000 FEW021 23/22 Q1006=
18/02/2013 17:30:00Z	 SAID31 WIII 181730	METAR WIII 181730Z 27005KT 7000 SCT021 23/22 Q1006=
18/02/2013 18:00:00Z	 SAID31 WIII 181800	METAR WIII 181800Z 24006KT 7000 SCT021 23/22 Q1006=
18/02/2013 18:30:00Z	 SAID31 WIII 181830	METAR WIII 181830Z 24007KT 7000 SCT021 24/22 Q1005=
18/02/2013 19:00:00Z	 SAID31 WIII 181900	METAR WIII 181900Z 22007KT 7000 SCT021 24/22 Q1005=
18/02/2013 19:30:00Z	 SAID31 WIII 181930	METAR WIII 181930Z AUTO VRB02KT 9000 BKN110 OVC170 24/22 Q1005=
18/02/2013 20:00:00Z	 SAID31 WIII 182000	METAR WIII 182000Z AUTO VRB02KT 5000 FEW070 BKN120 OVC180 24/22 Q1005=
18/02/2013 20:30:00Z	 SAID31 WIII 182030	METAR WIII 182030Z AUTO 23005KT 8000 FEW035 SCT070 BKN082 OVC100 24/2 3 Q1006=
18/02/2013 21:00:00Z	 SAID31 WIII 182100	METAR WIII 182100Z AUTO 22008KT 9999 BKN100 BKN140 OVC170 24/23 Q1005=
18/02/2013 21:30:00Z	 SAID31 WIII 182130	METAR WIII 182130Z AUTO 24011KT 9999 SCT025 BKN080 BKN099 OVC120 24/2 2 Q1006=
18/02/2013 22:30:00Z	 SAID31 WIII 182230	METAR WIII 182230Z 24011KT 5000 SCT020 24/23 Q1006=
18/02/2013 23:00:00Z	 SAID31 WIII 182300	METAR WIII 182300Z 25008KT 6000 FEW021 24/23 Q1007=
18/02/2013 23:30:00Z	 SAID31 WIII 182330	METAR WIII 182330Z 25008KT 7000 FEW021 24/22 Q1007=
19/02/2013 00:00:00Z	 SAID31 WIII 190000	METAR WIII 190000Z 26017G23KT 6000 SCT020 OVC070 24/22 Q1008=
19/02/2013 00:30:00Z	 SAID31 WIII 190030	METAR WIII 190030Z AUTO 28010KT 9999 -SHRA SCT055 OVC073 24/22 Q1008=
19/02/2013 01:00:00Z	 SAID31 WIII 190100	METAR WIII 190100Z 26007KT 9000 SCT025 24/22 Q1008=
19/02/2013 01:30:00Z	 SAID31 WIII 190130	METAR WIII 190130Z 26009KT 9000 SCT028 25/23 Q1008=
19/02/2013 02:00:00Z	 SAID31 WIII 190200	METAR WIII 190200Z 25009KT 9000 SCT028 26/23 Q1008=
19/02/2013 02:30:00Z	 SAID31 WIII 190230	METAR WIII 190230Z 26008KT 9000 FEW027 27/23 Q1008=
19/02/2013 03:00:00Z	 SAID31 WIII 190300	METAR WIII 190300Z 31006KT 9999 FEW027 27/23 Q1008=
19/02/2013 03:30:00Z	 SAID31 WIII 190330	METAR WIII 190330Z 26010KT 9999 FEW024 BKN080 27/23 Q1008=
19/02/2013 04:00:00Z	 SAID31 WIII 190400	METAR WIII 190400Z 26010KT 9999 FEW024 OVC090 27/23 Q1007=
19/02/2013 04:30:00Z	 SAID31 WIII 190430	METAR WIII 190430Z 26007KT 9999 FEW026 BKN090 28/24 Q1007=
19/02/2013 05:00:00Z	 SAID31 WIII 190500	METAR WIII 190500Z 28008KT 9999 FEW028 29/24 Q1007=
19/02/2013 05:30:00Z	 SAID31 WIII 190530	METAR WIII 190530Z 30008KT 9999 FEW025 29/24 Q1006=
19/02/2013 06:00:00Z	 SAID31 WIII 190600	METAR WIII 190600Z 32007KT 9999 SCT027 BKN065 29/24 Q1006=
19/02/2013 06:30:00Z	 SAID31 WIII 190630	METAR WIII 190630Z 31010KT 9999 FEW025 29/24 Q1006=
19/02/2013 07:00:00Z	 SAID31 WIII 190700	METAR WIII 190700Z 30009KT 9999 FEW025 29/23 Q1005=
19/02/2013 07:30:00Z	 SAID31 WIII 190730	METAR WIII 190730Z 31007KT 9999 FEW024 BKN120 29/23 Q1005=
19/02/2013 08:00:00Z	 SAID31 WIII 190800	METAR WIII 190800Z 30007KT 9999 FEW021CB FEW026 29/23 Q1005 CB TO S=
19/02/2013 08:30:00Z	 SAID31 WIII 190830	METAR WIII 190830Z 32008KT 9000 FEW21CB FEW024 29/23 Q1005 VC PREC TO S AND CB TO S=
19/02/2013 09:00:00Z	 SAID31 WIII 190900	METAR WIII 190900Z 30005KT 9000 SCT027 BKN130 29/23 Q1005=
19/02/2013 09:30:00Z	 SAID31 WIII 190930	METAR WIII 190930Z 23007KT 9000 SCT028 28/23 Q1005=
19/02/2013 10:00:00Z	 SAID31 WIII 191000	METAR WIII 191000Z 26006KT 9000 FEW024 28/23 Q1005=
19/02/2013 10:30:00Z	 SAID31 WIII 191030	METAR WIII 191030Z 22004KT 9000 FEW025 BKN034 28/23 Q1005=
19/02/2013 11:00:00Z	 SAID31 WIII 191100	METAR WIII 191100Z 23003KT 8000 FEW028 27/24 Q1006=
19/02/2013 11:30:00Z	 SAID31 WIII 191130	METAR WIII 191130Z 23003KT 8000 FEW024 27/24 Q1006=
19/02/2013 12:00:00Z	 SAID31 WIII 191200	METAR WIII 191200Z 00000KT 8000 FEW027 27/24 Q1006=
19/02/2013 12:30:00Z	 SAID31 WIII 191230	METAR WIII 191230Z AUTO 36002KT 8000 NCD 27/24 Q1007=
19/02/2013 13:00:00Z	 SAID31 WIII 191300	METAR WIII 191300Z 14002KT 5000 BR FEW018 26/24 Q1007=
19/02/2013 13:30:00Z	 SAID31 WIII 191330	METAR WIII 191330Z 17002KT 5000 BR FEW020 27/24 Q1007=
19/02/2013 14:00:00Z	 SAID31 WIII 191400	METAR WIII 191400Z 21003KT 5000 BR FEW020 26/23 Q1007=
19/02/2013 14:30:00Z	 SAID31 WIII 191430	METAR WIII 191430Z VRB02KT 5000 BR FEW020 26/24 Q1008=
19/02/2013 15:00:00Z	 SAID31 WIII 191500	METAR WIII 191500Z VRB02KT 5000 BR FEW034 SCT160 26/24 Q1008=
19/02/2013 15:30:00Z	 SAID31 WIII 191530	METAR WIII 191530Z 30004KT 5000 BR FEW018 26/24 Q1008=
19/02/2013 16:00:00Z	 SAID31 WIII 191600	METAR WIII 191600Z 27003KT 5000 VCTS FEW016CB SCT020 26/24 Q1008 CB T O NE=
19/02/2013 16:30:00Z	 SAID31 WIII 191630	METAR WIII 191630Z 28003KT 4000 BR SCT020 26/24 Q1007=
19/02/2013 17:00:00Z	 SAID31 WIII 191700	METAR WIII 191700Z 30003KT 4000 BR SCT020 26/24 Q1007=
19/02/2013 17:30:00Z	 SAID31 WIII 191730	METAR WIII 191730Z 26005KT 4000 BR SCT020 26/24 Q1007=
19/02/2013 18:00:00Z	 SAID31 WIII 191800	METAR WIII 191800Z 26004KT 4800 BR SCT022 BKN075 BKN160 OVC180 26/24 Q1007=
19/02/2013 18:30:00Z	 SAID31 WIII 191830	METAR WIII 191830Z VRB03KT 4000 BR SCT022 SCT050 BKN086 OVC150 26/24 Q1007=
19/02/2013 19:00:00Z	 SAID31 WIII 191900	METAR WIII 191900Z 29002KT 4600 BR BKN160 OVC180 25/24 Q1006=
19/02/2013 19:30:00Z	 SAID31 WIII 191930	METAR WIII 191930Z 27002KT 4000 BR OVC170 25/24 Q1006=
19/02/2013 20:00:00Z	 SAID31 WIII 192000	METAR WIII 192000Z AUTO 28002G199KT 4200 BR FEW170 25/24 Q1006=
19/02/2013 20:30:00Z	 SAID31 WIII 192030	METAR WIII 192030Z AUTO 26003KT 3800 BR NCD 25/24 Q1006=
19/02/2013 21:00:00Z	 SAID31 WIII 192100	METAR WIII 192100Z 29003KT 3700 BR FEW037 25/24 Q1006=
19/02/2013 21:30:00Z	 SAID31 WIII 192130	METAR WIII 192130Z 27003KT 3900 BR FEW034 SCT160 25/24 Q1006=
19/02/2013 22:00:00Z	 SAID31 WIII 192200	METAR WIII 192200Z 29003KT 3900 BR SCT020 SCT032 24/24 Q1006=
19/02/2013 22:30:00Z	 SAID31 WIII 192230	METAR WIII 192230Z VRB03KT 5000 BR FEW018 SCT055 BKN068 OVC080 25/24 Q1007=
19/02/2013 23:00:00Z	 SAID31 WIII 192300	METAR WIII 192300Z VRB04KT 5000 BR BKN016 26/24 Q1007 VC PREC TO NE A ND SE=
19/02/2013 23:30:00Z	 SAID31 WIII 192330	METAR WIII 192330Z 32003KT 5000 BR BKN020 26/24 Q1007=
20/02/2013 00:00:00Z	 SAID31 WIII 200000	METAR WIII 200000Z 31007KT 5000 BR BKN020 26/24 Q1007 VC PREC TO SW=
20/02/2013 00:30:00Z	 SAID31 WIII 200030	METAR WIII 200030Z AUTO 30006KT 9999 FEW018 27/24 Q1008=
20/02/2013 01:00:00Z	 SAID31 WIII 200100	METAR WIII 200100Z AUTO 30006KT 9999 FEW025 27/24 Q1008=
20/02/2013 01:30:00Z	 SAID31 WIII 200130	METAR WIII 200130Z 27006KT 5000 SCT018 BKN020 28/25 Q1008=
20/02/2013 02:00:00Z	 SAID31 WIII 200200	METAR WIII 200200Z 30009KT 6000 SCT016 BKN018 28/24 Q1008=
20/02/2013 02:30:00Z	 SAID31 WIII 200230	METAR WIII 200230Z 32012KT 7000 BKN018 BKN020 28/24 Q1008=
20/02/2013 03:00:00Z	 SAID31 WIII 200300	METAR WIII 200300Z 31012KT 8000 SCT018 BKN020 28/25 Q1008=
20/02/2013 03:30:00Z	 SAID31 WIII 200330	METAR WIII 200330Z 33008KT 8000 SCT018 BKN020 29/24 Q1008=
20/02/2013 04:00:00Z	 SAID31 WIII 200400	METAR WIII 200400Z 30007KT 9999 SCT021 SCT030 29/24 Q1007=
20/02/2013 04:30:00Z	 SAID31 WIII 200430	METAR WIII 200430Z AUTO 32009KT 9999 SCT021 SCT026 BKN042 29/25 Q1007=
20/02/2013 05:00:00Z	 SAID31 WIII 200500	METAR WIII 200500Z AUTO 32010KT 9999 SCT021 SCT026 29/25 Q1007=
20/02/2013 05:30:00Z	 SAID31 WIII 200530	METAR WIII 200530Z 32008KT 9999 SCT020 30/24 Q1006=
20/02/2013 06:00:00Z	 SAID31 WIII 200600	METAR WIII 200600Z 32011KT 9999 VCTS FEW018CB SCT020 29/24 Q1006 CB T O S AND SW=
20/02/2013 06:30:00Z	 SAID31 WIII 200630	METAR WIII 200630Z 33010KT 9999 TS FEW018 CB SCT020 29/24 Q1006 CB TO SE AND S=
20/02/2013 07:00:00Z	 SAID31 WIII 200700	METAR WIII 200700Z 33011KT 8000 TS FEW018 CB SCT020 28/24 Q1006 CB TO E=
20/02/2013 07:30:00Z	 SAID31 WIII 200730	METAR WIII 200730Z 32008KT 8000 SCT020 28/23 Q1005=
20/02/2013 08:00:00Z	 SAID31 WIII 200800	METAR WIII 200800Z 32006KT 8000 SCT020 28/23 Q1005=
20/02/2013 08:30:00Z	 SAID31 WIII 200830	METAR WIII 200830Z 34006KT 8000 SCT020 28/24 Q1005=
20/02/2013 09:00:00Z	 SAID31 WIII 200900	METAR WIII 200900Z 33006KT 8000 SCT020 28/24 Q1005=
20/02/2013 09:30:00Z	 SAID31 WIII 200930	METAR WIII 200930Z 30008KT 8000 SCT020 28/24 Q1005=
20/02/2013 10:00:00Z	 SAID31 WIII 201000	METAR WIII 201000Z 33004KT 8000 SCT020 28/24 Q1005=
20/02/2013 10:30:00Z	 SAID31 WIII 201030	METAR WIII 201030Z 34005KT 8000 SCT020 28/24 Q1005=
20/02/2013 11:00:00Z	 SAID31 WIII 201100	METAR WIII 201100Z 32007KT 5000 HZ SCT020 28/24 Q1005=
20/02/2013 11:30:00Z	 SAID31 WIII 201130	METAR WIII 201130Z 30005KT 5000 HZ FEW018CB SCT020 28/24 Q1006 CB TO NW=
20/02/2013 12:00:00Z	 SAID31 WIII 201200	METAR WIII 201200Z 29004KT 5000 VCTS FEW018CB SCT020 27/25 Q1006 CB T O NW AND N=
20/02/2013 12:30:00Z	 SAID31 WIII 201230	METAR WIII 201230Z 30002KT 6000 FEW018CB SCT020 BKN055 27/25 Q1007 CB TO N=
20/02/2013 13:00:00Z	 SAID31 WIII 201300	METAR WIII 201300Z 36005KT 4800 DZ FEW018CB SCT020 BKN050 26/24 Q1007 CB TO NW=
20/02/2013 13:30:00Z	 SAID31 WIII 201330	METAR WIII 201330Z 33005KT 6000 FEW020CB SCT022 26/24 Q1008 CB TO SW=
20/02/2013 14:00:00Z	 SAID31 WIII 201400	METAR WIII 201400Z 33004KT 6000 SCT022 26/24 Q1008=
20/02/2013 14:30:00Z	 SAID31 WIII 201430	METAR WIII 201430Z 19003KT 6000 SCT022 26/24 Q1008=
20/02/2013 15:00:00Z	 SAID31 WIII 201500	METAR WIII 201500Z 28003KT 3000 -RA FEW019CB SCT021 BKN047 26/24 Q100 9 CB TO NE=
20/02/2013 15:30:00Z	 SAID31 WIII 201530	METAR WIII 201530Z 31002KT 6000 SCT022 26/25 Q1008=
20/02/2013 16:00:00Z	 SAID31 WIII 201600	METAR WIII 201600Z 23004KT 6000 SCT022 BKN070 26/25 Q1008=
20/02/2013 16:30:00Z	 SAID31 WIII 201630	METAR WIII 201630Z 28011G25KT 230V300 1700 TSRA SCT018CB BKN021 OVC03 9 25/24 Q1009 CB TO NW=
20/02/2013 17:00:00Z	 SAID31 WIII 201700	METAR WIII 201700Z 25009KT 3000 -TSRA SCT018CB BKN020 24/23 Q1009 CB TO NE=
20/02/2013 17:30:00Z	 SAID31 WIII 201730	METAR WIII 201730Z 22008KT 4000 -RA FEW019CB SCT021 24/23 Q1008 CB TO E=
20/02/2013 18:00:00Z	 SAID31 WIII 201800	METAR WIII 201800Z 24009KT 3200 -RA FEW019CB SCT021 BKN085 24/22 Q100 8 CB TO E=
20/02/2013 18:30:00Z	 SAID31 WIII 201830	METAR WIII 201830Z 22006KT 3900 -RA FEW019CB SCT021 BKN060 24/22 Q100 7 CB TO E=
20/02/2013 19:00:00Z	 SAID31 WIII 201900	METAR WIII 201900Z 22006KT 4200 -RA SCT020 BKN100 24/22 Q1007=
20/02/2013 19:30:00Z	 SAID31 WIII 201930	METAR WIII 201930Z 23007KT 4000 -RA SCT020 OVC110 24/22 Q1007=
20/02/2013 20:00:00Z	 SAID31 WIII 202000	METAR WIII 202000Z 26007KT 4000 -RA SCT020 BKN090 OVC110 24/23 Q1006=
20/02/2013 20:30:00Z	 SAID31 WIII 202030	METAR WIII 202030Z 26005KT 4000 -RA SCT021 BKN079 OVC094 24/23 Q1006=
20/02/2013 21:00:00Z	 SAID31 WIII 202100	METAR WIII 202100Z 24004KT 6000 FEW022 BKN160 24/23 Q1006=
20/02/2013 21:30:00Z	 SAID31 WIII 202130	METAR WIII 202130Z 27003KT 6000 SCT023 BKN160 24/23 Q1006=
20/02/2013 22:00:00Z	 SAID31 WIII 202200	METAR WIII 202200Z 24003KT 6000 SCT022 24/23 Q1007=
20/02/2013 22:30:00Z	 SAID31 WIII 202230	METAR WIII 202230Z 24005KT 6000 FEW022 24/23 Q1007=
20/02/2013 23:00:00Z	 SAID31 WIII 202300	METAR WIII 202300Z 26002KT 6000 SCT022 25/23 Q1007=
20/02/2013 23:30:00Z	 SAID31 WIII 202330	METAR WIII 202330Z 19004KT 4400 BR FEW022 BKN065 25/23 Q1007=
21/02/2013 00:00:00Z	 SAID31 WIII 210000	METAR WIII 210000Z VRB02KT 4900 BR FEW022 25/23 Q1007=
21/02/2013 00:30:00Z	 SAID31 WIII 210030	METAR WIII 210030Z VRB02KT 6000 FEW022 25/23 Q1008=
21/02/2013 01:00:00Z	 SAID31 WIII 210100	METAR WIII 210100Z 26005KT 7000 FEW027 26/23 Q1008=
21/02/2013 01:30:00Z	 SAID31 WIII 210130	METAR WIII 210130Z 27005KT 7000 FEW028 27/24 Q1008=
21/02/2013 02:00:00Z	 SAID31 WIII 210200	METAR WIII 210200Z 28006KT 8000 FEW024 BKN055 28/24 Q1008=
21/02/2013 02:30:00Z	 SAID31 WIII 210230	METAR WIII 210230Z 30005KT 9000 FEW024 BKN060 28/24 Q1009=
21/02/2013 03:00:00Z	 SAID31 WIII 210300	METAR WIII 210300Z 32005KT 9999 FEW024 28/24 Q1008=
21/02/2013 03:30:00Z	 SAID31 WIII 210330	METAR WIII 210330Z 30008KT 9999 FEW026 29/24 Q1009=
21/02/2013 04:00:00Z	 SAID31 WIII 210400	METAR WIII 210400Z 32007KT 9999 FEW025 29/24 Q1008=
21/02/2013 04:30:00Z	 SAID31 WIII 210430	METAR WIII 210430Z 34005KT 9999 FEW025 30/24 Q1008=
21/02/2013 05:00:00Z	 SAID31 WIII 210500	METAR WIII 210500Z 35006KT 9999 FEW024 30/23 Q1007=
21/02/2013 05:30:00Z	 SAID31 WIII 210530	METAR WIII 210530Z 31007KT 9999 FEW024 30/23 Q1007=
21/02/2013 06:00:00Z	 SAID31 WIII 210600	METAR WIII 210600Z 33007KT 9999 FEW024 30/23 Q1006=
21/02/2013 06:30:00Z	 SAID31 WIII 210630	METAR WIII 210630Z AUTO 34006KT 9999 BKN070 30/23 Q1006=
21/02/2013 07:00:00Z	 SAID31 WIII 210700	METAR WIII 210700Z 32008KT 9999 FEW025 30/22 Q1005=
21/02/2013 07:30:00Z	 SAID31 WIII 210730	METAR WIII 210730Z 34007KT 9999 FEW021CB FEW025 30/23 Q1005 CB TO SE=
21/02/2013 08:00:00Z	 SAID31 WIII 210800	METAR WIII 210800Z AUTO 01009KT 9999 NCD 30/23 Q1005=
21/02/2013 08:30:00Z	 SAID31 WIII 210830	METAR WIII 210830Z 34007KT 9999 FEW024 29/23 Q1005=
21/02/2013 09:00:00Z	 SAID31 WIII 210900	METAR WIII 210900Z 33008KT 9999 FEW021CB FEW025 29/23 Q1005 CB TO SE=
21/02/2013 09:30:00Z	 SAID31 WIII 210930	METAR WIII 210930Z 31008KT 9999 FEW021CB FEW025 29/22 Q1005 CB TO SE=
21/02/2013 10:00:00Z	 SAID31 WIII 211000	METAR WIII 211000Z 32006KT 9999 FEW025 SCT095 29/23 Q1005=
21/02/2013 10:30:00Z	 SAID31 WIII 211030	METAR WIII 211030Z 32003KT 9999 FEW025 BKN090 29/23 Q1005=
21/02/2013 11:00:00Z	 SAID31 WIII 211100	METAR WIII 211100Z 25003KT 9000 FEW024 SCT140 28/23 Q1006=
21/02/2013 11:30:00Z	 SAID31 WIII 211130	METAR WIII 211130Z 30003KT 9000 FEW026 28/23 Q1006=
21/02/2013 12:00:00Z	 SAID31 WIII 211200	METAR WIII 211200Z 26004KT 9000 FEW025 SCT049 27/24 Q1006=
21/02/2013 12:30:00Z	 SAID31 WIII 211230	METAR WIII 211230Z 27005KT 7000 FEW024 BKN055 27/23 Q1007=
21/02/2013 13:00:00Z	 SAID31 WIII 211300	METAR WIII 211300Z 27003KT 7000 FEW024 SCT047 27/24 Q1007=
21/02/2013 13:30:00Z	 SAID31 WIII 211330	METAR WIII 211330Z 25005KT 4900 HZ FEW023 SCT042 26/24 Q1008=
21/02/2013 14:00:00Z	 SAID31 WIII 211400	METAR WIII 211400Z 19006KT 6000 SCT023 BKN090 27/24 Q1008=
21/02/2013 14:30:00Z	 SAID31 WIII 211430	METAR WIII 211430Z 20004KT 6000 SCT023 27/23 Q1008=
21/02/2013 15:00:00Z	 SAID31 WIII 211500	METAR WIII 211500Z 18005KT 6000 SCT024 BKN038 27/24 Q1009=
21/02/2013 15:30:00Z	 SAID31 WIII 211530	METAR WIII 211530Z 19005KT 3300 RA SCT024 BKN038 27/24 Q1009=
21/02/2013 16:00:00Z	 SAID31 WIII 211600	METAR WIII 211600Z 24010KT 1800 +TSRA FEW018CB SCT022 BKN034 26/24 Q1 009 CB TO W=
21/02/2013 16:30:00Z	 SAID31 WIII 211630	METAR WIII 211630Z 24003KT 5000 VCTS FEW019CB SCT021 BKN085 25/23 Q10 09 CB TO NE=
21/02/2013 17:00:00Z	 SAID31 WIII 211700	METAR WIII 211700Z 23005KT 6000 SCT023 25/24 Q1009=
21/02/2013 17:30:00Z	 SAID31 WIII 211730	METAR WIII 211730Z 27005KT 6000 FEW023 25/24 Q1009=
21/02/2013 18:00:00Z	 SAID31 WIII 211800	METAR WIII 211800Z 25004KT 6000 SCT023 25/24 Q1008=
21/02/2013 18:30:00Z	 SAID31 WIII 211830	METAR WIII 211830Z 25005KT 1800 BR SCT023 25/24 Q1008=
21/02/2013 19:00:00Z	 SAID31 WIII 211900	METAR WIII 211900Z 26004KT 1500 BR SCT024 BKN210 25/24 Q1007=
21/02/2013 19:30:00Z	 SAID31 WIII 211930	METAR WIII 211930Z 25003KT 2000 BR SCT024 25/24 Q1007=
21/02/2013 20:00:00Z	 SAID31 WIII 212000	METAR WIII 212000Z 27003KT 2000 BR SCT024 BKN060 25/24 Q1007=
21/02/2013 20:30:00Z	 SAID31 WIII 212030	METAR WIII 212030Z 30003KT 1600 BR SCT023 BKN065 25/24 Q1007=
21/02/2013 21:00:00Z	 SAID31 WIII 212100	METAR WIII 212100Z 26002KT 2100 BR FEW024 SCT035 BKN070 25/24 Q1007=
21/02/2013 21:30:00Z	 SAID31 WIII 212130	METAR WIII 212130Z 27002KT 4800 BR SCT028 BKN042 BKN049 25/25 Q1007=
21/02/2013 22:00:00Z	 SAID31 WIII 212200	METAR WIII 212200Z 29005KT 4800 BR SCT022 BKN032 25/24 Q1007=
21/02/2013 22:30:00Z	 SAID31 WIII 212230	METAR WIII 212230Z 30006KT 4800 BR SCT022 BKN050 26/24 Q1007=
21/02/2013 23:00:00Z	 SAID31 WIII 212300	METAR WIII 212300Z 31006KT 6000 BKN020 26/24 Q1007=
21/02/2013 23:30:00Z	 SAID31 WIII 212330	METAR WIII 212330Z 31006KT 6000 SCT018 BKN035 27/24 Q1008=
22/02/2013 00:00:00Z	 SAID31 WIII 220000	METAR WIII 220000Z 31008KT 7000 SCT020 BKN050 27/24 Q1008=
22/02/2013 00:30:00Z	 SAID31 WIII 220030	METAR WIII 220030Z 31008KT 7000 SCT023 27/24 Q1008=
22/02/2013 01:00:00Z	 SAID31 WIII 220100	METAR WIII 220100Z 32007KT 7000 BKN020 27/24 Q1009=
22/02/2013 01:30:00Z	 SAID31 WIII 220130	METAR WIII 220130Z 31007KT 8000 BKN020 28/24 Q1009=
22/02/2013 02:00:00Z	 SAID31 WIII 220200	METAR WIII 220200Z 30008KT 8000 BKN020 28/25 Q1009=
22/02/2013 02:30:00Z	 SAID31 WIII 220230	METAR WIII 220230Z 31009KT 9999 SCT018 28/24 Q1009=
22/02/2013 03:00:00Z	 SAID31 WIII 220300	METAR WIII 220300Z 31009KT 9000 BKN020 28/24 Q1009 VC PREC TO SW=
22/02/2013 03:30:00Z	 SAID31 WIII 220330	METAR WIII 220330Z AUTO 31012KT 9999 FEW024 BKN055 29/24 Q1009=
22/02/2013 04:00:00Z	 SAID31 WIII 220400	METAR WIII 220400Z AUTO 31011KT 9999 SCT060 BKN076 29/23 Q1008=
22/02/2013 04:30:00Z	 SAID31 WIII 220430	METAR WIII 220430Z AUTO 33009KT 9999 OVC065 29/24 Q1008=
22/02/2013 05:00:00Z	 SAID31 WIII 220500	METAR WIII 220500Z AUTO 29010KT 9999 FEW026 BKN070 29/24 Q1007=
22/02/2013 05:30:00Z	 SAID31 WIII 220530	METAR WIII 220530Z AUTO 31009KT 9999 FEW024 SCT070 29/24 Q1007=
22/02/2013 06:00:00Z	 SAID31 WIII 220600	METAR WIII 220600Z AUTO 35007KT 9999 FEW024 29/24 Q1006=
22/02/2013 06:30:00Z	 SAID31 WIII 220630	METAR WIII 220630Z AUTO 34008KT 9999 NCD 29/24 Q1006=
22/02/2013 07:00:00Z	 SAID31 WIII 220700	METAR WIII 220700Z AUTO 32006KT 9999 NCD 29/24 Q1005=
22/02/2013 07:30:00Z	 SAID31 WIII 220730	METAR WIII 220730Z AUTO 32006KT 9999 NCD 29/24 Q1005=
22/02/2013 08:00:00Z	 SAID31 WIII 220800	METAR WIII 220800Z AUTO 32009KT 9999 NCD 30/24 Q1005=
22/02/2013 08:30:00Z	 SAID31 WIII 220830	METAR WIII 220830Z AUTO 33008KT 9999 FEW100 30/24 Q1005=
22/02/2013 09:00:00Z	 SAID31 WIII 220900	METAR WIII 220900Z 33007KT 7000 FEW016CB BKN020 29/24 Q1005 CB TO S A ND SW=
22/02/2013 10:00:00Z	 SAID31 WIII 221000	METAR WIII 221000Z VRB05KT 7000 BKN018 29/24 Q1005 VC PREC TO SE AND SW=
22/02/2013 10:30:00Z	 SAID31 WIII 221030	METAR WIII 221030Z 26011KT 9000 SCT020 28/23 Q1006=
22/02/2013 11:00:00Z	 SAID31 WIII 221100	METAR WIII 221100Z AUTO 22012KT 9999 FEW075 SCT096 SCT180 27/23 Q1007=
22/02/2013 11:30:00Z	 SAID31 WIII 221130	METAR WIII 221130Z AUTO 22008KT 9999 FEW075 27/22 Q1007=
22/02/2013 12:00:00Z	 SAID31 WIII 221200	METAR WIII 221200Z AUTO 23009KT 9999 FEW170 26/22 Q1007=
22/02/2013 12:30:00Z	 SAID31 WIII 221230	METAR WIII 221230Z 25006KT 6000 FEW016CB SCT018 26/23 Q1007 CB TO NE=
22/02/2013 13:00:00Z	 SAID31 WIII 221300	METAR WIII 221300Z AUTO 27005KT 9999 BKN150 BKN170 26/23 Q1008=
22/02/2013 13:30:00Z	 SAID31 WIII 221330	METAR WIII 221330Z 26006KT 9000 FEW022 25/23 Q1008=
22/02/2013 14:00:00Z	 SAID31 WIII 221400	METAR WIII 221400Z 24008KT 9999 FEW020 26/23 Q1009=
22/02/2013 14:30:00Z	 SAID31 WIII 221430	METAR WIII 221430Z 23006KT 8000 VCTS SCT020CB SCT021 26/23 Q1009 CB T O N=
22/02/2013 15:00:00Z	 SAID31 WIII 221500	METAR WIII 221500Z 26007KT 7000 FEW020CB BKN021 26/23 Q1009 CB TO N=
22/02/2013 15:30:00Z	 SAID31 WIII 221530	METAR WIII 221530Z VRB02KT 7000 SCT020 26/23 Q1010=
22/02/2013 16:00:00Z	 SAID31 WIII 221600	METAR WIII 221600Z VRB03KT 7000 SCT020 26/23 Q1009=
22/02/2013 16:30:00Z	 SAID31 WIII 221630	METAR WIII 221630Z 28003KT 7000 -RA SCT019 BKN026 25/24 Q1009=
22/02/2013 17:00:00Z	 SAID31 WIII 221700	METAR WIII 221700Z VRB02KT 4900 -RA BKN020 25/24 Q1009=
22/02/2013 17:30:00Z	 SAID31 WIII 221730	METAR WIII 221730Z 29003KT 4200 -RA BKN02025/24 Q1008=
22/02/2013 18:00:00Z	 SAID31 WIII 221800	METAR WIII 221800Z 28002KT 5000 SCT018 25/25 Q1008=
22/02/2013 18:30:00Z	 SAID31 WIII 221830	METAR WIII 221830Z AUTO VRB02KT 9000 BKN025 BKN030 OVC036 25/25 Q1008=
22/02/2013 19:00:00Z	 SAID31 WIII 221900	METAR WIII 221900Z 25004KT 6000 -RA SCT021 26/25 Q1008=
22/02/2013 19:30:00Z	 SAID31 WIII 221930	METAR WIII 221930Z 00000KT 4000 -RA BKN020 25/25 Q1007=
22/02/2013 20:00:00Z	 SAID31 WIII 222000	METAR WIII 222000Z 31005KT 7000 -RA SCT018 25/25 Q1008=
22/02/2013 20:30:00Z	 SAID31 WIII 222030	METAR WIII 222030Z 31004KT 7000 FEW020 26/24 Q1007=
22/02/2013 21:00:00Z	 SAID31 WIII 222100	METAR WIII 222100Z 29004KT 7000 FEW021 26/24 Q1007=
22/02/2013 21:30:00Z	 SAID31 WIII 222130	METAR WIII 222130Z 28003KT 6000 -RA SCT018 SCT022 26/24 Q1007=
22/02/2013 22:00:00Z	 SAID31 WIII 222200	METAR WIII 222200Z 27004KT 7000 SCT021 BKN032 BKN055 OVC140 26/25 Q10 07=
22/02/2013 22:30:00Z	 SAID31 WIII 222230	METAR WIII 222230Z 26004KT 6000 SCT020 26/25 Q1007=
22/02/2013 23:00:00Z	 SAID31 WIII 222300	METAR WIII 222300Z 27002KT 7000 SCT020 26/25 Q1007=
22/02/2013 23:30:00Z	 SAID31 WIII 222330	METAR WIII 222330Z 26004KT 6000 BKN016 26/25 Q1008=
23/02/2013 00:00:00Z	 SAID31 WIII 230000	METAR WIII 230000Z 26003KT 6000 BKN018 26/25 Q1008=
23/02/2013 00:30:00Z	 SAID31 WIII 230030	METAR WIII 230030Z AUTO 27004KT 6000 BKN017 BKN024 BKN032 27/25 Q1009=
23/02/2013 01:00:00Z	 SAID31 WIII 230100	METAR WIII 230100Z 31008KT 5000 HZ SCT018 BKN 020 27/25 Q1009=
23/02/2013 01:30:00Z	 SAID31 WIII 230130	METAR WIII 230130Z 32010KT 5000 HZ SCT018 BKN020 28/24 Q1010=
23/02/2013 02:00:00Z	 SAID31 WIII 230200	METAR WIII 230200Z 31012KT 5000 HZ SCT018 BKN020 28/25 Q1010=
23/02/2013 02:30:00Z	 SAID31 WIII 230230	METAR WIII 230230Z 31012KT 6000 SCT020 29/25 Q1010=
23/02/2013 03:00:00Z	 SAID31 WIII 230300	METAR WIII 230300Z 32011KT 7000 SCT020 29/24 Q1009=
23/02/2013 03:30:00Z	 SAID31 WIII 230330	METAR WIII 230330Z 31013KT 7000 SCT021 29/24 Q1009=
23/02/2013 04:00:00Z	 SAID31 WIII 230400	METAR WIII 230400Z 32008G18KT 7000 SCT020 29/25 Q1009=
23/02/2013 04:30:00Z	 SAID31 WIII 230430	METAR WIII 230430Z 32009KT 7000 SCT020 29/24 Q1009=
23/02/2013 05:00:00Z	 SAID31 WIII 230500	METAR WIII 230500Z 33005G15KT 7000 SCT020 28/24 Q1008=
23/02/2013 05:30:00Z	 SAID31 WIII 230530	METAR WIII 230530Z 32015KT 8000 SCT020 29/25 Q1008=
23/02/2013 06:00:00Z	 SAID31 WIII 230600	METAR WIII 230600Z 32010KT 8000 BKN020 29/24 Q1007=
23/02/2013 06:30:00Z	 SAID31 WIII 230630	METAR WIII 230630Z 33007KT 8000 BKN019 29/25 Q1006=
23/02/2013 07:00:00Z	 SAID31 WIII 230700	METAR WIII 230700Z 31009KT 8000 FEW020 SCT027 29/25 Q1006=
23/02/2013 07:30:00Z	 SAID31 WIII 230730	METAR WIII 230730Z AUTO 32006KT 9999 NCD 29/25 Q1005=
23/02/2013 08:00:00Z	 SAID31 WIII 230800	METAR WIII 230800Z 33009KT 8000 SCT018 29/24 Q1005=
23/02/2013 08:30:00Z	 SAID31 WIII 230830	METAR WIII 230830Z 33009KT 8000 SCT020 29/25 Q1005=
23/02/2013 09:00:00Z	 SAID31 WIII 230900	METAR WIII 230900Z 31006KT 8000 SCT020 29/24 Q1005=
23/02/2013 09:30:00Z	 SAID31 WIII 230930	METAR WIII 230930Z 32009KT 6000 BKN018 29/25 Q1005=
23/02/2013 10:00:00Z	 SAID31 WIII 231000	METAR WIII 231000Z 33007KT 5000 HZ SCT020 OVC075 28/24 Q1005=
23/02/2013 10:30:00Z	 SAID31 WIII 231030	METAR WIII 231030Z 30004KT 5000 HZ SCT020 28/25 Q1005=
23/02/2013 11:00:00Z	 SAID31 WIII 231100	METAR WIII 231100Z 30005KT 5000 HZ SCT020 28/25 Q1006=
23/02/2013 11:30:00Z	 SAID31 WIII 231130	METAR WIII 231130Z 27006KT 5000 HZ SCT020 27/24 Q1006=
23/02/2013 12:00:00Z	 SAID31 WIII 231200	METAR WIII 231200Z 30004KT 3000 BR SCT020 27/25 Q1007=
23/02/2013 12:30:00Z	 SAID31 WIII 231230	METAR WIII 231230Z AUTO 31002KT 4400 FEW050 27/25 Q1007=
23/02/2013 13:00:00Z	 SAID31 WIII 231300	METAR WIII 231300Z VRB03KT 5000 -RA SCT019 27/25 Q1008=
23/02/2013 13:30:00Z	 SAID31 WIII 231330	METAR WIII 231330Z VRB02KT 5000 FEW020 SCT055 27/25 Q1008=
23/02/2013 14:00:00Z	 SAID31 WIII 231400	METAR WIII 231400Z 31003KT 6000 SCT021 27/25 Q1009=
23/02/2013 14:30:00Z	 SAID31 WIII 231430	METAR WIII 231430Z 30003KT 5000 SCT020 27/25 Q1009=
23/02/2013 15:00:00Z	 SAID31 WIII 231500	METAR WIII 231500Z VRB05KT 3600 RA SCT021 BKN032 26/25 Q1009=
23/02/2013 15:30:00Z	 SAID31 WIII 231530	METAR WIII 231530Z 26010KT 2800 +RA BKN019 26/25 Q1009=
23/02/2013 16:00:00Z	 SAID31 WIII 231600	METAR WIII 231600Z 30005KT 5000 RA SCT019 25/24 Q1009=
23/02/2013 16:30:00Z	 SAID31 WIII 231630	METAR WIII 231630Z VRB03KT 5000 SCT020 25/24 Q1009=
23/02/2013 17:00:00Z	 SAID31 WIII 231700	METAR WIII 231700Z VRB03KT 6000 SCT020 26/24 Q1009=
23/02/2013 17:30:00Z	 SAID31 WIII 231730	METAR WIII 231730Z 27003KT 6000 SCT020 26/24 Q1008=
23/02/2013 18:00:00Z	 SAID31 WIII 231800	METAR WIII 231800Z 27004KT 4000 BR SCT020 26/25 Q1008=
23/02/2013 18:30:00Z	 SAID31 WIII 231830	METAR WIII 231830Z VRB02KT 3600 BR SCT020 26/25 Q1007=
23/02/2013 19:00:00Z	 SAID31 WIII 231900	METAR WIII 231900Z 29003KT 3200 BR FEW021 26/25 Q1007=
23/02/2013 19:30:00Z	 SAID31 WIII 231930	METAR WIII 231930Z 26010KT 2300 -RA SCT021 BKN043 26/25 Q1007=
23/02/2013 20:30:00Z	 SAID31 WIII 232030	METAR WIII 232030Z 26007KT 4700 SCT020 25/24 Q1007=
23/02/2013 21:00:00Z	 SAID31 WIII 232100	METAR WIII 232100Z 24006KT 4200 BR SCT020 25/24 Q1007=
23/02/2013 22:30:00Z	 SAID31 WIII 232230	METAR WIII 232230Z 26004KT 5000 SCT020 BKN055 OVC180 25/24 Q1008=
23/02/2013 23:00:00Z	 SAID31 WIII 232300	METAR WIII 232300Z 24004KT 4400 BKN020 BKN055 OVC080 25/24 Q1008=
23/02/2013 23:30:00Z	 SAID31 WIII 232330	METAR WIII 232330Z 26006KT 5000 -SHRA SCT020 25/24 Q1008=
24/02/2013 00:00:00Z	 SAID31 WIII 240000	METAR WIII 240000Z 26005KT 5000 FEW022 25/24 Q1008=
24/02/2013 00:30:00Z	 SAID31 WIII 240030	METAR WIII 240030Z 23006KT 6000 FEW022 26/24 Q1008=
24/02/2013 01:00:00Z	 SAID31 WIII 240100	METAR WIII 240100Z VRB04KT 7000 FEW022 27/24 Q1008=
24/02/2013 01:30:00Z	 SAID31 WIII 240130	METAR WIII 240130Z VRB02KT 8000 FEW022 28/24 Q1009=
24/02/2013 02:00:00Z	 SAID31 WIII 240200	METAR WIII 240200Z VRB03KT 8000 FEW023 29/24 Q1009=
24/02/2013 02:30:00Z	 SAID31 WIII 240230	METAR WIII 240230Z 23003KT 8000 FEW023 SCT060 29/24 Q1009=
24/02/2013 03:00:00Z	 SAID31 WIII 240300	METAR WIII 240300Z 26007KT 8000 FEW023 BKN060 30/24 Q1009=
24/02/2013 03:30:00Z	 SAID31 WIII 240330	METAR WIII 240330Z 29003KT 8000 FEW023 SCT060 30/24 Q1008=
24/02/2013 04:00:00Z	 SAID31 WIII 240400	METAR WIII 240400Z 31006KT 9000 SCT023 31/24 Q1008=
24/02/2013 04:30:00Z	 SAID31 WIII 240430	METAR WIII 240430Z 30006KT 9000 SCT023 31/24 Q1008=
24/02/2013 05:00:00Z	 SAID31 WIII 240500	METAR WIII 240500Z 32011KT 9000 FEW021CB SCT023 31/23 Q1008 CB TO S=
24/02/2013 05:30:00Z	 SAID31 WIII 240530	METAR WIII 240530Z 32010KT 8000 SCT023 31/23 Q1007=
24/02/2013 06:00:00Z	 SAID31 WIII 240600	METAR WIII 240600Z 33007KT 8000 SCT023 31/23 Q1006=
24/02/2013 06:30:00Z	 SAID31 WIII 240630	METAR WIII 240630Z 31007KT 8000 FEW020CB SCT023 30/23 Q1006 CB TO SE=
24/02/2013 07:00:00Z	 SAID31 WIII 240700	METAR WIII 240700Z 32006KT 8000 SCT023 30/23 Q1006=
24/02/2013 07:30:00Z	 SAID31 WIII 240730	METAR WIII 240730Z 32006KT 8000 SCT022 30/23 Q1005=
24/02/2013 08:00:00Z	 SAID31 WIII 240800	METAR WIII 240800Z 32006KT 8000 SCT022 30/24 Q1005=
24/02/2013 08:30:00Z	 SAID31 WIII 240830	METAR WIII 240830Z 29006KT 8000 SCT022 30/24 Q1005=
24/02/2013 09:00:00Z	 SAID31 WIII 240900	METAR WIII 240900Z 31005KT 8000 SCT023 BKN060 30/24 Q1005=
24/02/2013 09:30:00Z	 SAID31 WIII 240930	METAR WIII 240930Z 29004KT 8000 SCT022 BKN065 30/24 Q1005=
24/02/2013 10:00:00Z	 SAID31 WIII 241000	METAR WIII 241000Z 29004KT 8000 SCT022 BKN055 30/24 Q1006=
24/02/2013 10:30:00Z	 SAID31 WIII 241030	METAR WIII 241030Z 30003KT 7000 BKN024 29/24 Q1006=
24/02/2013 11:00:00Z	 SAID31 WIII 241100	METAR WIII 241100Z 27012KT 8000 SCT023 BKN095 29/24 Q1006=
24/02/2013 11:30:00Z	 SAID31 WIII 241130	METAR WIII 241130Z 26011KT 8000 SCT024 BKN110 29/23 Q1006=
24/02/2013 12:00:00Z	 SAID31 WIII 241200	METAR WIII 241200Z 25006KT 8000 FEW023 28/23 Q1007=
24/02/2013 12:30:00Z	 SAID31 WIII 241230	METAR WIII 241230Z 22009KT 7000 FEW018 28/23 Q1007=
24/02/2013 13:00:00Z	 SAID31 WIII 241300	METAR WIII 241300Z 23009KT 6000 FEW020 28/23 Q1008=
24/02/2013 13:30:00Z	 SAID31 WIII 241330	METAR WIII 241330Z 26007KT 5000 BR FEW018 28/23 Q1008=
24/02/2013 14:00:00Z	 SAID31 WIII 241400	METAR WIII 241400Z 25008KT 5000 BR FEW018 27/23 Q1009=
24/02/2013 14:30:00Z	 SAID31 WIII 241430	METAR WIII 241430Z AUTO 25005KT 9999 NCD 27/23 Q1009=
24/02/2013 15:00:00Z	 SAID31 WIII 241500	METAR WIII 241500Z 22006KT 5000 BR FEW020 27/23 Q1009=
24/02/2013 15:30:00Z	 SAID31 WIII 241530	METAR WIII 241530Z AUTO 24007KT 9999 NCD 27/23 Q1009=
24/02/2013 16:00:00Z	 SAID31 WIII 241600	METAR WIII 241600Z AUTO 24008KT 9999 NCD 27/23 Q1009=
24/02/2013 16:30:00Z	 SAID31 WIII 241630	METAR WIII 241630Z 24009KT 5000 BR FEW020 27/23 Q1009=
24/02/2013 17:00:00Z	 SAID31 WIII 241700	METAR WIII 241700Z 25007KT 5000 BR FEW020 26/24 Q1009=
24/02/2013 17:30:00Z	 SAID31 WIII 241730	METAR WIII 241730Z AUTO 22008KT 9999 NCD 27/24 Q1009=
24/02/2013 18:00:00Z	 SAID31 WIII 241800	METAR WIII 241800Z 23009KT 5000 BR FEW018 27/24 Q1008=
24/02/2013 18:30:00Z	 SAID31 WIII 241830	METAR WIII 241830Z AUTO 24010KT 9999 SCT250 27/24 Q1008=
24/02/2013 19:00:00Z	 SAID31 WIII 241900	METAR WIII 241900Z 24012KT 4000 BR FEW018 27/24 Q1008=
24/02/2013 19:30:00Z	 SAID31 WIII 241930	METAR WIII 241930Z AUTO 25010KT 9999 FEW250 26/24 Q1008=
24/02/2013 20:00:00Z	 SAID31 WIII 242000	METAR WIII 242000Z AUTO 25010KT 9999 NCD 26/24 Q1007=
24/02/2013 20:30:00Z	 SAID31 WIII 242030	METAR WIII 242030Z AUTO 24007KT 9000 NCD 25/23 Q1007=
24/02/2013 21:00:00Z	 SAID31 WIII 242100	METAR WIII 242100Z 24007KT 4000 BR FEW020 26/23 Q1007=
24/02/2013 21:30:00Z	 SAID31 WIII 242130	METAR WIII 242130Z AUTO 25005KT 9999 NCD 25/23 Q1007=
24/02/2013 22:00:00Z	 SAID31 WIII 242200	METAR WIII 242200Z AUTO 25005KT 9000 NCD 25/23 Q1008=
24/02/2013 22:30:00Z	 SAID31 WIII 242230	METAR WIII 242230Z 24005KT 5000 BR FEW020 25/23 Q1008=
24/02/2013 23:00:00Z	 SAID31 WIII 242300	METAR WIII 242300Z 23006KT 5000 BR FEW020 25/23 Q1008=
24/02/2013 23:30:00Z	 SAID31 WIII 242330	METAR WIII 242330Z AUTO 22005KT 9999 NCD 26/23 Q1008=
25/02/2013 00:00:00Z	 SAID31 WIII 250000	METAR WIII 250000Z AUTO 23005KT 9999 FEW039 26/23 Q1008=
25/02/2013 00:30:00Z	 SAID31 WIII 250030	METAR WIII 250030Z AUTO VRB05KT 6000 BKN039 27/24 Q1009=
25/02/2013 01:00:00Z	 SAID31 WIII 250100	METAR WIII 250100Z AUTO VRB05KT 6000 NCD 28/24 Q1009=
25/02/2013 01:30:00Z	 SAID31 WIII 250130	METAR WIII 250130Z 27006KT 8000 FEW028 29/24 Q1009=
25/02/2013 02:00:00Z	 SAID31 WIII 250200	METAR WIII 250200Z 26007KT 9000 FEW026 BKN096 29/24 Q1009=
25/02/2013 02:30:00Z	 SAID31 WIII 250230	METAR WIII 250230Z 27007KT 9999 FEW027 BKN075 30/24 Q1009=
25/02/2013 03:00:00Z	 SAID31 WIII 250300	METAR WIII 250300Z 29007KT 9999 FEW027 30/24 Q1009=
25/02/2013 03:30:00Z	 SAID31 WIII 250330	METAR WIII 250330Z 26005KT 9999 FEW026 30/24 Q1010=
25/02/2013 04:00:00Z	 SAID31 WIII 250400	METAR WIII 250400Z 29004KT 9999 FEW027 30/24 Q1009=
25/02/2013 04:30:00Z	 SAID31 WIII 250430	METAR WIII 250430Z 33005KT 9999 FEW027 31/24 Q1009=
25/02/2013 05:00:00Z	 SAID31 WIII 250500	METAR WIII 250500Z 32005KT 9999 FEW024 32/24 Q1008=
25/02/2013 05:30:00Z	 SAID31 WIII 250530	METAR WIII 250530Z 31005KT 9999 FEW026 32/24 Q1008=
25/02/2013 06:00:00Z	 SAID31 WIII 250600	METAR WIII 250600Z 32005KT 9999 FEW026 32/24 Q1007=
25/02/2013 06:30:00Z	 SAID31 WIII 250630	METAR WIII 250630Z 31005KT 9999 FEW027 32/24 Q1007=
25/02/2013 07:00:00Z	 SAID31 WIII 250700	METAR WIII 250700Z 03007KT 9999 FEW026 32/24 Q1006=
25/02/2013 07:30:00Z	 SAID31 WIII 250730	METAR WIII 250730Z AUTO 01009KT 9999 NCD 31/24 Q1006=
25/02/2013 08:00:00Z	 SAID31 WIII 250800	METAR WIII 250800Z 02008KT 9999 FEW023 31/25 Q1005=
25/02/2013 08:30:00Z	 SAID31 WIII 250830	METAR WIII 250830Z 03008KT 9999 FEW023 31/25 Q1005=
25/02/2013 09:00:00Z	 SAID31 WIII 250900	METAR WIII 250900Z 01006KT 9999 FEW023 30/25 Q1005=
25/02/2013 09:30:00Z	 SAID31 WIII 250930	METAR WIII 250930Z 02006KT 9999 FEW026 SCT060 30/25 Q1006=
25/02/2013 10:00:00Z	 SAID31 WIII 251000	METAR WIII 251000Z 33004KT 9999 FEW021CB FEW026 30/25 Q1006 CB TO SE=
25/02/2013 10:30:00Z	 SAID31 WIII 251030	METAR WIII 251030Z 01004KT 9999 FEW21CB FEW026 30/25 Q1006 CB TO E=
25/02/2013 11:00:00Z	 SAID31 WIII 251100	METAR WIII 251100Z 30003KT 8000 FEW028 29/25 Q1006=
25/02/2013 11:30:00Z	 SAID31 WIII 251130	METAR WIII 251130Z 33002KT 7000 FEW024 29/25 Q1007=
25/02/2013 12:00:00Z	 SAID31 WIII 251200	METAR WIII 251200Z 00000KT 4000 HZ FEW026 29/25 Q1007=
25/02/2013 12:30:00Z	 SAID31 WIII 251230	METAR WIII 251230Z AUTO 34002KT 3500 BR NCD 28/25 Q1007=
25/02/2013 13:00:00Z	 SAID31 WIII 251300	METAR WIII 251300Z 32002KT 2900 HZ FEW023 28/26 Q1008=
25/02/2013 13:30:00Z	 SAID31 WIII 251330	METAR WIII 251330Z 22003KT 4600 HZ SCT019 BKN038 28/25 Q1008=
25/02/2013 14:00:00Z	 SAID31 WIII 251400	METAR WIII 251400Z 21008KT 6000 SCT023 BKN055 29/24 Q1009=
25/02/2013 14:30:00Z	 SAID31 WIII 251430	METAR WIII 251430Z 27006KT 6000 FEW038 28/24 Q1009=
25/02/2013 15:00:00Z	 SAID31 WIII 251500	METAR WIII 251500Z 27003KT 7000 FEW024 28/24 Q1009=
25/02/2013 15:30:00Z	 SAID31 WIII 251530	METAR WIII 251530Z 28004KT 8000 FEW023 28/24 Q1009=
25/02/2013 16:00:00Z	 SAID31 WIII 251600	METAR WIII 251600Z 27004KT 7000 FEW022 27/24 Q1009=
25/02/2013 16:30:00Z	 SAID31 WIII 251630	METAR WIII 251630Z 24006KT 5000 HZ FEW023 27/24 Q1009=
25/02/2013 17:00:00Z	 SAID31 WIII 251700	METAR WIII 251700Z 24007KT 6000 FEW022 28/24 Q1009=
25/02/2013 17:30:00Z	 SAID31 WIII 251730	METAR WIII 251730Z 25007KT 7000 FEW022 28/24 Q1009=
25/02/2013 18:00:00Z	 SAID31 WIII 251800	METAR WIII 251800Z 24007KT 7000 FEW023 27/24 Q1008=
25/02/2013 18:30:00Z	 SAID31 WIII 251830	METAR WIII 251830Z 26004KT 6000 FEW024 26/24 Q1008=
25/02/2013 19:00:00Z	 SAID31 WIII 251900	METAR WIII 251900Z 26004KT 6000 FEW023 26/24 Q1008=
25/02/2013 19:30:00Z	 SAID31 WIII 251930	METAR WIII 251930Z 25005KT 8000 FEW023 26/24 Q1008=
25/02/2013 20:00:00Z	 SAID31 WIII 252000	METAR WIII 252000Z 26004KT 6000 FEW023 26/24 Q1008=
25/02/2013 20:30:00Z	 SAID31 WIII 252030	METAR WIII 252030Z 25004KT 7000 FEW023 26/24 Q1007=
25/02/2013 21:00:00Z	 SAID31 WIII 252100	METAR WIII 252100Z 23006KT 7000 FEW022 26/24 Q1007=
25/02/2013 21:30:00Z	 SAID31 WIII 252130	METAR WIII 252130Z 25007KT 8000 FEW022 27/24 Q1008=
25/02/2013 22:00:00Z	 SAID31 WIII 252200	METAR WIII 252200Z 25006KT 7000 FEW022 27/24 Q1008=
25/02/2013 22:30:00Z	 SAID31 WIII 252230	METAR WIII 252230Z VRB03KT 8000 FEW024 26/24 Q1008=
25/02/2013 23:00:00Z	 SAID31 WIII 252300	METAR WIII 252300Z 30002KT 6000 FEW019 26/24 Q1008=
25/02/2013 23:30:00Z	 SAID31 WIII 252330	METAR WIII 252330Z VRB03KT 4400 BR FEW023 26/24 Q1008=
26/02/2013 00:00:00Z	 SAID31 WIII 260000	METAR WIII 260000Z 26005KT 3700 HZ FEW023 27/24 Q1009=
26/02/2013 00:30:00Z	 SAID31 WIII 260030	METAR WIII 260030Z 24005KT 4000 HZ FEW023 28/25 Q1009=
26/02/2013 01:00:00Z	 SAID31 WIII 260100	METAR WIII 260100Z 27005KT 5000 FEW022 28/25 Q1009=
26/02/2013 01:30:00Z	 SAID31 WIII 260130	METAR WIII 260130Z 28009KT 5000 FEW020CB FEW022 29/25 Q1009 CB TO E=
26/02/2013 02:00:00Z	 SAID31 WIII 260200	METAR WIII 260200Z 30007KT 6000 SCT021 29/25 Q1009=
26/02/2013 03:00:00Z	 SAID31 WIII 260300	METAR WIII 260300Z 29004KT 5000 -RA BKN017 29/26 Q1009=
26/02/2013 03:30:00Z	 SAID31 WIII 260330	METAR WIII 260330Z 35005KT 6000 BKN017 30/26 Q1009=
26/02/2013 04:00:00Z	 SAID31 WIII 260400	METAR WIII 260400Z 33010KT 7000 SCT019 30/26 Q1009=
26/02/2013 04:30:00Z	 SAID31 WIII 260430	METAR WIII 260430Z 33011KT 8000 SCT021 31/26 Q1009=
26/02/2013 05:00:00Z	 SAID31 WIII 260500	METAR WIII 260500Z 35011KT 8000 SCT018 31/26 Q1008=
26/02/2013 05:30:00Z	 SAID31 WIII 260530	METAR WIII 260530Z 34014KT 8000 SCT018 31/26 Q1008=
26/02/2013 06:00:00Z	 SAID31 WIII 260600	METAR WIII 260600Z 34010KT 8000 VCTS FEW019CB SCT020 30/25 Q1007 CB T O SE AND E=
26/02/2013 06:30:00Z	 SAID31 WIII 260630	METAR WIII 260630Z 33007KT 8000 FEW020CB SCT023 30/25 Q1007 CB TO S=
26/02/2013 07:00:00Z	 SAID31 WIII 260700	METAR WIII 260700Z 34006KT 7000 FEW019CB SCT022 29/25 Q1007 CB TO E=
26/02/2013 07:30:00Z	 SAID31 WIII 260730	METAR WIII 260730Z 33007KT 8000 FEW020CB SCT023 29/26 Q1006 CB TO E=
26/02/2013 08:00:00Z	 SAID31 WIII 260800	METAR WIII 260800Z 33006KT 8000 FEW020CB SCT023 29/25 Q1006 CB TO E=
26/02/2013 08:30:00Z	 SAID31 WIII 260830	METAR WIII 260830Z 31004KT 8000 SCT023 29/25 Q1006=
26/02/2013 09:00:00Z	 SAID31 WIII 260900	METAR WIII 260900Z 33004KT 8000 FEW023 BKN060 29/25 Q1006=
26/02/2013 09:30:00Z	 SAID31 WIII 260930	METAR WIII 260930Z 32004KT 8000 SCT022 29/25 Q1006=
26/02/2013 10:00:00Z	 SAID31 WIII 261000	METAR WIII 261000Z 34005KT 8000 FEW022 29/25 Q1006=
26/02/2013 10:30:00Z	 SAID31 WIII 261030	METAR WIII 261030Z 30005KT 7000 FEW022 29/25 Q1006=
26/02/2013 11:00:00Z	 SAID31 WIII 261100	METAR WIII 261100Z 31003KT 6000 SCT024 29/25 Q1007=
26/02/2013 11:30:00Z	 SAID31 WIII 261130	METAR WIII 261130Z 34002KT 5000 HZ FEW023 SCT044 BKN130 28/25 Q1007=
26/02/2013 12:00:00Z	 SAID31 WIII 261200	METAR WIII 261200Z 27003KT 4900 HZ FEW023 BKN060 28/25 Q1008=
26/02/2013 12:30:00Z	 SAID31 WIII 261230	METAR WIII 261230Z AUTO 25007KT 9999 NCD 28/24 Q1008=
26/02/2013 13:00:00Z	 SAID31 WIII 261300	METAR WIII 261300Z AUTO 25009KT 9999 NCD 28/24 Q1008=
26/02/2013 13:30:00Z	 SAID31 WIII 261330	METAR WIII 261330Z 25007KT 8000 FEW021 28/24 Q1008=
26/02/2013 14:00:00Z	 SAID31 WIII 261400	METAR WIII 261400Z 24009KT 8000 FEW021 28/24 Q1009=
26/02/2013 14:30:00Z	 SAID31 WIII 261430	METAR WIII 261430Z 24005KT 8000 FEW021 27/24 Q1009=
26/02/2013 15:00:00Z	 SAID31 WIII 261500	METAR WIII 261500Z 23010KT 8000 FEW021 28/24 Q1009=
26/02/2013 15:30:00Z	 SAID31 WIII 261530	METAR WIII 261530Z 23010KT 8000 FEW021 28/24 Q1009=
26/02/2013 16:00:00Z	 SAID31 WIII 261600	METAR WIII 261600Z 24009KT 8000 FEW022 28/24 Q1009=
26/02/2013 16:30:00Z	 SAID31 WIII 261630	METAR WIII 261630Z 24007KT 7000 FEW022 27/24 Q1009=
26/02/2013 17:00:00Z	 SAID31 WIII 261700	METAR WIII 261700Z 24008KT 7000 FEW022 27/24 Q1009=
26/02/2013 17:30:00Z	 SAID31 WIII 261730	METAR WIII 261730Z 23007KT 7000 FEW022 27/24 Q1008=
26/02/2013 18:00:00Z	 SAID31 WIII 261800	METAR WIII 261800Z 25009KT 7000 FEW022 27/24 Q1008=
26/02/2013 18:30:00Z	 SAID31 WIII 261830	METAR WIII 261830Z 25006KT 7000 FEW022 27/24 Q1008=
26/02/2013 19:00:00Z	 SAID31 WIII 261900	METAR WIII 261900Z 25006KT 7000 FEW021 26/24 Q1008=
26/02/2013 19:30:00Z	 SAID31 WIII 261930	METAR WIII 261930Z 25009KT 7000 FEW022 26/24 Q1008=
26/02/2013 20:00:00Z	 SAID31 WIII 262000	METAR WIII 262000Z 27005KT 7000 FEW022 26/24 Q1007=
26/02/2013 20:30:00Z	 SAID31 WIII 262030	METAR WIII 262030Z AUTO 26005KT 8000 OVC210 26/24 Q1007=
26/02/2013 21:00:00Z	 SAID31 WIII 262100	METAR WIII 262100Z AUTO 25006KT 8000 BKN210 26/25 Q1007=
26/02/2013 21:30:00Z	 SAID31 WIII 262130	METAR WIII 262130Z AUTO 26005KT 9999 FEW100 SCT120 BKN140 BKN170 27/2 4 Q1007=
26/02/2013 22:00:00Z	 SAID31 WIII 262200	METAR WIII 262200Z AUTO 25006KT 9999 BKN160 26/25 Q1008=
26/02/2013 22:30:00Z	 SAID31 WIII 262230	METAR WIII 262230Z 27005KT 8000 FEW022 26/24 Q1008=
26/02/2013 23:00:00Z	 SAID31 WIII 262300	METAR WIII 262300Z 25004KT 7000 FEW022 26/24 Q1008=
26/02/2013 23:30:00Z	 SAID31 WIII 262330	METAR WIII 262330Z 27006KT 7000 FEW022 26/24 Q1008=
27/02/2013 00:00:00Z	 SAID31 WIII 270000	METAR WIII 270000Z 24009KT 7000 FEW022 27/24 Q1009=
27/02/2013 00:30:00Z	 SAID31 WIII 270030	METAR WIII 270030Z 23011KT 6000 SCT022 27/23 Q1009=
27/02/2013 01:00:00Z	 SAID31 WIII 270100	METAR WIII 270100Z 23010KT 7000 SCT022 27/23 Q1010=
27/02/2013 01:30:00Z	 SAID31 WIII 270130	METAR WIII 270130Z 24007KT 9999 SCT110 28/23 Q1010=
27/02/2013 02:00:00Z	 SAID31 WIII 270200	METAR WIII 270200Z 29005KT 9999 SCT120 28/24 Q1010=
27/02/2013 02:30:00Z	 SAID31 WIII 270230	METAR WIII 270230Z 25008KT 9999 FEW020 29/24 Q1010=
27/02/2013 03:00:00Z	 SAID31 WIII 270300	METAR WIII 270300Z 25008KT 9999 FEW018 30/24 Q1010=
27/02/2013 03:30:00Z	 SAID31 WIII 270330	METAR WIII 270330Z AUTO 27008KT 9999 FEW025 SCT055 30/25 Q1010=
27/02/2013 04:00:00Z	 SAID31 WIII 270400	METAR WIII 270400Z AUTO 26010KT 9999 FEW027 SCT055 SCT068 31/25 Q1009=
27/02/2013 04:30:00Z	 SAID31 WIII 270430	METAR WIII 270430Z AUTO 30007KT 9999 FEW031 SCT050 31/25 Q1009=
27/02/2013 05:00:00Z	 SAID31 WIII 270500	METAR WIII 270500Z 33008KT 9999 SCT018 30/25 Q1008=
27/02/2013 05:30:00Z	 SAID31 WIII 270530	METAR WIII 270530Z 29009KT 9999 SCT018 32/25 Q1008=
27/02/2013 06:00:00Z	 SAID31 WIII 270600	METAR WIII 270600Z 29010KT 9999 SCT020 32/25 Q1007=
27/02/2013 06:30:00Z	 SAID31 WIII 270630	METAR WIII 270630Z AUTO 29010KT 9999 NCD 31/24 Q1007=
27/02/2013 07:00:00Z	 SAID31 WIII 270700	METAR WIII 270700Z 29014KT 9999 SCT018 32/24 Q1007=
27/02/2013 07:30:00Z	 SAID31 WIII 270730	METAR WIII 270730Z 27015KT 9999 FEW038 BKN055 BKN076 31/23 Q1006=
27/02/2013 08:00:00Z	 SAID31 WIII 270800	METAR WIII 270800Z 26020KT 9999 FEW050 31/22 Q1006=
27/02/2013 08:30:00Z	 SAID31 WIII 270830	METAR WIII 270830Z AUTO 27016KT 9999 NCD 32/23 Q1006=
27/02/2013 09:00:00Z	 SAID31 WIII 270900	METAR WIII 270900Z AUTO 27015KT 9999 NCD 31/22 Q1006=
27/02/2013 09:30:00Z	 SAID31 WIII 270930	METAR WIII 270930Z 27017KT 9999 FEW020 30/22 Q1006=
27/02/2013 10:00:00Z	 SAID31 WIII 271000	METAR WIII 271000Z 26015KT 9999 FEW020 30/23 Q1006=
27/02/2013 10:30:00Z	 SAID31 WIII 271030	METAR WIII 271030Z 25016KT 9999 FEW080 29/22 Q1007=
27/02/2013 11:00:00Z	 SAID31 WIII 271100	METAR WIII 271100Z AUTO 25015KT 9999 SCT085 29/22 Q1007=
27/02/2013 11:30:00Z	 SAID31 WIII 271130	METAR WIII 271130Z AUTO 27011KT 9999 BKN085 BKN170 BKN220 29/23 Q1007=
27/02/2013 12:00:00Z	 SAID31 WIII 271200	METAR WIII 271200Z 26012KT 8000 SCT020 29/23 Q1008=
27/02/2013 12:30:00Z	 SAID31 WIII 271230	METAR WIII 271230Z 26013KT 8000 SCT020 28/23 Q1008=
27/02/2013 13:00:00Z	 SAID31 WIII 271300	METAR WIII 271300Z 26017KT 8000 SCT020 28/22 Q1009=
27/02/2013 13:30:00Z	 SAID31 WIII 271330	METAR WIII 271330Z 26015KT 8000 SCT020 28/22 Q1009=
27/02/2013 14:00:00Z	 SAID31 WIII 271400	METAR WIII 271400Z 25014KT 8000 FEW021 28/22 Q1009=
27/02/2013 14:30:00Z	 SAID31 WIII 271430	METAR WIII 271430Z 25013KT 8000 FEW021 27/22 Q1009=
27/02/2013 15:00:00Z	 SAID31 WIII 271500	METAR WIII 271500Z 23012KT 8000 FEW021 28/23 Q1009=
27/02/2013 15:30:00Z	 SAID31 WIII 271530	METAR WIII 271530Z 24010KT 8000 FEW021 BKN060 27/23 Q1009=
27/02/2013 16:00:00Z	 SAID31 WIII 271600	METAR WIII 271600Z 24014KT 8000 FEW021 BKN060 28/23 Q1009=
27/02/2013 16:30:00Z	 SAID31 WIII 271630	METAR WIII 271630Z 25010KT 8000 FEW021 BKN060 27/23 Q1009=
27/02/2013 17:00:00Z	 SAID31 WIII 271700	METAR WIII 271700Z 24010KT 7000 FEW021 SCT075 27/23 Q1009=
27/02/2013 17:30:00Z	 SAID31 WIII 271730	METAR WIII 271730Z 24011KT 6000 FEW021 BKN210 27/23 Q1008=
27/02/2013 18:00:00Z	 SAID31 WIII 271800	METAR WIII 271800Z 26008KT 7000 SCT022 BKN060 27/23 Q1008=
27/02/2013 18:30:00Z	 SAID31 WIII 271830	METAR WIII 271830Z 24011KT 7000 SCT022 BKN060 27/23 Q1008=
27/02/2013 19:00:00Z	 SAID31 WIII 271900	METAR WIII 271900Z 25010KT 7000 FEW022 27/23 Q1008 NOSIG=
27/02/2013 19:30:00Z	 SAID31 WIII 271930	METAR WIII 271930Z 25007KT 7000 FEW022 SCT060 26/23 Q1007=
27/02/2013 20:00:00Z	 SAID31 WIII 272000	METAR WIII 272000Z 26008KT 8000 FEW022 SCT060 26/23 Q1007=
27/02/2013 20:30:00Z	 SAID31 WIII 272030	METAR WIII 272030Z 25007KT 8000 FEW022 BKN220 26/23 Q1007=
27/02/2013 21:00:00Z	 SAID31 WIII 272100	METAR WIII 272100Z 26007KT 8000 FEW022 BKN060 26/23 Q1007=
27/02/2013 21:30:00Z	 SAID31 WIII 272130	METAR WIII 272130Z 25010KT 8000 SCT022 BKN091 27/23 Q1007=
27/02/2013 22:00:00Z	 SAID31 WIII 272200	METAR WIII 272200Z 25009KT 8000 FEW022 27/23 Q1007=
27/02/2013 22:30:00Z	 SAID31 WIII 272230	METAR WIII 272230Z 26007KT 7000 FEW022 26/23 Q1007=
27/02/2013 23:00:00Z	 SAID31 WIII 272300	METAR WIII 272300Z 25007KT 7000 FEW022 25/23 Q1007=
27/02/2013 23:30:00Z	 SAID31 WIII 272330	METAR WIII 272330Z 23008KT 8000 FEW023 26/24 Q1007=
28/02/2013 00:00:00Z	 SAID31 WIII 280000	METAR WIII 280000Z 24009KT 8000 FEW022 27/23 Q1008=
28/02/2013 00:30:00Z	 SAID31 WIII 280030	METAR WIII 280030Z AUTO 24007KT 9999 NCD 28/24 Q1008=
28/02/2013 01:00:00Z	 SAID31 WIII 280100	METAR WIII 280100Z 26009KT 5000 HZ FEW018 SCT020 28/24 Q1008=
28/02/2013 01:30:00Z	 SAID31 WIII 280130	METAR WIII 280130Z 25008KT 5000 HZ SCT020 29/24 Q1008=
28/02/2013 02:00:00Z	 SAID31 WIII 280200	METAR WIII 280200Z 26012KT 6000 SCT020 30/24 Q1009=
28/02/2013 02:30:00Z	 SAID31 WIII 280230	METAR WIII 280230Z 29008KT 7000 SCT020 30/24 Q1008=
28/02/2013 03:00:00Z	 SAID31 WIII 280300	METAR WIII 280300Z 28008KT 8000 SCT020 30/24 Q1008=
28/02/2013 03:30:00Z	 SAID31 WIII 280330	METAR WIII 280330Z AUTO 26013KT 9999 FEW080 31/24 Q1008=
28/02/2013 04:00:00Z	 SAID31 WIII 280400	METAR WIII 280400Z AUTO 27017KT 9999 NCD 32/23 Q1008=
28/02/2013 04:30:00Z	 SAID31 WIII 280430	METAR WIII 280430Z 29015KT 8000 SCT020 32/23 Q1007=
28/02/2013 05:00:00Z	 SAID31 WIII 280500	METAR WIII 280500Z 26017KT 8000 SCT020 33/23 Q1007=
28/02/2013 05:30:00Z	 SAID31 WIII 280530	METAR WIII 280530Z 29013G23KT 7000 SCT020 33/24 Q1007=
28/02/2013 06:00:00Z	 SAID31 WIII 280600	METAR WIII 280600Z 28021G31KT 5000 -SHRA BKN020 31/22 Q1006=
28/02/2013 06:30:00Z	 SAID31 WIII 280630	METAR WIII 280630Z 28019KT 9999 SCT020 32/23 Q1006=
28/02/2013 07:00:00Z	 SAID31 WIII 280700	METAR WIII 280700Z 27017G29KT 9999 SCT020 33/24 Q1005=
28/02/2013 07:30:00Z	 SAID31 WIII 280730	METAR WIII 280730Z 28014KT 9999 SCT020 33/24 Q1005=
28/02/2013 08:00:00Z	 SAID31 WIII 280800	METAR WIII 280800Z 26016G26KT 8000 SCT020 32/23 Q1005=
28/02/2013 08:30:00Z	 SAID31 WIII 280830	METAR WIII 280830Z 26018KT 8000 SCT020 32/23 Q1005=
28/02/2013 09:00:00Z	 SAID31 WIII 280900	METAR WIII 280900Z 27019G29KT 8000 SCT020 32/23 Q1005=
28/02/2013 09:30:00Z	 SAID31 WIII 280930	METAR WIII 280930Z AUTO 27014KT 9999 SCT090 32/23 Q1005=
28/02/2013 10:00:00Z	 SAID31 WIII 281000	METAR WIII 281000Z 27016G26KT 9999 SCT020 31/22 Q1006=
28/02/2013 10:30:00Z	 SAID31 WIII 281030	METAR WIII 281030Z 27018KT 9999 SCT020 30/23 Q1006=
28/02/2013 11:00:00Z	 SAID31 WIII 281100	METAR WIII 281100Z 27012KT 8000 SCT020 29/22 Q1006=
28/02/2013 11:30:00Z	 SAID31 WIII 281130	METAR WIII 281130Z AUTO 27007KT 9999 NCD 29/22 Q1007=
28/02/2013 12:00:00Z	 SAID31 WIII 281200	METAR WIII 281200Z 26010KT 7000 SCT020 28/23 Q1007=
28/02/2013 12:30:00Z	 SAID31 WIII 281230	METAR WIII 281230Z AUTO 26008KT 9999 NCD 28/23 Q1007=
28/02/2013 13:00:00Z	 SAID31 WIII 281300	METAR WIII 281300Z AUTO 25006KT 6000 NCD 27/23 Q1008=
28/02/2013 13:30:00Z	 SAID31 WIII 281330	METAR WIII 281330Z AUTO 23007KT 9999 NCD 28/23 Q1008=
28/02/2013 14:00:00Z	 SAID31 WIII 281400	METAR WIII 281400Z 23009KT 9000 NCD 28/23 Q1008=
28/02/2013 14:30:00Z	 SAID31 WIII 281430	METAR WIII 281430Z 23008KT 8000 FEW023 28/24 Q1008=
28/02/2013 15:00:00Z	 SAID31 WIII 281500	METAR WIII 281500Z 24006KT 9000 NCD 27/24 Q1009=
28/02/2013 15:30:00Z	 SAID31 WIII 281530	METAR WIII 281530Z 25006KT 9000 FEW022 26/24 Q1009=
28/02/2013 16:00:00Z	 SAID31 WIII 281600	METAR WIII 281600Z 23008KT 9999 NCD 27/24 Q1009=
28/02/2013 16:30:00Z	 SAID31 WIII 281630	METAR WIII 281630Z 27006KT 5000 FEW023 27/24 Q1009=
28/02/2013 17:00:00Z	 SAID31 WIII 281700	METAR WIII 281700Z VRB04KT 5000 NCD 27/24 Q1009=
28/02/2013 17:30:00Z	 SAID31 WIII 281730	METAR WIII 281730Z 26007KT 9000 FEW023 26/23 Q1009=
28/02/2013 18:00:00Z	 SAID31 WIII 281800	METAR WIII 281800Z 26006KT 7000 FEW023 26/23 Q1008=
28/02/2013 18:30:00Z	 SAID31 WIII 281830	METAR WIII 281830Z 25006KT 6000 NCD 25/23 Q1008=
28/02/2013 19:00:00Z	 SAID31 WIII 281900	METAR WIII 281900Z 25006KT 6000 FEW023 26/23 Q1008=
28/02/2013 19:30:00Z	 SAID31 WIII 281930	METAR WIII 281930Z AUTO VRB04KT 8000 NCD 26/23 Q1008=
28/02/2013 20:00:00Z	 SAID31 WIII 282000	METAR WIII 282000Z AUTO 27003KT 7000 NCD 26/23 Q1007=
28/02/2013 20:30:00Z	 SAID31 WIII 282030	METAR WIII 282030Z AUTO VRB04KT 6000 NCD 25/23 Q1007=
28/02/2013 21:00:00Z	 SAID31 WIII 282100	METAR WIII 282100Z AUTO 26004KT 7000 NCD 25/23 Q1007=
28/02/2013 21:30:00Z	 SAID31 WIII 282130	METAR WIII 282130Z AUTO 23005KT 8000 NCD 25/23 Q1007=
28/02/2013 22:00:00Z	 SAID31 WIII 282200	METAR WIII 282200Z 22008KT 8000 NCD 26/23 Q1008=
28/02/2013 22:30:00Z	 SAID31 WIII 282230	METAR WIII 282230Z AUTO 24007KT 9999 NCD 26/23 Q1007=
28/02/2013 23:00:00Z	 SAID31 WIII 282300	METAR WIII 282300Z AUTO 25006KT 9999 NCD 26/23 Q1008=
28/02/2013 23:30:00Z	 SAID31 WIII 282330	METAR WIII 282330Z 22008KT 9000 FEW024 27/23 Q1008=
