01/02/2015 03:00:00Z	 SAID31 WIII 010300	METAR WIII 010300Z 28003KT 3000 TSRA FEW016CB OVC020 24/23 Q1013 NOSIG RMK CB OVER THE FIELDS=
01/02/2015 03:30:00Z	 SAID31 WIII 010330	METAR WIII 010330Z 29004KT 3000 RA FEW016CB OVC018 24/23 Q1014 TEMPO FM0330 2000 TSRA RMK CB TO NE AND S=
01/02/2015 04:00:00Z	 SAID31 WIII 010400	METAR WIII 010400Z 23008G20KT 210V280 2000 RA FEW016CB OVC018 24/23 Q1013 NOSIG RMK CB TO NE AND S=
01/02/2015 04:30:00Z	 SAID31 WIII 010430	METAR WIII 010430Z 23004KT 4000 -RA BR FEW016CB SCT018 OVC020 23/23 Q1013 NOSIG RMK CB TO W AND S=
01/02/2015 05:00:00Z	 SAID31 WIII 010500	METAR WIII 010500Z VRB05KT 4000 RA BR FEW016CB SCT018 OVC022 24/22 Q1013 TEMPO TL0545 2000 RA RMK CB TO W=
01/02/2015 05:30:00Z	 SAID31 WIII 010530	METAR WIII 010530Z VRB05KT 4000 VCTS -RA FEW016CB SCT018 OVC022 24/23 Q1012 TEMPO TL0545 2000 RA RMK CB TO E AND SW=
01/02/2015 06:00:00Z	 SAID31 WIII 010600	METAR WIII 010600Z 21005KT 4000 -RA SCT018 OVC022 25/23 Q1012 NOSIG=
01/02/2015 06:30:00Z	 SAID31 WIII 010630	METAR WIII 010630Z 19006KT 5000 VCTS -RA FEW016CB OVC030 25/23 Q1012 NOSIG RMK CB TO E=
01/02/2015 07:00:00Z	 SAID31 WIII 010700	METAR WIII 010700Z VRB05KT 4000 -RA FEW016CB SCT018 OVC022 25/23 Q1011 NOSIG RMK CB TO E AND SW=
01/02/2015 07:30:00Z	 SAID31 WIII 010730	METAR WIII 010730Z 17006KT 5000 -RA FEW016CB OVC020 25/23 Q1011 NOSIG RMK CB TO NE AND E=
01/02/2015 08:00:00Z	 SAID31 WIII 010800	METAR WIII 010800Z 17005KT 5000 -RA FEW016CB OVC030 25/23 Q1011 NOSIG RMK CB TO NE=
01/02/2015 09:00:00Z	 SAID31 WIII 010900	METAR WIII 010900Z 15007KT 5000 VCTS -RA FEW016CB OVC020 25/23 Q1011 NOSIG RMK CB TO NW AND N=
01/02/2015 09:30:00Z	 SAID31 WIII 010930	METAR WIII 010930Z 12005KT 4000 VCTS -RA FEW016CB OVC020 25/23 Q1011 TEMPO TL1020 2000 RA RMK CB TO NW=
01/02/2015 10:00:00Z	 SAID31 WIII 011000	METAR WIII 011000Z 12004KT 3000 RA FEW016CB OVC020 25/24 Q1010 TEMPO TL1020 2000 RA RMK CB TO NW=
01/02/2015 11:30:00Z	 SAID31 WIII 011130	METAR WIII 011130Z 12004KT 3000 RA OVC020 24/23 Q1011 NOSIG=
01/02/2015 12:00:00Z	 SAID31 WIII 011200	METAR WIII 011200Z 11003KT 4000 -RA BR BKN018 24/23 Q1012 NOSIG=
01/02/2015 12:30:00Z	 SAID31 WIII 011230	METAR WIII 011230Z 16003KT 4000 -RA BKN018 24/23 Q1012 NOSIG=
01/02/2015 13:00:00Z	 SAID31 WIII 011300	METAR WIII 011300Z 16003KT 2500 -RA BKN018 24/23 Q1012 NOSIG=
01/02/2015 13:30:00Z	 SAID31 WIII 011330	METAR WIII 011330Z 24003KT 2100 -RA BKN018 24/23 Q1013 NOSIG=
01/02/2015 14:00:00Z	 SAID31 WIII 011400	METAR WIII 011400Z 20001KT 2200 -RA BKN018 24/23 Q1013 NOSIG=
01/02/2015 14:30:00Z	 SAID31 WIII 011430	METAR WIII 011430Z 13004KT 2500 -RA BKN018 24/23 Q1013 NOSIG=
01/02/2015 15:00:00Z	 SAID31 WIII 011500	METAR WIII 011500Z 15004KT 2500 -RA BKN018 24/23 Q1013 NOSIG=
01/02/2015 15:30:00Z	 SAID31 WIII 011530	METAR WIII 011530Z 17004KT 2800 -RA BKN018 24/23 Q1013 NOSIG=
01/02/2015 16:00:00Z	 SAID31 WIII 011600	METAR WIII 011600Z 13004KT 3000 BR BKN018 24/23 Q1013 RERA NOSIG=
01/02/2015 16:30:00Z	 SAID31 WIII 011630	METAR WIII 011630Z 16005KT 3000 BR BKN018 24/23 Q1013 NOSIG=
01/02/2015 17:00:00Z	 SAID31 WIII 011700	METAR WIII 011700Z 18004KT 2800 -RA BKN018 24/23 Q1013 NOSIG=
01/02/2015 17:30:00Z	 SAID31 WIII 011730	METAR WIII 011730Z 15005KT 3000 -RA BKN018 24/22 Q1012 NOSIG=
01/02/2015 18:00:00Z	 SAID31 WIII 011800	METAR WIII 011800Z 12003KT 2500 -RA BKN018 23/23 Q1012 NOSIG=
02/02/2015 00:00:00Z	 SAID31 WIII 020000	METAR WIII 020000Z VRB02KT 2500 R25L/1100V1400 BR FEW022 24/22 Q1013 NOSIG=
02/02/2015 00:30:00Z	 SAID31 WIII 020030	METAR WIII 020030Z VRB02KT 2500 R25L/1600V2000 BR FEW022 BKN100 25/23 Q1013 NOSIG=
02/02/2015 01:00:00Z	 SAID31 WIII 020100	METAR WIII 020100Z 14003KT 2900 BR FEW022 26/23 Q1013 NOSIG=
02/02/2015 01:30:00Z	 SAID31 WIII 020130	METAR WIII 020130Z VRB03KT 4900 HZ SCT022 27/23 Q1014 NOSIG=
02/02/2015 02:00:00Z	 SAID31 WIII 020200	METAR WIII 020200Z VRB04KT 7000 SCT022 29/23 Q1013 NOSIG=
02/02/2015 03:00:00Z	 SAID31 WIII 020300	METAR WIII 020300Z 29007KT 250V340 6000 BKN021 29/23 Q1013 NOSIG=
02/02/2015 03:30:00Z	 SAID31 WIII 020330	METAR WIII 020330Z 28008KT 6000 BKN021 28/23 Q1013 NOSIG=
02/02/2015 04:00:00Z	 SAID31 WIII 020400	METAR WIII 020400Z 30012KT 270V330 7000 BKN021 29/23 Q1013 NOSIG=
02/02/2015 04:30:00Z	 SAID31 WIII 020430	METAR WIII 020430Z 30012KT 7000 BKN021 29/23 Q1013 NOSIG=
02/02/2015 05:00:00Z	 SAID31 WIII 020500	METAR WIII 020500Z 30012KT 7000 BKN021 29/23 Q1012 NOSIG=
02/02/2015 05:30:00Z	 SAID31 WIII 020530	METAR WIII 020530Z 31009KT 270V010 8000 SCT021 29/23 Q1012 NOSIG=
02/02/2015 06:00:00Z	 SAID31 WIII 020600	METAR WIII 020600Z 28009KT 8000 SCT021 30/23 Q1012 NOSIG=
02/02/2015 06:30:00Z	 SAID31 WIII 020630	METAR WIII 020630Z 31013KT 270V360 8000 SCT022 30/24 Q1011 NOSIG=
02/02/2015 07:00:00Z	 SAID31 WIII 020700	METAR WIII 020700Z 30009KT 9000 SCT022 30/24 Q1011 NOSIG=
02/02/2015 07:30:00Z	 SAID31 WIII 020730	METAR WIII 020730Z 30009KT 9000 SCT022 29/24 Q1010 NOSIG=
02/02/2015 08:00:00Z	 SAID31 WIII 020800	METAR WIII 020800Z 30008KT 280V360 8000 FEW022 SCT110 29/23 Q1010 NOSIG=
02/02/2015 08:30:00Z	 SAID31 WIII 020830	METAR WIII 020830Z 30007KT 260V330 8000 FEW022 BKN110 30/23 Q1010 NOSIG=
02/02/2015 09:00:00Z	 SAID31 WIII 020900	METAR WIII 020900Z 31007KT 280V350 8000 FEW022 BKN120 29/23 Q1010 NOSIG=
02/02/2015 09:30:00Z	 SAID31 WIII 020930	METAR WIII 020930Z 33008KT 8000 FEW022 BKN120 29/23 Q1010 NOSIG=
02/02/2015 10:00:00Z	 SAID31 WIII 021000	METAR WIII 021000Z VRB05KT 8000 FEW022 BKN120 28/23 Q1010 NOSIG=
02/02/2015 10:30:00Z	 SAID31 WIII 021030	METAR WIII 021030Z 32004KT 8000 FEW022 BKN120 28/23 Q1010 NOSIG=
02/02/2015 11:00:00Z	 SAID31 WIII 021100	METAR WIII 021100Z 32003KT 8000 FEW021 SCT110 27/23 Q1011 NOSIG=
02/02/2015 11:30:00Z	 SAID31 WIII 021130	METAR WIII 021130Z 32004KT 7000 FEW021 SCT110 27/23 Q1011 NOSIG=
02/02/2015 12:00:00Z	 SAID31 WIII 021200	METAR WIII 021200Z 36002KT 7000 FEW022 27/24 Q1012 NOSIG=
02/02/2015 12:30:00Z	 SAID31 WIII 021230	METAR WIII 021230Z 04002KT 6000 FEW022 26/24 Q1012 NOSIG=
03/02/2015 13:00:00Z	 SAID31 WIII 031300	METAR WIII 031300Z 02002KT 4000 HZ SCT020 26/24 Q1013 NOSIG=
03/02/2015 13:30:00Z	 SAID31 WIII 031330	METAR WIII 031330Z 30003KT 4000 HZ SCT020 26/23 Q1013 NOSIG=
03/02/2015 14:00:00Z	 SAID31 WIII 031400	METAR WIII 031400Z 30002KT 3300 HZ SCT022 26/24 Q1013 NOSIG=
03/02/2015 14:30:00Z	 SAID31 WIII 031430	METAR WIII 031430Z 23003KT 3300 HZ SCT022 26/24 Q1013 NOSIG=
03/02/2015 15:00:00Z	 SAID31 WIII 031500	METAR WIII 031500Z 25002KT 3700 HZ FEW022 SCT110 26/24 Q1013 NOSIG=
03/02/2015 16:00:00Z	 SAID31 WIII 031600	METAR WIII 031600Z 26003KT 2500 BR SCT022 25/23 Q1013 NOSIG=
03/02/2015 18:00:00Z	 SAID31 WIII 031800	METAR WIII 031800Z VRB02KT 2100 BR SCT022 25/23 Q1013 NOSIG=
03/02/2015 18:30:00Z	 SAID31 WIII 031830	METAR WIII 031830Z 16002KT 2900 BR SCT022 25/23 Q1012 NOSIG=
03/02/2015 19:00:00Z	 SAID31 WIII 031900	METAR WIII 031900Z 15002KT 2600 BR BKN021 25/23 Q1012 NOSIG=
03/02/2015 20:00:00Z	 SAID31 WIII 032000	METAR WIII 032000Z 17004KT 2200 BR FEW021 25/23 Q1012 NOSIG=
03/02/2015 20:30:00Z	 SAID31 WIII 032030	METAR WIII 032030Z 16005KT 2000 BR FEW020CB FEW022 25/23 Q1011 NOSIG RMK CB TO NE=
03/02/2015 21:00:00Z	 SAID31 WIII 032100	METAR WIII 032100Z 17005KT 2100 BR FEW020CB SCT022 24/23 Q1011 NOSIG RMK CB TO NE=
03/02/2015 21:30:00Z	 SAID31 WIII 032130	METAR WIII 032130Z VRB03KT 3000 BR FEW020CB SCT022 24/23 Q1011 NOSIG RMK CB TO NE=
03/02/2015 22:00:00Z	 SAID31 WIII 032200	METAR WIII 032200Z 17004KT 2000 BR FEW020CB SCT022 24/23 Q1011 NOSIG RMK CB TO NE=
03/02/2015 23:00:00Z	 SAID31 WIII 032300	METAR WIII 032300Z VRB02KT 2000 BR FEW020CB SCT022 24/23 Q1012 NOSIG RMK CB TO NE=
03/02/2015 23:30:00Z	 SAID31 WIII 032330	METAR WIII 032330Z 26002KT 1500 BR FEW020CB FEW022 SCT110 24/23 Q1012 NOSIG RMK CB TO NE=
04/02/2015 00:00:00Z	 SAID31 WIII 040000	METAR WIII 040000Z VRB03KT 1300 R25R/1300V1400 R25L/1100V1600 BR FEW020CB SCT022 24/23 Q1013 NOSIG RMK CB TO NE=
04/02/2015 00:30:00Z	 SAID31 WIII 040030	METAR WIII 040030Z 28003KT 1200 R25R/1100V1400 R25L/1600V2000 BR FEW020CB SCT022 25/24 Q1013 NOSIG RMK CB TO NE=
04/02/2015 01:00:00Z	 SAID31 WIII 040100	METAR WIII 040100Z 28003KT 1300 BR FEW020CB SCT021 26/24 Q1013 NOSIG RMK CB TO NE=
04/02/2015 01:30:00Z	 SAID31 WIII 040130	METAR WIII 040130Z 28003KT 1900 BR FEW020CB SCT021 26/24 Q1014 NOSIG RMK CB TO NE=
04/02/2015 02:00:00Z	 SAID31 WIII 040200	METAR WIII 040200Z 26004KT 3500 BR FEW020CB SCT021 27/24 Q1014 TEMPO -TSRA RMK CB TO NE=
04/02/2015 02:30:00Z	 SAID31 WIII 040230	METAR WIII 040230Z 31008KT 5000 HZ FEW020CB SCT021 28/24 Q1014 NOSIG RMK CB TO NE=
04/02/2015 03:00:00Z	 SAID31 WIII 040300	METAR WIII 040300Z 29009KT 7000 FEW020CB SCT021 28/23 Q1014 NOSIG RMK CB TO NE=
04/02/2015 03:30:00Z	 SAID31 WIII 040330	METAR WIII 040330Z 30009KT 8000 SCT020 29/23 Q1013 NOSIG=
04/02/2015 04:00:00Z	 SAID31 WIII 040400	METAR WIII 040400Z 29009KT 260V320 9000 SCT020 29/24 Q1013 NOSIG=
04/02/2015 04:30:00Z	 SAID31 WIII 040430	METAR WIII 040430Z 29011KT 9000 SCT020 28/23 Q1013 NOSIG=
04/02/2015 05:00:00Z	 SAID31 WIII 040500	METAR WIII 040500Z 29013KT 9000 SCT020 29/23 Q1013 NOSIG=
04/02/2015 05:30:00Z	 SAID31 WIII 040530	METAR WIII 040530Z 29012KT 9000 SCT020 29/24 Q1012 NOSIG=
04/02/2015 06:00:00Z	 SAID31 WIII 040600	METAR WIII 040600Z 29013KT 250V320 9000 SCT020 29/24 Q1012 NOSIG=
04/02/2015 06:30:00Z	 SAID31 WIII 040630	METAR WIII 040630Z 28010KT 9000 SCT020 29/24 Q1011 NOSIG=
04/02/2015 07:00:00Z	 SAID31 WIII 040700	METAR WIII 040700Z 30013KT 9000 SCT020 30/24 Q1010 NOSIG=
04/02/2015 07:30:00Z	 SAID31 WIII 040730	METAR WIII 040730Z 29011KT 9999 SCT020 29/23 Q1010 NOSIG=
04/02/2015 08:00:00Z	 SAID31 WIII 040800	METAR WIII 040800Z 31008KT 9999 SCT020 30/24 Q1009 NOSIG=
04/02/2015 08:30:00Z	 SAID31 WIII 040830	METAR WIII 040830Z 31008KT 9999 SCT020 29/23 Q1009 NOSIG=
04/02/2015 09:00:00Z	 SAID31 WIII 040900	METAR WIII 040900Z 31006KT 9999 FEW020 30/24 Q1009 NOSIG=
04/02/2015 09:30:00Z	 SAID31 WIII 040930	METAR WIII 040930Z 29008KT 9999 FEW020 29/23 Q1009 NOSIG=
04/02/2015 10:00:00Z	 SAID31 WIII 041000	METAR WIII 041000Z 31006KT 9999 FEW020 28/23 Q1009 NOSIG=
04/02/2015 10:30:00Z	 SAID31 WIII 041030	METAR WIII 041030Z 31008KT 290V350 8000 FEW020CB FEW021 28/23 Q1009 NOSIG RMK CB TO SW=
04/02/2015 11:00:00Z	 SAID31 WIII 041100	METAR WIII 041100Z 31008KT 7000 VCTS FEW020CB FEW021 27/23 Q1010 NOSI G RMK CB TO S AND SW=
04/02/2015 11:30:00Z	 SAID31 WIII 041130	METAR WIII 041130Z 25007KT 6000 VCTS FEW020CB SCT021 27/24 Q1011 NOSIG RMK CB TO S=
04/02/2015 12:00:00Z	 SAID31 WIII 041200	METAR WIII 041200Z 21006KT 6000 FEW020CB SCT021 26/22 Q1011 RETS NOSI G RMK CB TO SE=
04/02/2015 12:30:00Z	 SAID31 WIII 041230	METAR WIII 041230Z 22005KT 6000 FEW020CB SCT021 26/23 Q1011 NOSIG RMK CB TO SE=
04/02/2015 13:00:00Z	 SAID31 WIII 041300	METAR WIII 041300Z 20003KT 5000 HZ FEW020CB SCT021 27/23 Q1012 NOSIG RMK CB TO S=
04/02/2015 13:30:00Z	 SAID31 WIII 041330	METAR WIII 041330Z VRB02KT 4000 BR FEW020CB SCT020 27/24 Q1012 NOSIG RMK CB TO S=
04/02/2015 14:00:00Z	 SAID31 WIII 041400	METAR WIII 041400Z VRB02KT 3500 BR FEW020CB SCT020 26/24 Q1012 NOSIG RMK CB TO W=
04/02/2015 14:30:00Z	 SAID31 WIII 041430	METAR WIII 041430Z VRB02KT 2500 BR SCT020 26/24 Q1013 NOSIG=
04/02/2015 15:00:00Z	 SAID31 WIII 041500	METAR WIII 041500Z 23007KT 5000 BR FEW020CB BKN020 25/23 Q1013 NOSIG RMK CB TO S=
04/02/2015 15:30:00Z	 SAID31 WIII 041530	METAR WIII 041530Z 21005KT 6000 SCT020 26/22 Q1013 NOSIG=
04/02/2015 16:00:00Z	 SAID31 WIII 041600	METAR WIII 041600Z 16003KT 7000 SCT020 26/22 Q1013 NOSIG=
04/02/2015 16:30:00Z	 SAID31 WIII 041630	METAR WIII 041630Z VRB04KT 5000 BR FEW020CB BKN020 26/23 Q1013 NOSIG=
04/02/2015 17:00:00Z	 SAID31 WIII 041700	METAR WIII 041700Z 16004KT 4000 BR FEW020CB BKN020 25/23 Q1012 NOSIG RMK CB TO S=
04/02/2015 17:30:00Z	 SAID31 WIII 041730	METAR WIII 041730Z VRB04KT 4000 BR FEW020CB BKN020 25/23 Q1012 NOSIG RMK CB TO S=
04/02/2015 18:00:00Z	 SAID31 WIII 041800	METAR WIII 041800Z 18004KT 5000 BR FEW020CB BKN020 25/23 Q1012 NOSIG RMK CB TO S=
04/02/2015 18:30:00Z	 SAID31 WIII 041830	METAR WIII 041830Z 18007KT 5000 BR FEW020CB BKN020 25/23 Q1012 NOSIG RMK CB TO SE AND S=
04/02/2015 19:00:00Z	 SAID31 WIII 041900	METAR WIII 041900Z 15005KT 5000 BR FEW020CB BKN020 25/23 Q1011 NOSIG RMK CB TO N=
04/02/2015 19:30:00Z	 SAID31 WIII 041930	METAR WIII 041930Z 16005KT 5000 BR 2FEW020 CB BKN020 25/23 Q1011 NOS IG RMK CB TO N NE AND E=
04/02/2015 20:00:00Z	 SAID31 WIII 042000	METAR WIII 042000Z 17005KT 5000 BR FEW020CB BKN020 25/22 Q1011 NOSI G RMK CB TO NW N NE AND E=
04/02/2015 20:30:00Z	 SAID31 WIII 042030	METAR WIII 042030Z 17005KT 5000 BR FEW020CB BKN020 24/22 Q1010 NOSIG RMK CB TO NE N NW AND E=
04/02/2015 21:00:00Z	 SAID31 WIII 042100	METAR WIII 042100Z 33003KT 5000 BR FEW020CB BKN020 24/22 Q1011 NOSIG RMK CB TO NW AND NE=
04/02/2015 21:30:00Z	 SAID31 WIII 042130	METAR WIII 042130Z 30003KT 5000 BR FEW020CB BKN020 24/22 Q1011 NOSIG RMK CB TO NE AND NW=
04/02/2015 22:00:00Z	 SAID31 WIII 042200	METAR WIII 042200Z 24002KT 4000 BR FEW020CB BKN020 24/23 Q1011 NOSIG RMK CB TO NW AND N=
04/02/2015 22:30:00Z	 SAID31 WIII 042230	METAR WIII 042230Z VRB02KT 3500 BR SCT020 BKN020 25/23 Q1011 NOSIG RM K CB TO N NE AND W=
04/02/2015 23:00:00Z	 SAID31 WIII 042300	METAR WIII 042300Z 30003KT 3500 BR SCT020CB OVC022 25/23 Q1012 NOSIG RMK CB TO NW N AND NE=
04/02/2015 23:30:00Z	 SAID31 WIII 042330	METAR WIII 042330Z VRB02KT 4500 BR FEW020CB OVC020 25/23 Q1012 NOSIG RMK CB TO NW=
05/02/2015 00:00:00Z	 SAID31 WIII 050000	METAR WIII 050000Z 30006KT 5000 BR FEW020CB OVC020 25/23 Q1012 NOSIG RMK CB TO NE=
05/02/2015 00:30:00Z	 SAID31 WIII 050030	METAR WIII 050030Z VRB03KT 9999 -RA FEW018CB OVC020 24/23 Q1013 NOSIG RMK CB TO NE=
05/02/2015 01:00:00Z	 SAID31 WIII 050100	METAR WIII 050100Z VRB03KT 8000 FEW016CB BKN020 25/23 Q1013 RERA RMK CB TO W AND NE=
05/02/2015 01:30:00Z	 SAID31 WIII 050130	METAR WIII 050130Z VRB02KT 8000 FEW018CB BKN020 25/23 Q1014 NOSIG RMK CB TO W=
05/02/2015 02:00:00Z	 SAID31 WIII 050200	METAR WIII 050200Z VRB04KT 8000 SCT018 26/23 Q1014 NOSIG=
05/02/2015 02:30:00Z	 SAID31 WIII 050230	METAR WIII 050230Z 28006KT 8000 BKN020 27/24 Q1014 NOSIG=
05/02/2015 03:00:00Z	 SAID31 WIII 050300	METAR WIII 050300Z 29007KT 8000 BKN020 28/24 Q1013 NOSIG=
05/02/2015 03:30:00Z	 SAID31 WIII 050330	METAR WIII 050330Z 28006KT 250V320 8000 BKN018 28/24 Q1013 TEMPO -RA=
05/02/2015 04:00:00Z	 SAID31 WIII 050400	METAR WIII 050400Z 29006KT 260V330 8000 BKN018 29/24 Q1013 NOSIG=
05/02/2015 04:30:00Z	 SAID31 WIII 050430	METAR WIII 050430Z 28008KT 8000 BKN018 29/24 Q1012 TEMPO -RA=
05/02/2015 05:00:00Z	 SAID31 WIII 050500	METAR WIII 050500Z 29009KT 260V330 8000 FEW018CB BKN020 30/24 Q1012 N OSIG RMK CB TO SE=
05/02/2015 05:30:00Z	 SAID31 WIII 050530	METAR WIII 050530Z 29008KT 260V330 8000 FEW016CB BKN020 29/24 Q1012 N OSIG RMK CB TO SE=
05/02/2015 06:00:00Z	 SAID31 WIII 050600	METAR WIII 050600Z 30009KT 9000 FEW018CB SCT018 29/23 Q1011 NOSIG RMK CB TO SE=
05/02/2015 06:30:00Z	 SAID31 WIII 050630	METAR WIII 050630Z 30007KT 260V320 9000 SCT020 30/24 Q1011 NOSIG=
05/02/2015 07:00:00Z	 SAID31 WIII 050700	METAR WIII 050700Z 31007KT 280V360 9999 SCT020 30/24 Q1010 NOSIG=
05/02/2015 07:30:00Z	 SAID31 WIII 050730	METAR WIII 050730Z 32007KT 280V350 9999 SCT020 29/23 Q1009 NOSIG=
05/02/2015 08:00:00Z	 SAID31 WIII 050800	METAR WIII 050800Z 30008KT 260V350 9999 FEW018CB SCT020 30/24 Q1009 N OSIG RMK CB TO S=
05/02/2015 08:30:00Z	 SAID31 WIII 050830	METAR WIII 050830Z 31006KT 270V350 9999 FEW018CB SCT020 30/24 Q1009 N OSIG RMK CB TO S=
05/02/2015 09:00:00Z	 SAID31 WIII 050900	METAR WIII 050900Z 30006KT 270V340 9999 FEW018CB FEW020 30/24 Q1009 N OSIG RMK CB TO S=
05/02/2015 09:30:00Z	 SAID31 WIII 050930	METAR WIII 050930Z 33006KT 9999 FEW018CB FEW020 29/24 Q1009 NOSIG RMK CB TO S=
05/02/2015 10:00:00Z	 SAID31 WIII 051000	METAR WIII 051000Z 33005KT 9999 FEW0218CB FEW020 29/24 Q1008 NOSIG RM K CB TO S=
05/02/2015 10:30:00Z	 SAID31 WIII 051030	METAR WIII 051030Z 33005KT 9999 FEW020 28/24 Q1009 NOSIG=
05/02/2015 11:00:00Z	 SAID31 WIII 051100	METAR WIII 051100Z VRB03KT 7000 FEW020 27/24 Q1009 NOSIG=
05/02/2015 12:00:00Z	 SAID31 WIII 051200	METAR WIII 051200Z VRB02KT 6000 FEW020CB FEW020 27/24 Q1010 NOSIG RMK CB TO SW AND NW=
05/02/2015 12:30:00Z	 SAID31 WIII 051230	METAR WIII 051230Z 04002KT 6000 FEW020CB FEW020 26/24 Q1010 NOSIG RMK CB TO SW AND NW=
05/02/2015 13:00:00Z	 SAID31 WIII 051300	METAR WIII 051300Z 03004KT 7000 FEW020CB FEW021 26/24 Q1011 NOSIG RMK CB TO SW=
05/02/2015 13:30:00Z	 SAID31 WIII 051330	METAR WIII 051330Z 31004KT 5000 BR FEW020CB FEW021 26/24 Q1011 NOSIG RMK CB TO SW=
05/02/2015 14:00:00Z	 SAID31 WIII 051400	METAR WIII 051400Z 33002KT 4500 BR FEW020CB FEW021 26/24 Q1011 NOSIG RMK CB TO SW=
05/02/2015 14:30:00Z	 SAID31 WIII 051430	METAR WIII 051430Z 33002KT 5000 BR FEW020CB FEW021 26/24 Q1012 NOSIG RMK CB TO W=
05/02/2015 15:00:00Z	 SAID31 WIII 051500	METAR WIII 051500Z 36005KT 5000 BR FEW020CB FEW021 26/24 Q1013 NOSIG RMK CB TO W=
05/02/2015 15:30:00Z	 SAID31 WIII 051530	METAR WIII 051530Z 31002KT 6000 FEW020CB SCT021 26/24 Q1013 NOSIG RMK CB TO S=
05/02/2015 16:00:00Z	 SAID31 WIII 051600	METAR WIII 051600Z 33005KT 6000 FEW020CB SCT021 27/24 Q1013 TEMPO FM1 630 TL1715 4000 TSRA RMK CB TO W=
05/02/2015 16:30:00Z	 SAID31 WIII 051630	METAR WIII 051630Z 31007KT 6000 FEW020CB SCT021 26/24 Q1013 TEMPO TL1 715 4000 TSRA RMK CB TO W=
05/02/2015 17:00:00Z	 SAID31 WIII 051700	METAR WIII 051700Z 26012KT 5000 -RA FEW020CB SCT021 25/23 Q1013 NOSIG RMK CB TO SW=
05/02/2015 17:30:00Z	 SAID31 WIII 051730	METAR WIII 051730Z 25010KT 5000 VCTS FEW020CB SCT021 24/22 Q1012 NOSI G RMK CB TO N AND SE=
05/02/2015 18:00:00Z	 SAID31 WIII 051800	METAR WIII 051800Z 25009KT 5000 VCTS FEW020CB SCT021 24/22 Q1012 NOSI G RMK CB TO NE AND SW=
05/02/2015 18:30:00Z	 SAID31 WIII 051830	METAR WIII 051830Z 24005KT 5000 -TSRA FEW019CB SCT020 24/22 Q1012 NOS IG RMK CB TO NE=
05/02/2015 19:00:00Z	 SAID31 WIII 051900	METAR WIII 051900Z 23009KT 4500 -RA FEW019CB SCT020 24/22 Q1012 RETS NOSIG RMK CB TO N AND E=
05/02/2015 19:30:00Z	 SAID31 WIII 051930	METAR WIII 051930Z 23008KT 5000 -TSRA FEW019CB SCT020 23/22 Q1012 NOS IG RMK CB TO NE=
05/02/2015 20:00:00Z	 SAID31 WIII 052000	METAR WIII 052000Z 22006KT 4000 VCTS FEW019CB SCT020 23/22 Q1012 RERA NOSIG RMK CB TO E=
05/02/2015 20:30:00Z	 SAID31 WIII 052030	METAR WIII 052030Z 22007KT 4000 VCTS FEW019CB SCT020 23/22 Q1011 NOSI G RMK CB TO NE=
05/02/2015 21:00:00Z	 SAID31 WIII 052100	METAR WIII 052100Z 21008KT 4000 VCTS FEW019CB SCT020 24/22 Q1011 NOSI G RMK CB TO NE=
05/02/2015 21:30:00Z	 SAID31 WIII 052130	METAR WIII 052130Z 24004KT 3000 BR FEW019CB SCT020 24/22 Q1012 RETS N OSIG RMK CB TO E=
05/02/2015 22:00:00Z	 SAID31 WIII 052200	METAR WIII 052200Z 23004KT 4500 BR FEW019CB SCT020 24/22 1012 NOSIG R MK CB TO NE=
05/02/2015 22:30:00Z	 SAID31 WIII 052230	METAR WIII 052230Z 22007KT 4000 BR FEW019CB SCT020 24/22 Q1012 NOSIG RMK CB TO NE=
05/02/2015 23:00:00Z	 SAID31 WIII 052300	METAR WIII 052300Z 24005KT 3700 BR FEW019CB SCT020 24/22 Q1012 NOSIG RMK CB TO NE=
05/02/2015 23:30:00Z	 SAID31 WIII 052330	METAR WIII 052330Z 23007KT 4000 BR FEW019CB SCT020 24/23 Q1012 NOSIG RMK CB TO NE=
06/02/2015 00:00:00Z	 SAID31 WIII 060000	METAR WIII 060000Z 24007KT 3700 VCTS FEW019CB SCT020 24/23 Q1013 NOSI G RMK CB TO NE=
06/02/2015 00:30:00Z	 SAID31 WIII 060030	METAR WIII 060030Z 31003KT 5000 VCTS FEW019CB BKN020 25/23 Q1013 NOSI G RMK CB TO NE=
06/02/2015 01:00:00Z	 SAID31 WIII 060100	METAR WIII 060100Z 31007KT 6000 VCTS FEW019CB BKN020 25/23 Q1014 NOSI G RMK CB TO N AND NE=
06/02/2015 01:30:00Z	 SAID31 WIII 060130	METAR WIII 060130Z 29011KT 6000 FEW019CB BKN020 25/23 Q1014 TEMPO FM0 145 3000 RA RMK CB TO N AND NE=
06/02/2015 02:00:00Z	 SAID31 WIII 060200	METAR WIII 060200Z 30015KT 6000 VCTS FEW019CB BKN020 25/23 Q1014 NOSI G RMK CB TO NW AND NE=
06/02/2015 02:30:00Z	 SAID31 WIII 060230	METAR WIII 060230Z 29019KT 2500 RA FEW018CB BKN019 24/22 Q1014 TEMPO TL0330 2000 RA RMK CB TO NW AND NE=
06/02/2015 03:00:00Z	 SAID31 WIII 060300	METAR WIII 060300Z 27018KT 5000 -RA FEW019CB SCT020 24/22 Q1014 NOSIG RMK CB TO NE=
06/02/2015 03:30:00Z	 SAID31 WIII 060330	METAR WIII 060330Z 26015KT 6000 SCT020 25/23 Q1014 RERA NOSIG=
06/02/2015 04:00:00Z	 SAID31 WIII 060400	METAR WIII 060400Z 28012KT 250V310 8000 SCT020 27/24 Q1013 NOSIG=
06/02/2015 04:30:00Z	 SAID31 WIII 060430	METAR WIII 060430Z 28012KT 9000 SCT019 28/24 Q1013 NOSIG=
06/02/2015 05:00:00Z	 SAID31 WIII 060500	METAR WIII 060500Z 29013KT 9000 SCT019 29/24 Q1013 NOSIG=
06/02/2015 05:30:00Z	 SAID31 WIII 060530	METAR WIII 060530Z 30012KT 9000 FEW019CB SCT019 29/24 Q1012 NOSIG RMK CB TO E=
06/02/2015 06:00:00Z	 SAID31 WIII 060600	METAR WIII 060600Z 31012KT 280V350 9000 SCT019 29/23 Q1012 NOSIG=
06/02/2015 06:30:00Z	 SAID31 WIII 060630	METAR WIII 060630Z 32014KT 280V350 9000 SCT020 29/24 Q1011 NOSIG=
06/02/2015 07:00:00Z	 SAID31 WIII 060700	METAR WIII 060700Z 31012KT 270V340 9000 FEW019CB SCT020 30/23 Q1010 N OSIG RMK CB TO S=
06/02/2015 07:30:00Z	 SAID31 WIII 060730	METAR WIII 060730Z 32012KT 280V350 9999 FEW019CB SCT020 30/23 Q1010 N OSIG RMK CB TO S=
06/02/2015 08:00:00Z	 SAID31 WIII 060800	METAR WIII 060800Z 31015KT 9999 FEW019CB SCT021 29/23 Q1010 NOSIG RMK CB TO S=
06/02/2015 08:30:00Z	 SAID31 WIII 060830	METAR WIII 060830Z 31009KT 280V350 9000 FEW019CB FEW020 29/23 Q1009 N OSIG RMK CB TO S=
06/02/2015 09:00:00Z	 SAID31 WIII 060900	METAR WIII 060900Z 31008KT 9000 FEW019CB FEW021 29/23 Q1009 NOSIG RMK CB TO S=
06/02/2015 09:30:00Z	 SAID31 WIII 060930	METAR WIII 060930Z 32006KT 280V010 9999 FEW019CB FEW021 29/23 Q1009 N OSIG RMK CB TO S=
06/02/2015 10:00:00Z	 SAID31 WIII 061000	METAR WIII 061000Z 31008KT 290V350 9999 FEW019CB FEW021 29/23 Q1010 N OSIG RMK CB TO S AND SW=
06/02/2015 10:30:00Z	 SAID31 WIII 061030	METAR WIII 061030Z 31005KT 9000 FEW019CB FEW020 28/23 Q1010 NOSIG RMK CB TO S AND SW=
06/02/2015 11:00:00Z	 SAID31 WIII 061100	METAR WIII 061100Z 23009KT 7000 FEW019CB SCT020 27/23 Q1011 NOSIG RMK CB TO SW=
06/02/2015 11:30:00Z	 SAID31 WIII 061130	METAR WIII 061130Z 18011G22KT 6000 FEW018CB BKN019 25/22 Q1012 TEMPO FM1140 4000 RA RMK CB TO SW=
06/02/2015 12:00:00Z	 SAID31 WIII 061200	METAR WIII 061200Z 20018KT 4500 -RA FEW018CB BKN019 24/21 Q1012 NOSIG RMK CB TO SW=
06/02/2015 12:00:00Z	 SAID31 WIII 061200 CCA	METAR COR WIII 061200Z 20018KT 4500 -RA FEW018CB BKN019 24/21 Q1012 T EMPO FM1200 2000 RA RMK CB TO SW=
06/02/2015 12:30:00Z	 SAID31 WIII 061230	METAR WIII 061230Z 22012KT 2200 RA FEW018CB BKN23/21 Q1012 NOSIG RMK CB TO W=
06/02/2015 12:30:00Z	 SAID31 WIII 061230 CCA	METAR COR WIII 061230Z 22012KT 2200 RA FEW018CB BKN19 23/21 Q1012 NOS IG RMK CB TO W=
06/02/2015 12:30:00Z	 SAID31 WIII 061230 CCB	METAR COR WIII 061230Z 22012KT 2200 RA FEW018CB BKN019 23/21 Q1012 NO SIG RMK CB TO W=
06/02/2015 13:00:00Z	 SAID31 WIII 061300	METAR WIII 061300Z 23009KT 6000 -RA FEW019CB SCT021 23/22 Q1012 NOSIG RMK CB TO NW=
06/02/2015 13:30:00Z	 SAID31 WIII 061330	METAR WIII 061330Z 20007KT 5000 VCTS FEW018CB SCT020 24/22 Q1012 NOSI G RMK CB TO NW=
06/02/2015 14:00:00Z	 SAID31 WIII 061400	METAR WIII 061400Z 18005KT 6000 FEW018CB SCT020 24/22 Q1013 NOSIG RMK CB TO NW=
06/02/2015 14:30:00Z	 SAID31 WIII 061430	METAR WIII 061430Z 17004KT 6000 FEW018CB SCT020 24/22 Q1013 NOSIG RMK CB TO NW=
06/02/2015 15:00:00Z	 SAID31 WIII 061500	METAR WIII 061500Z 19004KT 6000 FEW018CB SCT020 24/22 Q1013 NOSIG RMK CB TO N=
06/02/2015 15:30:00Z	 SAID31 WIII 061530	METAR WIII 061530Z 29002KT 6000 FEW019CB FEW020 24/22 Q1013 NOSIG RMK CB TO N=
06/02/2015 16:00:00Z	 SAID31 WIII 061600	METAR WIII 061600Z 30003KT 4300 BR FEW019CB FEW020 24/22 Q101 NOSIG R MK CB TO NE=
06/02/2015 16:30:00Z	 SAID31 WIII 061630	METAR WIII 061630Z AUTO 29004KT 6000 23/22 Q1013=
06/02/2015 17:00:00Z	 SAID31 WIII 061700	METAR WIII 061700Z AUTO 27003KT 7000 23/22 Q1013=
06/02/2015 17:30:00Z	 SAID31 WIII 061730	METAR WIII 061730Z 24003KT 5000 BR FEW019CB FEW020 23/22 Q1013 NOSIG RMK CB TO E=
06/02/2015 18:00:00Z	 SAID31 WIII 061800	METAR WIII 061800Z 23004KT 2800 BR FEW018CB FEW020 23/22 Q1012 NOSIG RMK CB TO E=
06/02/2015 18:30:00Z	 SAID31 WIII 061830	METAR WIII 061830Z 22005KT 4400 BR FEW019CB FEW020 23/22 Q1012 NOSIG RMK CB TO E=
06/02/2015 19:00:00Z	 SAID31 WIII 061900	METAR WIII 061900Z 24004KT 5000 BR FEW019CB FEW020 23/23 Q1012 NOSIG RMK CB TO E=
06/02/2015 19:30:00Z	 SAID31 WIII 061930	METAR WIII 061930Z VRB02KT 3000 BR FEW019CB FEW02024/23 Q1012 NOSIG R MK CB TO NE=
06/02/2015 20:00:00Z	 SAID31 WIII 062000	METAR WIII 062000Z VRB02KT 5000 BR FEW019CB FEW020 24/23 Q1011 NOSIG RMK CB TO NE=
06/02/2015 20:30:00Z	 SAID31 WIII 062030	METAR WIII 062030Z 28004KT 6000 FEW020 24/23 Q1011 NOSIG=
06/02/2015 21:00:00Z	 SAID31 WIII 062100	METAR WIII 062100Z 26004KT 6000 FEW020 24/23 Q1011 NOSIG=
06/02/2015 21:30:00Z	 SAID31 WIII 062130	METAR WIII 062130Z 23005KT 4500 BR FEW020 24/23 Q1011 NOSIG=
06/02/2015 22:00:00Z	 SAID31 WIII 062200	METAR WIII 062200Z 25003KT 6000 FEW020 24/23 Q1011 NOSIG=
06/02/2015 22:30:00Z	 SAID31 WIII 062230	METAR WIII 062230Z 23003KT 6000 FEW020 24/23 Q1011 NOSIG=
06/02/2015 23:00:00Z	 SAID31 WIII 062300	METAR WIII 062300Z VRB02KT 7000 FEW020 24/23 Q1011 NOSIG=
06/02/2015 23:30:00Z	 SAID31 WIII 062330	METAR WIII 062330Z 24004KT 7000 FEW020 24/23 Q1012 NOSIG=
07/02/2015 00:00:00Z	 SAID31 WIII 070000	METAR WIII 070000Z 25005KT 7000 FEW020 25/23 Q1012 NOSIG=
07/02/2015 00:30:00Z	 SAID31 WIII 070030	METAR WIII 070030Z 25004KT 7000 SCT020 26/23 Q1012 NOSIG=
07/02/2015 01:00:00Z	 SAID31 WIII 070100	METAR WIII 070100Z 24006KT 7000 SCT020 26/24 Q1013 NOSIG=
07/02/2015 01:30:00Z	 SAID31 WIII 070130	METAR WIII 070130Z 24008KT 8000 SCT020 27/24 Q1013 NOSIG=
07/02/2015 02:00:00Z	 SAID31 WIII 070200	METAR WIII 070200Z 26008KT 8000 SCT020 28/24 Q1012 NOSIG=
07/02/2015 02:30:00Z	 SAID31 WIII 070230	METAR WIII 070230Z 28009KT 8000 SCT020 29/24 Q1012 NOSIG=
07/02/2015 03:00:00Z	 SAID31 WIII 070300	METAR WIII 070300Z 28011KT 8000 FEW020CB SCT021 28/24 Q1012 NOSIG RMK CB TO E=
07/02/2015 03:30:00Z	 SAID31 WIII 070330	METAR WIII 070330Z 28010KT 8000 FEW020CB SCT021 29/24 Q1012 NOSIG RMK CB TO E=
07/02/2015 04:00:00Z	 SAID31 WIII 070400	METAR WIII 070400Z 29009KT 8000 SCT020 29/23 Q1012 NOSIG=
07/02/2015 04:30:00Z	 SAID31 WIII 070430	METAR WIII 070430Z 29014KT 8000 FEW020CB SCT021 30/24 Q1012 NOSIG RMK CB TO E=
07/02/2015 05:00:00Z	 SAID31 WIII 070500	METAR WIII 070500Z 30012KT 8000 SCT020 29/24 Q1011 NOSIG=
07/02/2015 05:30:00Z	 SAID31 WIII 070530	METAR WIII 070530Z 31012KT 9000 SCT020 29/23 Q1011 NOSIG=
07/02/2015 06:00:00Z	 SAID31 WIII 070600	METAR WIII 070600Z 30010KT 9999 SCT020 30/23 Q1010 NOSIG=
07/02/2015 06:30:00Z	 SAID31 WIII 070630	METAR WIII 070630Z 31010KT 9000 FEW020CB SCT021 29/24 Q1010 NOSIG RMK CB TO SW=
07/02/2015 07:00:00Z	 SAID31 WIII 070700	METAR WIII 070700Z 30011KT 9000 FEW020CB SCT021 30/24 Q1009 NOSIG RMK CB TO SW=
07/02/2015 07:30:00Z	 SAID31 WIII 070730	METAR WIII 070730Z 30009KT 9000 FEW020CB FEW021 30/24 Q1009 NOSIG RMK CB TO SW=
07/02/2015 08:00:00Z	 SAID31 WIII 070800	METAR WIII 070800Z 30013KT 9999 FEW020CB FEW021 30/24 Q1008 NOSIG RMK CB TO SW=
07/02/2015 08:30:00Z	 SAID31 WIII 070830	METAR WIII 070830Z 30013KT 9999 FEW020CB FEW021 29/24 Q1008 NOSIG RMK CB TO SW=
07/02/2015 09:00:00Z	 SAID31 WIII 070900	METAR WIII 070900Z 30013KT 9999 FEW020CB FEW021 30/24 Q1008 NOSIG RMK CB TO SE=
07/02/2015 09:30:00Z	 SAID31 WIII 070930	METAR WIII 070930Z 29011KT 9000 FEW020CB SCT021 28/24 Q1009 NOSIG RMK CB TO SE AND W=
07/02/2015 10:00:00Z	 SAID31 WIII 071000	METAR WIII 071000Z 24010KT 6000 -TSRA FEW019CB SCT020 26/23 Q1009 NOS IG RMK CB TO SE AND W=
07/02/2015 10:30:00Z	 SAID31 WIII 071030	METAR WIII 071030Z 25008KT 7000 -RA FEW019CB SCT020 25/22 Q1010 RETS NOSIG RMK CB TO SE=
07/02/2015 11:00:00Z	 SAID31 WIII 071100	METAR WIII 071100Z 25006KT 7000 FEW019CB SCT020 25/22 Q1010 NOSIG RMK CB TO SE=
07/02/2015 11:30:00Z	 SAID31 WIII 071130	METAR WIII 071130Z 23005KT 7000 FEW019CB SCT020 25/22 Q1011 NOSIG RMK CB TO E=
07/02/2015 12:00:00Z	 SAID31 WIII 071200	METAR WIII 071200Z 28004KT 7000 FEW019CB SCT020 25/22 Q1011 NOSIG RMK CB TO NW=
07/02/2015 12:30:00Z	 SAID31 WIII 071230	METAR WIII 071230Z 25005KT 7000 FEW019CB SCT020 25/22 Q1011 NOSIG RMK CB TO E=
07/02/2015 13:00:00Z	 SAID31 WIII 071300	METAR WIII 071300Z 24007KT 7000 FEW019CB SCT020 25/23 Q1012 NOSIG RMK CB TO N=
07/02/2015 13:30:00Z	 SAID31 WIII 071330	METAR WIII 071330Z 23007KT 3500 RA FEW019CB BKN020 26/23 Q1012 TEMPO FM0330 3000 RA RMK CB TO N=
07/02/2015 14:00:00Z	 SAID31 WIII 071400	METAR WIII 071400Z 18007KT 150V210 3000 -RA FEW019CB SCT020 25/23 Q10 13 NOSIG RMK CB TO NE=
07/02/2015 14:30:00Z	 SAID31 WIII 071430	METAR WIII 071430Z VRB05KT 6000 SCT021 25/23 Q1013 RERA NOSIG=
07/02/2015 15:00:00Z	 SAID31 WIII 071500	METAR WIII 071500Z VRB04KT 6000 TS FEW019CB SCT020 25/23 Q1013 NOSIG RMK CB TO NE=
07/02/2015 15:30:00Z	 SAID31 WIII 071530	METAR WIII 071530Z 21007KT 5000 -TSRA FEW019CB SCT020 25/23 Q1013 NOS IG RMK CB TO N=
07/02/2015 16:00:00Z	 SAID31 WIII 071600	METAR WIII 071600Z 24006KT 5000 -TSRA FEW019CB SCT020 25/23 Q1013 NOS IG RMK CB TO N=
07/02/2015 16:30:00Z	 SAID31 WIII 071630	METAR WIII 071630Z VRB03KT 7000 FEW019CB SCT020 25/23 Q1013 NOSIG RMK CB TO N=
07/02/2015 17:00:00Z	 SAID31 WIII 071700	METAR WIII 071700Z 31004KT 7000 FEW019CB SCT020 25/23 Q1012 NOSIG RMK CB TO NE=
07/02/2015 17:30:00Z	 SAID31 WIII 071730	METAR WIII 071730Z VRB03KT 6000 TS FEW018CB SCT020 25/23 Q1012 NOSIG RMK CB TO N=
07/02/2015 18:00:00Z	 SAID31 WIII 071800	METAR WIII 071800Z 26003KT 4400 -RA FEW018CB SCT020 BKN090 24/23 Q101 2 RETS NOSIG RMK CB TO N=
07/02/2015 18:30:00Z	 SAID31 WIII 071830	METAR WIII 071830Z 27003KT 3300 -RA FEW018CB SCT020 BKN090 24/23 Q101 2 TEMPO FM1830 2000 RA RMK CB TO N AND NE=
07/02/2015 19:00:00Z	 SAID31 WIII 071900	METAR WIII 071900Z 30004KT 2700 RA FEW018CB SCT019 BKN090 24/23 Q1012 NOSIG RMK CB TO N AND NE=
07/02/2015 19:30:00Z	 SAID31 WIII 071930	METAR WIII 071930Z 29003KT 3600 -RA FEW018CB BKN020 24/23 Q1011 NOSIG RMK CB TO N=
07/02/2015 20:00:00Z	 SAID31 WIII 072000	METAR WIII 072000Z VRB03KT 4000 -RA SCT020 24/23 Q1011 NOSIG=
07/02/2015 20:30:00Z	 SAID31 WIII 072030	METAR WIII 072030Z VRB02KT 5000 -RA SCT020 24/23 Q1011 NOSIG=
07/02/2015 21:00:00Z	 SAID31 WIII 072100	METAR WIII 072100Z 24005KT 4000 DZ SCT020 24/23 Q1011 NOSIG=
07/02/2015 21:30:00Z	 SAID31 WIII 072130	METAR WIII 072130Z 23005KT 5000 -RA SCT020 24/23 Q1012 NOSIG=
07/02/2015 22:00:00Z	 SAID31 WIII 072200	METAR WIII 072200Z 25005KT 6000 -DZ SCT020 24/23 Q1012 NOSIG=
07/02/2015 22:30:00Z	 SAID31 WIII 072230	METAR WIII 072230Z 24006KT 6000 DZ SCT020 24/23 Q1012 NOSIG=
07/02/2015 22:30:00Z	 SAID31 WIII 072230 CCA	METAR COR WIII 072230Z 24006KT 6000 DZ FEW019CB SCT020 24/23 Q1012 NO SIG RMK CB TO E=
07/02/2015 23:00:00Z	 SAID31 WIII 072300	METAR WIII 072300Z 25004KT 7000 FEW019CB SCT020 23/22 Q1012 NOSIG RMK CB TO E=
07/02/2015 23:30:00Z	 SAID31 WIII 072330	METAR WIII 072330Z 25004KT 7000 FEW019CB SCT021 23/22 Q1012 NOSIG RMK CB TO E=
08/02/2015 00:00:00Z	 SAID31 WIII 080000	METAR WIII 080000Z 24007KT 7000 -RA FEW019CB SCT021 23/22 Q1012 NOSIG RMK CB TO E=
08/02/2015 00:30:00Z	 SAID31 WIII 080030	METAR WIII 080030Z 24005KT 6000 -RA SCT019 24/23 Q1013 NOSIG=
08/02/2015 01:00:00Z	 SAID31 WIII 080100	METAR WIII 080100Z 24005KT 6000 -RA SCT019 24/23 Q1013 NOSIG=
08/02/2015 01:30:00Z	 SAID31 WIII 080130	METAR WIII 080130Z 25004KT 5000 -RA SCT019 24/23 Q1013 NOSIG=
08/02/2015 02:00:00Z	 SAID31 WIII 080200	METAR WIII 080200Z 31003KT 5000 -RA SCT019 24/23 Q1013 NOSIG =
08/02/2015 02:30:00Z	 SAID31 WIII 080230	METAR WIII 080230Z 30003KT 4000 -RA SCT019 24/23 Q1013 NOSIG=
08/02/2015 03:00:00Z	 SAID31 WIII 080300	METAR WIII 080300Z VRB03KT 5000 -RA SCT019 25/24 Q1013 NOSIG=
08/02/2015 03:00:00Z	 SAID31 WIII 080300 CCA	METAR COR WIII 080300Z VRB03KT 5000 -RA SCT019 25/24 Q1013 NOSIG=
08/02/2015 03:30:00Z	 SAID31 WIII 080330	METAR WIII 080330Z 32003KT 6000 -RA SCT019 26/24 Q1013 NOSIG=
08/02/2015 04:00:00Z	 SAID31 WIII 080400	METAR WIII 080400Z 30006KT 5000 -RA SCT019 27/24 Q1013 NOSIG=
08/02/2015 04:30:00Z	 SAID31 WIII 080430	METAR WIII 080430Z 30006KT 6000 -RA SCT019 28/24 Q1012 NOSIG=
08/02/2015 05:00:00Z	 SAID31 WIII 080500	METAR WIII 080500Z 30008KT 7000 -RA SCT019 28/23 Q1012 NOSIG=
08/02/2015 05:30:00Z	 SAID31 WIII 080530	METAR WIII 080530Z 29009KT 7000 -RA FEW019CB SCT020 28/23 Q1011 NOSIG RMK CB TO SW=
08/02/2015 06:00:00Z	 SAID31 WIII 080600	METAR WIII 080600Z 30010KT 7000 FEW018CB SCT020 29/24 Q1011 RERA NOSI G RMK CB TO SW=
08/02/2015 06:30:00Z	 SAID31 WIII 080630	METAR WIII 080630Z 30009KT 8000 FEW019CB SCT020 30/24 Q1010 NOSIG RMK CB TO SW=
08/02/2015 07:00:00Z	 SAID31 WIII 080700	METAR WIII 080700Z 30008KT 9000 FEW019CB SCT020 29/24 Q1010 NOSIG RMK CB TO S=
08/02/2015 07:30:00Z	 SAID31 WIII 080730	METAR WIII 080730Z 30007KT 9000 FEW019CB SCT020 30/24 Q1009 NOSIG RMK CB TO S AND SW=
08/02/2015 08:00:00Z	 SAID31 WIII 080800	METAR WIII 080800Z 32010KT 280V360 9000 FEW019CB SCT020 30/24 Q1009 N OSIG RMK CB TO SW AND S=
08/02/2015 08:30:00Z	 SAID31 WIII 080830	METAR WIII 080830Z 31010KT 9000 FEW019CB SCT020 29/24 Q1009 NOSIG RMK CB TO S=
08/02/2015 09:00:00Z	 SAID31 WIII 080900	METAR WIII 080900Z 32010KT 9000 FEW019CB SCT020 29/23 Q1009 NOSIG RMK CB TO S=
08/02/2015 09:30:00Z	 SAID31 WIII 080930	METAR WIII 080930Z 36005KT 9000 FEW019CB SCT020 28/23 Q1009 NOSIG RMK CB TO S=
08/02/2015 10:00:00Z	 SAID31 WIII 081000	METAR WIII 081000Z 34004KT 9000 SCT020 28/24 Q1009 NOSIG=
08/02/2015 10:30:00Z	 SAID31 WIII 081030	METAR WIII 081030Z 33004KT 9000 FEW019CB SCT020 27/24 Q1009 NOSIG RMK CB TO W=
08/02/2015 11:00:00Z	 SAID31 WIII 081100	METAR WIII 081100Z 27005KT 5000 -RA FEW018CB SCT020 27/24 Q1010 NOSIG RMK CB TO W=
08/02/2015 11:30:00Z	 SAID31 WIII 081130	METAR WIII 081130Z 25003KT 6000 FEW018CB SCT020 27/24 Q1010 RERA NOSI G RMK CB TO NW=
08/02/2015 12:00:00Z	 SAID31 WIII 081200	METAR WIII 081200Z 23003KT 6000 SCT020 26/24 Q1010 NOSIG=
08/02/2015 12:30:00Z	 SAID31 WIII 081230	METAR WIII 081230Z 19004KT 6000 SCT020 26/24 Q1011 NOSIG=
08/02/2015 13:00:00Z	 SAID31 WIII 081300	METAR WIII 081300Z VRB03KT 6000 SCT020 25/23 Q1012 NOSIG=
08/02/2015 13:30:00Z	 SAID31 WIII 081330	METAR WIII 081330Z 19004KT 6000 SCT020 25/23 Q1012 NOSIG=
08/02/2015 14:00:00Z	 SAID31 WIII 081400	METAR WIII 081400Z VRB04KT 6000 SCT020 25/23 Q1012 NOSIG=
08/02/2015 15:00:00Z	 SAID31 WIII 081500	METAR WIII 081500Z 26004KT 5000 FEW018CB SCT020 -SHRA 25/23 Q1013 NOS IG RMK CB TO NW =
08/02/2015 15:30:00Z	 SAID31 WIII 081530	METAR WIII 081530Z VRB03KT 5000 -SHRA FEW018CB SCT020 25/24 Q1013 NOS IG RMK CB TO NW=
08/02/2015 16:00:00Z	 SAID31 WIII 081600	METAR WIII 081600Z VRB05KT 5000 TSRA FEW018CB SCT019 25/23 Q1013 NOSI G RMK CB TO W=
08/02/2015 16:30:00Z	 SAID31 WIII 081630	METAR WIII 081630Z VRB02KT 5000 VCTSRA FEW018CB SCT018 24/23 Q1013 NO SIG RMK CB TO W=
08/02/2015 17:00:00Z	 SAID31 WIII 081700	METAR WIII 081700Z VRB04KT 5000 RA FEW018CB SCT018 25/23 Q1012 NOSIG RMK CB TO W=
08/02/2015 17:30:00Z	 SAID31 WIII 081730	METAR WIII 081730Z 23017KT 3000 R25R/1200V1600 R25L/1300VP2000 +TSRA FEW017CB SCT017 24/23 Q1012 NOSIG RMK CB TO NW=
08/02/2015 18:00:00Z	 SAID31 WIII 081800	METAR WIII 081800Z 18006KT 150V240 3000 R25L/1100VP2000 +TSRA FEW017C B SCT017 23/23 Q1012 NOSIG RMK CB ALL RWY=
08/02/2015 18:30:00Z	 SAID31 WIII 081830	METAR WIII 081830Z VRB02KT 3000 +TSRA FEW016CB SCT016 23/23 Q1012 NOS IG RMK CB ALL RWY=
08/02/2015 19:00:00Z	 SAID31 WIII 081900	METAR WIII 081900Z 23003KT 3000 R25R/1200VP2000 TSRA FEW017CB SCT017 23/23 Q1011 NOSIG RMK CB TO NE=
08/02/2015 19:30:00Z	 SAID31 WIII 081930	METAR WIII 081930Z 25006KT 220V310 3000 R25R/0900V1200 R25L/1000V1700 +TSRA FEW017CB SCT017 23/23 Q1012 NOSIG RMK CB ALL RWY=
08/02/2015 20:30:00Z	 SAID31 WIII 082030	METAR WIII 082030Z 24004KT 4000 TSRA FEW017CB SCT017 23/23 Q1011 NOSI G RMK CB TO E=
08/02/2015 21:00:00Z	 SAID31 WIII 082100	METAR WIII 082100Z VRB02KT 4000 TSRA FEW017CB SCT017 24/23 Q1011 NOSI G RMK CB TO E=
08/02/2015 21:30:00Z	 SAID31 WIII 082130	METAR WIII 082130Z 18005KT 4000 -TSRA FEW017CB SCT017 24/23 Q1012 NOS IG RMK CB TO W=
08/02/2015 22:00:00Z	 SAID31 WIII 082200	METAR WIII 082200Z 17004KT 4000 -RA FEW018CB SCT018 24/23 Q1012 NOSIG RETS RMK CB TO SW=
08/02/2015 22:30:00Z	 SAID31 WIII 082230	METAR WIII 082230Z 20008KT 5000 -RA FEW018 SCT018 24/23 Q1012 NOSIG R MK CB TOSW=
08/02/2015 23:00:00Z	 SAID31 WIII 082300	METAR WIII 082300Z 23009KT 4000 RA FEW017CB SCT017 23/23 Q1012 NOSIG RMK CB TO NW=
08/02/2015 23:30:00Z	 SAID31 WIII 082330	METAR WIII 082330Z 28007KT 3200 TSRA FEW016CB SCT016 23/22 Q1012 NOSI G RMK CB TO NW=
09/02/2015 00:00:00Z	 SAID31 WIII 090000	METAR WIII 090000Z VRB04KT 3000 TSRA FEW016CB SCT016 23/23 Q1012 NOS IG RMK CB TO E=
09/02/2015 00:30:00Z	 SAID31 WIII 090030	METAR WIII 090030Z 26015KT 3000 TSRA FEW016CB SCT016 24/23 Q1013 NOSI G RMK CB TO E=
09/02/2015 01:00:00Z	 SAID31 WIII 090100	METAR WIII 090100Z 23008KT 200V270 3000 RA FEW016CB SCT016 24/23 Q101 3 NOSIG RMK CB TO E=
09/02/2015 01:30:00Z	 SAID31 WIII 090130	METAR WIII 090130Z 26012KT 2500 RA FEW016CB SCT016 24/23 Q1013 NOSIG RMK CB TO E=
09/02/2015 02:00:00Z	 SAID31 WIII 090200	METAR WIII 090200Z VRB02KT 3000 RA BR FEW016CB BKN018 OVC060 24/24 Q1 014 NOSIG RMK CB TO E=
09/02/2015 02:30:00Z	 SAID31 WIII 090230	METAR WIII 090230Z 22004KT 4000 -RA BR FEW016CB OVC020 24/24 Q1013 NO SIG RMK CB TO E=
09/02/2015 03:00:00Z	 SAID31 WIII 090300	METAR WIII 090300Z 23006KT 4000 -RA BR SCT016 OVC022 24/24 Q1013 NOSI G=
09/02/2015 03:30:00Z	 SAID31 WIII 090330	METAR WIII 090330Z 24005KT 5000 VCTS -RA BR FEW016CB OVC022 24/24 Q10 13 NOSIG RMK CB TO NE AND E=
09/02/2015 04:00:00Z	 SAID31 WIII 090400	METAR WIII 090400Z VRB04KT 5000 -RA BR FEW016CB OVC022 25/24 Q1013 NO SIG RMK CB TO E AND SE=
09/02/2015 04:30:00Z	 SAID31 WIII 090430	METAR WIII 090430Z VRB02KT 5000 -RA BR SCT016 OVC022 25/24 Q1013 NOSIG=
09/02/2015 05:00:00Z	 SAID31 WIII 090500	METAR WIII 090500Z VRB03KT 5000 RA FEW016CB SCT018 OVC022 25/24 Q1012 NOSIG RMK CB TO SE=
09/02/2015 05:30:00Z	 SAID31 WIII 090530	METAR WIII 090530Z VRB02KT 5000 RA BR OVC022 25/24 Q1012 NOSIG=
09/02/2015 06:00:00Z	 SAID31 WIII 090600	METAR WIII 090600Z VRB04KT 5000 RA FEW016CB OVC022 24/23 Q1012 NOSIG RMK CB TO SE=
09/02/2015 06:30:00Z	 SAID31 WIII 090630	METAR WIII 090630Z 16007KT 3800 RA BKN018 24/23 Q1012 NOSIG=
09/02/2015 07:00:00Z	 SAID31 WIII 090700	METAR WIII 090700Z 16005KT 5000 RA BKN018 24/24 Q1011 NOSIG=
09/02/2015 07:30:00Z	 SAID31 WIII 090730	METAR WIII 090730Z 14006KT 100V220 5000 -RA BKN018 24/24 Q1011 NOSIG=
09/02/2015 08:00:00Z	 SAID31 WIII 090800	METAR WIII 090800Z 14006KT 100V190 5000 -RA BKN018 24/24 Q1011 NOSIG=
09/02/2015 08:30:00Z	 SAID31 WIII 090830	METAR WIII 090830Z 14008KT 100V180 6000 -RA 25/23 Q1011 NOSIG=
09/02/2015 09:00:00Z	 SAID31 WIII 090900	METAR WIII 090900Z 14007KT 120V190 6000 -RA FEW017CB BKN018 25/23 Q10 10 NOSIG RMK CB TO E=
09/02/2015 09:30:00Z	 SAID31 WIII 090930	METAR WIII 090930Z 14007KT 6000 VCTS FEW017CB BKN018 25/24 Q1011 RERA NOSIG RMK CB TO W=
09/02/2015 10:00:00Z	 SAID31 WIII 091000	METAR WIII 091000Z 14006KT 110V190 6000 BKN018 25/24 Q1011 NOSIG=
09/02/2015 10:30:00Z	 SAID31 WIII 091030	METAR WIII 091030Z 13008KT 6000 BKN020 25/23 Q1011 NOSIG=
09/02/2015 11:00:00Z	 SAID31 WIII 091100	METAR WIII 091100Z 13007KT 090V160 7000 -RA FEW018CB BKN019 25/23 Q10 12 NOSIG RMK CB TO NE=
09/02/2015 11:30:00Z	 SAID31 WIII 091130	METAR WIII 091130Z 12007KT 090V180 5000 -RA FEW018CB BKN018 25/23 Q10 12 NOSIG RMK CB TO W=
09/02/2015 12:00:00Z	 SAID31 WIII 091200	METAR WIII 091200Z 09006KT 5000 RA FEW018CB BKN019 24/23 Q1012 NOSIG RMK CB TO W=
09/02/2015 12:30:00Z	 SAID31 WIII 091230	METAR WIII 091230Z 11005KT 5000 RA FEW018CB BKN019 24/23 Q1013 NOSIG RMK CB TO W=
09/02/2015 13:00:00Z	 SAID31 WIII 091300	METAR WIII 091300Z 12004KT 5000 RA FEW018CB BKN020 24/23 Q1013 NOSIG RMK CB TO W=
09/02/2015 13:30:00Z	 SAID31 WIII 091330	METAR WIII 091330Z 13005KT 5000 -RA FEW018CB BKN020 24/23 Q1013 NOSIG RMK CB TO NW=
09/02/2015 14:00:00Z	 SAID31 WIII 091400	METAR WIII 091400Z 16004KT 3500 -RA FEW018CB BKN020 24/23 Q1013 NOSIG RMK CB TO NW=
09/02/2015 14:30:00Z	 SAID31 WIII 091430	METAR WIII 091430Z 18006KT 3000 -RA FEW018CB BKN020 24/23 Q1014 NOSIG RMK CB TO NW=
09/02/2015 15:00:00Z	 SAID31 WIII 091500	METAR WIII 091500Z 22009KT 2000 RA BKN019 23/22 Q1014 NOSIG=
09/02/2015 15:30:00Z	 SAID31 WIII 091530	METAR WIII 091530Z 27005KT 3500 -RA BKN019 22/22 Q1014 NOSIG=
09/02/2015 16:00:00Z	 SAID31 WIII 091600	METAR WIII 091600Z 21005KT 2000 RA BKN018 23/22 Q1013 NOSIG=
09/02/2015 16:30:00Z	 SAID31 WIII 091630	METAR WIII 091630Z 25004KT 2000 -RA BKN018 23/23 Q1013 NOSIG =
09/02/2015 17:00:00Z	 SAID31 WIII 091700	METAR WIII 091700Z 18004KT 1800 RA BKN017 23/23 Q1013 NOSIG=
09/02/2015 17:30:00Z	 SAID31 WIII 091730	METAR WIII 091730Z VRB05KT 2000 RA BKN018 23/23 Q1013 NOSIG=
09/02/2015 18:00:00Z	 SAID31 WIII 091800	METAR WIII 091800Z VRB03KT 1000 RA FEW017CB BKN018 23/23 Q1012 NOSIG RMK CB TO W=
09/02/2015 18:30:00Z	 SAID31 WIII 091830	METAR WIII 091830Z 29006KT 0350 +RA BKN016 23/23 Q1012 NOSIG=
09/02/2015 19:00:00Z	 SAID31 WIII 091900	METAR WIII 091900Z VRB05KT 0750 +RA BKN016 23/23 Q1012 NOSIG=
09/02/2015 19:30:00Z	 SAID31 WIII 091930	METAR WIII 091930Z 28005KT 1000 +RA BKN016 23/23 Q1012 NOSIG=
09/02/2015 20:00:00Z	 SAID31 WIII 092000	METAR WIII 092000Z 28003KT 4000 -RA BKN020 23/23 Q1012 NOSIG=
09/02/2015 20:30:00Z	 SAID31 WIII 092030	METAR WIII 092030Z 21003KT 4000 -RA BKN020 23/23 Q1012 NOSIG=
09/02/2015 21:00:00Z	 SAID31 WIII 092100	METAR WIII 092100Z 33006KT 3000 -RA BKN018 23/23 Q1012 NOSIG=
09/02/2015 21:30:00Z	 SAID31 WIII 092130	METAR WIII 092130Z VRB03KT 4000 RA BKN018 23/23 Q1012 NOSIG=
09/02/2015 22:00:00Z	 SAID31 WIII 092200	METAR WIII 092200Z 30003KT 1900 RA BKN018 23/22 Q1012 NOSIG=
09/02/2015 22:30:00Z	 SAID31 WIII 092230	METAR WIII 092230Z 30003KT 1900 RA BKN018 23/22 Q1012 NOSIG=
09/02/2015 23:00:00Z	 SAID31 WIII 092300	METAR WIII 092300Z 33005KT 3000 -RA BKN020 23/22 Q1012 NOSIG=
09/02/2015 23:30:00Z	 SAID31 WIII 092330	METAR WIII 092330Z 01002KT 5000 -RA BKN020 23/22 Q1013 NOSIG=
10/02/2015 00:00:00Z	 SAID31 WIII 100000	METAR WIII 100000Z 29003KT 5000 RA BKN020 23/22 Q1013 NOSIG=
10/02/2015 00:30:00Z	 SAID31 WIII 100030	METAR WIII 100030Z VRB03KT 4500 -RA BKN018 24/23 Q1013 NOSIG=
10/02/2015 01:00:00Z	 SAID31 WIII 100100	METAR WIII 100100Z 24004KT 3900 -RA BKN018 24/23 Q1014 NOSIG=
10/02/2015 01:30:00Z	 SAID31 WIII 100130	METAR WIII 100130Z 24004KT 3000 -RA BKN018 OVC090 24/23 Q1014 NOSIG=
10/02/2015 02:00:00Z	 SAID31 WIII 100200	METAR WIII 100200Z 24005KT 3600 -RA BKN019 25/24 Q1014 NOSIG=
10/02/2015 02:30:00Z	 SAID31 WIII 100230	METAR WIII 100230Z 28005KT 3700 -RA BKN019 25/23 Q1014 BECMG 5000=
10/02/2015 03:00:00Z	 SAID31 WIII 100300	METAR WIII 100300Z 25007KT 4000 -RA BKN018 25/24 Q1014 NOSIG=
10/02/2015 03:30:00Z	 SAID31 WIII 100330	METAR WIII 100330Z 30005KT 5000 -RA BKN018 26/24 Q1014 NOSIG=
10/02/2015 04:00:00Z	 SAID31 WIII 100400	METAR WIII 100400Z 30008KT 270V340 6000 BKN018 27/24 Q1014 NOSIG=
10/02/2015 04:30:00Z	 SAID31 WIII 100430	METAR WIII 100430Z 29008KT 260V330 7000 BKN019 27/23 Q1013 NOSIG=
10/02/2015 05:00:00Z	 SAID31 WIII 100500	METAR WIII 100500Z 31010KT 290V350 8000 BKN019 28/23 Q1012 NOSIG=
10/02/2015 05:30:00Z	 SAID31 WIII 100530	METAR WIII 100530Z 30010KT 8000 BKN019 27/23 Q1012 NOSIG=
10/02/2015 06:00:00Z	 SAID31 WIII 100600	METAR WIII 100600Z 30008KT 270V340 8000 BKN018 28/24 Q1011 NOSIG=
10/02/2015 06:30:00Z	 SAID31 WIII 100630	METAR WIII 100630Z 32008KT 8000 BKN018 28/24 Q1011 NOSIG=
10/02/2015 07:00:00Z	 SAID31 WIII 100700	METAR WIII 100700Z 33008KT 270V020 8000 BKN018 27/23 Q1010 NOSIG=
10/02/2015 07:30:00Z	 SAID31 WIII 100730	METAR WIII 100730Z 31007KT 270V360 8000 SCT018 29/23 Q1010 NOSIG=
10/02/2015 08:00:00Z	 SAID31 WIII 100800	METAR WIII 100800Z 30010KT 260V350 8000 SCT018 29/23 Q1009 NOSIG=
10/02/2015 08:30:00Z	 SAID31 WIII 100830	METAR WIII 100830Z 32007KT 9999 SCT019 28/23 Q1009 NOSIG=
10/02/2015 09:00:00Z	 SAID31 WIII 100900	METAR WIII 100900Z 32007KT 9999 FEW020 28/23 Q1009 NOSIG=
10/02/2015 09:30:00Z	 SAID31 WIII 100930	METAR WIII 100930Z 31005KT 9999 FEW020 28/23 Q1009 NOSIG=
10/02/2015 10:00:00Z	 SAID31 WIII 101000	METAR WIII 101000Z 33004KT 9999 FEW020 28/23 Q1009 NOSIG=
10/02/2015 10:30:00Z	 SAID31 WIII 101030	METAR WIII 101030Z 33005KT 9000 FEW020 27/23 Q1010 NOSIG=
10/02/2015 11:00:00Z	 SAID31 WIII 101100	METAR WIII 101100Z 03003KT 8000 FEW020 26/23 Q1010 NOSIG=
10/02/2015 11:30:00Z	 SAID31 WIII 101130	METAR WIII 101130Z 03003KT 8000 FEW020 26/23 Q1011 NOSIG=
10/02/2015 12:00:00Z	 SAID31 WIII 101200	METAR WIII 101200Z 02002KT 7000 FEW020 25/23 Q1011 NOSIG=
10/02/2015 12:30:00Z	 SAID31 WIII 101230	METAR WIII 101230Z VRB03KT 7000 FEW020 25/23 Q1012 NOSIG=
10/02/2015 13:00:00Z	 SAID31 WIII 101300	METAR WIII 101300Z 05003KT 6000 FEW018 25/23 Q1012 NOSIG=
10/02/2015 13:30:00Z	 SAID31 WIII 101330	METAR WIII 101330Z VRB03KT 6000 FEW020 25/23 Q1012 NOSIG=
10/02/2015 14:00:00Z	 SAID31 WIII 101400	METAR WIII 101400Z VRB02KT 6000 FEW020 26/23 Q1013 NOSIG=
10/02/2015 14:30:00Z	 SAID31 WIII 101430	METAR WIII 101430Z VRB03KT 6000 FEW020 25/23 Q1013 NOSIG=
10/02/2015 15:00:00Z	 SAID31 WIII 101500	METAR WIII 101500Z 13003KT 5000 BR FEW020 25/23 Q1013 NOSIG=
10/02/2015 15:30:00Z	 SAID31 WIII 101530	METAR WIII 101530Z VRB03KT 5000 BR FEW020 25/23 Q1013 NOSIG=
10/02/2015 16:00:00Z	 SAID31 WIII 101600	METAR WIII 101600Z VRB03KT 5000 BR FEW020 25/23 Q1013 NOSIG=
10/02/2015 16:30:00Z	 SAID31 WIII 101630	METAR WIII 101630Z 11002KT 5000 BR FEW020 25/23 Q1013 NOSIG=
10/02/2015 17:00:00Z	 SAID31 WIII 101700	METAR WIII 101700Z 14005KT 5000 BR FEW020 25/23 Q1013 NOSIG=
10/02/2015 17:30:00Z	 SAID31 WIII 101730	METAR WIII 101730Z 17003KT 4000 BR FEW020 25/23 Q1012 NOSIG=
10/02/2015 18:00:00Z	 SAID31 WIII 101800	METAR WIII 101800Z VRB02KT 3500 BR FEW020 25/23 Q1012 NOSIG=
10/02/2015 18:30:00Z	 SAID31 WIII 101830	METAR WIII 101830Z 16004KT 4000 BR FEW020 24/23 Q1012 NOSIG=
10/02/2015 19:00:00Z	 SAID31 WIII 101900	METAR WIII 101900Z 15004KT 4000 BR FEW018 24/22 Q1011 NOSIG=
10/02/2015 19:30:00Z	 SAID31 WIII 101930	METAR WIII 101930Z VRB02KT 4000 BR FEW018 24/23 Q1011 NOSIG=
10/02/2015 20:00:00Z	 SAID31 WIII 102000	METAR WIII 102000Z AUTO 28002KT 2700 BR 24/23 Q1011=
10/02/2015 20:30:00Z	 SAID31 WIII 102030	METAR WIII 102030Z AUTO VRB02KT 2200 BR 24/23 Q1011=
10/02/2015 21:00:00Z	 SAID31 WIII 102100	METAR WIII 102100Z AUTO VRB02KT 4200 BR 24/23 Q1011=
10/02/2015 21:30:00Z	 SAID31 WIII 102130	METAR WIII 102130Z VRB02KT 4000 -RA BR SCT018 BKN022 24/22 Q1011 NOSI G=
10/02/2015 22:00:00Z	 SAID31 WIII 102200	METAR WIII 102200Z AUTO VRB04KT 3500 +RA BR 23/22 Q1012=
10/02/2015 22:30:00Z	 SAID31 WIII 102230	METAR WIII 102230Z AUTO VRB05KT 4900 RA BR 23/23 Q1012 RERA=
10/02/2015 23:00:00Z	 SAID31 WIII 102300	METAR WIII 102300Z AUTO VRB05KT 6000 RA BR 23/22 Q1012 RERA=
10/02/2015 23:00:00Z	 SAID31 WIII 102300 CCA	METAR COR WIII 102300Z VRB05KT 4000 -RA BR SCT018 BKN022 23/22 Q1012 NOSIG=
10/02/2015 23:30:00Z	 SAID31 WIII 102330	METAR WIII 102330Z AUTO VRB04KT 2000 R25R/1800V2000 +RA BR 23/22 Q101 2=
11/02/2015 00:00:00Z	 SAID31 WIII 110000	METAR WIII 110000Z 29006KT 4000 -RA BR SCT016 OVC022 23/22 Q1013 NOSI G=
11/02/2015 00:30:00Z	 SAID31 WIII 110030	METAR WIII 110030Z 30004KT 5000 -RA BR SCT018 OVC030 22/21 Q1013 NOSI G =
11/02/2015 01:00:00Z	 SAID31 WIII 110100	METAR WIII 110100Z 26004KT 5000 BR FEW018 OVC020 23/22 Q1013 RERA NOS IG=
11/02/2015 01:30:00Z	 SAID31 WIII 110130	METAR WIII 110130Z 31008KT 5000 -RA FEW018 OVC020 23/22 Q1014 NOSIG=
11/02/2015 02:00:00Z	 SAID31 WIII 110200	METAR WIII 110200Z 30010KT 4000 RA BR FEW018 OVC020 23/23 Q1014 NOSIG =
11/02/2015 02:30:00Z	 SAID31 WIII 110230	METAR WIII 110230Z 29008KT 5000 RA SCT018 OVC020 23/22 Q1014 NOSIG=
11/02/2015 03:00:00Z	 SAID31 WIII 110300	METAR WIII 110300Z 29006KT 250V340 4500 -RA FEW018CB OVC020 23/22 Q10 14 NOSIG RMK CB TO NE=
11/02/2015 03:30:00Z	 SAID31 WIII 110330	METAR WIII 110330Z 29007KT 2000 +RA SCT018 OVC020 23/22 Q1013 NOSIG=
11/02/2015 04:00:00Z	 SAID31 WIII 110400	METAR WIII 110400Z 29008KT 3000 +RA BR SCT018 OVC020 24/23 Q1013 NOSI G=
11/02/2015 04:30:00Z	 SAID31 WIII 110430	METAR WIII 110430Z VRB04KT 5000 -RA SCT018 OVC020 25/23 Q1012 NOSIG=
11/02/2015 05:00:00Z	 SAID31 WIII 110500	METAR WIII 110500Z 29005KT 6000 FEW020 OVC022 25/23 Q1012 NOSIG=
11/02/2015 05:30:00Z	 SAID31 WIII 110530	METAR WIII 110530Z 27008KT 5000 -RA SCT018 OVC020 25/23 Q1012=
11/02/2015 06:00:00Z	 SAID31 WIII 110600	METAR WIII 110600Z 27005KT 6000 -RA SCT020 OVC022 25/23 Q1011 NOSIG=
11/02/2015 06:30:00Z	 SAID31 WIII 110630	METAR WIII 110630Z 29005KT 6000 -RA SCT020 OVC022 25/23 Q1010 NOSIG=
11/02/2015 07:00:00Z	 SAID31 WIII 110700	METAR WIII 110700Z 26006KT 6000 SCT020 OVC022 26/23 Q1010 RERA NOSIG=
11/02/2015 07:30:00Z	 SAID31 WIII 110730	METAR WIII 110730Z 30006KT 6000 SCT020 OVC022 26/23 Q1010 NOSIG=
11/02/2015 08:00:00Z	 SAID31 WIII 110800	METAR WIII 110800Z 31007KT 8000 BKN020 27/23 Q1009 NOSIG=
11/02/2015 08:30:00Z	 SAID31 WIII 110830	METAR WIII 110830Z 30008KT 8000 BKN020 27/23 Q1009 NOSIG=
11/02/2015 09:00:00Z	 SAID31 WIII 110900	METAR WIII 110900Z 32006KT 270V360 8000 BKN020 27/23 Q1009 NOSIG=
11/02/2015 09:30:00Z	 SAID31 WIII 110930	METAR WIII 110930Z 34006KT 300V020 9000 BKN020 27/23 Q1009 NOSIG=
11/02/2015 10:00:00Z	 SAID31 WIII 111000	METAR WIII 111000Z VRB05KT 9999 BKN020 27/23 Q1009 NOSIG=
11/02/2015 10:30:00Z	 SAID31 WIII 111030	METAR WIII 111030Z VRB04KT 9999 BKN022 27/23 Q1009 NOSIG=
11/02/2015 11:00:00Z	 SAID31 WIII 111100	METAR WIII 111100Z VRB02KT 8000 BKN022 27/23 Q1010 NOSIG=
11/02/2015 11:30:00Z	 SAID31 WIII 111130	METAR WIII 111130Z 16002KT 8000 BKN020 26/23 Q1010 NOSIG=
11/02/2015 12:00:00Z	 SAID31 WIII 111200	METAR WIII 111200Z 13001KT BR BKN022 26/23 Q1010 NOSIG=
11/02/2015 12:00:00Z	 SAID31 WIII 111200 CCA	METAR COR WIII 111200Z 13002KT 5000 BR BKN022 26/23 Q1010 NOSIG=
11/02/2015 12:30:00Z	 SAID31 WIII 111230	METAR WIII 111230Z 05002KT 4500 BR BKN022 25/23 Q1011 NOSIG=
11/02/2015 13:00:00Z	 SAID31 WIII 111300	METAR WIII 111300Z 31003KT 3700 BR SCT022 25/23 Q1011 NOSIG=
11/02/2015 13:30:00Z	 SAID31 WIII 111330	METAR WIII 111330Z 35002KT 3000 BR SCT020 25/23 Q1012 NOSIG=
11/02/2015 14:00:00Z	 SAID31 WIII 111400	METAR WIII 111400Z VRB02KT 3200 BR SCT020 25/23 Q1012 NOSIG=
11/02/2015 14:30:00Z	 SAID31 WIII 111430	METAR WIII 111430Z 31002KT 2600 BR FEW021 SCT100 24/23 Q1012 NOSIG=
11/02/2015 15:00:00Z	 SAID31 WIII 111500	METAR WIII 111500Z 30002KT 2600 BR FEW021 SCT100 25/23 Q1012 NOSIG=
11/02/2015 15:30:00Z	 SAID31 WIII 111530	METAR WIII 111530Z 23005KT 2800 BR SCT021 24/23 Q1012 NOSIG=
11/02/2015 16:00:00Z	 SAID31 WIII 111600	METAR WIII 111600Z 20005KT 2700 BR FEW021 SCT100 25/23 Q1012 NOSIG=
11/02/2015 16:30:00Z	 SAID31 WIII 111630	METAR WIII 111630Z 18004KT 2100 BR SCT020 25/23 Q1012 NOSIG=
11/02/2015 17:00:00Z	 SAID31 WIII 111700	METAR WIII 111700Z 19002KT 2400 BR FEW022 25/23 Q1012 NOSIG=
11/02/2015 17:30:00Z	 SAID31 WIII 111730	METAR WIII 111730Z 09002KT 2200 BR FEW021 24/23 Q1012 NOSIG=
11/02/2015 18:00:00Z	 SAID31 WIII 111800	METAR WIII 111800Z 17002KT 2000 BR FEW020 24/23 Q1011 NOSIG=
11/02/2015 18:30:00Z	 SAID31 WIII 111830	METAR WIII 111830Z VRB02KT 2100 BR SCT021 24/23 Q1011 NOSIG=
11/02/2015 18:30:00Z	 SAID31 WIII 111830 CCA	METAR COR WIII 111830Z VRB02KT 2100 BR FEW020CB SCT021 24/23 Q1011 NO SIG RMK CB TO NE=
11/02/2015 19:00:00Z	 SAID31 WIII 111900	METAR WIII 111900Z VRB02KT 2000 BR FEW019CB SCT020 24/23 Q1011 NOSIG RMK CB TO NE=
11/02/2015 19:30:00Z	 SAID31 WIII 111930	METAR WIII 111930Z 19002KT 2000 BR SCT021 24/23 Q1010 NOSIG=
11/02/2015 20:00:00Z	 SAID31 WIII 112000	METAR WIII 112000Z 00000KT 1400 R25R/1600V1700 R25L/1700V1900 BR SCT0 22 24/23 Q1010 NOSIG=
11/02/2015 20:30:00Z	 SAID31 WIII 112030	METAR WIII 112030Z 28003KT 1300 R25R/1700VP2000 BR FEW022 24/23 Q1010 NOSIG=
11/02/2015 21:00:00Z	 SAID31 WIII 112100	METAR WIII 112100Z 25003KT 1300 R25R/1500V2000 R25L/1500V1700 BR FEW0 22 23/23 Q1010 NOSIG=
11/02/2015 21:30:00Z	 SAID31 WIII 112130	METAR WIII 112130Z 25003KT 1100 R25R/1100V1700 R25L/1300V1700 BR SCT0 22 23/23 Q1010 NOSIG=
11/02/2015 22:00:00Z	 SAID31 WIII 112200	METAR WIII 112200Z VRB02KT 1200 BR FEW022 SCT100 23/23 Q1010 NOSIG=
11/02/2015 22:30:00Z	 SAID31 WIII 112230	METAR WIII 112230Z 26003KT 1100 R25R/1100V1500 R25L/1300V1500 BR SCT0 22 23/22 Q1010 NOSIG=
11/02/2015 23:00:00Z	 SAID31 WIII 112300	METAR WIII 112300Z 26004KT 1000 R25R/1200V1400 R25L/1300V1400 BR FEW0 22 SCT090 23/22 Q1010 NOSIG=
11/02/2015 23:30:00Z	 SAID31 WIII 112330	METAR WIII 112330Z 21004KT 1200 R25R/1200V1700 R25L/1500V1800 BR SCT0 22 24/23 Q1011 NOSIG=
12/02/2015 00:00:00Z	 SAID31 WIII 120000	METAR WIII 120000Z VRB02KT 1800 R25R/1700V2000 R25L/1400V1800 BR FEW0 22 BKN110 24/23 Q1011 NOSIG=
12/02/2015 00:30:00Z	 SAID31 WIII 120030	METAR WIII 120030Z VRB02KT 1200 R25R/1100V1300 R25L/1600VP2000 BR FEW 020CB FEW022 BKN110 25/23 Q1011 NOSIG=
12/02/2015 00:30:00Z	 SAID31 WIII 120030 CCA	METAR COR WIII 120030Z VRB02KT 1200 R25R/1100V1300 R25L/1600VP2000 BR FEW020CB FEW022 BKN110 25/23 Q1011 NOSIG RMK CB TO SW=
12/02/2015 01:00:00Z	 SAID31 WIII 120100	METAR WIII 120100Z VRB03KT 1200 BR FEW020CB FEW021 BKN090 25/23 Q1011 NOSIG RMK CB TO W=
12/02/2015 01:30:00Z	 SAID31 WIII 120130	METAR WIII 120130Z 29004KT 1500 BR FEW020CB FEW021 BKN090 26/24 Q1012 NOSIG RMK CB TO SW=
12/02/2015 02:00:00Z	 SAID31 WIII 120200	METAR WIII 120200Z 29007KT 3000 BR SCT020 27/24 Q1012 NOSIG =
12/02/2015 02:30:00Z	 SAID31 WIII 120230	METAR WIII 120230Z 32009KT 6000 FEW020CB SCT021 27/24 Q1012 NOSIG RMK CB TO NE=
12/02/2015 03:00:00Z	 SAID31 WIII 120300	METAR WIII 120300Z 33013KT 8000 FEW020CB SCT021 28/24 Q1011 NOSIG RMK CB TO NE=
12/02/2015 03:30:00Z	 SAID31 WIII 120330	METAR WIII 120330Z 32010KT 8000 SCT020 28/23 Q1011 NOSIG=
12/02/2015 04:00:00Z	 SAID31 WIII 120400	METAR WIII 120400Z 32010KT 9000 SCT020 29/23 Q1010 NOSIG=
12/02/2015 04:30:00Z	 SAID31 WIII 120430	METAR WIII 120430Z 32013KT 9000 SCT020 29/24 Q1010 NOSIG=
12/02/2015 05:00:00Z	 SAID31 WIII 120500	METAR WIII 120500Z 32013KT 9000 SCT020 28/23 Q1010 NOSIG=
12/02/2015 05:30:00Z	 SAID31 WIII 120530	METAR WIII 120530Z 32014KT 8000 BKN019 28/24 Q1009 NOSIG=
12/02/2015 06:00:00Z	 SAID31 WIII 120600	METAR WIII 120600Z 33012KT 9000 SCT020 27/23 Q1009 NOSIG=
12/02/2015 06:30:00Z	 SAID31 WIII 120630	METAR WIII 120630Z 32013KT 9000 SCT020 29/24 Q1008 NOSIG=
12/02/2015 07:00:00Z	 SAID31 WIII 120700	METAR WIII 120700Z 33013KT 9000 SCT020 29/24 Q1008 NOSIG=
12/02/2015 07:30:00Z	 SAID31 WIII 120730	METAR WIII 120730Z 32008KT 8000 SCT020 28/24 Q1008 TEMPO FM0745 6000 -RA=
12/02/2015 08:00:00Z	 SAID31 WIII 120800	METAR WIII 120800Z 31010KT 7000 -RA SCT018 28/23 Q1008 TEMPO 5000 -RA =
12/02/2015 08:30:00Z	 SAID31 WIII 120830	METAR WIII 120830Z 26009KT 4000 -RA SCT018 24/23 Q1008 NOSIG=
12/02/2015 09:00:00Z	 SAID31 WIII 120900	METAR WIII 120900Z 26008KT 6000 -RA SCT018 24/23 Q1007 NOSIG=
12/02/2015 09:30:00Z	 SAID31 WIII 120930	METAR WIII 120930Z 24005KT 7000 FEW020 25/23 Q1008 RERA NOSIG=
12/02/2015 10:00:00Z	 SAID31 WIII 121000	METAR WIII 121000Z 25007KT 7000 FEW020 BKN100 25/23 Q1008 NOSIG=
12/02/2015 10:30:00Z	 SAID31 WIII 121030	METAR WIII 121030Z 25007KT 4000 -RA FEW019CB SCT020 25/24 Q1008 TEMPO 3000 -TSRA RMK CB TO W=
12/02/2015 11:00:00Z	 SAID31 WIII 121100	METAR WIII 121100Z 35005KT 1500 TSRA SCT018CB BKN019 25/24 Q1009 NOSI G RMK CB OVER THE FIELD=
12/02/2015 11:30:00Z	 SAID31 WIII 121130	METAR WIII 121130Z VRB03KT 2800 -TSRA FEW018CB BKN020 24/24 Q1009 NOS IG RMK CB TO E=
12/02/2015 12:00:00Z	 SAID31 WIII 121200	METAR WIII 121200Z 35004KT 3500 -TSRA FEW018CB SCT020 24/24 Q1009 NOS IG RMK CB TO E AND NE=
12/02/2015 12:30:00Z	 SAID31 WIII 121230	METAR WIII 121230Z 32002KT 3400 BR FEW018CB SCT020 24/24 Q1010 RERA N OSIG RMK CB TO NE=
12/02/2015 13:00:00Z	 SAID31 WIII 121300	METAR WIII 121300Z 05003KT 3500 BR FEW018CB BKN020 24/24 Q1010 NOSIG RMK CB TO SW=
12/02/2015 13:30:00Z	 SAID31 WIII 121330	METAR WIII 121330Z 06003KT 3000 BR FEW018CB BKN020 24/24 Q1010 NOSIG RMK CB TO E=
12/02/2015 14:00:00Z	 SAID31 WIII 121400	METAR WIII 121400Z 15003KT 3500 BR FEW018CB BKN020 24/24 Q1010 NOSIG RMK CB TO NE=
12/02/2015 14:30:00Z	 SAID31 WIII 121430	METAR WIII 121430Z 21003KT 2500 BR BKN020 24/24 Q1010 NOSIG=
12/02/2015 15:00:00Z	 SAID31 WIII 121500	METAR WIII 121500Z VRB02KT 2000 BR BKN020 24/24 Q1010 NOSIG=
12/02/2015 15:30:00Z	 SAID31 WIII 121530	METAR WIII 121530Z VRB02KT 2000 BR SCT020 24/24 Q1011 NOSIG=
12/02/2015 16:00:00Z	 SAID31 WIII 121600	METAR WIII 121600Z 30002KT 2500 BR FEW020CB SCT020 24/23 Q1011 NOSIG RMK CB TO E=
12/02/2015 16:30:00Z	 SAID31 WIII 121630	METAR WIII 121630Z 30003KT 3000 BR SCT020 24/23 Q1011 NOSIG=
12/02/2015 17:00:00Z	 SAID31 WIII 121700	METAR WIII 121700Z 29003KT 3000 BR SCT020 24/23 Q1010 NOSIG=
12/02/2015 17:30:00Z	 SAID31 WIII 121730	METAR WIII 121730Z 32002KT 3000 BR SCT020 24/23 Q1010 NOSIG=
12/02/2015 18:00:00Z	 SAID31 WIII 121800	METAR WIII 121800Z 31003KT 3000 BR SCT020 24/23 Q1010 NOSIG=
12/02/2015 18:30:00Z	 SAID31 WIII 121830	METAR WIII 121830Z 27002KT 2600 BR FEW020CB SCT020 24/23 Q1009 NOSIG RMK CB TO W=
12/02/2015 19:00:00Z	 SAID31 WIII 121900	METAR WIII 121900Z 27003KT 3600 BR SCT020 24/23 Q1009 NOSIG=
12/02/2015 19:30:00Z	 SAID31 WIII 121930	METAR WIII 121930Z 26004KT 2600 BR FEW020CB BKN020 23/23 Q1009 NOSIG RMK CB TO NW=
12/02/2015 20:00:00Z	 SAID31 WIII 122000	METAR WIII 122000Z 26003KT 2300 BR BKN020 24/23 Q1009 NOSIG=
12/02/2015 20:30:00Z	 SAID31 WIII 122030	METAR WIII 122030Z 28007KT 3000 -RA FEW020CB BKN020 24/23 Q1009 NOSIG RMK CB TO N AND NE=
12/02/2015 21:00:00Z	 SAID31 WIII 122100	METAR WIII 122100Z 29004KT 3000 VCTS -RA FEW018CB BKN020 23/22 Q1009 NOSIG RMK CB TO E=
12/02/2015 21:30:00Z	 SAID31 WIII 122130	METAR WIII 122130Z VRB02KT 4000 BR FEW018CB BKN020 23/22 Q1009 RETSRA NOSIG RMK CB TO NW AND N=
12/02/2015 22:00:00Z	 SAID31 WIII 122200	METAR WIII 122200Z VRB03KT 4000 BR FEW018CB BKN020 23/23 Q1009 NOSIG RMK CB TO NW AND N=
12/02/2015 22:30:00Z	 SAID31 WIII 122230	METAR WIII 122230Z 27004KT 5000 BR FEW018CB BKN020 23/23 Q1009 NOSIG RMK CB TO NE=
12/02/2015 23:00:00Z	 SAID31 WIII 122300	METAR WIII 122300Z 27006KT 5000 BR FEW018CB BKN020 24/22 Q1010 NOSIG RMK CB TO NE=
12/02/2015 23:30:00Z	 SAID31 WIII 122330	METAR WIII 122330Z 27007KT 5000 -RA FEW018CB OVC020 24/23 Q1010 NOSIG RMK CB TO NE=
13/02/2015 00:00:00Z	 SAID31 WIII 130000	METAR WIII 130000Z 26008KT 6000 BKN020 23/22 Q1010 RERA NOSIG=
13/02/2015 00:30:00Z	 SAID31 WIII 130030	METAR WIII 130030Z 27004KT 8000 FEW020CB BKN020 24/23 Q1010 NOSIG RMK CB TO W=
13/02/2015 01:00:00Z	 SAID31 WIII 130100	METAR WIII 130100Z 27006KT 8000 BKN020 26/24 Q1011 NOSIG=
13/02/2015 01:30:00Z	 SAID31 WIII 130130	METAR WIII 130130Z 28006KT 250V310 6000 -RA BKN018 25/24 Q1011 NOSIG=
13/02/2015 02:00:00Z	 SAID31 WIII 130200	METAR WIII 130200Z 28006KT 5000 -RA BKN018 OVC030 25/24 Q1012 NOSIG=
13/02/2015 02:30:00Z	 SAID31 WIII 130230	METAR WIII 130230Z 28005KT 5000 -RA BR SCT016 BKN020 25/24 Q1012 NOSI G=
13/02/2015 03:00:00Z	 SAID31 WIII 130300	METAR WIII 130300Z VRB05KT 6000 -RA BKN020 26/24 Q1011 NOSIG=
13/02/2015 03:30:00Z	 SAID31 WIII 130330	METAR WIII 130330Z 32009KT 6000 FEW018CB BKN020 26/23 Q1011 NOSIG RMK CB TO E=
13/02/2015 04:00:00Z	 SAID31 WIII 130400	METAR WIII 130400Z 32010G19KT 6000 BKN020 27/24 Q1011 RERA NOSIG=
13/02/2015 04:30:00Z	 SAID31 WIII 130430	METAR WIII 130430Z 31005KT 5000 -RA BKN018 26/24 Q1010 NOSIG=
13/02/2015 05:00:00Z	 SAID31 WIII 130500	METAR WIII 130500Z 28011KT 260V320 5000 -RA BR BKN018 OVC022 25/24 Q1 010 NOSIG=
13/02/2015 05:34:00Z	 SAID31 WIII 130534	METAR WIII 130534Z 30008KT 5000 -RA SCT018 OVC030 23/22 Q1010=
13/02/2015 06:00:00Z	 SAID31 WIII 130600	METAR WIII 130600Z VRB04KT 5000 -RA BKN020 OVC030 24/23 Q1010 NOSIG=
13/02/2015 06:30:00Z	 SAID31 WIII 130630	METAR WIII 130630Z VRB04KT 8000 SCT020 27/25 Q1009 RERA NOSIG=
13/02/2015 07:00:00Z	 SAID31 WIII 130700	METAR WIII 130700Z 32008KT 8000 SCT020 27/24 Q1008 NOSIG=
13/02/2015 07:30:00Z	 SAID31 WIII 130730	METAR WIII 130730Z 33007KT 300V010 9999 SCT022 29/24 Q1008 NOSIG=
13/02/2015 08:00:00Z	 SAID31 WIII 130800	METAR WIII 130800Z 34007KT 300V020 9999 SCT020 28/24 Q1008 NOSIG=
13/02/2015 08:30:00Z	 SAID31 WIII 130830	METAR WIII 130830Z 33008KT 310V010 9999 SCT020 29/24 Q1008 NOSIG=
13/02/2015 09:00:00Z	 SAID31 WIII 130900	METAR WIII 130900Z 28017G23KT 260V340 4000 RA FEW016CB BKN018 26/22 Q 1008 FM0910 TL1030 TSRA RMK CB TO S=
13/02/2015 09:30:00Z	 SAID31 WIII 130930	METAR WIII 130930Z 28006KT 5000 HZ FEW016CB BKN01824/22 Q1008 NOSIG R MK CB TO SE AND S=
13/02/2015 09:30:00Z	 SAID31 WIII 130930 CCA	METAR COR WIII 130930Z 28006KT 5000 HZ FEW016CB BKN018 24/22 Q1008 NO SIG RMK CB TO SE AND S=
13/02/2015 10:00:00Z	 SAID31 WIII 131000	METAR WIII 131000Z 28003KT 7000 SCT018 24/22 Q1009 NOSIG=
13/02/2015 10:30:00Z	 SAID31 WIII 131030	METAR WIII 131030Z 27005KT 7000 SCT020 24/22 Q1009 NOSIG=
13/02/2015 11:00:00Z	 SAID31 WIII 131100	METAR WIII 131100Z VRB04KT 6000 SCT020 24/22 Q1009 NOSIG=
13/02/2015 11:30:00Z	 SAID31 WIII 131130	METAR WIII 131130Z VRB02KT 6000 SCT020 24/22 Q1010 NOSIG=
13/02/2015 12:00:00Z	 SAID31 WIII 131200	METAR WIII 131200Z VRB03KT 6000 SCT020 25/22 Q1010 NOSIG=
13/02/2015 12:30:00Z	 SAID31 WIII 131230	METAR WIII 131230Z 35002KT 6000 FEW018 24/23 Q1011 NOSIG=
13/02/2015 13:00:00Z	 SAID31 WIII 131300	METAR WIII 131300Z 05003KT 5000 BR FEW019CB FEW020 24/23 Q1011 NOSIG RMK CB TO N=
13/02/2015 13:30:00Z	 SAID31 WIII 131330	METAR WIII 131330Z 03002KT 4000 BR FEW020 24/23 Q1011 NOSIG=
13/02/2015 14:00:00Z	 SAID31 WIII 131400	METAR WIII 131400Z 05002KT 4000 BR FEW020 24/23 Q1011 NOSIG=
13/02/2015 14:30:00Z	 SAID31 WIII 131430	METAR WIII 131430Z 04003KT 4000 BR FEW020 24/23 Q1012 NOSIG=
13/02/2015 15:00:00Z	 SAID31 WIII 131500	METAR WIII 131500Z 34002KT 4000 BR FEW019CB FEW020 24/23 Q1012 NOSIG RMK CB TO NE=
13/02/2015 15:30:00Z	 SAID31 WIII 131530	METAR WIII 131530Z 02003KT 4000 BR FEW020 25/23 Q1012 NOSIG=
13/02/2015 16:00:00Z	 SAID31 WIII 131600	METAR WIII 131600Z 02002KT 4000 BR FEW020 24/23 Q1012 NOSIG=
13/02/2015 16:30:00Z	 SAID31 WIII 131630	METAR WIII 131630Z 25002KT 4000 BR SCT020 25/23 Q1012 NOSIG=
13/02/2015 17:00:00Z	 SAID31 WIII 131700	METAR WIII 131700Z VRB03KT 4000 BR FEW020 24/23 Q1011 NOSIG=
13/02/2015 17:30:00Z	 SAID31 WIII 131730	METAR WIII 131730Z 19003KT 4000 BR FEW021 24/23 Q1010 NOSIG=
13/02/2015 18:00:00Z	 SAID31 WIII 131800	METAR WIII 131800Z 13002KT 4000 BR FEW020 24/23 Q1011 NOSIG=
13/02/2015 18:30:00Z	 SAID31 WIII 131830	METAR WIII 131830Z 17002KT 4000 BR FEW020 24/23 Q1010 NOSIG=
13/02/2015 19:00:00Z	 SAID31 WIII 131900	METAR WIII 131900Z 18003KT 4000 BR FEW020 24/23 Q1010 NOSIG=
13/02/2015 19:30:00Z	 SAID31 WIII 131930	METAR WIII 131930Z 19004KT 4000 BR FEW019CB FEW020 24/23 Q1010 NOSIG RMK CB TO N=
13/02/2015 20:00:00Z	 SAID31 WIII 132000	METAR COR WIII 132000Z 20005KT 2900 BR FEW019CB FEW020 24/23 Q1010 NO SIG RMK CB TO W=
13/02/2015 20:30:00Z	 SAID31 WIII 132030	METAR WIII 132030Z VRB02KT 2600 -RA FEW019CB SCT020 24/23 Q1010 NOSIG RMK CB TO W=
13/02/2015 21:00:00Z	 SAID31 WIII 132100	METAR WIII 132100Z VRB02KT 2000 -TSRA FEW018CB SCT020 24/23 Q1010 NOS IG RMK CB TO NE=
13/02/2015 21:30:00Z	 SAID31 WIII 132130	METAR WIII 132130Z VRB03KT 2100 -TSRA FEW018CB SCT020 24/23 Q1010 NOS IG RMK CB TO SW=
13/02/2015 22:00:00Z	 SAID31 WIII 132200	METAR WIII 132200Z VRB02KT 3500 -TSRA FEW018CB SCT020 24/23 Q1010 NOS IG RMK CB TO SE=
13/02/2015 22:30:00Z	 SAID31 WIII 132230	METAR WIII 132230Z VRB03KT 4000 -RA FEW018CB SCT020 24/23 Q1011 NOSIG RMK CB TO NE=
13/02/2015 23:00:00Z	 SAID31 WIII 132300	METAR WIII 132300Z VRB03KT 4000 -RA FEW018CB SCT020 24/23 Q1011 NOSIG RMK CB TO NE=
13/02/2015 23:30:00Z	 SAID31 WIII 132330	METAR WIII 132330Z VRB04KT 5000 BR FEW018CB FEW020 24/23 Q1011 RERA N OSIG RMK CB TO E=
14/02/2015 00:00:00Z	 SAID31 WIII 140000	METAR WIII 140000Z VRB04KT 5000 BR FEW018CB FEW020 24/23 Q1011 NOSIG RMK CB TO E=
14/02/2015 00:30:00Z	 SAID31 WIII 140030	METAR WIII 140030Z VRB03KT 5000 SCT020 24/23 Q1011 NOSIG=
14/02/2015 01:00:00Z	 SAID31 WIII 140100 CCA	METAR COR WIII 140100Z VRB03KT 5000 HZ SCT020 26/24 Q1011 NOSIG=
14/02/2015 01:00:00Z	 SAID31 WIII 140100	METAR WIII 140100Z VRB03KT 5000 HZ SCT020 25/24 Q1011 NOSIG=
14/02/2015 01:30:00Z	 SAID31 WIII 140130	METAR WIII 140130Z 31006KT 6000 FEW019CB SCT020 27/24 Q1012 NOSIG RMK CB TO E=
14/02/2015 02:00:00Z	 SAID31 WIII 140200	METAR WIII 140200Z 35008KT 7000 SCT020 29/24 Q1012 NOSIG=
14/02/2015 02:30:00Z	 SAID31 WIII 140230	METAR WIII 140230Z 33008KT 290V360 6000 BKN019 28/24 Q1012 NOSIG=
14/02/2015 03:00:00Z	 SAID31 WIII 140300	METAR WIII 140300Z 32008KT 280V360 6000 BKN019 28/23 Q1012 NOSIG=
14/02/2015 03:30:00Z	 SAID31 WIII 140330	METAR WIII 140330Z 34012KT 290V010 7000 SCT019 28/24 Q1012 NOSIG=
14/02/2015 04:00:00Z	 SAID31 WIII 140400	METAR WIII 140400Z 33012KT 300V010 7000 BKN019 28/23 Q1011 NOSIG=
14/02/2015 04:30:00Z	 SAID31 WIII 140430	METAR WIII 140430Z 32010KT 7000 BKN020 28/24 Q1011 NOSIG=
14/02/2015 05:00:00Z	 SAID31 WIII 140500	METAR WIII 140500Z 32011KT 8000 SCT020 30/24 Q1010 NOSIG=
14/02/2015 05:30:00Z	 SAID31 WIII 140530	METAR WIII 140530Z 32013KT 290V350 8000 SCT020 30/24 Q1010 NOSIG=
14/02/2015 06:00:00Z	 SAID31 WIII 140600	METAR WIII 140600Z 33015KT 290V010 8000 BKN019 30/24 Q1010 NOSIG=
14/02/2015 06:30:00Z	 SAID31 WIII 140630	METAR WIII 140630Z 33010KT 290V020 8000 BKN019 29/24 Q1009 NOSIG=
14/02/2015 07:00:00Z	 SAID31 WIII 140700	METAR WIII 140700Z 33014KT 300V010 8000 SCT019 30/24 Q1009 NOSIG=
14/02/2015 07:30:00Z	 SAID31 WIII 140730	METAR WIII 140730Z 33010KT 290V360 8000 SCT019 30/24 Q1008 NOSIG=
14/02/2015 08:00:00Z	 SAID31 WIII 140800	METAR WIII 140800Z 34009KT 300V040 8000 SCT020 30/23 Q1008 NOSIG=
14/02/2015 08:30:00Z	 SAID31 WIII 140830	METAR WIII 140830Z 33010KT 310V030 9999 FEW020 30/23 Q1008 NOSIG=
14/02/2015 09:00:00Z	 SAID31 WIII 140900	METAR WIII 140900Z 32009KT 9999 FEW020 30/24 Q1008 NOSIG=
14/02/2015 09:30:00Z	 SAID31 WIII 140930	METAR WIII 140930Z 35009KT 320V030 9999 FEW020 30/24 Q1008 NOSIG=
14/02/2015 10:00:00Z	 SAID31 WIII 141000	METAR WIII 141000Z 35009KT 9999 FEW020 29/23 Q1008 NOSIG=
14/02/2015 10:30:00Z	 SAID31 WIII 141030	METAR WIII 141030Z 33007KT 9999 FEW021 28/22 Q1009 NOSIG=
14/02/2015 13:00:00Z	 SAID31 WIII 141300	METAR COR WIII 141300Z 05002KT 3000 HZ FEW020 26/24 Q1011 NOSIG=
14/02/2015 13:30:00Z	 SAID31 WIII 141330	METAR WIII 141330Z 06003KT 3000 BR FEW020 26/24 Q1011 NOSIG=
14/02/2015 14:00:00Z	 SAID31 WIII 141400	METAR WIII 141400Z 04002KT 2500 BR FEW020 26/24 Q1011 NOSIG=
14/02/2015 14:30:00Z	 SAID31 WIII 141430	METAR WIII 141430Z VRB02KT 3100 BR FEW020 26/24 Q1012 NOSIG=
14/02/2015 15:00:00Z	 SAID31 WIII 141500	METAR WIII 141500Z 07003KT 3900 BR FEW020 26/24 Q1012 NOSIG=
14/02/2015 15:30:00Z	 SAID31 WIII 141530	METAR WIII 141530Z 07004KT 3700 BR FEW020 26/24 Q1012 NOSIG=
14/02/2015 16:00:00Z	 SAID31 WIII 141600	METAR WIII 141600Z 13003KT 5000 R25L/1500VP2000 BR FEW020 26/24 Q1012 NOSIG=
14/02/2015 16:30:00Z	 SAID31 WIII 141630	METAR WIII 141630Z 11004KT 5000 BR FEW020 26/24 Q1012 NOSIG=
14/02/2015 17:00:00Z	 SAID31 WIII 141700	METAR WIII 141700Z VRB01KT 4400 BR FEW020 25/24 Q1011 NOSIG=
14/02/2015 17:30:00Z	 SAID31 WIII 141730	METAR WIII 141730Z VRB01KT 2400 BR FEW020 25/24 Q1011 NOSIG =
14/02/2015 18:00:00Z	 SAID31 WIII 141800	METAR WIII 141800Z 32002KT 2100 R25R/P2000 BR FEW020 25/24 Q1011 NOSI G=
14/02/2015 18:30:00Z	 SAID31 WIII 141830	METAR WIII 141830Z 13002KT 3600 BR FEW020 5/24 Q1010 NOSIG=
14/02/2015 19:00:00Z	 SAID31 WIII 141900	METAR WIII 141900Z 11002KT 3500 R25R/1900VP2000 R25L/1100V2000 BR FEW 020 25/24 Q1010 NOSIG=
14/02/2015 19:30:00Z	 SAID31 WIII 141930	METAR WIII 141930Z VRB01KT 2400 R25R/P2000 R25L/1600V1800 BR FEW020 2 5/24 Q1010 NOSIG=
14/02/2015 20:00:00Z	 SAID31 WIII 142000	METAR WIII 142000Z VRB01KT 1700 R25R/P2000 R25L/1700 BR FEW020 25/24 Q1010 NOSIG=
14/02/2015 20:30:00Z	 SAID31 WIII 142030	METAR WIII 142030Z VRB01KT 1800 R25R/1800VP2000 R25L/1500V1700 BR FEW 020 24/24 Q1010 NOSIG=
14/02/2015 21:00:00Z	 SAID31 WIII 142100	METAR WIII 142100Z 17003KT 1400 R25R/P2000 R25L/1400V1500 BR FEW020 2 5/24 Q1010 NOSIG=
14/02/2015 21:30:00Z	 SAID31 WIII 142130	METAR WIII 142130Z 16004KT 1700 R25R/1400VP2000 R25L/1700V1800 FEW020 BR 25/24 Q1010 NOSIG=
14/02/2015 22:00:00Z	 SAID31 WIII 142200	METAR WIII 142200Z 15004KT 1700 R25R/P2000 R25L/1700V1800 BR FEW020 2 5/24 Q1010 NOSIG=
14/02/2015 22:30:00Z	 SAID31 WIII 142230	METAR WIII 142230Z VRB03KT 2000 BR FEW020 25/24 Q1010 NOSIG=
14/02/2015 23:00:00Z	 SAID31 WIII 142300	METAR WIII 142300Z VRB02KT 2200 R25L/1800V1900 HZ SCT020 25/24 Q1010 NOSIG=
14/02/2015 23:30:00Z	 SAID31 WIII 142330	METAR WIII 142330Z VRB03KT 2000 R25L/1700V1800 HZ FEW020CB SCT020 25/ 24 Q1011 NOSIG RMK CB TO NW=
15/02/2015 00:00:00Z	 SAID31 WIII 150000	METAR WIII 150000Z VRB03KT 1900 R25R/1700V2000 R25L/1200V1900 BR FEW0 19CB FEW020 25/24 Q1011 NOSIG RMK CB TO NW=
15/02/2015 00:30:00Z	 SAID31 WIII 150030	METAR WIII 150030Z 12005KT 1900 R25R/1800V2000 HZ FEW019CB FEW020 26/ 24 Q1011 NOSIG RMK CB TO NW=
15/02/2015 01:00:00Z	 SAID31 WIII 150100	METAR WIII 150100Z 09006KT 070V140 2000 VCTS -RA FEW018CB BKN020 26/2 4 Q1011 TEMPO -TSRA RMK CB TO W=
15/02/2015 01:30:00Z	 SAID31 WIII 150130	METAR WIII 150130Z 08008KT 4500 VCTS -RA FEW018CB BKN020 26/24 Q1012 NOSIG RMK CB TO N AND W=
15/02/2015 02:00:00Z	 SAID31 WIII 150200	METAR WIII 150200Z 08006KT 5000 -RA FEW018CB BKN020 26/24 Q1012 RETS NOSIG RMK CB TO NW=
15/02/2015 02:30:00Z	 SAID31 WIII 150230	METAR WIII 150230Z VRB04KT 5000 RA FEW018CB BKN022 26/24 Q1012 NOSIG RMK CB TO NW=
15/02/2015 03:00:00Z	 SAID31 WIII 150300	METAR WIII 150300Z 10006KT 5000 RA SCT018 OVC020 26/24 Q1012 NOSIG=
15/02/2015 03:30:00Z	 SAID31 WIII 150330	METAR WIII 150330Z VRB05KT 4000 VCTS -RA FEW018CB OVC020 25/24 Q1012 BECMG HZ RMK CB TO E AND SE=
15/02/2015 04:00:00Z	 SAID31 WIII 150400	METAR WIII 150400Z VRB03KT 5000 -RA SCT018 OVC020 26/24 Q1012 RETS BE CMG TL0445 HZ =
15/02/2015 04:30:00Z	 SAID31 WIII 150430	METAR WIII 150430Z VRB04KT 5000 -RA SCT018 OVC020 26/24 Q1011 BECMG F M0500 HZ=
15/02/2015 05:00:00Z	 SAID31 WIII 150500	METAR WIII 150500Z VRB03KT 5000 HZ SCT018 BKN022 27/24 Q1011 RERA NOS IG=
15/02/2015 05:30:00Z	 SAID31 WIII 150530	METAR WIII 150530Z VRB04KT 5000 -RA SCT018 OVC020 26/24 Q1010 NOSIG=
15/02/2015 06:00:00Z	 SAID31 WIII 150600	METAR WIII 150600Z 05005KT 6000 SCT018 OVC020 27/24 Q1010 RERA NOSIG=
15/02/2015 06:30:00Z	 SAID31 WIII 150630	METAR WIII 150630Z 06003KT 7000 SCT018 BKN020 27/25 Q1010 NOSIG=
15/02/2015 07:00:00Z	 SAID31 WIII 150700	METAR WIII 150700Z 04006KT 360V080 8000 SCT020 29/25 Q1009 NOSIG=
15/02/2015 07:30:00Z	 SAID31 WIII 150730	METAR WIII 150730Z VRB05KT 9999 SCT020 30/24 Q1009 NOSIG=
15/02/2015 08:00:00Z	 SAID31 WIII 150800	METAR WIII 150800Z 35006KT 320V030 8000 FEW020CB BKN022 29/24 Q1008 N OSIG RMK CB TO S=
15/02/2015 08:30:00Z	 SAID31 WIII 150830	METAR WIII 150830Z 36006KT 310V060 9999 FEW020CB BKN022 29/25 Q1008 N OSIG RMK CB TO S=
15/02/2015 09:00:00Z	 SAID31 WIII 150900	METAR WIII 150900Z 34008KT 330V030 9999 SCT020 29/24 Q1008 NOSIG=
15/02/2015 09:30:00Z	 SAID31 WIII 150930	METAR WIII 150930Z 36006KT 300V020 9999 FEW020CB SCT020 29/24 Q1008 N OSIG RMK CB TO S=
15/02/2015 10:00:00Z	 SAID31 WIII 151000	METAR WIII 151000Z VRB04KT 9999 FEW020CB SCT022 29/24 Q1008 NOSIG RMK CB TO S=
15/02/2015 10:30:00Z	 SAID31 WIII 151030	METAR WIII 151030Z 34004KT 9999 FEW020CB SCT022 27/24 Q1009 NOSIG RMK CB TO S=
15/02/2015 11:00:00Z	 SAID31 WIII 151100	METAR WIII 151100Z VRB03KT 9999 SCT020 27/24 Q1009 NOSIG=
15/02/2015 11:30:00Z	 SAID31 WIII 151130	METAR WIII 151130Z 34001KT 7000 SCT020 26/24 Q1009 NOSIG=
15/02/2015 12:00:00Z	 SAID31 WIII 151200	METAR WIII 151200Z VRB02KT 5000 BR SCT020 26/24 Q1010 NOSIG=
15/02/2015 12:30:00Z	 SAID31 WIII 151230	METAR WIII 151230Z 06002KT 5000 BR SCT020 26/24 Q1010 NOSIG=
15/02/2015 13:00:00Z	 SAID31 WIII 151300	METAR WIII 151300Z VRB02KT 4300 BR SCT020 26/24 Q1010 NOSIG=
15/02/2015 13:30:00Z	 SAID31 WIII 151330	METAR WIII 151330Z 05003KT 3300 BR SCT020 26/24 Q1010 NOSIG=
15/02/2015 14:00:00Z	 SAID31 WIII 151400	METAR WIII 151400Z 07003KT 3600 BR SCT020 26/25 Q1011 NOSIG=
15/02/2015 14:30:00Z	 SAID31 WIII 151430	METAR WIII 151430Z VRB03KT 4200 BR SCT021 26/24 Q1011 NOSIG=
15/02/2015 15:00:00Z	 SAID31 WIII 151500	METAR WIII 151500Z VRB03KT 4200 BR SCT021 26/24 Q1012 NOSIG=
15/02/2015 15:30:00Z	 SAID31 WIII 151530	METAR WIII 151530Z VRB02KT 5000 BR SCT020 26/24 Q1012 NOSIG=
15/02/2015 16:00:00Z	 SAID31 WIII 151600	METAR WIII 151600Z VRB04KT 3900 BR SCT021 26/24 Q1011 NOSIG=
15/02/2015 16:30:00Z	 SAID31 WIII 151630	METAR WIII 151630Z VRB03KT 3100 BR SCT021 26/24 Q1011 NOSIG=
15/02/2015 17:00:00Z	 SAID31 WIII 151700	METAR WIII 151700Z 14003KT 3700 BR SCT021 25/24 Q1011 NOSIG=
15/02/2015 17:30:00Z	 SAID31 WIII 151730	METAR WIII 151730Z 15003KT 2900 BR SCT020 25/24 Q1011 NOSIG=
15/02/2015 18:00:00Z	 SAID31 WIII 151800	METAR WIII 151800Z 15002KT 2700 BR SCT020 25/24 Q1010 NOSIG=
15/02/2015 18:30:00Z	 SAID31 WIII 151830	METAR WIII 151830Z 14002KT 3200 BR SCT020 25/24 Q1010 NOSIG=
15/02/2015 19:00:00Z	 SAID31 WIII 151900	METAR WIII 151900Z 23002KT 2900 BR FEW022 25/24 Q1010 NOSIG=
15/02/2015 19:30:00Z	 SAID31 WIII 151930	METAR WIII 151930Z 19003KT 2400 BR SCT022 25/24 Q1010 NOSIG=
15/02/2015 20:00:00Z	 SAID31 WIII 152000	METAR WIII 152000Z 18003KT 2500 BR FEW022 24/23 Q1010 NOSIG=
15/02/2015 20:30:00Z	 SAID31 WIII 152030	METAR WIII 152030Z VRB03KT 3200 BR SCT022 24/23 Q1010 NOSIG=
15/02/2015 21:00:00Z	 SAID31 WIII 152100	METAR WIII 152100Z 13002KT 2900 BR SCT022 25/24 Q1010 NOSIG=
15/02/2015 21:30:00Z	 SAID31 WIII 152130	METAR WIII 152130Z 15002KT 3000 BR SCT022 25/24 Q1010 NOSIG=
15/02/2015 22:00:00Z	 SAID31 WIII 152200	METAR WIII 152200Z 22002KT 2100 BR SCT020 24/23 Q1010 NOSIG=
15/02/2015 22:30:00Z	 SAID31 WIII 152230	METAR WIII 152230Z VRB02KT 2100 BR FEW021 24/23 Q1010 NOSIG=
15/02/2015 23:30:00Z	 SAID31 WIII 152330	METAR WIII 152330Z VRB03KT 2100 BR FEW022 25/24 Q1010 NOSIG=
16/02/2015 00:00:00Z	 SAID31 WIII 160000	METAR WIII 160000Z VRB04KT 2300 BR FEW020 25/24 Q1010 NOSIG=
16/02/2015 00:30:00Z	 SAID31 WIII 160030	METAR WIII 160030Z 14003KT 2300 BR FEW020 26/24 Q1011 NOSIG=
16/02/2015 01:00:00Z	 SAID31 WIII 160100	METAR WIII 160100Z VRB04KT 2100 BR FEW020 28/25 Q1011 NOSIG=
16/02/2015 01:30:00Z	 SAID31 WIII 160130	METAR WIII 160130Z VRB04KT 2800 BR FEW020 28/24 Q1011 NOSIG=
16/02/2015 02:00:00Z	 SAID31 WIII 160200	METAR WIII 160200Z 32005KT 4500 BR SCT020 28/24 Q1012 TEMPO FM0210 50 00 -RA=
16/02/2015 02:30:00Z	 SAID31 WIII 160230	METAR WIII 160230Z 35004KT 6000 FEW020CB SCT021 28/24 Q1012 NOSIG RMK CB TO S=
16/02/2015 03:00:00Z	 SAID31 WIII 160300	METAR WIII 160300Z 01006KT 8000 FEW020CB SCT021 29/24 Q1012 NOSIG RMK CB TO S=
16/02/2015 03:30:00Z	 SAID31 WIII 160330	METAR WIII 160330Z 36006KT 9999 FEW020CB FEW021 30/25 Q1011 NOSIG RMK CB TO S=
16/02/2015 04:00:00Z	 SAID31 WIII 160400	METAR WIII 160400Z 02009KT 9999 FEW020 30/24 Q1011 NOSIG=
16/02/2015 04:30:00Z	 SAID31 WIII 160430	METAR WIII 160430Z 02008KT 9999 FEW020 31/24 Q1011 NOSIG=
16/02/2015 05:00:00Z	 SAID31 WIII 160500	METAR WIII 160500Z 02008KT 330V060 9999 FEW019 31/24 Q1010 NOSIG=
16/02/2015 05:30:00Z	 SAID31 WIII 160530	METAR WIII 160530Z 36008KT 9999 FEW019 31/24 Q1010 NOSIG=
16/02/2015 06:00:00Z	 SAID31 WIII 160600	METAR WIII 160600Z 36006KT 9999 FEW020 32/25 Q1009 NOSIG=
16/02/2015 06:30:00Z	 SAID31 WIII 160630	METAR WIII 160630Z 36007KT 9999 FEW020CB FEW021 31/24 Q1009 NOSIG RMK CB TO SE=
16/02/2015 07:00:00Z	 SAID31 WIII 160700	METAR WIII 160700Z 02008KT 9999 FEW020CB FEW021 31/24 Q1008 NOSIG RMK CB TO SE=
16/02/2015 07:30:00Z	 SAID31 WIII 160730	METAR WIII 160730Z 36007KT 9999 FEW020CB FEW021 31/24 Q1008 NOSIG RMK CB TO SE=
16/02/2015 08:00:00Z	 SAID31 WIII 160800	METAR WIII 160800Z 01007KT 320V050 9999 FEW020CB FEW021 30/24 Q1008 N OSIG RMK CB TO SE=
16/02/2015 08:30:00Z	 SAID31 WIII 160830	METAR WIII 160830Z 35006KT 9999 FEW020CB FEW021 31/24 Q1007 NOSIG RMK CB TO SE, S, AND W=
16/02/2015 09:00:00Z	 SAID31 WIII 160900	METAR WIII 160900Z 34006KT 9999 FEW020CB FEW021 30/24 Q1007 NOSIG RMK CB TO S=
16/02/2015 09:30:00Z	 SAID31 WIII 160930	METAR WIII 160930Z 34005KT 9999 FEW020CB FEW021 30/23 Q1007 NOSIG RMK CB TO SE=
16/02/2015 10:00:00Z	 SAID31 WIII 161000	METAR WIII 161000Z 36006KT 9000 FEW020CB FEW021 28/24 Q1008 NOSIG RMK CB TO SE=
16/02/2015 10:30:00Z	 SAID31 WIII 161030	METAR WIII 161030Z 32004KT 9000 FEW020CB FEW021 28/24 Q1008 NOSIG RMK CB TO S=
16/02/2015 11:00:00Z	 SAID31 WIII 161100	METAR WIII 161100Z 01004KT 9000 FEW020CB FEW021 28/24 Q1009 NOSIG RMK CB TO S=
16/02/2015 11:30:00Z	 SAID31 WIII 161130	METAR WIII 161130Z 04004KT 6000 FEW020 27/24 Q1009 NOSIG=
16/02/2015 12:00:00Z	 SAID31 WIII 161200	METAR WIII 161200Z 05004KT 7000 FEW020 27/24 Q1009 NOSIG=
16/02/2015 12:30:00Z	 SAID31 WIII 161230	METAR WIII 161230Z 02003KT 7000 FEW020 27/24 Q1009 NOSIG=
16/02/2015 13:00:00Z	 SAID31 WIII 161300	METAR WIII 161300Z 03003KT 5000 BR FEW020 27/24 Q1010 NOSIG=
16/02/2015 13:30:00Z	 SAID31 WIII 161330	METAR WIII 161330Z 04004KT 5000 BR SCT020 26/24 Q1010 NOSIG=
16/02/2015 14:00:00Z	 SAID31 WIII 161400	METAR WIII 161400Z 03003KT 6000 BR SCT020 26/24 Q1011 NOSIG=
16/02/2015 14:30:00Z	 SAID31 WIII 161430	METAR WIII 161430Z VRB02KT 5000 BR SCT020 27/24 Q1011 NOSIG=
16/02/2015 15:00:00Z	 SAID31 WIII 161500	METAR WIII 161500Z VRB02KT 6000 BR SCT020 26/24 Q1012 NOSIG=
16/02/2015 15:30:00Z	 SAID31 WIII 161530	METAR WIII 161530Z 01002KT 5000 BR SCT020 27/24 Q1012 NOSIG=
16/02/2015 16:00:00Z	 SAID31 WIII 161600	METAR WIII 161600Z 02002KT 6000 BR BKN020 26/24 Q1011 TEMPO -RA=
16/02/2015 16:30:00Z	 SAID31 WIII 161630	METAR WIII 161630Z VRB02KT 4000 BR BKN020 26/24 Q1011 NOSIG=
16/02/2015 17:00:00Z	 SAID31 WIII 161700	METAR WIII 161700Z 01003KT 3500 -RA FEW018CB BKN020 26/25 Q1011 NOSIG RMK CB TO S=
16/02/2015 17:30:00Z	 SAID31 WIII 161730	METAR WIII 161730Z VRB02KT 5000 BR BKN020 26/24 Q1011 RERA NOSIG=
16/02/2015 18:00:00Z	 SAID31 WIII 161800	METAR WIII 161800Z 02003KT 5000 BR BKN020 26/24 Q1010 NOSIG=
16/02/2015 18:30:00Z	 SAID31 WIII 161830	METAR WIII 161830Z 02002KT 4500 BR FEW020CB SCT020 26/24 Q1010 NOSIG RMK CB TO S=
16/02/2015 19:00:00Z	 SAID31 WIII 161900	METAR WIII 161900Z 03003KT 5000 BR FEW020CB SCT020 25/24 Q1009 NOSIG RMK CB TO NW=
16/02/2015 19:30:00Z	 SAID31 WIII 161930	METAR WIII 161930Z 01002KT 4700 BR FEW020CB SCT020 26/23 Q1009 NOSIG RMK CB TO S AND W=
16/02/2015 20:00:00Z	 SAID31 WIII 162000	METAR WIII 162000Z VRB01KT 5000 BR SCT020 25/24 Q1009 NOSIG=
16/02/2015 20:30:00Z	 SAID31 WIII 162030	METAR WIII 162030Z VRB02KT 5000 BR SCT020 25/24 Q1009 NOSIG=
16/02/2015 21:00:00Z	 SAID31 WIII 162100	METAR WIII 162100Z 00000KT 6000 BR FEW020CB SCT020 25/24 Q1009 NOSIG RMK CB TO W=
16/02/2015 21:30:00Z	 SAID31 WIII 162130	METAR WIII 162130Z VRB02KT 6000 BR SCT020 25/24 Q1009 NOSIG=
16/02/2015 22:00:00Z	 SAID31 WIII 162200	METAR WIII 162200Z 13001KT 5000 BR FEW020CB SCT020 25/24 Q1009 NOSIG RMK CB TO W=
16/02/2015 22:30:00Z	 SAID31 WIII 162230	METAR WIII 162230Z 11001KT 6000 BR FEW020CB SCT020 25/24 Q1009 NOSIG RMK CB TO W=
16/02/2015 23:00:00Z	 SAID31 WIII 162300	METAR WIII 162300Z VRB03KT 5000 BR FEW018CB BKN020 25/24 Q1010 NOSIG RMK CB TO S AND W=
16/02/2015 23:00:00Z	 SAID31 WIII 162300 CCA	METAR COR WIII 162300Z VRB03KT 5000 BR FEW018CB BKN020 25/24 Q1010 TE MPO TSRA RMK CB TO S AND W=
16/02/2015 23:30:00Z	 SAID31 WIII 162330	METAR WIII 162330Z 29005KT 5000 RA FEW018CB OVC020 25/23 Q1010 NOSIG RMK CB TO SE=
17/02/2015 00:00:00Z	 SAID31 WIII 170000	METAR WIII 170000Z 27004KT 6000 -RA FEW018CB OVC020 24/23 Q1011 NOSIG RMK CB TO N=
17/02/2015 00:30:00Z	 SAID31 WIII 170030	METAR WIII 170030Z 27005KT 6000 -RA FEW020CB OVC022 24/23 Q1011 NOSIG RMK CB TO E=
17/02/2015 01:00:00Z	 SAID31 WIII 170100	METAR WIII 170100Z 25003KT 5000 -TSRA FEW018CB BKN019 24/23 Q1012 NOS IG RMK CB TO NE=
17/02/2015 01:30:00Z	 SAID31 WIII 170130	METAR WIII 170130Z VRB01KT 6000 -RA FEW018CB BKN019 24/22 Q1012 NOSIG RMK CB TO NE=
17/02/2015 02:00:00Z	 SAID31 WIII 170200	METAR WIII 170200Z VRB02KT 6000 RA FEW018CB BKN019 24/23 Q1012 NOSIG RMK CB TO NE=
17/02/2015 02:30:00Z	 SAID31 WIII 170230	METAR WIII 170230Z VRB03KT 4800 -RA BKN018 25/23 Q1012 NOSIG=
17/02/2015 03:00:00Z	 SAID31 WIII 170300	METAR WIII 170300Z 08006KT 7000 -RA BKN018 25/23 Q1012 NOSIG=
17/02/2015 03:30:00Z	 SAID31 WIII 170330	METAR WIII 170330Z 08005KT 7000 BKN020 26/23 Q1012 TEMPO FM0340 4000 -RA=
17/02/2015 04:00:00Z	 SAID31 WIII 170400	METAR WIII 170400Z 05005KT 8000 BKN020 25/23 Q1012 NOSIG=
17/02/2015 04:30:00Z	 SAID31 WIII 170430	METAR WIII 170430Z 03006KT 350V050 8000 BKN020 25/23 Q1012 TEMPO FM05 35 3000 RA=
17/02/2015 04:30:00Z	 SAID31 WIII 170430 CCA	METAR COR WIII 170430Z 03006KT 8000 BKN020 25/23 Q1012 TEMPO FM0435 3 000 RA=
17/02/2015 05:00:00Z	 SAID31 WIII 170500	METAR WIII 170500Z 01007KT 6000 TSRA FEW017CB BKN018 24/23 Q1012 NOSI G RMK CB OVER THE FIELD=
17/02/2015 05:33:00Z	 SAID31 WIII 170533	METAR WIII 170533Z 01006KT 340V040 5000 RA FEW018CB BKN018 24/23 Q101 1 NOSIG RMK CB TO S=
17/02/2015 06:00:00Z	 SAID31 WIII 170600	METAR WIII 170600Z 03007KT 5000 -RA FEW018CB BKN018 24/23 Q1010 RETS NOSIG RMK CB TO S=
17/02/2015 06:30:00Z	 SAID31 WIII 170630	METAR WIII 170630Z 02004KT 6000 -RA BKN018 25/23 Q1010 NOSIG=
17/02/2015 07:00:00Z	 SAID31 WIII 170700	METAR WIII 170700Z 36004KT 8000 -RA FEW018CB BKN018 25/23 Q1009 NOSIG RMK CB TO SE=
17/02/2015 07:30:00Z	 SAID31 WIII 170730	METAR WIII 170730Z VRB02KT 8000 -RA BKN018 26/24 Q1009 NOSIG=
17/02/2015 08:00:00Z	 SAID31 WIII 170800	METAR WIII 170800Z VRB03KT 8000 BKN020 27/24 Q1008 RERA NOSIG=
17/02/2015 08:30:00Z	 SAID31 WIII 170830	METAR WIII 170830Z 31003KT 7000 BKN020 28/24 Q1008 NOSIG=
17/02/2015 09:00:00Z	 SAID31 WIII 170900	METAR WIII 170900Z 28003KT 8000 SCT020 27/24 Q1008 NOSIG=
17/02/2015 09:30:00Z	 SAID31 WIII 170930	METAR WIII 170930Z VRB03KT 8000 SCT020 27/24 Q1008 NOSIG=
17/02/2015 10:00:00Z	 SAID31 WIII 171000	METAR WIII 171000Z VRB02KT 8000 SCT020 27/23 Q1008 NOSIG=
17/02/2015 10:30:00Z	 SAID31 WIII 171030	METAR WIII 171030Z 01001KT 7000 SCT020 27/23 Q1008 NOSIG=
17/02/2015 11:00:00Z	 SAID31 WIII 171100	METAR WIII 171100Z 05003KT 6000 SCT020 26/24 Q1009 NOSIG=
17/02/2015 11:30:00Z	 SAID31 WIII 171130	METAR WIII 171130Z VRB02KT 6000 SCT020 26/23 Q1009 NOSIG=
17/02/2015 12:30:00Z	 SAID31 WIII 171230	METAR WIII 171230Z 16006KT 110V220 3300 HZ SCT020 26/24 Q1009 NOSIG=
17/02/2015 13:00:00Z	 SAID31 WIII 171300	METAR WIII 171300Z VRB05KT 4300 -RA SCT018 26/23 Q1010 NOSIG=
17/02/2015 13:30:00Z	 SAID31 WIII 171330	METAR WIII 171330Z VRB04KT 3800 -RA SCT018 26/23 Q1010 NOSIG=
17/02/2015 13:30:00Z	 SAID31 WIII 171330 CCA	METAR COR WIII 171330Z VRB04KT 3800 -RA SCT018 26/23 Q1010 BECMG TL14 30 4000 -RA=
17/02/2015 14:00:00Z	 SAID31 WIII 171400	METAR WIII 171400Z VRB04KT 3800 -RA SCT018 26/23 Q1011 NOSIG=
17/02/2015 14:30:00Z	 SAID31 WIII 171430	METAR WIII 171430Z 17003KT 3500 -RA SCT018 25/24 Q1011 BECMG TL1530 3 000 -RA=
17/02/2015 15:00:00Z	 SAID31 WIII 171500	METAR WIII 171500Z 16004KT 3000 -RA SCT018 25/24 Q1011 NOSIG=
17/02/2015 15:30:00Z	 SAID31 WIII 171530	METAR WIII 171530Z 15004KT 3500 BR FEW018CB SCT019 25/23 Q1011 RERA N OSIG RMK CB TO W=
17/02/2015 16:00:00Z	 SAID31 WIII 171600	METAR WIII 171600Z VRB03KT 4000 BR FEW018CB SCT019 25/23 Q1012 NOSIG RMK CB TO W=
17/02/2015 16:30:00Z	 SAID31 WIII 171630	METAR WIII 171630Z 13003KT 3800 BR SCT019 25/23 Q1011 NOSIG=
17/02/2015 17:00:00Z	 SAID31 WIII 171700	METAR WIII 171700Z 11003KT 3100 BR FEW020 25/23 Q1011 NOSIG=
17/02/2015 17:30:00Z	 SAID31 WIII 171730	METAR WIII 171730Z VRB02KT 5000 BR FEW020 24/23 Q1011 NOSIG=
17/02/2015 18:00:00Z	 SAID31 WIII 171800	METAR WIII 171800Z 35002KT 3200 BR FEW020 24/23 Q1010 NOSIG=
17/02/2015 18:30:00Z	 SAID31 WIII 171830	METAR WIII 171830Z 07003KT 2400 BR FEW020 24/23 Q1010 NOSIG=
17/02/2015 19:00:00Z	 SAID31 WIII 171900	METAR WIII 171900Z 13002KT 3000 BR FEW020 24/23 Q1009 NOSIG=
17/02/2015 19:30:00Z	 SAID31 WIII 171930	METAR WIII 171930Z VRB02KT 3200 BR FEW020 25/23 Q1009 NOSIG=
17/02/2015 20:00:00Z	 SAID31 WIII 172000	METAR WIII 172000Z 18002KT 2700 BR FEW020 24/23 Q1009 NOSIG=
17/02/2015 21:00:00Z	 SAID31 WIII 172100	METAR WIII 172100Z 00000KT 2900 BR FEW020CB FEW021 24/23 Q1009 NOSIG RMK CB TO W=
17/02/2015 21:30:00Z	 SAID31 WIII 172130	METAR WIII 172130Z 00000KT 2900 BR FEW020 24/23 Q1009 NOSIG=
17/02/2015 22:00:00Z	 SAID31 WIII 172200	METAR WIII 172200Z 00000KT 2900 BR FEW020 24/23 Q1009 NOSIG=
17/02/2015 22:30:00Z	 SAID31 WIII 172230	METAR WIII 172230Z 24002KT 3500 BR FEW020 24/23 Q1009 NOSIG=
17/02/2015 23:00:00Z	 SAID31 WIII 172300	METAR WIII 172300Z 29003KT 3000 BR FEW020 24/23 Q1010 NOSIG=
17/02/2015 23:30:00Z	 SAID31 WIII 172330	METAR WIII 172330Z VRB02KT 3000 BR FEW020 24/23 Q1010 NOSIG=
18/02/2015 00:00:00Z	 SAID31 WIII 180000	METAR WIII 180000Z 28003KT 2700 BR FEW020 BKN100 24/23 Q1010 NOSIG=
18/02/2015 00:30:00Z	 SAID31 WIII 180030	METAR WIII 180030Z 27004KT 2500 BR FEW020 25/23 Q1010 NOSIG=
18/02/2015 01:00:00Z	 SAID31 WIII 180100	METAR WIII 180100Z 28004KT 2500 BR FEW020 27/24 Q1011 NOSIG=
18/02/2015 01:30:00Z	 SAID31 WIII 180130	METAR WIII 180130Z 29006KT 260V330 7000 FEW020 28/24 Q1011 NOSIG=
18/02/2015 02:00:00Z	 SAID31 WIII 180200	METAR WIII 180200Z 30007KT 270V350 8000 FEW022 28/24 Q1011 NOSIG=
18/02/2015 02:30:00Z	 SAID31 WIII 180230	METAR WIII 180230Z 33008KT 8000 SCT018 28/24 Q1011 NOSIG=
18/02/2015 03:00:00Z	 SAID31 WIII 180300	METAR WIII 180300Z 32008KT 280V010 9000 SCT020 28/24 Q1011 NOSIG=
18/02/2015 03:30:00Z	 SAID31 WIII 180330	METAR WIII 180330Z 32008KT 290V360 9000 SCT020 28/24 Q1011 NOSIG=
18/02/2015 04:00:00Z	 SAID31 WIII 180400	METAR WIII 180400Z 33008KT 290V010 9000 BKN020 29/24 Q1011 NOSIG=
18/02/2015 04:30:00Z	 SAID31 WIII 180430	METAR WIII 180430Z 31010KT 9999 SCT018 29/24 Q1011 NOSIG=
18/02/2015 05:00:00Z	 SAID31 WIII 180500	METAR WIII 180500Z 32010KT 9999 SCT020 29/24 Q1010 NOSIG=
18/02/2015 05:30:00Z	 SAID31 WIII 180530	METAR WIII 180530Z 33011KT 9999 SCT020 29/24 Q1009 NOSIG=
18/02/2015 06:00:00Z	 SAID31 WIII 180600	METAR WIII 180600Z 33009KT 300V010 9999 SCT022 30/24 Q1009 NOSIG=
18/02/2015 06:30:00Z	 SAID31 WIII 180630	METAR WIII 180630Z 32009KT 290V010 9999 SCT022 30/24 Q1008 NOSIG=
18/02/2015 07:00:00Z	 SAID31 WIII 180700	METAR WIII 180700Z 32009KT 280V350 9999 SCT022 30/24 Q1008 NOSIG=
18/02/2015 07:30:00Z	 SAID31 WIII 180730	METAR WIII 180730Z 32008KT 280V360 9999 SCT022 29/24 Q1007 NOSIG=
18/02/2015 08:00:00Z	 SAID31 WIII 180800	METAR WIII 180800Z 32008KT 270V030 9000 FEW018CB SCT18 30/24 Q1007 NO SIG RMK CB TO S AND SE=
18/02/2015 08:30:00Z	 SAID31 WIII 180830	METAR WIII 180830Z 32007KT 280V350 9000 FEW016CB SCT018 29/23 Q1007 N OSIG RMK CB TO SE AND SW=
18/02/2015 09:00:00Z	 SAID31 WIII 180900	METAR WIII 180900Z 32007KT 280V010 9000 SCT020 28/23 Q1007 NOSIG=
18/02/2015 09:30:00Z	 SAID31 WIII 180930	METAR WIII 180930Z 31008KT 9999 FEW019CB SCT020 29/23 Q1008 NOSIG RMK CB TO SE=
18/02/2015 10:00:00Z	 SAID31 WIII 181000	METAR WIII 181000Z 32005KT 9000 FEW018 28/23 Q1008 NOSIG=
18/02/2015 10:30:00Z	 SAID31 WIII 181030	METAR WIII 181030Z 31005KT 9000 FEW018CB SCT020 28/24 Q1008 NOSIG RMK CB TO S AND W=
18/02/2015 11:00:00Z	 SAID31 WIII 181100	METAR WIII 181100Z 26007KT 7000 -RA BKN018 27/23 Q1009 NOSIG=
18/02/2015 11:30:00Z	 SAID31 WIII 181130	METAR WIII 181130Z 25010KT 7000 -RA BKN020 25/23 Q1009 TEMPO 5000 RA=
18/02/2015 12:00:00Z	 SAID31 WIII 181200	METAR WIII 181200Z VRB05KT 6000 BKN020 25/23 Q1010 RERA NOSIG=
18/02/2015 12:30:00Z	 SAID31 WIII 181230	METAR WIII 181230Z 21006KT 5000 RA BKN020 26/22 Q1010 NOSIG=
18/02/2015 13:00:00Z	 SAID31 WIII 181300	METAR WIII 181300Z VRB03KT 5000 -RA SCT020 26/23 Q1011 NOSIG=
18/02/2015 13:30:00Z	 SAID31 WIII 181330	METAR WIII 181330Z VRB03KT 5000 -RA SCT020 25/23 Q1011 NOSIG=
18/02/2015 14:00:00Z	 SAID31 WIII 181400	METAR WIII 181400Z 27005KT 3200 -RA BKN018 25/23 Q1012 NOSIG=
18/02/2015 14:30:00Z	 SAID31 WIII 181430	METAR WIII 181430Z 29003KT 3900 -RA FEW018CB BKN018 25/23 Q1012 NOSIG RMK CB TO NW=
18/02/2015 15:00:00Z	 SAID31 WIII 181500	METAR WIII 181500Z 27006KT 4000 -TSRA FEW018CB BKN018 25/24 Q1012 NOS IG RMK CB TO NW=
18/02/2015 15:30:00Z	 SAID31 WIII 181530	METAR WIII 181530Z 28007KT 5000 R25L/1400V2000 -RA FEW018CB BKN020 25 /23 Q1012 NOSIG RMK CB TO NE=
18/02/2015 16:00:00Z	 SAID31 WIII 181600	METAR WIII 181600Z 30006KT 250V330 4000 TSRA FEW017CB BKN018 24/23 Q1 012 NOSIG RMK CB TO E=
18/02/2015 16:30:00Z	 SAID31 WIII 181630	METAR WIII 181630Z 30006KT 270V340 4000 -TSRA FEW017CB BKN018 24/23 Q 1012 NOSIG RMK CB TO E=
18/02/2015 17:00:00Z	 SAID31 WIII 181700	METAR WIII 181700Z 31007KT 280V350 0900 R25R/1700VP2000 +RA FEW017CB BKN018 24/23 Q1012 NOSIG RMK CB TO NE=
18/02/2015 17:30:00Z	 SAID31 WIII 181730	METAR WIII 181730Z VRB06KT 0750 R25R/0900VP2000 R25L/1300VP2000 +RA F EW017CB BKN018 23/23 Q1012 NOSIG RMK CB TO NE=
18/02/2015 18:00:00Z	 SAID31 WIII 181800	METAR WIII 181800Z 28008KT 250V310 2500 +RA BKN018 23/23 Q1011 NOSIG=
18/02/2015 19:00:00Z	 SAID31 WIII 181900	METAR WIII 181900Z 29007KT 1100 R25L/1300V2000 +RA BKN018 23/23 Q1011 NOSIG=
18/02/2015 19:30:00Z	 SAID31 WIII 181930	METAR WIII 181930Z 28004KT 3200 RA 23/22 Q1011 NOSIG=
18/02/2015 20:00:00Z	 SAID31 WIII 182000	METAR WIII 182000Z 26005KT 2700 RA BKN018 23/22 Q1011 NOSIG=
18/02/2015 21:00:00Z	 SAID31 WIII 182100	METAR WIII 182100Z 26003KT 5000 -RA BKN018 23/22 Q1010 NOSIG=
18/02/2015 21:30:00Z	 SAID31 WIII 182130	METAR WIII 182130Z 27003KT 2700 -RA BKN018 23/22 Q1011 NOSIG=
18/02/2015 22:00:00Z	 SAID31 WIII 182200	METAR WIII 182200Z VRB02KT 4000 -RA BKN018 23/22 Q1011 NOSIG=
18/02/2015 22:30:00Z	 SAID31 WIII 182230	METAR WIII 182230Z VRB03KT 4000 -RA BKN018 23/22 Q1011 NOSIG=
18/02/2015 23:00:00Z	 SAID31 WIII 182300	METAR WIII 182300Z VRB01KT 4500 -RA BKN018 23/22 Q1011 NOSIG=
18/02/2015 23:30:00Z	 SAID31 WIII 182330	METAR WIII 182330Z 28002KT 5000 BKN020 23/22 Q1011 NOSIG=
19/02/2015 00:00:00Z	 SAID31 WIII 190000	METAR WIII 190000Z 25004KT 6000 BKN020 24/23 Q1011 NOSIG=
19/02/2015 00:30:00Z	 SAID31 WIII 190030	METAR WIII 190030Z 21004KT 6000 -RA BKN018 24/22 Q1012 NOSIG=
19/02/2015 01:00:00Z	 SAID31 WIII 190100	METAR WIII 190100Z VRB04KT 6000 SCT019 24/23 Q1013 NOSIG=
19/02/2015 01:30:00Z	 SAID31 WIII 190130	METAR WIII 190130Z 27003KT 6000 SCT020 25/23 Q1013 NOSIG=
19/02/2015 02:00:00Z	 SAID31 WIII 190200	METAR WIII 190200Z 26005KT 7000 SCT020 BKN080 25/23 Q1013 NOSIG=
19/02/2015 02:30:00Z	 SAID31 WIII 190230	METAR WIII 190230Z 26004KT 7000 SCT020 26/23 Q1013 NOSIG=
19/02/2015 03:00:00Z	 SAID31 WIII 190300	METAR WIII 190300Z VRB04KT 7000 SCT020 27/23 Q1013 NOSIG=
19/02/2015 03:30:00Z	 SAID31 WIII 190330	METAR WIII 190330Z VRB03KT 7000 SCT020 28/23 Q1013 NOSIG=
19/02/2015 04:00:00Z	 SAID31 WIII 190400	METAR WIII 190400Z 27005KT 7000 SCT020 28/23 Q1013 NOSIG=
19/02/2015 04:30:00Z	 SAID31 WIII 190430	METAR WIII 190430Z VRB04KT 7000 BKN020 28/23 Q1012 NOSIG=
19/02/2015 05:00:00Z	 SAID31 WIII 190500	METAR WIII 190500Z 32004KT 7000 BKN020 29/23 Q1012 NOSIG=
19/02/2015 05:30:00Z	 SAID31 WIII 190530	METAR WIII 190530Z VRB03KT 7000 BKN021 29/23 Q1011 NOSIG=
19/02/2015 06:00:00Z	 SAID31 WIII 190600	METAR WIII 190600Z VRB04KT 7000 BKN020 28/23 Q1011 NOSIG=
19/02/2015 06:30:00Z	 SAID31 WIII 190630	METAR WIII 190630Z VRB04KT 7000 BKN020 27/23 Q1011 NOSIG=
19/02/2015 07:00:00Z	 SAID31 WIII 190700	METAR WIII 190700Z VRB05KT 6000 BKN020 27/23 Q1011 TEMPO 3000 RA=
19/02/2015 07:30:00Z	 SAID31 WIII 190730	METAR WIII 190730Z VRB05KT 5000 -RA BKN020 27/23 Q1011 NOSIG=
19/02/2015 08:00:00Z	 SAID31 WIII 190800	METAR WIII 190800Z VRB05KT 6000 VCSH BKN020 27/24 Q1010 NOSIG=
19/02/2015 08:30:00Z	 SAID31 WIII 190830	METAR WIII 190830Z VRB05KT 7000 BKN020 27/23 Q1010 NOSIG=
19/02/2015 09:00:00Z	 SAID31 WIII 190900	METAR WIII 190900Z VRB04KT 7000 SCT019 BKN090 26/23 Q1010 NOSIG=
19/02/2015 09:30:00Z	 SAID31 WIII 190930	METAR WIII 190930Z 02005KT 7000 SCT019 BKN090 26/23 Q1010 NOSIG=
19/02/2015 10:00:00Z	 SAID31 WIII 191000	METAR WIII 191000Z 02004KT 7000 SCT019 BKN090 26/23 Q1011 NOSIG=
19/02/2015 10:30:00Z	 SAID31 WIII 191030	METAR WIII 191030Z 04004KT 7000 SCT019 BKN090 26/22 Q1011 NOSIG=
19/02/2015 11:00:00Z	 SAID31 WIII 191100	METAR WIII 191100Z 04004KT 7000 FEW020 BKN090 26/23 Q1011 NOSIG=
19/02/2015 11:30:00Z	 SAID31 WIII 191130	METAR WIII 191130Z 06003KT 7000 FEW020 BKN090 25/23 Q1011 NOSIG=
19/02/2015 12:00:00Z	 SAID31 WIII 191200	METAR WIII 191200Z 08004KT 6000 FEW020 BKN090 25/22 Q1011 NOSIG=
19/02/2015 12:30:00Z	 SAID31 WIII 191230	METAR WIII 191230Z 09004KT 6000 FEW020 BKN090 25/22 Q1012 NOSIG=
19/02/2015 13:00:00Z	 SAID31 WIII 191300	METAR WIII 191300Z VRB03KT 6000 FEW020 25/22 Q1012 NOSIG=
19/02/2015 13:30:00Z	 SAID31 WIII 191330	METAR WIII 191330Z VRB04KT 5000 BR FEW018 26/22 Q1012 NOSIG=
19/02/2015 14:00:00Z	 SAID31 WIII 191400	METAR WIII 191400Z VRB03KT 5000 BR FEW018 25/23 Q1013 NOSIG=
19/02/2015 14:30:00Z	 SAID31 WIII 191430	METAR WIII 191430Z 11005KT 5000 BR FEW018 26/23 Q1013 NOSIG=
19/02/2015 15:00:00Z	 SAID31 WIII 191500	METAR WIII 191500Z VRB04KT 5000 BR FEW018 26/22 Q1013 NOSIG=
19/02/2015 15:30:00Z	 SAID31 WIII 191530	METAR WIII 191530Z VRB04KT 5000 BR FEW018 25/23 Q1013 NOSIG=
19/02/2015 16:00:00Z	 SAID31 WIII 191600	METAR WIII 191600Z VRB03KT 5000 BR FEW018 25/23 Q1013 NOSIG=
19/02/2015 16:30:00Z	 SAID31 WIII 191630	METAR WIII 191630Z VRB04KT 5000 BR SCT020 25/23 Q1013 NOSIG=
19/02/2015 17:00:00Z	 SAID31 WIII 191700	METAR WIII 191700Z VRB05KT 4000 BR FEW018 25/22 Q1013 NOSIG=
19/02/2015 17:30:00Z	 SAID31 WIII 191730	METAR WIII 191730Z VRB04KT 4000 BR FEW020 25/22 Q1012 NOSIG=
19/02/2015 18:00:00Z	 SAID31 WIII 191800	METAR WIII 191800Z 15004KT 4000 BR FEW018 24/22 Q1012 NOSIG=
19/02/2015 18:30:00Z	 SAID31 WIII 191830	METAR WIII 191830Z VRB05KT 3000 BR FEW018 24/22 Q1012 NOSIG=
19/02/2015 19:00:00Z	 SAID31 WIII 191900	METAR WIII 191900Z VRB04KT 3000 BR FEW018 24/22 Q1011 NOSIG=
19/02/2015 19:30:00Z	 SAID31 WIII 191930	METAR WIII 191930Z 13003KT 3000 BR FEW018 24/22 Q1011 NOSIG=
19/02/2015 20:00:00Z	 SAID31 WIII 192000	METAR WIII 192000Z 12004KT 3000 BR FEW018 24/22 Q1011 NOSIG=
19/02/2015 20:30:00Z	 SAID31 WIII 192030	METAR WIII 192030Z 12004KT 3000 BR FEW018 24/22 Q1011 NOSIG=
19/02/2015 21:00:00Z	 SAID31 WIII 192100	METAR WIII 192100Z 13004KT 3000 BR FEW018 24/22 Q1011 NOSIG=
19/02/2015 21:30:00Z	 SAID31 WIII 192130	METAR WIII 192130Z AUTO 13004KT 4900 24/22 Q1011=
19/02/2015 22:00:00Z	 SAID31 WIII 192200	METAR WIII 192200Z AUTO 13003KT 5000 BR 24/22 Q1012=
19/02/2015 22:30:00Z	 SAID31 WIII 192230	METAR WIII 192230Z AUTO 13004KT 4200 -SHRA 24/22 Q1012=
19/02/2015 23:00:00Z	 SAID31 WIII 192300	METAR WIII 192300Z AUTO VRB03KT 5000 24/22 Q1012=
19/02/2015 23:30:00Z	 SAID31 WIII 192330	METAR WIII 192330Z VRB02KT 5000 BR FEW018 BKN060 24/22 Q1013 NOSIG=
20/02/2015 00:00:00Z	 SAID31 WIII 200000	METAR WIII 200000Z VRB03KT 5000 BR FEW018 BKN060 25/22 Q1013 NOSIG=
20/02/2015 00:30:00Z	 SAID31 WIII 200030	METAR WIII 200030Z VRB03KT 6000 FEW018 25/22 Q1013 NOSIG=
20/02/2015 01:00:00Z	 SAID31 WIII 200100	METAR WIII 200100Z VRB04KT 7000 FEW021 26/23 Q1013 NOSIG=
20/02/2015 01:30:00Z	 SAID31 WIII 200130	METAR WIII 200130Z 05004KT 7000 FEW021 28/23 Q1013 NOSIG=
20/02/2015 02:00:00Z	 SAID31 WIII 200200	METAR WIII 200200Z 04005KT 8000 FEW022 30/23 Q1013 NOSIG=
20/02/2015 02:30:00Z	 SAID31 WIII 200230	METAR WIII 200230Z 05007KT 8000 FEW020 30/23 Q1013 NOSIG=
20/02/2015 03:00:00Z	 SAID31 WIII 200300	METAR WIII 200300Z VRB05KT 8000 FEW020 30/23 Q1013 NOSIG=
20/02/2015 03:30:00Z	 SAID31 WIII 200330	METAR WIII 200330Z 01006KT 310V040 9000 FEW020 29/23 Q1013 NOSIG=
20/02/2015 04:00:00Z	 SAID31 WIII 200400	METAR WIII 200400Z VRB05KT 9000 SCT020 29/23 Q1012 NOSIG=
20/02/2015 04:30:00Z	 SAID31 WIII 200430	METAR WIII 200430Z VRB05KT 9000 FEW020 29/24 Q1012 NOSIG=
20/02/2015 05:00:00Z	 SAID31 WIII 200500	METAR WIII 200500Z 34006KT 9000 FEW020 29/23 Q1012 NOSIG=
20/02/2015 05:30:00Z	 SAID31 WIII 200530	METAR WIII 200530Z 36006KT 9999 FEW020 29/23 Q1011 NOSIG=
20/02/2015 06:00:00Z	 SAID31 WIII 200600	METAR WIII 200600Z 32006KT 9999 FEW020 29/23 Q1011 NOSIG=
20/02/2015 06:30:00Z	 SAID31 WIII 200630	METAR WIII 200630Z VRB05KT 9999 FEW020 29/23 Q1010 NOSIG=
20/02/2015 07:00:00Z	 SAID31 WIII 200700	METAR WIII 200700Z 31007KT 9999 FEW020 29/22 Q1010 NOSIG=
20/02/2015 07:30:00Z	 SAID31 WIII 200730	METAR WIII 200730Z 31007KT 9999 FEW020 28/23 Q1010 NOSIG=
20/02/2015 08:00:00Z	 SAID31 WIII 200800	METAR WIII 200800Z 31007KT 9999 FEW020 28/23 Q1010 NOSIG=
20/02/2015 08:30:00Z	 SAID31 WIII 200830	METAR WIII 200830Z 30006KT 9000 FEW020 28/23 Q1010 NOSIG=
20/02/2015 09:00:00Z	 SAID31 WIII 200900	METAR WIII 200900Z 32007KT 9000 FEW020 28/23 Q1010 NOSIG=
20/02/2015 09:30:00Z	 SAID31 WIII 200930	METAR WIII 200930Z 31004KT 9000 FEW020 28/23 Q1010 NOSIG=
20/02/2015 10:00:00Z	 SAID31 WIII 201000	METAR WIII 201000Z 33003KT 9000 SCT020 28/22 Q1010 NOSIG=
20/02/2015 10:30:00Z	 SAID31 WIII 201030	METAR WIII 201030Z 32004KT 8000 FEW020 27/23 Q1010 NOSIG=
20/02/2015 11:00:00Z	 SAID31 WIII 201100	METAR WIII 201100Z 30003KT 7000 FEW020 27/23 Q1011 NOSIG=
20/02/2015 11:30:00Z	 SAID31 WIII 201130	METAR WIII 201130Z 32002KT 7000 FEW020 27/23 Q1011 NOSIG=
20/02/2015 12:00:00Z	 SAID31 WIII 201200	METAR WIII 201200Z 29002KT 6000 FEW020 27/23 Q1011 NOSIG=
20/02/2015 12:30:00Z	 SAID31 WIII 201230	METAR WIII 201230Z 26003KT 6000 FEW020 26/24 Q1011 NOSIG=
20/02/2015 13:00:00Z	 SAID31 WIII 201300	METAR WIII 201300Z 26005KT 4000 HZ SCT021 26/23 Q1012 NOSIG=
20/02/2015 13:30:00Z	 SAID31 WIII 201330	METAR WIII 201330Z 26004KT 4000 HZ FEW021 SCT080 26/23 Q1012 NOSIG=
20/02/2015 14:00:00Z	 SAID31 WIII 201400	METAR WIII 201400Z VRB03KT 4000 HZ SCT021 26/23 Q1012 NOSIG=
20/02/2015 14:30:00Z	 SAID31 WIII 201430	METAR WIII 201430Z VRB02KT 4500 HZ SCT021 26/23 Q1013 NOSIG=
20/02/2015 15:00:00Z	 SAID31 WIII 201500	METAR WIII 201500Z 07003KT 3100 HZ SCT021 26/23 Q1013 NOSIG=
20/02/2015 15:30:00Z	 SAID31 WIII 201530	METAR WIII 201530Z VRB02KT 3700 HZ FEW021 SCT090 26/23 Q1013 NOSIG=
20/02/2015 16:00:00Z	 SAID31 WIII 201600	METAR WIII 201600Z 03002KT 3000 HZ FEW021 SCT090 26/23 Q1013 NOSIG=
20/02/2015 16:30:00Z	 SAID31 WIII 201630	METAR WIII 201630Z VRB03KT 3800 BR FEW021 SCT090 26/23 Q1012 NOSIG=
20/02/2015 17:00:00Z	 SAID31 WIII 201700	METAR WIII 201700Z 19004KT 3100 HZ FEW021 SCT090 26/23 Q1012 NOSIG=
20/02/2015 17:30:00Z	 SAID31 WIII 201730	METAR WIII 201730Z 20003KT 2300 HZ FEW022 SCT090 26/23 Q1012 NOSIG=
20/02/2015 18:00:00Z	 SAID31 WIII 201800	METAR WIII 201800Z VRB02KT 3300 HZ FEW021 SCT090 26/23 Q1012 NOSIG=
20/02/2015 18:30:00Z	 SAID31 WIII 201830	METAR WIII 201830Z VRB02KT 2000 BR SCT022 25/23 Q1011 NOSIG=
20/02/2015 19:00:00Z	 SAID31 WIII 201900	METAR WIII 201900Z VRB02KT 2000 BR SCT022 25/23 Q1011 NOSIG=
20/02/2015 19:30:00Z	 SAID31 WIII 201930	METAR WIII 201930Z 25002KT 2000 BR SCT022 25/23 Q1011 NOSIG=
20/02/2015 20:00:00Z	 SAID31 WIII 202000	METAR WIII 202000Z 18002KT 2100 BR FEW022 SCT090 24/23 Q1011 NOSIG=
20/02/2015 20:30:00Z	 SAID31 WIII 202030	METAR WIII 202030Z VRB02KT 2100 BR FEW022 SCT090 25/23 Q1010 NOSIG=
20/02/2015 21:00:00Z	 SAID31 WIII 202100	METAR WIII 202100Z 23002KT 2100 BR FEW021 SCT090 24/23 Q1010 NOSIG=
20/02/2015 21:30:00Z	 SAID31 WIII 202130	METAR WIII 202130Z 28002KT 1600 R25R/1400VP2000 BR FEW021 SCT090 24/2 3 Q1011 NOSIG=
20/02/2015 22:00:00Z	 SAID31 WIII 202200	METAR WIII 202200Z 26003KT 1400 R25R/1900V2000 R25L/1500V1600 BR FEW0 22 SCT090 24/23 Q1011 NOSIG=
20/02/2015 22:30:00Z	 SAID31 WIII 202230	METAR WIII 202230Z 27002KT 1300 R25R/P2000 R25L/1300V1600 BR FEW022 S CT100 24/23 Q1011 NOSIG=
20/02/2015 23:00:00Z	 SAID31 WIII 202300	METAR WIII 202300Z 29002KT 1100 R25R/1200V1500 R25L/0400V0750 BR FEW0 21 SCT100 24/23 Q1011 NOSIG=
20/02/2015 23:30:00Z	 SAID31 WIII 202330	METAR WIII 202330Z 27002KT 1000 R25R/1000V1200 R25L/1600V1800 BR 24/2 3 Q1011 NOSIG=
20/02/2015 23:30:00Z	 SAID31 WIII 202330 CCA	METAR COR WIII 202330Z 27002KT 1000 R25R/1000V1200 R25L/1600V1800 BR FEW021 SCT100 24/23 Q1011 NOSIG=
21/02/2015 00:00:00Z	 SAID31 WIII 210000	METAR WIII 210000Z VRB02KT 1000 R25R/1000V1200 R25L/0600V0800 BR FEW0 20 SCT100 24/23 Q1011 NOSIG=
21/02/2015 00:30:00Z	 SAID31 WIII 210030	METAR WIII 210030Z 30002KT 1200 R25R/1100V1200 R25L/0900V1300 BR FEW0 20 SCT100 25/24 Q1012 NOSIG=
21/02/2015 01:00:00Z	 SAID31 WIII 210100	METAR WIII 210100Z 30002KT 1400 R25R/1200V1600 R25L/0800V1400 BR FEW0 21 26/24 Q1012 NOSIG=
21/02/2015 01:30:00Z	 SAID31 WIII 210130	METAR WIII 210130Z 31003KT 3600 HZ FEW021 29/24 Q1012 NOSIG=
21/02/2015 02:00:00Z	 SAID31 WIII 210200	METAR WIII 210200Z 30004KT 6000 FEW021 30/24 Q1012 NOSIG=
21/02/2015 02:30:00Z	 SAID31 WIII 210230	METAR WIII 210230Z 32006KT 270V360 6000 FEW021 30/24 Q1011 NOSIG=
21/02/2015 03:00:00Z	 SAID31 WIII 210300	METAR WIII 210300Z 32007KT 290V360 7000 SCT021 31/24 Q1011 NOSIG=
21/02/2015 03:30:00Z	 SAID31 WIII 210330	METAR WIII 210330Z 34007KT 310V020 7000 BKN020 30/24 Q1011 NOSIG=
21/02/2015 04:00:00Z	 SAID31 WIII 210400	METAR WIII 210400Z 33006KT 280V020 8000 SCT020 30/25 Q1011 NOSIG=
21/02/2015 04:30:00Z	 SAID31 WIII 210430	METAR WIII 210430Z 33007KT 280V010 8000 SCT020 31/24 Q1010 NOSIG=
21/02/2015 05:00:00Z	 SAID31 WIII 210500	METAR WIII 210500Z 34009KT 300V010 9000 SCT0200 30/25 Q1010 NOSIG=
21/02/2015 05:30:00Z	 SAID31 WIII 210530	METAR WIII 210530Z 32009KT 300V010 9000 SCT020 31/25 Q1009 NOSIG=
21/02/2015 06:00:00Z	 SAID31 WIII 210600	METAR WIII 210600Z 31009KT 9000 SCT020 31/25 Q1009 NOSIG=
21/02/2015 06:30:00Z	 SAID31 WIII 210630	METAR WIII 210630Z 33012KT 300V010 9999 SCT021 31/25 Q1008 NOSIG=
21/02/2015 07:00:00Z	 SAID31 WIII 210700	METAR WIII 210700Z 33009KT 9999 SCT020 30/25 Q1008 NOSIG=
21/02/2015 07:30:00Z	 SAID31 WIII 210730	METAR WIII 210730Z 34008KT 300V030 9999 SCT020 30/25 Q1008 NOSIG=
21/02/2015 08:00:00Z	 SAID31 WIII 210800	METAR WIII 210800Z 32008KT 290V010 9999 SCT020 30/24 Q1007 NOSIG=
21/02/2015 08:30:00Z	 SAID31 WIII 210830	METAR WIII 210830Z 34007KT 310V020 9999 FEW021 31/24 Q1007 NOSIG=
21/02/2015 09:00:00Z	 SAID31 WIII 210900	METAR WIII 210900Z 33007KT 300V020 9999 SCT020 31/24 Q1007 NOSIG=
21/02/2015 09:30:00Z	 SAID31 WIII 210930	METAR WIII 210930Z 33006KT 300V010 9999 FEW021 29/24 Q1007 NOSIG=
21/02/2015 10:00:00Z	 SAID31 WIII 211000	METAR WIII 211000Z 33005KT 9999 FEW021 29/24 Q1007 NOSIG=
21/02/2015 10:30:00Z	 SAID31 WIII 211030	METAR WIII 211030Z 32005KT 9999 FEW021 29/24 Q1008 NOSIG=
21/02/2015 11:00:00Z	 SAID31 WIII 211100	METAR WIII 211100Z VRB03KT 8000 FEW021 28/24 Q1008 NOSIG=
21/02/2015 11:30:00Z	 SAID31 WIII 211130	METAR WIII 211130Z VRB03KT 7000 FEW021 28/24 Q1009 NOSIG=
21/02/2015 12:00:00Z	 SAID31 WIII 211200	METAR WIII 211200Z 33004KT 6000 FEW021 28/24 Q1009 NOSIG=
21/02/2015 12:30:00Z	 SAID31 WIII 211230	METAR WIII 211230Z VRB02KT 7000 FEW021 27/24 Q1009 NOSIG=
21/02/2015 13:00:00Z	 SAID31 WIII 211300	METAR WIII 211300Z 36003KT 6000 FEW021 27/24 Q1010 NOSIG=
21/02/2015 13:30:00Z	 SAID31 WIII 211330	METAR WIII 211330Z VRB02KT 6000 FEW021 27/24 Q1010 NOSIG=
21/02/2015 14:00:00Z	 SAID31 WIII 211400	METAR WIII 211400Z 30003KT 6000 FEW021 26/24 Q1010 NOSIG=
21/02/2015 14:30:00Z	 SAID31 WIII 211430	METAR WIII 211430Z 31003KT 6000 FEW021 26/24 Q1011 NOSIG=
21/02/2015 15:00:00Z	 SAID31 WIII 211500	METAR WIII 211500Z 28003KT 5000 HZ FEW020 26/22 Q1011 NOSIG=
21/02/2015 15:30:00Z	 SAID31 WIII 211530	METAR WIII 211530Z 27004KT 5000 HZ FEW020 25/21 Q1011 NOSIG=
21/02/2015 16:00:00Z	 SAID31 WIII 211600	METAR WIII 211600Z 29003KT 5000 HZ FEW020 25/21 Q1011 NOSIG=
21/02/2015 16:30:00Z	 SAID31 WIII 211630	METAR WIII 211630Z 26004KT 4000 BR FEW020 24/20 Q1011 NOSIG=
21/02/2015 17:00:00Z	 SAID31 WIII 211700	METAR WIII 211700Z 29004KT 4000 BR FEW020 24/20 Q1011 NOSIG=
21/02/2015 17:30:00Z	 SAID31 WIII 211730	METAR WIII 211730Z 28004KT 4000 BR FEW020 23/20 Q1010 NOSIG=
21/02/2015 18:00:00Z	 SAID31 WIII 211800	METAR WIII 211800Z 28004KT 4000 BR FEW020 23/20 Q1010 NOSIG=
21/02/2015 18:30:00Z	 SAID31 WIII 211830	METAR WIII 211830Z 27005KT 4000 BR FEW020 22/20 Q1010 NOSIG=
21/02/2015 19:00:00Z	 SAID31 WIII 211900	METAR WIII 211900Z 26007KT 3000 BR FEW020 22/20 Q1010 NOSIG=
21/02/2015 19:30:00Z	 SAID31 WIII 211930	METAR WIII 211930Z 25006KT 2800 BR FEW020 22/20 Q1010 NOSIG=
21/02/2015 20:00:00Z	 SAID31 WIII 212000	METAR WIII 212000Z 24004KT 2700 BR FEW020 22/20 Q1010 NOSIG=
21/02/2015 20:30:00Z	 SAID31 WIII 212030	METAR WIII 212030Z 21004KT 3000 BR FEW020 23/20 Q1010 NOSIG=
21/02/2015 21:00:00Z	 SAID31 WIII 212100	METAR WIII 212100Z 21004KT 4000 BR FEW020 23/19 Q1010 NOSIG=
21/02/2015 21:30:00Z	 SAID31 WIII 212130	METAR WIII 212130Z 21004KT 4600 BR FEW020 23/19 Q1010 NOSIG=
21/02/2015 22:00:00Z	 SAID31 WIII 212200	METAR WIII 212200Z 25002KT 4000 HZ FEW020 22/20 Q1010 NOSIG=
21/02/2015 22:30:00Z	 SAID31 WIII 212230	METAR WIII 212230Z 21003KT 4000 HZ FEW020 22/19 Q1010 NOSIG=
21/02/2015 23:00:00Z	 SAID31 WIII 212300	METAR WIII 212300Z 22005KT 6000 FEW022 23/19 Q1010 NOSIG=
21/02/2015 23:30:00Z	 SAID31 WIII 212330	METAR WIII 212330Z 23005KT 7000 FEW023 23/19 Q1010 NOSIG=
22/02/2015 00:00:00Z	 SAID31 WIII 220000	METAR WIII 220000Z 22005KT 7000 NCD 25/20 Q1011 NOSIG=
22/02/2015 00:30:00Z	 SAID31 WIII 220030	METAR WIII 220030Z VRB03KT 7000 FEW024 26/21 Q1011 NOSIG=
22/02/2015 01:00:00Z	 SAID31 WIII 220100	METAR WIII 220100Z 25005KT 7000 FEW022 27/22 Q1011 NOSIG=
22/02/2015 01:30:00Z	 SAID31 WIII 220130	METAR WIII 220130Z 28006KT 260V320 9999 FEW022 28/22 Q1011 NOSIG=
22/02/2015 02:00:00Z	 SAID31 WIII 220200	METAR WIII 220200Z 30006KT 9999 FEW022 28/23 Q1011 NOSIG=
22/02/2015 02:30:00Z	 SAID31 WIII 220230	METAR WIII 220230Z VRB04KT 9999 FEW022 29/23 Q1011 NOSIG=
22/02/2015 03:00:00Z	 SAID31 WIII 220300	METAR WIII 220300Z 28006KT 240V330 9999 FEW022 30/22 Q1011 NOSIG=
22/02/2015 03:30:00Z	 SAID31 WIII 220330	METAR WIII 220330Z 26006KT 230V320 9999 FEW022 31/23 Q1011 NOSIG=
22/02/2015 04:00:00Z	 SAID31 WIII 220400	METAR WIII 220400Z AUTO 28006KT 230V330 9999 32/22 Q1010=
22/02/2015 04:30:00Z	 SAID31 WIII 220430	METAR WIII 220430Z 29007KT 270V340 9999 FEW022 32/22 Q1010 NOSIG=
22/02/2015 05:00:00Z	 SAID31 WIII 220500	METAR WIII 220500Z 33009G16KT 300V010 9999 FEW020 32/22 Q1010 NOSIG=
22/02/2015 05:30:00Z	 SAID31 WIII 220530	METAR WIII 220530Z 34008KT 300V020 9999 FEW020 32/21 Q1009 NOSIG=
22/02/2015 06:00:00Z	 SAID31 WIII 220600	METAR WIII 220600Z 32009KT 290V010 9999 FEW022 32/22 Q1009 NOSIG=
22/02/2015 06:30:00Z	 SAID31 WIII 220630	METAR WIII 220630Z 33009KT 300V010 9999 FEW022 31/23 Q1008 NOSIG=
22/02/2015 07:00:00Z	 SAID31 WIII 220700	METAR WIII 220700Z 34012KT 290V010 9999 FEW022 32/24 Q1008 NOSIG=
22/02/2015 07:30:00Z	 SAID31 WIII 220730	METAR WIII 220730Z 33010KT 290V010 9999 FEW022 31/23 Q1007 NOSIG=
22/02/2015 08:00:00Z	 SAID31 WIII 220800	METAR WIII 220800Z 33009KT 9999 FEW020 32/24 Q1007 NOSIG=
22/02/2015 08:30:00Z	 SAID31 WIII 220830	METAR WIII 220830Z 32009KT 260V350 9999 FEW020 31/24 Q1007 NOSIG=
22/02/2015 09:00:00Z	 SAID31 WIII 220900	METAR WIII 220900Z 34007KT 290V010 9999 FEW020 31/24 Q1007 NOSIG=
22/02/2015 09:30:00Z	 SAID31 WIII 220930	METAR WIII 220930Z AUTO 34008KT 300V010 9999 31/24 Q1007=
22/02/2015 10:00:00Z	 SAID31 WIII 221000	METAR WIII 221000Z AUTO 33008KT 9999 30/24 Q1007=
22/02/2015 10:30:00Z	 SAID31 WIII 221030	METAR WIII 221030Z 33006KT 300V010 9999 FEW020 30/24 Q1008 NOSIG=
22/02/2015 11:00:00Z	 SAID31 WIII 221100	METAR WIII 221100Z 33005KT 9000 FEW022 29/24 Q1008 NOSIG=
22/02/2015 11:30:00Z	 SAID31 WIII 221130	METAR WIII 221130Z 32005KT 9000 FEW020 28/24 Q1009 NOSIG=
22/02/2015 12:00:00Z	 SAID31 WIII 221200	METAR WIII 221200Z 30003KT 8000 FEW022 28/24 Q1009 NOSIG=
22/02/2015 12:30:00Z	 SAID31 WIII 221230	METAR WIII 221230Z 30002KT 7000 FEW020 27/24 Q1010 NOSIG=
22/02/2015 13:00:00Z	 SAID31 WIII 221300	METAR WIII 221300Z VRB02KT 6000 FEW022 27/24 Q1010 NOSIG=
22/02/2015 13:30:00Z	 SAID31 WIII 221330	METAR WIII 221330Z 29003KT 4500 HZ 27/22 FEW022 Q1011 NOSIG=
22/02/2015 14:00:00Z	 SAID31 WIII 221400	METAR WIII 221400Z VRB03KT 4000 HZ FEW021 27/21 Q1011 NOSIG=
22/02/2015 14:30:00Z	 SAID31 WIII 221430	METAR WIII 221430Z 29004KT 3500 HZ FEW022 26/20 Q1011 NOSIG=
22/02/2015 15:00:00Z	 SAID31 WIII 221500	METAR WIII 221500Z 31005KT 4100 HZ FEW022 26/20 Q1012 NOSIG=
22/02/2015 15:30:00Z	 SAID31 WIII 221530	METAR WIII 221530Z 30003KT 3800 HZ FEW022 25/21 Q1011 NOSIG=
22/02/2015 16:00:00Z	 SAID31 WIII 221600	METAR WIII 221600Z 27005KT 4900 HZ FEW022 25/21 Q1011 NOSIG=
22/02/2015 16:30:00Z	 SAID31 WIII 221630	METAR WIII 221630Z 27003KT 4000 HZ FEW022 25/21 Q1011 NOSIG=
22/02/2015 17:00:00Z	 SAID31 WIII 221700	METAR WIII 221700Z 27004KT 5000 R25L/1400V1700 HZ FEW022 24/21 Q1011 NOSIG=
22/02/2015 17:30:00Z	 SAID31 WIII 221730	METAR WIII 221730Z 28003KT 4900 HZ FEW022 25/21 Q1011 NOSIG=
22/02/2015 18:00:00Z	 SAID31 WIII 221800	METAR WIII 221800Z VRB03KT 5000 HZ FEW022 25/21 Q1011 NOSIG=
22/02/2015 18:30:00Z	 SAID31 WIII 221830	METAR WIII 221830Z 25003KT 5000 HZ FEW022 25/22 Q1010 NOSIG=
22/02/2015 19:00:00Z	 SAID31 WIII 221900	METAR WIII 221900Z 27003KT 3800 HZ FEW022 25/22 Q1010 NOSIG=
22/02/2015 19:30:00Z	 SAID31 WIII 221930	METAR WIII 221930Z 29003KT 2800 HZ FEW022 25/22 Q1010 NOSIG=
22/02/2015 20:00:00Z	 SAID31 WIII 222000	METAR WIII 222000Z 29004KT 3200 HZ FEW022 25/22 Q1010 NOSIG=
22/02/2015 20:30:00Z	 SAID31 WIII 222030	METAR WIII 222030Z 26003KT 2600 BR FEW022 23/22 Q1010 NOSIG=
22/02/2015 21:00:00Z	 SAID31 WIII 222100	METAR WIII 222100Z 25004KT 2600 BR FEW022 23/22 Q1010 NOSIG=
22/02/2015 21:30:00Z	 SAID31 WIII 222130	METAR WIII 222130Z 25003KT 3000 BR FEW022 24/22 Q1010 NOSIG=
22/02/2015 22:00:00Z	 SAID31 WIII 222200	METAR WIII 222200Z 24004KT 4000 BR FEW022 24/22 Q1010 NOSIG=
22/02/2015 22:30:00Z	 SAID31 WIII 222230	METAR WIII 222230Z 25002KT 4000 BR FEW022 24/22 Q1010 NOSIG=
22/02/2015 23:00:00Z	 SAID31 WIII 222300	METAR WIII 222300Z VRB03KT 5000 BR FEW022 23/22 Q1010 NOSIG=
22/02/2015 23:30:00Z	 SAID31 WIII 222330	METAR WIII 222330Z 18003KT 3400 BR FEW022 24/22 Q1011 NOSIG=
23/02/2015 00:00:00Z	 SAID31 WIII 230000	METAR WIII 230000Z 21005KT 4000 HZ FEW022 26/23 Q1011 NOSIG=
23/02/2015 00:30:00Z	 SAID31 WIII 230030	METAR WIII 230030Z 22004KT 4800 HZ FEW022 27/23 Q1011 NOSIG=
23/02/2015 01:00:00Z	 SAID31 WIII 230100	METAR WIII 230100Z 26005KT 6000 FEW022 28/23 Q1011 NOSIG=
23/02/2015 01:30:00Z	 SAID31 WIII 230130	METAR WIII 230130Z 27007KT 240V310 7000 FEW020CB FEW022 29/24 Q1012 N OSIG RMK CB TO NE=
23/02/2015 01:30:00Z	 SAID31 WIII 230130 CCA	METAR COR WIII 230130Z 27007KT 240V310 7000 FEW020CB SCT022 29/24 Q10 12 NOSIG RMK CB TO NE=
23/02/2015 02:00:00Z	 SAID31 WIII 230200	METAR WIII 230200Z 30009KT 270V360 7000 FEW020CB BKN022 29/24 Q1012 N OSIG RMK CB TO NE=
23/02/2015 02:30:00Z	 SAID31 WIII 230230	METAR WIII 230230Z 30010KT 7000 SCT021 30/24 Q1012 NOSIG=
23/02/2015 03:00:00Z	 SAID31 WIII 230300	METAR WIII 230300Z 30008KT 280V340 7000 FEW020CB BKN022 28/24 Q1012 N OSIG RMK CB TO NE=
23/02/2015 03:30:00Z	 SAID31 WIII 230330	METAR WIII 230330Z 30010KT 6000 SCT021 28/24 Q1012 NOSIG=
23/02/2015 04:00:00Z	 SAID31 WIII 230400	METAR WIII 230400Z 31010KT 290V360 8000 SCT021 30/24 Q1011 NOSIG=
23/02/2015 04:30:00Z	 SAID31 WIII 230430	METAR WIII 230430Z 32014KT 280V020 8000 SCT021 30/25 Q1011 NOSIG=
23/02/2015 05:00:00Z	 SAID31 WIII 230500	METAR WIII 230500Z 33010KT 300V360 8000 SCT020 30/24 Q1011 NOSIG=
23/02/2015 05:30:00Z	 SAID31 WIII 230530	METAR WIII 230530Z 33015KT 300V360 8000 SCT020 30/24 Q1011 NOSIG=
23/02/2015 06:00:00Z	 SAID31 WIII 230600	METAR WIII 230600Z 33011KT 290V360 8000 SCT020 31/25 Q1010 NOSIG=
23/02/2015 06:30:00Z	 SAID31 WIII 230630	METAR WIII 230630Z 33013KT 300V020 8000 SCT021 30/24 Q1010 NOSIG=
23/02/2015 07:00:00Z	 SAID31 WIII 230700	METAR WIII 230700Z 34014KT 310V020 8000 FEW020CB SCT022 32/25 Q1009 N OSIG RMK CB TO SE=
23/02/2015 07:30:00Z	 SAID31 WIII 230730	METAR WIII 230730Z 33013KT 300V020 8000 FEW020CB SCT022 30/24 Q1009 N OSIG RMK CB TO SE=
23/02/2015 08:00:00Z	 SAID31 WIII 230800	METAR WIII 230800Z 35012KT 310V020 8000 FEW020CB SCT022 30/24 Q1008 N OSIG RMK CB TO SW=
23/02/2015 08:30:00Z	 SAID31 WIII 230830	METAR WIII 230830Z 33007KT 290V010 8000 SCT020 BKN090 28/24 Q1009 NOS IG=
23/02/2015 09:00:00Z	 SAID31 WIII 230900	METAR WIII 230900Z 31006KT 6000 VCSH BKN020 28/24 Q1009 NOSIG=
23/02/2015 09:30:00Z	 SAID31 WIII 230930	METAR WIII 230930Z 23013KT 190V260 6000 BKN020 28/21 Q1010 NOSIG=
23/02/2015 09:30:00Z	 SAID31 WIII 230930 CCA	METAR COR WIII 230930Z 23013KT 190V260 6000 FEW019CB BKN020 28/21 Q10 10 TEMPO 3000 -RA RMK CB TO W=
23/02/2015 10:00:00Z	 SAID31 WIII 231000	METAR WIII 231000Z 21010KT 3000 RA FEW019CB BKN020 26/20 Q1010 NOSIG RMK CB TO SW=
23/02/2015 10:30:00Z	 SAID31 WIII 231030	METAR WIII 231030Z 17007KT 140V210 6000 FEW019CB SCT020 25/21 Q1011 R ERA NOSIG RMK CB TO W=
23/02/2015 11:00:00Z	 SAID31 WIII 231100	METAR WIII 231100Z VRB04KT 5000 VCSH FEW019CB BKN020 24/22 Q1011 NOSI G RMK CB TO N=
23/02/2015 11:30:00Z	 SAID31 WIII 231130	METAR WIII 231130Z VRB05KT 6000 FEW019CB SCT020 24/21 Q1011 RERA NOSI G RMK CB TO NE=
23/02/2015 12:00:00Z	 SAID31 WIII 231200	METAR WIII 231200Z VRB05KT 6000 -RA SCT020 24/21 Q1012 NOSIG=
23/02/2015 12:30:00Z	 SAID31 WIII 231230	METAR WIII 231230Z 20003KT 6000 SCT020 25/21 Q1012 NOSIG=
23/02/2015 13:00:00Z	 SAID31 WIII 231300	METAR WIII 231300Z 23004KT 6000 FEW018 25/21 Q1012 NOSIG=
23/02/2015 13:30:00Z	 SAID31 WIII 231330	METAR WIII 231330Z 22005KT 5000 BR FEW020 25/21 Q1012 NOSIG=
23/02/2015 14:00:00Z	 SAID31 WIII 231400	METAR WIII 231400Z 16006KT 130V200 5000 BR FEW020 25/22 Q1013 NOSIG=
23/02/2015 14:30:00Z	 SAID31 WIII 231430	METAR WIII 231430Z VRB04KT 5000 BR FEW020 25/22 Q1013 NOSIG=
23/02/2015 15:00:00Z	 SAID31 WIII 231500	METAR WIII 231500Z VRB02KT 5000 BR FEW020 24/22 Q1013 NOSIG=
23/02/2015 16:00:00Z	 SAID31 WIII 231600	METAR WIII 231600Z VRB03KT 4000 BR FEW020 24/22 Q1012 NOSIG=
23/02/2015 16:30:00Z	 SAID31 WIII 231630	METAR WIII 231630Z 15004KT 4000 BR FEW020 24/22 Q1012 NOSIG=
23/02/2015 17:00:00Z	 SAID31 WIII 231700	METAR WIII 231700Z VRB01KT 4000 BR FEW020 24/22 Q1012 NOSIG=
23/02/2015 17:30:00Z	 SAID31 WIII 231730	METAR WIII 231730Z 36002KT 4000 BR FEW020 24/22 Q1012 NOSIG=
23/02/2015 18:00:00Z	 SAID31 WIII 231800	METAR WIII 231800Z 27002KT 3000 BR FEW020 24/22 Q1011 NOSIG=
23/02/2015 18:30:00Z	 SAID31 WIII 231830	METAR WIII 231830Z VRB02KT 3000 BR FEW020 24/22 Q1011 NOSIG=
23/02/2015 19:00:00Z	 SAID31 WIII 231900	METAR WIII 231900Z VRB04KT 3000 BR FEW020 25/22 Q1010 NOSIG=
23/02/2015 19:30:00Z	 SAID31 WIII 231930	METAR WIII 231930Z AUTO 21004KT 1900 BR 25/22 Q1010=
23/02/2015 20:00:00Z	 SAID31 WIII 232000	METAR WIII 232000Z AUTO 21002KT 1900 BR 24/22 Q1010=
23/02/2015 20:30:00Z	 SAID31 WIII 232030	METAR WIII 232030Z AUTO 25001KT 1800 BR 24/22 Q1010=
23/02/2015 21:00:00Z	 SAID31 WIII 232100	METAR WIII 232100Z AUTO VRB01KT 1300 BR 24/22 Q1010=
23/02/2015 21:30:00Z	 SAID31 WIII 232130	METAR WIII 232130Z VRB02KT 3000 BR FEW020 24/23 Q1010 NOSIG=
23/02/2015 22:00:00Z	 SAID31 WIII 232200	METAR WIII 232200Z AUTO 30002KT 1400 R25R/P2000 R25L/1800VP2000 BR 24 /23 Q1011=
23/02/2015 22:30:00Z	 SAID31 WIII 232230	METAR WIII 232230Z AUTO VRB01KT 1200 R25R/2000 BR 24/23 Q1011=
23/02/2015 23:00:00Z	 SAID31 WIII 232300	METAR WIII 232300Z AUTO 29002KT 1000 R25R/1000V1700 BR 24/23 Q1011=
23/02/2015 23:30:00Z	 SAID31 WIII 232330	METAR WIII 232330Z 30003KT 4000 BR FEW020 24/23 Q1011 NOSIG=
24/02/2015 00:00:00Z	 SAID31 WIII 240000	METAR WIII 240000Z 29003KT 5000 BR FEW020 25/23 Q1012 NOSIG=
24/02/2015 00:30:00Z	 SAID31 WIII 240030	METAR WIII 240030Z 27003KT 3000 BR SCT020 26/23 Q1012 NOSIG=
24/02/2015 01:00:00Z	 SAID31 WIII 240100	METAR WIII 240100Z 28005KT 3500 BR FEW020 27/23 Q1012 NOSIG=
24/02/2015 01:30:00Z	 SAID31 WIII 240130	METAR WIII 240130Z 28006KT 4500 BR FEW020 28/24 Q1013 NOSIG=
24/02/2015 04:00:00Z	 SAID31 WIII 240400	METAR WIII 240400Z VRB05KT 9999 SCT020 31/23 Q1011 NOSIG=
24/02/2015 04:30:00Z	 SAID31 WIII 240430	METAR WIII 240430Z 34006KT 310V020 9999 SCT020 31/23 Q1011 NOSIG=
24/02/2015 05:00:00Z	 SAID31 WIII 240500	METAR WIII 240500Z 34007KT 9999 SCT020 32/22 Q1011 NOSIG=
24/02/2015 05:30:00Z	 SAID31 WIII 240530	METAR WIII 240530Z 32007KT 9999 SCT020 32/22 Q1010 NOSIG=
24/02/2015 10:00:00Z	 SAID31 WIII 241000	METAR WIII 241000Z 36006KT 330V030 9999 FEW020CB SCT020 30/24 Q1008 N OSIG RMK CB TO S=
24/02/2015 10:30:00Z	 SAID31 WIII 241030	METAR WIII 241030Z VRB05KT 9999 SCT020 29/23 Q1008 NOSIG=
24/02/2015 11:00:00Z	 SAID31 WIII 241100	METAR WIII 241100Z 35005KT 6000 FEW020CB SCT020 28/23 Q1009 NOSIG RMK CB TO S=
24/02/2015 11:30:00Z	 SAID31 WIII 241130	METAR WIII 241130Z VRB04KT 5000 HZ SCT020 27/23 Q1009 NOSIG=
24/02/2015 12:00:00Z	 SAID31 WIII 241200	METAR WIII 241200Z 34003KT 5000 HZ SCT020 27/23 Q1010 NOSIG=
24/02/2015 12:30:00Z	 SAID31 WIII 241230	METAR WIII 241230Z 35002KT 4500 HZ FEW020 27/23 Q1010 NOSIG=
24/02/2015 13:00:00Z	 SAID31 WIII 241300	METAR WIII 241300Z 02002KT 2600 HZ FEW020 27/24 Q1010 NOSIG=
24/02/2015 13:30:00Z	 SAID31 WIII 241330	METAR WIII 241330Z VRB02KT 3100 HZ FEW020 26/24 Q1011 NOSIG=
24/02/2015 14:00:00Z	 SAID31 WIII 241400	METAR WIII 241400Z 31002KT 2800 HZ FEW020 26/24 Q1011 NOSIG=
24/02/2015 14:30:00Z	 SAID31 WIII 241430	METAR WIII 241430Z 25003KT 2900 HZ FEW020 26/24 Q1012 NOSIG=
24/02/2015 15:00:00Z	 SAID31 WIII 241500	METAR WIII 241500Z VRB02KT 4600 HZ FEW020 26/24 Q1011 NOSIG=
24/02/2015 15:30:00Z	 SAID31 WIII 241530	METAR WIII 241530Z VRB02KT 4100 HZ FEW021 26/24 Q1011 NOSIG=
24/02/2015 16:00:00Z	 SAID31 WIII 241600	METAR WIII 241600Z 30002KT 3500 HZ FEW021 26/24 Q1011 NOSIG=
24/02/2015 16:30:00Z	 SAID31 WIII 241630	METAR WIII 241630Z 31003KT 2500 HZ FEW022 26/24 Q1011 NOSIG=
24/02/2015 17:00:00Z	 SAID31 WIII 241700	METAR WIII 241700Z 26002KT 2500 HZ FEW022 25/24 Q1010 NOSIG=
24/02/2015 17:30:00Z	 SAID31 WIII 241730	METAR WIII 241730Z 31003KT 2000 HZ FEW022 25/24 Q1010 NOSIG=
24/02/2015 18:00:00Z	 SAID31 WIII 241800	METAR WIII 241800Z 32003KT 2000 BR FEW022 25/24 Q1010 NOSIG=
24/02/2015 18:30:00Z	 SAID31 WIII 241830	METAR WIII 241830Z 31003KT 1600 R25R/P2000 BR FEW022 25/24 Q1010 NOSI G=
24/02/2015 19:00:00Z	 SAID31 WIII 241900	METAR WIII 241900Z 30002KT 1500 BR FEW020CB FEW022 25/24 Q1010 NOSIG RMK CB TO NW=
24/02/2015 19:30:00Z	 SAID31 WIII 241930	METAR WIII 241930Z 28002KT 1500 R25R/P2000 R25L/1400V1900 BR FEW020CB FEW022 24/23 Q1010 NOSIG RMK CB TO NW=
24/02/2015 20:00:00Z	 SAID31 WIII 242000	METAR WIII 242000Z 28002KT 1500 R25R/P2000 R25L/1400V2000 BR FEW022 2 4/23 Q1010 NOSIG=
24/02/2015 20:30:00Z	 SAID31 WIII 242030	METAR WIII 242030Z 25003KT 1600 R25R/1900VP2000 BR FEW022 24/23 Q1009 NOSIG=
24/02/2015 21:00:00Z	 SAID31 WIII 242100	METAR WIII 242100Z 24005KT 1800 R25R/1900VP2000 BR FEW022 24/23 Q1009 NOSIG=
24/02/2015 21:30:00Z	 SAID31 WIII 242130	METAR WIII 242130Z 20005KT 1600 BR FEW020 24/23 Q1010 NOSIG=
24/02/2015 22:00:00Z	 SAID31 WIII 242200	METAR WIII 242200Z 18004KT 2500 BR FEW022 24/23 Q1010 NOSIG=
24/02/2015 22:30:00Z	 SAID31 WIII 242230	METAR WIII 242230Z VRB03KT 3100 BR FEW022 24/23 Q1010 NOSIG=
24/02/2015 23:00:00Z	 SAID31 WIII 242300	METAR WIII 242300Z VRB04KT 3600 BR FEW022 24/23 Q1010 NOSIG=
24/02/2015 23:30:00Z	 SAID31 WIII 242330	METAR WIII 242330Z 20004KT 3000 HZ FEW020 25/23 Q1011 NOSIG=
25/02/2015 00:00:00Z	 SAID31 WIII 250000	METAR WIII 250000Z VRB03KT 3200 HZ FEW022 26/23 Q1011 NOSIG=
25/02/2015 00:30:00Z	 SAID31 WIII 250030	METAR WIII 250030Z 15003KT 3800 HZ FEW022 26/23 Q1011 NOSIG=
25/02/2015 01:00:00Z	 SAID31 WIII 250100	METAR WIII 250100Z VRB02KT 4000 HZ FEW022 28/23 Q1011 NOSIG=
25/02/2015 01:30:00Z	 SAID31 WIII 250130	METAR WIII 250130Z 06004KT 6000 FEW022 28/23 Q1011 NOSIG=
25/02/2015 02:00:00Z	 SAID31 WIII 250200	METAR WIII 250200Z VRB03KT 6000 FEW021 29/24 Q1011 NOSIG=
25/02/2015 02:30:00Z	 SAID31 WIII 250230	METAR WIII 250230Z VRB03KT 6000 FEW022 30/24 Q1011 NOSIG=
25/02/2015 03:00:00Z	 SAID31 WIII 250300	METAR WIII 250300Z VRB05KT 7000 FEW022 30/24 Q1011 NOSIG=
25/02/2015 03:30:00Z	 SAID31 WIII 250330	METAR WIII 250330Z 02006KT 8000 FEW022 31/24 Q1010 NOSIG=
25/02/2015 04:00:00Z	 SAID31 WIII 250400	METAR WIII 250400Z 01005KT 9000 FEW022 30/24 Q1010 NOSIG=
25/02/2015 04:30:00Z	 SAID31 WIII 250430	METAR WIII 250430Z VRB05KT 9000 FEW021 31/24 Q1010 NOSIG=
25/02/2015 05:00:00Z	 SAID31 WIII 250500	METAR WIII 250500Z 01006KT 320V060 9000 FEW020 31/24 Q1009 NOSIG=
25/02/2015 05:30:00Z	 SAID31 WIII 250530	METAR WIII 250530Z 36006KT 9000 FEW020 31/24 Q1009 NOSIG=
25/02/2015 06:00:00Z	 SAID31 WIII 250600	METAR WIII 250600Z 36006KT 9000 FEW020 32/24 Q1008 NOSIG=
25/02/2015 06:30:00Z	 SAID31 WIII 250630	METAR WIII 250630Z VRB05KT 9000 FEW020 31/24 Q1008 NOSIG=
25/02/2015 07:00:00Z	 SAID31 WIII 250700	METAR WIII 250700Z VRB05KT 9000 FEW021 31/24 Q1007 NOSIG=
25/02/2015 07:30:00Z	 SAID31 WIII 250730	METAR WIII 250730Z 01006KT 330V040 9000 FEW021 31/24 Q1007 NOSIG=
25/02/2015 08:00:00Z	 SAID31 WIII 250800	METAR WIII 250800Z 01006KT 310V050 9000 SCT021 31/24 Q1007 NOSIG=
25/02/2015 08:30:00Z	 SAID31 WIII 250830	METAR WIII 250830Z 02005KT 9999 SCT021 30/24 Q1007 NOSIG=
25/02/2015 09:00:00Z	 SAID31 WIII 250900	METAR WIII 250900Z 02006KT 340V050 9000 SCT021 30/24 Q1006 NOSIG=
25/02/2015 09:30:00Z	 SAID31 WIII 250930	METAR WIII 250930Z 02005KT 9000 FEW021 30/24 Q1007 NOSIG=
25/02/2015 10:00:00Z	 SAID31 WIII 251000	METAR WIII 251000Z 02005KT 9000 FEW021 29/24 Q1007 NOSIG=
25/02/2015 10:30:00Z	 SAID31 WIII 251030	METAR WIII 251030Z 02005KT 7000 FEW021 29/24 Q1007 NOSIG=
25/02/2015 11:00:00Z	 SAID31 WIII 251100	METAR WIII 251100Z VRB02KT 7000 FEW021 28/24 Q1008 NOSIG=
25/02/2015 11:30:00Z	 SAID31 WIII 251130	METAR WIII 251130Z VRB02KT 6000 FEW021 28/24 Q1008 NOSIG=
25/02/2015 12:00:00Z	 SAID31 WIII 251200	METAR WIII 251200Z VRB01KT 6000 FEW021 28/24 Q1009 NOSIG=
25/02/2015 12:30:00Z	 SAID31 WIII 251230	METAR WIII 251230Z VRB02KT 6000 FEW021 28/24 Q1009 NOSIG=
25/02/2015 13:00:00Z	 SAID31 WIII 251300	METAR WIII 251300Z 29003KT 2900 R25R/P2000 HZ FEW021 27/25 Q1009 NOSI G=
25/02/2015 13:30:00Z	 SAID31 WIII 251330	METAR WIII 251330Z 31002KT 2500 HZ FEW020 27/24 Q1010 NOSIG=
25/02/2015 14:00:00Z	 SAID31 WIII 251400	METAR WIII 251400Z 31001KT 2500 HZ FEW020 27/24 Q1010 NOSIG=
25/02/2015 14:30:00Z	 SAID31 WIII 251430	METAR WIII 251430Z 00000KT 2500 HZ SCT020 27/24 Q1011 NOSIG=
25/02/2015 15:00:00Z	 SAID31 WIII 251500	METAR WIII 251500Z 27002KT 3000 HZ SCT020 27/24 Q1010 NOSIG=
25/02/2015 15:30:00Z	 SAID31 WIII 251530	METAR WIII 251530Z 30003KT 2000 HZ FEW020 27/24 Q1011 NOSIG=
25/02/2015 16:00:00Z	 SAID31 WIII 251600	METAR WIII 251600Z 32003KT 2000 BR SCT020 26/24 Q1010 NOSIG=
25/02/2015 16:30:00Z	 SAID31 WIII 251630	METAR WIII 251630Z 31003KT 2400 BR SCT020 26/24 Q1010 NOSIG=
25/02/2015 17:00:00Z	 SAID31 WIII 251700	METAR WIII 251700Z 28003KT 2800 BR SCT020 25/23 Q1010 NOSIG=
25/02/2015 17:30:00Z	 SAID31 WIII 251730	METAR WIII 251730Z VRB02KT 3000 BR FEW020 25/23 Q1010 NOSIG=
25/02/2015 18:00:00Z	 SAID31 WIII 251800	METAR WIII 251800Z 30003KT 3000 BR FEW020 25/23 Q1009 NOSIG=
25/02/2015 18:30:00Z	 SAID31 WIII 251830	METAR WIII 251830Z 27003KT 2300 BR FEW020 24/23 Q1009 NOSIG=
25/02/2015 19:00:00Z	 SAID31 WIII 251900	METAR WIII 251900Z 26004KT 2400 BR FEW020 24/23 Q1009 NOSIG=
25/02/2015 20:00:00Z	 SAID31 WIII 252000	METAR WIII 252000Z 25004KT 2000 BR FEW020CB FEW020 BR 24/23 Q1009 NO SIG RMK CB TO E=
25/02/2015 20:30:00Z	 SAID31 WIII 252030	METAR WIII 252030Z 24003KT 1500 BR FEW020 24/23 Q1009 NOSIG=
25/02/2015 21:00:00Z	 SAID31 WIII 252100	METAR WIII 252100Z 20003KT 1700 BR FEW020 25/23 Q1009 NOSIG=
25/02/2015 21:30:00Z	 SAID31 WIII 252130	METAR WIII 252130Z 21004KT 2000 BR FEW020 25/23 Q1009 NOSIG=
25/02/2015 22:00:00Z	 SAID31 WIII 252200	METAR WIII 252200Z 20004KT 2000 BR FEW020CB SCT020 25/23 Q1009 NOSIG RMK CB TO N=
25/02/2015 22:30:00Z	 SAID31 WIII 252230	METAR WIII 252230Z 21003KT 2600 BR SCT020 25/23 Q1010 NOSIG=
25/02/2015 23:00:00Z	 SAID31 WIII 252300	METAR WIII 252300Z 30002KT 2000 HZ SCT020 24/23 Q1010 NOSIG=
25/02/2015 23:30:00Z	 SAID31 WIII 252330	METAR WIII 252330Z VRB03KT 2400 HZ SCT020 24/23 Q1010 NOSIG=
26/02/2015 00:00:00Z	 SAID31 WIII 260000	METAR WIII 260000Z VRB03KT 3700 HZ SCT020 26/23 Q1010 NOSIG=
26/02/2015 00:30:00Z	 SAID31 WIII 260030	METAR WIII 260030Z 29002KT 2300 HZ FEW020 26/24 Q1011 NOSIG=
26/02/2015 01:00:00Z	 SAID31 WIII 260100	METAR WIII 260100Z 29004KT 5000 HZ FEW020 27/24 Q1011 NOSIG=
26/02/2015 01:30:00Z	 SAID31 WIII 260130	METAR WIII 260130Z 31004KT 5000 HZ FEW022 28/24 Q1011 NOSIG=
26/02/2015 02:00:00Z	 SAID31 WIII 260200	METAR WIII 260200Z VRB03KT 5000 HZ FEW020 30/24 Q1011 NOSIG=
26/02/2015 02:30:00Z	 SAID31 WIII 260230	METAR WIII 260230Z VRB03KT 5000 HZ FEW020 31/24 Q1011 NOSIG=
26/02/2015 03:00:00Z	 SAID31 WIII 260300	METAR WIII 260300Z VRB03KT 7000 FEW020 32/23 Q1010 NOSIG=
26/02/2015 04:00:00Z	 SAID31 WIII 260400	METAR WIII 260400Z VRB03KT 8000 FEW020 32/23 Q1009 NOSIG=
26/02/2015 04:30:00Z	 SAID31 WIII 260430	METAR WIII 260430Z VRB04KT 8000 FEW020 32/24 Q1009 NOSIG=
26/02/2015 05:00:00Z	 SAID31 WIII 260500	METAR WIII 260500Z 01008KT 7000 FEW020 31/23 Q1009 NOSIG=
26/02/2015 05:30:00Z	 SAID31 WIII 260530	METAR WIII 260530Z 35006KT 310V030 8000 FEW020 32/24 Q1008 NOSIG=
26/02/2015 06:00:00Z	 SAID31 WIII 260600	METAR WIII 260600Z 32006KT 280V020 8000 FEW020 32/24 Q1008 NOSIG=
26/02/2015 06:30:00Z	 SAID31 WIII 260630	METAR WIII 260630Z 34007KT 280V050 8000 FEW020 33/24 Q1007 NOSIG=
26/02/2015 07:30:00Z	 SAID31 WIII 260730	METAR WIII 260730Z VRB05KT 9000 FEW0020 31/24 Q1007 NOSIG=
26/02/2015 08:00:00Z	 SAID31 WIII 260800	METAR WIII 260800Z VRB05KT 9999 FEW020 32/25 Q1006 NOSIG=
26/02/2015 08:30:00Z	 SAID31 WIII 260830	METAR WIII 260830Z 35006KT 320V050 9999 FEW020 31/24 Q1006 NOSIG=
26/02/2015 09:00:00Z	 SAID31 WIII 260900	METAR WIII 260900Z 01007KT 340V040 9000 FEW020 31/24 Q1006 NOSIG=
26/02/2015 09:30:00Z	 SAID31 WIII 260930	METAR WIII 260930Z VRB04KT 9999 FEW020 31/24 Q1006 NOSIG=
26/02/2015 10:00:00Z	 SAID31 WIII 261000	METAR WIII 261000Z VRB05KT 9999 FEW020 31/24 Q1006 NOSIG=
26/02/2015 10:30:00Z	 SAID31 WIII 261030	METAR WIII 261030Z VRB05KT 9000 FEW020 29/23 Q1007 NOSIG=
26/02/2015 10:30:00Z	 SAID31 WIII 261030 CCA	METAR COR WIII 261030Z VRB05KT 9000 FEW018CB SCT020 29/23 Q1007 NOSIG RMK CB TO SE AND S=
26/02/2015 11:00:00Z	 SAID31 WIII 261100	METAR WIII 261100Z VRB04KT 6000 VCTS FEW016CB SCT018 29/23 Q1007 TEMP O 3000 TSRA RMK CB TO SE AND S=
26/02/2015 11:30:00Z	 SAID31 WIII 261130	METAR WIII 261130Z VRB02KT 5000 VCTS FEW016CB SCT018 28/23 Q1008 BECM G HZ RMK CB TO SE AND S=
26/02/2015 12:00:00Z	 SAID31 WIII 261200	METAR WIII 261200Z VRB03KT 5000 HZ SCT018 28/22 Q1008 NOSIG=
26/02/2015 12:30:00Z	 SAID31 WIII 261230	METAR WIII 261230Z VRB02KT 5000 HZ SCT020 27/22 Q1008 NOSIG=
26/02/2015 13:00:00Z	 SAID31 WIII 261300	METAR WIII 261300Z VRB02KT 5000 HZ SCT020 27/23 Q1009 NOSIG=
26/02/2015 13:30:00Z	 SAID31 WIII 261330	METAR WIII 261330Z 34002KT 4800 HZ SCT020 27/23 Q1009 NOSIG=
26/02/2015 14:00:00Z	 SAID31 WIII 261400	METAR WIII 261400Z VRB02KT 4800 HZ SCT020 27/24 Q1009 NOSIG=
26/02/2015 14:30:00Z	 SAID31 WIII 261430	METAR WIII 261430Z 07002KT 4800 HZ SCT020 27/24 Q1009 NOSIG=
26/02/2015 15:00:00Z	 SAID31 WIII 261500	METAR WIII 261500Z 07003KT 4800 HZ FEW020 27/24 Q1009 NOSIG=
26/02/2015 15:30:00Z	 SAID31 WIII 261530	METAR WIII 261530Z 35002KT 4000 HZ FEW020 27/24 Q1010 NOSIG=
26/02/2015 16:00:00Z	 SAID31 WIII 261600	METAR WIII 261600Z 00000KT 4000 HZ FEW020 27/24 Q1010 NOSIG=
26/02/2015 16:30:00Z	 SAID31 WIII 261630	METAR WIII 261630Z 19006KT 4000 HZ FEW018CB SCT020 27/23 Q1009 NOSIG RMK CB TO E=
26/02/2015 17:00:00Z	 SAID31 WIII 261700	METAR WIII 261700Z 18004KT 3500 VCTS FEW018CB SCT020 26/23 Q1009 TEMP O TSRA RMK CB TO E=
26/02/2015 17:30:00Z	 SAID31 WIII 261730	METAR WIII 261730Z 16004KT 3000 HZ FEW019CB SCT020 26/24 Q1009 RETS N OSIG RMK CB TO E=
26/02/2015 18:00:00Z	 SAID31 WIII 261800	METAR WIII 261800Z 16005KT 3000 HZ FEW019CB SCT020 27/24 Q1008 NOSIG RMK CB TO NE=
26/02/2015 18:30:00Z	 SAID31 WIII 261830	METAR WIII 261830Z 12004KT 3500 HZ SCT020 26/24 Q1008 NOSIG=
26/02/2015 19:00:00Z	 SAID31 WIII 261900	METAR WIII 261900Z 13002KT 4000 HZ FEW018CB SCT020 26/24 Q1008 NOSIG RMK CB TO E=
26/02/2015 19:30:00Z	 SAID31 WIII 261930	METAR WIII 261930Z VRB04KT 4000 VCTS FEW018CB SCT020 26/24 Q1008 TEMP O TSRA RMK CB TO N=
26/02/2015 20:00:00Z	 SAID31 WIII 262000	METAR WIII 262000Z 06002KT 4200 VCTS FEW018CB SCT020 26/24 Q1008 NOSI G RMK CB TO NE AND S=
26/02/2015 20:30:00Z	 SAID31 WIII 262030	METAR WIII 262030Z VRB03KT 4000 VCTS FEW018CB SCT020 26/24 Q1008 NOSI G RMK CB TO N AND NE=
26/02/2015 21:00:00Z	 SAID31 WIII 262100	METAR WIII 262100Z VRB03KT 4400 BR SCT020 26/24 Q1008 NOSIG=
26/02/2015 21:30:00Z	 SAID31 WIII 262130	METAR WIII 262130Z 12003KT 4200 BR FEW018CB SCT020 25/23 Q1008 NOSIG RMK CB TO N=
26/02/2015 22:00:00Z	 SAID31 WIII 262200	METAR WIII 262200Z 12003KT 4200 BR FEW018CB SCT020 25/23 Q1008 NOSIG RMK CB TO N=
26/02/2015 22:30:00Z	 SAID31 WIII 262230	METAR WIII 262230Z 10002KT 4300 BR SCT020 26/23 Q1009 NOSIG=
26/02/2015 23:00:00Z	 SAID31 WIII 262300	METAR WIII 262300Z VRB03KT 4000 HZ FEW018CB FEW020 26/23 Q1009 NOSIG RMK CB TO NE=
26/02/2015 23:30:00Z	 SAID31 WIII 262330	METAR WIII 262330Z VRB04KT 3500 HZ FEW020 26/24 Q1009 NOSIG=
27/02/2015 00:00:00Z	 SAID31 WIII 270000	METAR WIII 270000Z 13004KT 3500 HZ FEW020 26/24 Q1009 NOSIG=
27/02/2015 00:30:00Z	 SAID31 WIII 270030	METAR WIII 270030Z VRB04KT 2200 HZ FEW022 27/24 Q1009 NOSIG=
27/02/2015 01:00:00Z	 SAID31 WIII 270100	METAR WIII 270100Z 11002KT 2300 HZ FEW022 28/24 Q1010 NOSIG=
27/02/2015 01:30:00Z	 SAID31 WIII 270130	METAR WIII 270130Z VRB04KT 3400 HZ FEW022 28/24 Q1010 NOSIG=
27/02/2015 02:00:00Z	 SAID31 WIII 270200	METAR WIII 270200Z VRB04KT 3800 HZ SCT020 29/24 Q1010 NOSIG=
27/02/2015 02:30:00Z	 SAID31 WIII 270230	METAR WIII 270230Z 05003KT 3600 HZ SCT020 29/24 Q1010 NOSIG=
27/02/2015 03:00:00Z	 SAID31 WIII 270300	METAR WIII 270300Z 05005KT 3500 HZ SCT020 29/24 Q1010 NOSIG=
27/02/2015 03:30:00Z	 SAID31 WIII 270330	METAR WIII 270330Z 04005KT 3500 HZ SCT020 30/25 Q1010 NOSIG=
27/02/2015 04:00:00Z	 SAID31 WIII 270400	METAR WIII 270400Z 04008KT 5000 HZ SCT020 30/25 Q1009 NOSIG=
27/02/2015 04:30:00Z	 SAID31 WIII 270430	METAR WIII 270430Z 04010KT 360V070 6000 SCT020 30/24 Q1009 NOSIG=
27/02/2015 05:00:00Z	 SAID31 WIII 270500	METAR WIII 270500Z 02008KT 330V060 6000 SCT020 32/24 Q1008 NOSIG=
27/02/2015 05:30:00Z	 SAID31 WIII 270530	METAR WIII 270530Z 35007KT 310V020 7000 SCT020 32/25 Q1008 NOSIG=
27/02/2015 06:00:00Z	 SAID31 WIII 270600	METAR WIII 270600Z 01010KT 300V050 7000 FEW019CB SCT020 32/25 Q1007 N OSIG RMK CB TO W=
27/02/2015 06:30:00Z	 SAID31 WIII 270630	METAR WIII 270630Z 01008KT 310V030 8000 SCT020 31/25 Q1006 NOSIG=
27/02/2015 07:00:00Z	 SAID31 WIII 270700	METAR WIII 270700Z 35016KT 310V020 8000 FEW019CB SCT020 31/25 Q1006 N OSIG RMK CB TO S =
27/02/2015 07:30:00Z	 SAID31 WIII 270730	METAR WIII 270730Z 36008KT 310V030 8000 FEW019CB SCT020 31/25 Q1005 N OSIG RMK CB TO SW=
27/02/2015 08:00:00Z	 SAID31 WIII 270800	METAR WIII 270800Z 34008KT 310V010 8000 FEW018CB SCT020 30/25 Q1005 N OSIG RMK CB TO SW AND SE=
27/02/2015 08:30:00Z	 SAID31 WIII 270830	METAR WIII 270830Z 36009KT 320V030 7000 FEW018CB SCT020 31/25 Q1005 T EMPO FM1000 20010G25KT 4000 TSRA RMK CB TO S AND SW=
27/02/2015 09:00:00Z	 SAID31 WIII 270900	METAR WIII 270900Z 32007KT 280V340 7000 VCTS FEW018CB SCT020 30/24 Q1 006 NOSIG RMK CB TO S AND SW=
27/02/2015 09:30:00Z	 SAID31 WIII 270930	METAR WIII 270930Z VRB05KT 6000 VCTS FEW018CB BKN019 29/24 Q1006 NOSI G RMK CB TO S=
27/02/2015 10:00:00Z	 SAID31 WIII 271000	METAR WIII 271000Z 16005KT 3000 -RA FEW018CB BKN019 26/24 Q1006 NOSIG RMK CB TO SE AND W=
27/02/2015 10:30:00Z	 SAID31 WIII 271030	METAR WIII 271030Z 21007KT 5000 -RA FEW018CB BKN019 25/22 Q1007 NOSIG RMK CB TO SE AND W=
27/02/2015 11:00:00Z	 SAID31 WIII 271100	METAR WIII 271100Z 20006KT 130V230 5000 -TSRA SCT018CB BKN019 26/21 Q 1008 NOSIG RMK CB TO NE AND SE=
27/02/2015 11:30:00Z	 SAID31 WIII 271130	METAR WIII 271130Z VRB04KT 6000 -SHRA FEW018CB SCT019 26/21 Q1008 RET S NOSIG RMK CB TO E=
27/02/2015 12:00:00Z	 SAID31 WIII 271200	METAR WIII 271200Z 13004KT 5000 HZ FEW019CB FEW020 26/23 Q1009 NOSIG RMK CB TO E =
27/02/2015 12:30:00Z	 SAID31 WIII 271230	METAR WIII 271230Z 17004KT 5000 HZ FEW019CB FEW020 26/22 Q1009 NOSIG RMK CB TO E=
27/02/2015 13:00:00Z	 SAID31 WIII 271300	METAR WIII 271300Z 22003KT 5000 HZ SCT020 26/22 Q1009 NOSIG=
27/02/2015 13:30:00Z	 SAID31 WIII 271330	METAR WIII 271330Z VRB03KT 5000 HZ SCT020 26/23 Q1009 NOSIG=
27/02/2015 14:00:00Z	 SAID31 WIII 271400	METAR WIII 271400Z VRB02KT 5000 BR SCT020 25/23 Q1010 NOSIG=
27/02/2015 14:30:00Z	 SAID31 WIII 271430	METAR WIII 271430Z VRB02KT 5000 BR SCT020 26/22 Q1010 NOSIG=
27/02/2015 15:00:00Z	 SAID31 WIII 271500	METAR WIII 271500Z 15003KT 4000 BR SCT020 27/23 Q1010 NOSIG=
27/02/2015 15:30:00Z	 SAID31 WIII 271530	METAR WIII 271530Z VRB04KT 4000 BR SCT020 26/23 Q1010 NOSIG=
27/02/2015 16:00:00Z	 SAID31 WIII 271600	METAR WIII 271600Z VRB05KT 4000 BR SCT020 26/23 Q1010 NOSIG=
27/02/2015 16:30:00Z	 SAID31 WIII 271630	METAR WIII 271630Z 16003KT 3000 BR SCT022 26/23 Q1009 NOSIG=
27/02/2015 17:00:00Z	 SAID31 WIII 271700	METAR WIII 271700Z 16003KT 3000 BR FEW020 25/23 Q1009 NOSIG=
27/02/2015 17:30:00Z	 SAID31 WIII 271730	METAR WIII 271730Z VRB02KT 3000 BR FEW018 25/23 Q1009 NOSIG=
27/02/2015 18:00:00Z	 SAID31 WIII 271800	METAR WIII 271800Z 19002KT 3000 BR FEW020 25/23 Q1009 NOSIG=
27/02/2015 18:30:00Z	 SAID31 WIII 271830	METAR WIII 271830Z VRB03KT 3000 BR FEW020 26/23 Q1009 NOSIG=
27/02/2015 19:00:00Z	 SAID31 WIII 271900	METAR WIII 271900Z VRB03KT 3000 BR FEW020 25/23 Q1009 NOSIG=
27/02/2015 19:30:00Z	 SAID31 WIII 271930	METAR WIII 271930Z VRB02KT 3000 BR FEW020 25/23 Q1009 NOSIG=
27/02/2015 20:30:00Z	 SAID31 WIII 272030	METAR WIII 272030Z 21003KT 3000 VCTS BR FEW016CB SCT020 25/23 Q1009 N OSIG RMK CB TO NE=
27/02/2015 22:00:00Z	 SAID31 WIII 272200	METAR WIII 272200Z 30002KT 3000 BR SCT0020 25/23 Q1009 NOSIG=
27/02/2015 22:30:00Z	 SAID31 WIII 272230	METAR WIII 272230Z AUTO 03005KT 1700 R25R/1800VP2000 R25L/1700VP2000 BR 25/23 Q1009=
27/02/2015 23:30:00Z	 SAID31 WIII 272330	METAR WIII 272330Z VRB02KT 3000 VCTS BR FEW018CB SCT022 25/24 Q1010 N OSIG RMK CB TO NW=
28/02/2015 00:00:00Z	 SAID31 WIII 280000	METAR WIII 280000Z VRB02KT 4000 BR SCT020 26/24 Q1010 NOSIG=
28/02/2015 00:30:00Z	 SAID31 WIII 280030	METAR WIII 280030Z VRB01KT 4000 BR SCT020 27/24 Q1011 NOSIG=
28/02/2015 01:00:00Z	 SAID31 WIII 280100	METAR WIII 280100Z VRB03KT 4000 BR FEW020CB BKN020 27/24 Q1011 NOSIG RMK CB TO N=
28/02/2015 01:30:00Z	 SAID31 WIII 280130	METAR WIII 280130Z VRB02KT 5000 HZ BKN020 28/24 Q1011 NOSIG=
28/02/2015 02:00:00Z	 SAID31 WIII 280200	METAR WIII 280200Z VRB03KT 8000 SCT020 28/24 Q1011 NOSIG=
28/02/2015 02:30:00Z	 SAID31 WIII 280230	METAR WIII 280230Z VRB03KT 9999 FEW020CB BKN020 29/24 Q1011 NOSIG RMK CB TO N AND S=
28/02/2015 03:00:00Z	 SAID31 WIII 280300	METAR WIII 280300Z 03006KT 5000 RA FEW018CB OVC020 26/23 Q1011 NOSIG RMK CB TO N=
28/02/2015 03:30:00Z	 SAID31 WIII 280330	METAR WIII 280330Z VRB03KT 6000 -RA BKN020 27/24 Q1011 NOSIG=
28/02/2015 04:00:00Z	 SAID31 WIII 280400	METAR WIII 280400Z VRB05KT 8000 SCT020 30/25 Q1011 RERA NOSIG =
28/02/2015 04:30:00Z	 SAID31 WIII 280430	METAR WIII 280430Z 32008KT 9999 SCT020 30/24 Q1010 NOSIG=
28/02/2015 05:00:00Z	 SAID31 WIII 280500	METAR WIII 280500Z 34007KT 300V020 9999 SCT020 30/24 Q1010 NOSIG=
28/02/2015 05:30:00Z	 SAID31 WIII 280530	METAR WIII 280530Z 32008KT 9999 FEW020CB SCT020 31/24 Q1009 NOSIG RMK CB TO NE=
28/02/2015 06:00:00Z	 SAID31 WIII 280600	METAR WIII 280600Z 35007KT 320V040 9999 FEW020CB SCT020 30/24 Q1009 N OSIG RMK CB TO NE AND S=
28/02/2015 06:30:00Z	 SAID31 WIII 280630	METAR WIII 280630Z 33009KT 9999 FEW020CB SCT020 31/24 Q1008 NOSIG RMK CB TO NE=
28/02/2015 07:00:00Z	 SAID31 WIII 280700	METAR WIII 280700Z 34010KT 300V020 9999 FEW020CB SCT020 30/24 Q1007 N OSIG RMK CB TO NE AND SE=
28/02/2015 07:30:00Z	 SAID31 WIII 280730	METAR WIII 280730Z 33010G15KT 9999 FEW020 BKN020 29/24 Q1007 NOSIG RM K CB TO SE AND SW=
28/02/2015 08:00:00Z	 SAID31 WIII 280800	METAR WIII 280800Z 34009KT 280V030 9999 FEW020CB BKN020 29/24 Q1007 N OSIG RMK CB TO SE AND S=
28/02/2015 08:30:00Z	 SAID31 WIII 280830	METAR WIII 280830Z 34007KT 310V030 9999 FEW020CB SCT020 28/23 Q1007 N OSIG RMK CB TO SE AND S=
28/02/2015 09:00:00Z	 SAID31 WIII 280900	METAR WIII 280900Z 35006KT 310V030 9999 FEW020CB SCT020 29/23 Q1007 N OSIG RMK CB TO S AND SW=
28/02/2015 09:30:00Z	 SAID31 WIII 280930	METAR WIII 280930Z 36007KT 9999 FEW020CB SCT020 29/23 Q1007 NOSIG RMK CB TO E AND S=
28/02/2015 10:00:00Z	 SAID31 WIII 281000	METAR WIII 281000Z VRB04KT 9999 SCT018CB SCT020 28/22 Q1008 REVCTS RM K CB TO SE S AND SW=
28/02/2015 10:30:00Z	 SAID31 WIII 281030	METAR WIII 281030Z VRB04KT 9999 FEW020CB SCT020 28/22 Q1008 NOSIG RMK CB TO S AND SW=
28/02/2015 11:00:00Z	 SAID31 WIII 281100	METAR WIII 281100Z 03004KT 9999 SCT020CB SCT020 28/23 Q1009 NOSIG RMK CB TO SE S AND SW=
28/02/2015 11:30:00Z	 SAID31 WIII 281130	METAR WIII 281130Z VRB01KT 5000 HZ FEW020CB SCT020 27/23 Q1009 NOSIG RMK CB TO SE=
28/02/2015 12:00:00Z	 SAID31 WIII 281200	METAR WIII 281200Z VRB01KT 5000 HZ FEW020CB SCT020 27/23 Q1009 NOSIG RMK CB TO SE=
28/02/2015 12:30:00Z	 SAID31 WIII 281230	METAR WIII 281230Z VRB02KT 5000 BR SCT020 27/24 Q1009 NOSIG=
28/02/2015 13:00:00Z	 SAID31 WIII 281300	METAR WIII 281300Z VRB03KT 6000 SCT020 27/23 Q1010 NOSIG=
28/02/2015 13:30:00Z	 SAID31 WIII 281330	METAR WIII 281330Z VRB02KT 5000 HZ SCT020 27/22 Q1010 NOSIG=
28/02/2015 14:00:00Z	 SAID31 WIII 281400	METAR WIII 281400Z 15004KT 4000 HZ SCT021 28/22 Q1010 NOSIG=
28/02/2015 14:30:00Z	 SAID31 WIII 281430	METAR WIII 281430Z 16006KT 110V220 3800 HZ SCT021 26/22 Q1011 NOSIG=
28/02/2015 15:00:00Z	 SAID31 WIII 281500	METAR WIII 281500Z 18005KT 4500 HZ SCT021 26/22 Q1011 NOSIG=
28/02/2015 15:30:00Z	 SAID31 WIII 281530	METAR WIII 281530Z 19005KT 4400 HZ SCT021 26/22 Q1011 NOSIG=
28/02/2015 16:00:00Z	 SAID31 WIII 281600	METAR WIII 281600Z VRB02KT 3900 HZ FEW021 SCT100 26/22 Q1011 NOSIG=
28/02/2015 16:30:00Z	 SAID31 WIII 281630	METAR WIII 281630Z VRB02KT 5000 HZ FEW020 SCT100 26/22 Q1011 NOSIG=
28/02/2015 17:00:00Z	 SAID31 WIII 281700	METAR WIII 281700Z VRB03KT 5000 HZ FEW020CB FEW021 SCT090 26/22 Q1010 NOSIG RMK CB TO E=
28/02/2015 17:30:00Z	 SAID31 WIII 281730	METAR WIII 281730Z VRB02KT 5000 HZ FEW020CB SCT021 25/22 Q1010 NOSIG RMK CB TO W=
28/02/2015 18:00:00Z	 SAID31 WIII 281800	METAR WIII 281800Z VRB02KT 4500 HZ FEW020CB SCT021 25/23 Q1010 NOSIG RMK CB TO E AND W=
28/02/2015 18:30:00Z	 SAID31 WIII 281830	METAR WIII 281830Z 21004KT 3900 HZ FEW020CB SCT022 25/22 Q1009 NOSIG RMK CB TO NW=
28/02/2015 19:00:00Z	 SAID31 WIII 281900	METAR WIII 281900Z VRB02KT 4200 HZ SCT021 25/22 Q1009 NOSIG=
28/02/2015 20:00:00Z	 SAID31 WIII 282000	METAR WIII 282000Z 21003KT 3700 BR FEW020CB SCT021 25/22 Q1009 NOSIG RMK CB TO NW=
28/02/2015 20:30:00Z	 SAID31 WIII 282030	METAR WIII 282030Z 13003KT 3800 BR SCT022 25/23 Q1009 NOSIG=
28/02/2015 21:00:00Z	 SAID31 WIII 282100	METAR WIII 282100Z 18005KT 3500 BR FEW020CB SCT022 25/22 Q1009 NOSIG RMK CB TO NW=
28/02/2015 21:30:00Z	 SAID31 WIII 282130	METAR WIII 282130Z 16005KT 3600 BR FEW020CB SCT022 25/22 Q1009 NOSIG RMK CB TO N=
28/02/2015 22:00:00Z	 SAID31 WIII 282200	METAR WIII 282200Z 14002KT 3700 BR FEW020CB SCT022 24/22 Q1009 NOSIG RMK CB TO N=
28/02/2015 22:30:00Z	 SAID31 WIII 282230	METAR WIII 282230Z VRB02KT 3700 BR FEW020CB SCT022 25/22 Q1009 NOSIG RMK CB TO W AND N=
28/02/2015 23:00:00Z	 SAID31 WIII 282300	METAR WIII 282300Z VRB03KT 4000 BR FEW019CB BKN020 25/22 Q1010 NOSIG RMK CB TO W AND N=
28/02/2015 23:30:00Z	 SAID31 WIII 282330	METAR WIII 282330Z VRB02KT 3600 BR FEW019CB BKN020 25/22 Q1010 NOSIG RMK CB TO W AND N=
